{"type": "FeatureCollection", "features": [{"type": "Feature", "properties": {"highway": "track", "footway": null, "name": null, "surface": "compacted", "lit": null, "length_m": 445.06, "type_element": "Way", "__fid": 1676}, "geometry": {"type": "LineString", "coordinates": [[2.2270213, 48.8593433], [2.2269102, 48.85915519999999], [2.2266901, 48.8586107], [2.2262884, 48.857872700000016], [2.2261987, 48.8576519], [2.2258553, 48.8569107], [2.2257266, 48.856586], [2.225673, 48.8564731], [2.22559, 48.8563452], [2.225404, 48.8554978]]}}, {"type": "Feature", "properties": {"highway": "track", "footway": null, "name": null, "surface": "compacted", "lit": null, "length_m": 274.58, "type_element": "Way", "__fid": 1677}, "geometry": {"type": "LineString", "coordinates": [[2.225404, 48.8554978], [2.2253189, 48.85486359999999], [2.2253256, 48.8546297], [2.2253175, 48.8544118], [2.225426, 48.853894699999984], [2.2254905, 48.8538006], [2.2256354, 48.853623700000014], [2.2256675, 48.8535551], [2.2257098, 48.8535056], [2.2258539, 48.8534355], [2.2259706, 48.85333390000001], [2.2261436, 48.8532436], [2.2261655, 48.85321219999999]]}}, {"type": "Feature", "properties": {"highway": "service", "footway": null, "name": null, "surface": "asphalt", "lit": null, "length_m": 73.49, "type_element": "Way", "__fid": 1678}, "geometry": {"type": "LineString", "coordinates": [[2.225404, 48.8554978], [2.2254939, 48.85548270000001], [2.2255723, 48.8554902], [2.225976, 48.8554734], [2.2260162, 48.8555052], [2.2260551, 48.8555546], [2.2261436, 48.855597], [2.2262122, 48.8556169], [2.2263052, 48.8556244]]}}, {"type": "Feature", "properties": {"highway": "track", "footway": null, "name": "Chemin des Pépinières", "surface": "compacted", "lit": "no", "length_m": 5.66, "type_element": "Way", "__fid": 1685}, "geometry": {"type": "LineString", "coordinates": [[2.2263603, 48.855423], [2.2262877, 48.8554058]]}}, {"type": "Feature", "properties": {"highway": "service", "footway": null, "name": "Route de la Seine à la Butte Mortemart", "surface": "asphalt", "lit": null, "length_m": 20.56, "type_element": "Way", "__fid": 1686}, "geometry": {"type": "LineString", "coordinates": [[2.2266394, 48.8533779], [2.2263593, 48.853375]]}}, {"type": "Feature", "properties": {"highway": "track", "footway": null, "name": null, "surface": null, "lit": null, "length_m": 15.51, "type_element": "Way", "__fid": 1687}, "geometry": {"type": "LineString", "coordinates": [[2.2265373, 48.8535443], [2.2263643, 48.8534642]]}}, {"type": "Feature", "properties": {"highway": "track", "footway": null, "name": "Chemin des Pépinières", "surface": "compacted", "lit": "no", "length_m": 218.21, "type_element": "Way", "__fid": 1688}, "geometry": {"type": "LineString", "coordinates": [[2.2282176, 48.8569552], [2.2281405, 48.856900300000014], [2.2277476, 48.8565613], [2.226635, 48.8556574], [2.2263603, 48.855423]]}}, {"type": "Feature", "properties": {"highway": "path", "footway": null, "name": null, "surface": "compacted", "lit": "yes", "length_m": 209.38, "type_element": "Way", "__fid": 1689}, "geometry": {"type": "LineString", "coordinates": [[2.2265373, 48.8535443], [2.2265448, 48.8535896], [2.2263603, 48.855423]]}}, {"type": "Feature", "properties": {"highway": "footway", "footway": "sidewalk", "name": null, "surface": "compacted", "lit": null, "length_m": 22.86, "type_element": "Way", "__fid": 1690}, "geometry": {"type": "LineString", "coordinates": [[2.2266394, 48.8533779], [2.2266407, 48.8533399], [2.22654, 48.853295], [2.2265108, 48.8532654], [2.2265024, 48.8532299], [2.2264789, 48.8532255]]}}, {"type": "Feature", "properties": {"highway": "service", "footway": null, "name": null, "surface": null, "lit": null, "length_m": 195.45, "type_element": "Way", "__fid": 1692}, "geometry": {"type": "LineString", "coordinates": [[2.2273734, 48.8560258], [2.2271374, 48.855848], [2.2265916, 48.8553874], [2.2265379, 48.8553225], [2.2265131, 48.8552586], [2.2264977, 48.85504190000002], [2.2264903, 48.8546184], [2.2264977, 48.8544622]]}}, {"type": "Feature", "properties": {"highway": "service", "footway": null, "name": null, "surface": null, "lit": null, "length_m": 46.12, "type_element": "Way", "__fid": 1693}, "geometry": {"type": "LineString", "coordinates": [[2.2264977, 48.8544622], [2.2265379, 48.85404830000002]]}}, {"type": "Feature", "properties": {"highway": "service", "footway": null, "name": null, "surface": null, "lit": null, "length_m": 59.9, "type_element": "Way", "__fid": 1694}, "geometry": {"type": "LineString", "coordinates": [[2.2264977, 48.8544622], [2.2273136, 48.854445]]}}, {"type": "Feature", "properties": {"highway": "track", "footway": null, "name": null, "surface": null, "lit": null, "length_m": 69.39, "type_element": "Way", "__fid": 1695}, "geometry": {"type": "LineString", "coordinates": [[2.2274324, 48.8537165], [2.2271401, 48.85366890000001], [2.2267967, 48.8536415], [2.2267053, 48.8536016], [2.2265373, 48.8535443]]}}, {"type": "Feature", "properties": {"highway": "path", "footway": null, "name": null, "surface": "compacted", "lit": "yes", "length_m": 21.08, "type_element": "Way", "__fid": 1696}, "geometry": {"type": "LineString", "coordinates": [[2.2265373, 48.8535443], [2.2265546, 48.8534918], [2.2266369, 48.8534354], [2.2266394, 48.8533779]]}}, {"type": "Feature", "properties": {"highway": "service", "footway": null, "name": "Route de la Seine à la Butte Mortemart", "surface": "asphalt", "lit": null, "length_m": 85.88, "type_element": "Way", "__fid": 1697}, "geometry": {"type": "LineString", "coordinates": [[2.2278061, 48.8533384], [2.2275583, 48.8533644], [2.2270287, 48.853381], [2.2266394, 48.8533779]]}}, {"type": "Feature", "properties": {"highway": "service", "footway": null, "name": null, "surface": null, "lit": null, "length_m": 93.95, "type_element": "Way", "__fid": 1700}, "geometry": {"type": "LineString", "coordinates": [[2.2271588, 48.8572673], [2.2284128, 48.8570965]]}}, {"type": "Feature", "properties": {"highway": "service", "footway": null, "name": null, "surface": null, "lit": null, "length_m": 175.83, "type_element": "Way", "__fid": 1702}, "geometry": {"type": "LineString", "coordinates": [[2.2273136, 48.854445], [2.2273734, 48.8560258]]}}, {"type": "Feature", "properties": {"highway": "service", "footway": null, "name": null, "surface": null, "lit": null, "length_m": 55.2, "type_element": "Way", "__fid": 1703}, "geometry": {"type": "LineString", "coordinates": [[2.2273238, 48.85394860000002], [2.2273136, 48.854445]]}}, {"type": "Feature", "properties": {"highway": "service", "footway": null, "name": null, "surface": null, "lit": null, "length_m": 129.66, "type_element": "Way", "__fid": 1704}, "geometry": {"type": "LineString", "coordinates": [[2.2273734, 48.8560258], [2.2274727, 48.8561237], [2.227702, 48.856279], [2.2280359, 48.8563929], [2.2280909, 48.85645380000001], [2.2281942, 48.8566664], [2.2282176, 48.8569552]]}}, {"type": "Feature", "properties": {"highway": "track", "footway": null, "name": null, "surface": "dirt", "lit": null, "length_m": 59.29, "type_element": "Way", "__fid": 1705}, "geometry": {"type": "LineString", "coordinates": [[2.2274649, 48.8528551], [2.2278061, 48.8533384]]}}, {"type": "Feature", "properties": {"highway": "service", "footway": null, "name": "Route de la Seine à la Butte Mortemart", "surface": "asphalt", "lit": null, "length_m": 156.86, "type_element": "Way", "__fid": 1709}, "geometry": {"type": "LineString", "coordinates": [[2.2298066, 48.8528516], [2.228433, 48.85323069999998], [2.2281249, 48.8532962], [2.2278061, 48.8533384]]}}]}