{"type": "FeatureCollection", "features": [{"type": "Feature", "properties": {"highway": "track", "footway": null, "name": null, "surface": "compacted", "lit": null, "length_m": 274.58, "type_element": "Way", "__fid": 1677}, "geometry": {"type": "LineString", "coordinates": [[2.225404, 48.8554978], [2.2253189, 48.85486359999999], [2.2253256, 48.8546297], [2.2253175, 48.8544118], [2.225426, 48.853894699999984], [2.2254905, 48.8538006], [2.2256354, 48.853623700000014], [2.2256675, 48.8535551], [2.2257098, 48.8535056], [2.2258539, 48.8534355], [2.2259706, 48.85333390000001], [2.2261436, 48.8532436], [2.2261655, 48.85321219999999]]}}, {"type": "Feature", "properties": {"highway": "footway", "footway": null, "name": null, "surface": "asphalt", "lit": "no", "length_m": 35.15, "type_element": "Way", "__fid": 1679}, "geometry": {"type": "LineString", "coordinates": [[2.2259324, 48.8532296], [2.2257904, 48.853211], [2.2257024, 48.8531553], [2.2256838, 48.853134], [2.2256622, 48.853019400000015]]}}, {"type": "Feature", "properties": {"highway": "steps", "footway": null, "name": null, "surface": "asphalt", "lit": "no", "length_m": 17.69, "type_element": "Way", "__fid": 1680}, "geometry": {"type": "LineString", "coordinates": [[2.2261655, 48.85321219999999], [2.2261199, 48.8532011], [2.2259324, 48.8532296]]}}, {"type": "Feature", "properties": {"highway": "path", "footway": null, "name": null, "surface": "compacted", "lit": null, "length_m": 22.55, "type_element": "Way", "__fid": 1681}, "geometry": {"type": "LineString", "coordinates": [[2.2259599, 48.85302350000001], [2.2261216, 48.8531218], [2.2261691, 48.8531703]]}}, {"type": "Feature", "properties": {"highway": "footway", "footway": null, "name": null, "surface": "asphalt", "lit": "yes", "length_m": 23.62, "type_element": "Way", "__fid": 1682}, "geometry": {"type": "LineString", "coordinates": [[2.2264789, 48.8532255], [2.2261899, 48.8532268], [2.2261655, 48.85321219999999]]}}, {"type": "Feature", "properties": {"highway": "path", "footway": null, "name": null, "surface": "compacted", "lit": null, "length_m": 4.67, "type_element": "Way", "__fid": 1683}, "geometry": {"type": "LineString", "coordinates": [[2.2261691, 48.8531703], [2.2261655, 48.85321219999999]]}}, {"type": "Feature", "properties": {"highway": "path", "footway": null, "name": null, "surface": "compacted", "lit": null, "length_m": 21.48, "type_element": "Way", "__fid": 1684}, "geometry": {"type": "LineString", "coordinates": [[2.2261798, 48.8529787], [2.2261838, 48.8531415], [2.2261691, 48.8531703]]}}, {"type": "Feature", "properties": {"highway": "footway", "footway": "sidewalk", "name": null, "surface": "compacted", "lit": null, "length_m": 22.86, "type_element": "Way", "__fid": 1690}, "geometry": {"type": "LineString", "coordinates": [[2.2266394, 48.8533779], [2.2266407, 48.8533399], [2.22654, 48.853295], [2.2265108, 48.8532654], [2.2265024, 48.8532299], [2.2264789, 48.8532255]]}}, {"type": "Feature", "properties": {"highway": "footway", "footway": "sidewalk", "name": null, "surface": "compacted", "lit": null, "length_m": 40.63, "type_element": "Way", "__fid": 1691}, "geometry": {"type": "LineString", "coordinates": [[2.2264789, 48.8532255], [2.2264762, 48.8529528], [2.2264867, 48.8529198], [2.2265638, 48.85288990000002]]}}, {"type": "Feature", "properties": {"highway": "track", "footway": null, "name": null, "surface": "dirt", "lit": null, "length_m": 24.99, "type_element": "Way", "__fid": 1701}, "geometry": {"type": "LineString", "coordinates": [[2.2273261, 48.85264990000001], [2.2274649, 48.8528551]]}}, {"type": "Feature", "properties": {"highway": "track", "footway": null, "name": null, "surface": "dirt", "lit": null, "length_m": 59.29, "type_element": "Way", "__fid": 1705}, "geometry": {"type": "LineString", "coordinates": [[2.2274649, 48.8528551], [2.2278061, 48.8533384]]}}, {"type": "Feature", "properties": {"highway": "path", "footway": null, "name": null, "surface": "dirt", "lit": null, "length_m": 427.1, "type_element": "Way", "__fid": 1706}, "geometry": {"type": "LineString", "coordinates": [[2.2274649, 48.8528551], [2.2278254, 48.8527573], [2.2280399, 48.852722], [2.2283886, 48.8526338], [2.2288312, 48.8525394], [2.2292711, 48.8524582], [2.2300623, 48.8522729], [2.2307664, 48.852137], [2.2313203, 48.852017], [2.2315121, 48.8519402], [2.23196, 48.8518705], [2.2326587, 48.8516834], [2.2329725, 48.8516437]]}}, {"type": "Feature", "properties": {"highway": "service", "footway": null, "name": "Route de la Seine à la Butte Mortemart", "surface": "asphalt", "lit": null, "length_m": 156.86, "type_element": "Way", "__fid": 1709}, "geometry": {"type": "LineString", "coordinates": [[2.2298066, 48.8528516], [2.228433, 48.85323069999998], [2.2281249, 48.8532962], [2.2278061, 48.8533384]]}}]}