{"type": "FeatureCollection", "features": [{"type": "Feature", "properties": {"highway": "track", "footway": null, "name": null, "surface": "compacted", "lit": null, "length_m": 445.06, "type_element": "Way", "__fid": 1676}, "geometry": {"type": "LineString", "coordinates": [[2.2270213, 48.8593433], [2.2269102, 48.85915519999999], [2.2266901, 48.8586107], [2.2262884, 48.857872700000016], [2.2261987, 48.8576519], [2.2258553, 48.8569107], [2.2257266, 48.856586], [2.225673, 48.8564731], [2.22559, 48.8563452], [2.225404, 48.8554978]]}}, {"type": "Feature", "properties": {"highway": "track", "footway": null, "name": null, "surface": "compacted", "lit": null, "length_m": 119.86, "type_element": "Way", "__fid": 1698}, "geometry": {"type": "LineString", "coordinates": [[2.2275119, 48.8603708], [2.2274721, 48.860292], [2.227412, 48.8601291], [2.2272271, 48.8597275], [2.2270213, 48.8593433]]}}, {"type": "Feature", "properties": {"highway": "service", "footway": null, "name": null, "surface": "asphalt", "lit": null, "length_m": 49.9, "type_element": "Way", "__fid": 1699}, "geometry": {"type": "LineString", "coordinates": [[2.2270213, 48.8593433], [2.2276681, 48.85920449999998]]}}, {"type": "Feature", "properties": {"highway": "track", "footway": null, "name": null, "surface": "compacted", "lit": null, "length_m": 65.15, "type_element": "Way", "__fid": 1707}, "geometry": {"type": "LineString", "coordinates": [[2.2278842, 48.86088860000002], [2.2277362, 48.8606047], [2.2275827, 48.8605107], [2.2275119, 48.8603708]]}}, {"type": "Feature", "properties": {"highway": "service", "footway": null, "name": null, "surface": null, "lit": null, "length_m": 52.74, "type_element": "Way", "__fid": 1708}, "geometry": {"type": "LineString", "coordinates": [[2.2275119, 48.8603708], [2.2276048, 48.8603273], [2.2281743, 48.8601928]]}}]}