{"type": "FeatureCollection", "features": [{"type": "Feature", "properties": {"@id": "node/3679615739", "amenity": "drinking_water", "check_date": "2024-10-01", "drinking_water": "no", "man_made": "water_tap", "type_element": "Fontaines à boire", "__fid": 443}, "geometry": {"type": "Point", "coordinates": [2.2297646, 48.8527558]}, "id": "node/3679615739"}, {"type": "Feature", "properties": {"highway": "path", "footway": null, "name": null, "surface": "dirt", "lit": null, "length_m": 427.1, "type_element": "Way", "__fid": 1706}, "geometry": {"type": "LineString", "coordinates": [[2.2274649, 48.8528551], [2.2278254, 48.8527573], [2.2280399, 48.852722], [2.2283886, 48.8526338], [2.2288312, 48.8525394], [2.2292711, 48.8524582], [2.2300623, 48.8522729], [2.2307664, 48.852137], [2.2313203, 48.852017], [2.2315121, 48.8519402], [2.23196, 48.8518705], [2.2326587, 48.8516834], [2.2329725, 48.8516437]]}}, {"type": "Feature", "properties": {"highway": "service", "footway": null, "name": "Route de la Seine à la Butte Mortemart", "surface": "asphalt", "lit": null, "length_m": 156.86, "type_element": "Way", "__fid": 1709}, "geometry": {"type": "LineString", "coordinates": [[2.2298066, 48.8528516], [2.228433, 48.85323069999998], [2.2281249, 48.8532962], [2.2278061, 48.8533384]]}}, {"type": "Feature", "properties": {"highway": "service", "footway": null, "name": "Route des Tribunes", "surface": "asphalt", "lit": "no", "length_m": 361.22, "type_element": "Way", "__fid": 1730}, "geometry": {"type": "LineString", "coordinates": [[2.2299414, 48.8532159], [2.2296585, 48.8535073], [2.2293877, 48.8538222], [2.2291731, 48.854123], [2.2289297, 48.8545732], [2.2286609, 48.8553357], [2.2285875, 48.855642], [2.2285344, 48.8559731], [2.2285229, 48.856277]]}}, {"type": "Feature", "properties": {"highway": "footway", "footway": "sidewalk", "name": null, "surface": "unpaved", "lit": null, "length_m": 356.39, "type_element": "Way", "__fid": 1736}, "geometry": {"type": "LineString", "coordinates": [[2.2300176, 48.8532481], [2.2293657, 48.8540059], [2.2290117, 48.8546585], [2.2288933, 48.8549499], [2.2288146, 48.8551774], [2.2287334, 48.8555172], [2.2286828, 48.8558024], [2.228627, 48.8562753]]}}, {"type": "Feature", "properties": {"highway": "path", "footway": null, "name": null, "surface": "grass", "lit": null, "length_m": 277.43, "type_element": "Way", "__fid": 1797}, "geometry": {"type": "LineString", "coordinates": [[2.2329725, 48.8516437], [2.2328551, 48.8516867], [2.2325684, 48.8517693], [2.232088, 48.8518864], [2.2319, 48.851953], [2.2318283, 48.8519885], [2.2317151, 48.8520037], [2.2314447, 48.8520853], [2.2306312, 48.852386], [2.2301865, 48.8525612], [2.2299223, 48.8526733], [2.2297842, 48.8527409], [2.2298066, 48.8528516]]}}, {"type": "Feature", "properties": {"highway": "service", "footway": null, "name": "Route de la Seine à la Butte Mortemart", "surface": "asphalt", "lit": null, "length_m": 34.83, "type_element": "Way", "__fid": 1798}, "geometry": {"type": "LineString", "coordinates": [[2.2302553, 48.8528529], [2.2300744, 48.8528022], [2.2298066, 48.8528516]]}}, {"type": "Feature", "properties": {"highway": "footway", "footway": "crossing", "name": null, "surface": null, "lit": null, "length_m": 6.64, "type_element": "Way", "__fid": 1803}, "geometry": {"type": "LineString", "coordinates": [[2.2300176, 48.8532481], [2.2299414, 48.8532159]]}}, {"type": "Feature", "properties": {"highway": "service", "footway": null, "name": "Route des Tribunes", "surface": "asphalt", "lit": "no", "length_m": 46.47, "type_element": "Way", "__fid": 1804}, "geometry": {"type": "LineString", "coordinates": [[2.2302553, 48.8528529], [2.2299414, 48.8532159]]}}, {"type": "Feature", "properties": {"highway": "footway", "footway": "sidewalk", "name": null, "surface": "unpaved", "lit": null, "length_m": 593.69, "type_element": "Way", "__fid": 1809}, "geometry": {"type": "LineString", "coordinates": [[2.2367177, 48.8520737], [2.2366045, 48.8517997], [2.2365302, 48.8516763], [2.2364588, 48.8516109], [2.2363454, 48.85156449999999], [2.2362037, 48.8515201], [2.2359895, 48.8514764], [2.2357785, 48.8514572], [2.2356668, 48.8514582], [2.2352063, 48.8514876], [2.2347194, 48.851537499999985], [2.2337502, 48.85168009999999], [2.2328354, 48.8518778], [2.2323524, 48.8520031], [2.2317318, 48.85219309999998], [2.2314027, 48.8523116], [2.2310696, 48.8524488], [2.2307501, 48.8526185], [2.2305039, 48.8527932], [2.2302199, 48.85303750000001], [2.2300176, 48.8532481]]}}, {"type": "Feature", "properties": {"highway": "service", "footway": null, "name": "Route de la Seine à la Butte Mortemart", "surface": "asphalt", "lit": "no", "length_m": 525.82, "type_element": "Way", "__fid": 1813}, "geometry": {"type": "LineString", "coordinates": [[2.2368651, 48.8514135], [2.236694, 48.8513909], [2.2364588, 48.85138040000001], [2.2361981, 48.8513972], [2.2355486, 48.8514082], [2.2349783, 48.851451], [2.2343345, 48.8515302], [2.2335948, 48.851651], [2.2328838, 48.8518036], [2.2321804, 48.8519854], [2.2314721, 48.8522103], [2.2310622, 48.8523846], [2.2306536, 48.8525959], [2.2302553, 48.8528529]]}}, {"type": "Feature", "properties": {"highway": "service", "footway": null, "name": null, "surface": null, "lit": null, "length_m": 160.46, "type_element": "Way", "__fid": 1835}, "geometry": {"type": "LineString", "coordinates": [[2.2310032, 48.853598200000015], [2.2312613, 48.85344], [2.2313402, 48.8533787], [2.2314546, 48.8532113], [2.2316042, 48.8530205], [2.2317904, 48.8528592], [2.231854, 48.8528119], [2.2321003, 48.8526654], [2.2322973, 48.852566], [2.2324065, 48.8525243]]}}, {"type": "Feature", "properties": {"highway": "service", "footway": null, "name": null, "surface": null, "lit": null, "length_m": 1593.23, "type_element": "Way", "__fid": 1863}, "geometry": {"type": "LineString", "coordinates": [[2.2324065, 48.8525243], [2.2326997, 48.852412500000014], [2.2327347, 48.8523911], [2.2328022, 48.8523034], [2.2327931, 48.8522343], [2.2327272, 48.8520967], [2.2327339, 48.85203910000001], [2.2327681, 48.8519738], [2.2328264, 48.8519344], [2.2329581, 48.8518987], [2.2330822, 48.851885], [2.2331639, 48.851885], [2.2332772, 48.8519217], [2.2333947, 48.8520413], [2.2334555, 48.8520895], [2.2335222, 48.85211970000002], [2.2336463, 48.85214050000001], [2.2337897, 48.8521252], [2.2342638, 48.8520254], [2.2357729, 48.85165640000001], [2.235992, 48.8516109], [2.2360887, 48.85160040000002], [2.2362328, 48.8515961], [2.2363053, 48.8516087], [2.2364116, 48.851662400000016], [2.2364794, 48.851731], [2.2365364, 48.8518093], [2.236532, 48.8518527], [2.2364166, 48.8519448], [2.2363726, 48.85200179999999], [2.2363652, 48.8520676], [2.2364085, 48.8522841], [2.2364386, 48.8528977], [2.2365107, 48.8530771], [2.2367166, 48.85331949999998], [2.2368008, 48.8534389], [2.2369302, 48.8537087], [2.2370023, 48.853890800000016], [2.2370653, 48.8541238], [2.237113, 48.854365], [2.237183, 48.8549673], [2.2371883, 48.8551482], [2.2371576, 48.8555929], [2.2371572, 48.855853], [2.2371749, 48.8559781], [2.2372187, 48.8561551], [2.2372888, 48.8563692], [2.2373115, 48.85654], [2.2372972, 48.85670120000002], [2.2372424, 48.85689979999999], [2.2371658, 48.8571162], [2.2370612, 48.8574921], [2.2369839, 48.857785], [2.2369129, 48.858137], [2.2367491, 48.8586689], [2.236709, 48.85884260000001], [2.2366866, 48.8590279], [2.2366347, 48.8598853], [2.2366795, 48.8600861], [2.2367726, 48.860333500000024], [2.2371191, 48.8611677], [2.2372723, 48.86149710000002], [2.2373229, 48.8616693], [2.237363, 48.8618693], [2.2373512, 48.8619848], [2.2372163, 48.8623926]]}}, {"type": "Feature", "properties": {"highway": "path", "footway": null, "name": null, "surface": "dirt", "lit": null, "length_m": 294.15, "type_element": "Way", "__fid": 1882}, "geometry": {"type": "LineString", "coordinates": [[2.2329725, 48.8516437], [2.2332609, 48.85160750000002], [2.2334191, 48.851580100000014], [2.2337678, 48.851499], [2.2338603, 48.8514893], [2.2341353, 48.8514381], [2.2345671, 48.8513728], [2.2346422, 48.8513463], [2.2347602, 48.8513242], [2.234948, 48.8513039], [2.2352189, 48.8512819], [2.2355971, 48.85126419999999], [2.2357929, 48.8512704], [2.2359404, 48.8512598], [2.2362663, 48.851253599999986], [2.2365721, 48.851258], [2.2367907, 48.8512766], [2.2368463, 48.851294199999984], [2.236873, 48.8513226]]}}, {"type": "Feature", "properties": {"highway": "footway", "footway": "sidewalk", "name": null, "surface": "unpaved", "lit": null, "length_m": 771.59, "type_element": "Way", "__fid": 2013}, "geometry": {"type": "LineString", "coordinates": [[2.2367177, 48.8520737], [2.2366874, 48.8522787], [2.2366874, 48.85241240000001], [2.2367351, 48.8526922], [2.2367788, 48.8528624], [2.2370387, 48.8534808], [2.2372322, 48.8540097], [2.2372948, 48.8542168], [2.237352, 48.8544699], [2.2374186, 48.8551087], [2.2374351, 48.8558547], [2.2374283, 48.8563408], [2.2373185, 48.8569506], [2.2369938, 48.8582708], [2.2368937, 48.85876620000001], [2.2368809, 48.858864], [2.2369871, 48.858869]]}}, {"type": "Feature", "properties": {"highway": "footway", "footway": "crossing", "name": null, "surface": null, "lit": null, "length_m": 60.54, "type_element": "Way", "__fid": 2014}, "geometry": {"type": "LineString", "coordinates": [[2.2369252, 48.8515511], [2.2369207, 48.8515971], [2.236853, 48.851761500000016], [2.2367811, 48.8518669], [2.23674, 48.8520447], [2.2367177, 48.8520737]]}}, {"type": "Feature", "properties": {"highway": "service", "footway": null, "name": "Route de Sèvres à Neuilly", "surface": "asphalt", "lit": "yes", "length_m": 151.04, "type_element": "Way", "__fid": 2023}, "geometry": {"type": "LineString", "coordinates": [[2.2368963, 48.8529111], [2.2368244, 48.8526653], [2.2367866, 48.8524821], [2.2367982, 48.8521667], [2.2368662, 48.8519249], [2.2370411, 48.8515821]]}}]}