{"type": "FeatureCollection", "features": [{"type": "Feature", "properties": {"highway": "path", "footway": null, "name": "Pont de Suresnes", "surface": "asphalt", "lit": "yes", "length_m": 218.78, "type_element": "Way", "__fid": 1711}, "geometry": {"type": "LineString", "coordinates": [[2.2278418, 48.867433300000016], [2.230606725847196, 48.86669580126631]]}}, {"type": "Feature", "properties": {"highway": "footway", "footway": null, "name": null, "surface": "asphalt", "lit": "yes", "length_m": 180.29, "type_element": "Way", "__fid": 1718}, "geometry": {"type": "LineString", "coordinates": [[2.230446252362198, 48.86649629959979], [2.2284839, 48.8670129], [2.22816, 48.867091]]}}, {"type": "Feature", "properties": {"highway": "track", "footway": null, "name": null, "surface": "compacted", "lit": null, "length_m": 193.27, "type_element": "Way", "__fid": 1757}, "geometry": {"type": "LineString", "coordinates": [[2.2297076, 48.8654316], [2.2296511, 48.8653658], [2.2294281, 48.8650146], [2.2292564, 48.8646397], [2.2290091, 48.864184299999984], [2.2289385, 48.86399840000003], [2.228911, 48.8638409], [2.2289304, 48.863786199999986]]}}, {"type": "Feature", "properties": {"highway": "track", "footway": null, "name": null, "surface": "compacted", "lit": null, "length_m": 15.67, "type_element": "Way", "__fid": 1801}, "geometry": {"type": "LineString", "coordinates": [[2.2298357, 48.8655444], [2.2297076, 48.8654316]]}}, {"type": "Feature", "properties": {"highway": "service", "footway": null, "name": null, "surface": "asphalt", "lit": null, "length_m": 77.32, "type_element": "Way", "__fid": 1802}, "geometry": {"type": "LineString", "coordinates": [[2.2297076, 48.8654316], [2.2301951, 48.8652647], [2.230651, 48.8651218]]}}, {"type": "Feature", "properties": {"highway": "footway", "footway": null, "name": null, "surface": "dirt", "lit": null, "length_m": 107.85, "type_element": "Way", "__fid": 1807}, "geometry": {"type": "LineString", "coordinates": [[2.2298357, 48.8655444], [2.2299671, 48.86555850000001], [2.2300476, 48.8655749], [2.2306229, 48.865860199999986], [2.2307845, 48.865979], [2.2309454, 48.866139]]}}, {"type": "Feature", "properties": {"highway": "track", "footway": null, "name": null, "surface": "compacted", "lit": null, "length_m": 88.63, "type_element": "Way", "__fid": 1808}, "geometry": {"type": "LineString", "coordinates": [[2.2303446, 48.866264], [2.2302893, 48.866184300000015], [2.2300289, 48.8658877], [2.2298786, 48.865601], [2.2298357, 48.8655444]]}}, {"type": "Feature", "properties": {"highway": "path", "footway": null, "name": null, "surface": "dirt", "lit": null, "length_m": 311.81, "type_element": "Way", "__fid": 1817}, "geometry": {"type": "LineString", "coordinates": [[2.230285, 48.8632463], [2.2304057, 48.8633963], [2.2305514, 48.8634924], [2.2306882, 48.8635701], [2.2308697, 48.863788], [2.2312023, 48.8642768], [2.2313686, 48.8644056], [2.2314866, 48.86448149999999], [2.231897, 48.864979099999985], [2.2319855, 48.8651326], [2.2320392, 48.8651996], [2.2321196, 48.8652614], [2.2321867, 48.8652931], [2.2323289, 48.8653108], [2.2325676, 48.8652667], [2.232715, 48.86520440000001]]}}, {"type": "Feature", "properties": {"highway": "track", "footway": null, "name": null, "surface": "compacted", "lit": null, "length_m": 30.03, "type_element": "Way", "__fid": 1822}, "geometry": {"type": "LineString", "coordinates": [[2.230446252362198, 48.86649629959979], [2.2304255, 48.8664705], [2.2304725, 48.8664484], [2.2303446, 48.866264]]}}, {"type": "Feature", "properties": {"highway": "footway", "footway": null, "name": null, "surface": "ground", "lit": "no", "length_m": 46.55, "type_element": "Way", "__fid": 1823}, "geometry": {"type": "LineString", "coordinates": [[2.2303446, 48.866264], [2.2304735, 48.8662383], [2.2307122, 48.8662098], [2.230823, 48.8661822], [2.2309454, 48.866139]]}}, {"type": "Feature", "properties": {"highway": "track", "footway": null, "name": null, "surface": "wood", "lit": null, "length_m": 25.11, "type_element": "Way", "__fid": 1824}, "geometry": {"type": "LineString", "coordinates": [[2.230606725847196, 48.86669580126631], [2.230446252362198, 48.86649629959979]]}}, {"type": "Feature", "properties": {"highway": "footway", "footway": null, "name": null, "surface": "asphalt", "lit": "yes", "length_m": 41.81, "type_element": "Way", "__fid": 1825}, "geometry": {"type": "LineString", "coordinates": [[2.2309817, 48.8663676], [2.230446252362198, 48.86649629959979]]}}, {"type": "Feature", "properties": {"highway": "track", "footway": null, "name": null, "surface": "wood", "lit": null, "length_m": 11.05, "type_element": "Way", "__fid": 1829}, "geometry": {"type": "LineString", "coordinates": [[2.2307052, 48.8667351], [2.2306973, 48.86672640000001], [2.2306426, 48.86674040000001], [2.230606725847196, 48.86669580126631]]}}, {"type": "Feature", "properties": {"highway": "path", "footway": null, "name": "Pont de Suresnes", "surface": "asphalt", "lit": "yes", "length_m": 40.68, "type_element": "Way", "__fid": 1830}, "geometry": {"type": "LineString", "coordinates": [[2.230606725847196, 48.86669580126631], [2.2311207, 48.8665584]]}}, {"type": "Feature", "properties": {"highway": "footway", "footway": null, "name": null, "surface": "compacted", "lit": "no", "length_m": 116.4, "type_element": "Way", "__fid": 1831}, "geometry": {"type": "LineString", "coordinates": [[2.2309454, 48.866139], [2.2309803, 48.866049], [2.2309535, 48.8659255], [2.2307878, 48.8655638], [2.2306846, 48.8652594], [2.230651, 48.8651218]]}}, {"type": "Feature", "properties": {"highway": "service", "footway": null, "name": null, "surface": "asphalt", "lit": null, "length_m": 12.14, "type_element": "Way", "__fid": 1832}, "geometry": {"type": "LineString", "coordinates": [[2.230651, 48.8651218], [2.2308009, 48.8650756]]}}, {"type": "Feature", "properties": {"highway": "track", "footway": null, "name": null, "surface": "dirt", "lit": null, "length_m": 92.45, "type_element": "Way", "__fid": 1833}, "geometry": {"type": "LineString", "coordinates": [[2.2313624, 48.8674424], [2.2313414, 48.8674339], [2.2307052, 48.8667351]]}}, {"type": "Feature", "properties": {"highway": "footway", "footway": null, "name": null, "surface": "ground", "lit": "no", "length_m": 48.18, "type_element": "Way", "__fid": 1834}, "geometry": {"type": "LineString", "coordinates": [[2.2313353, 48.866624], [2.2310809, 48.866692599999986], [2.2308933, 48.8667215], [2.2307052, 48.8667351]]}}, {"type": "Feature", "properties": {"highway": "footway", "footway": null, "name": null, "surface": "dirt", "lit": null, "length_m": 32.98, "type_element": "Way", "__fid": 1836}, "geometry": {"type": "LineString", "coordinates": [[2.2309454, 48.866139], [2.2310655, 48.8662042], [2.2310702, 48.866229], [2.2310635, 48.8662529], [2.2309588, 48.8663269], [2.2309817, 48.8663676]]}}, {"type": "Feature", "properties": {"highway": "footway", "footway": null, "name": null, "surface": "asphalt", "lit": "yes", "length_m": 61.26, "type_element": "Way", "__fid": 1837}, "geometry": {"type": "LineString", "coordinates": [[2.231747, 48.86614710000001], [2.2309817, 48.8663676]]}}, {"type": "Feature", "properties": {"highway": "path", "footway": null, "name": null, "surface": "compacted", "lit": null, "length_m": 18.12, "type_element": "Way", "__fid": 1838}, "geometry": {"type": "LineString", "coordinates": [[2.2313353, 48.866624], [2.2312757, 48.86659810000002], [2.2311979, 48.86659810000002], [2.2311207, 48.8665584]]}}, {"type": "Feature", "properties": {"highway": "path", "footway": null, "name": "Route de Suresnes", "surface": "asphalt", "lit": "yes", "length_m": 25.62, "type_element": "Way", "__fid": 1839}, "geometry": {"type": "LineString", "coordinates": [[2.2311207, 48.8665584], [2.2314415, 48.8664673]]}}, {"type": "Feature", "properties": {"highway": "path", "footway": null, "name": null, "surface": "compacted", "lit": null, "length_m": 9.96, "type_element": "Way", "__fid": 1840}, "geometry": {"type": "LineString", "coordinates": [[2.2314487, 48.86667329999999], [2.2313353, 48.866624]]}}, {"type": "Feature", "properties": {"highway": "track", "footway": null, "name": null, "surface": "dirt", "lit": null, "length_m": 24.05, "type_element": "Way", "__fid": 1841}, "geometry": {"type": "LineString", "coordinates": [[2.2316685, 48.86751030000001], [2.2314637, 48.8674837], [2.2313624, 48.8674424]]}}, {"type": "Feature", "properties": {"highway": "footway", "footway": null, "name": null, "surface": "dirt", "lit": "no", "length_m": 35.82, "type_element": "Way", "__fid": 1842}, "geometry": {"type": "LineString", "coordinates": [[2.2316805, 48.8676779], [2.2316329, 48.8676697], [2.2315178, 48.8675889], [2.2313624, 48.8674424]]}}, {"type": "Feature", "properties": {"highway": "footway", "footway": null, "name": null, "surface": "dirt", "lit": "no", "length_m": 38.32, "type_element": "Way", "__fid": 1843}, "geometry": {"type": "LineString", "coordinates": [[2.2313624, 48.8674424], [2.2314922, 48.867376700000015], [2.2316258, 48.8672543], [2.2317132, 48.8671907]]}}, {"type": "Feature", "properties": {"highway": "path", "footway": null, "name": null, "surface": "compacted", "lit": null, "length_m": 24.61, "type_element": "Way", "__fid": 1845}, "geometry": {"type": "LineString", "coordinates": [[2.2314487, 48.86667329999999], [2.2313976, 48.8666065], [2.2313962, 48.8665736], [2.2313966, 48.8665326], [2.2314226, 48.8664826], [2.2314415, 48.8664673]]}}, {"type": "Feature", "properties": {"highway": "path", "footway": null, "name": "Route de Suresnes", "surface": "concrete", "lit": "yes", "length_m": 223.98, "type_element": "Way", "__fid": 1846}, "geometry": {"type": "LineString", "coordinates": [[2.2314415, 48.8664673], [2.2322982, 48.866201799999985], [2.2325749, 48.8661016], [2.2328568, 48.865989599999985], [2.2330711, 48.8658943], [2.2340521, 48.8654343]]}}, {"type": "Feature", "properties": {"highway": "path", "footway": null, "name": null, "surface": "compacted", "lit": null, "length_m": 32.74, "type_element": "Way", "__fid": 1847}, "geometry": {"type": "LineString", "coordinates": [[2.2317546, 48.8668877], [2.2314487, 48.86667329999999]]}}, {"type": "Feature", "properties": {"highway": "service", "footway": null, "name": null, "surface": "asphalt", "lit": null, "length_m": 18.95, "type_element": "Way", "__fid": 1851}, "geometry": {"type": "LineString", "coordinates": [[2.2316685, 48.86751030000001], [2.2316555, 48.8676237], [2.2316805, 48.8676779]]}}, {"type": "Feature", "properties": {"highway": "service", "footway": null, "name": null, "surface": "asphalt", "lit": null, "length_m": 28.49, "type_element": "Way", "__fid": 1852}, "geometry": {"type": "LineString", "coordinates": [[2.2317053, 48.867282], [2.2316408, 48.8673162], [2.2316135, 48.8673876], [2.2316685, 48.86751030000001]]}}, {"type": "Feature", "properties": {"highway": "service", "footway": null, "name": null, "surface": "asphalt", "lit": null, "length_m": 357.38, "type_element": "Way", "__fid": 1853}, "geometry": {"type": "LineString", "coordinates": [[2.2316805, 48.8676779], [2.2316971, 48.8677137], [2.231795, 48.867838100000014], [2.232361, 48.86831530000001], [2.2328665, 48.86870959999999], [2.233466, 48.8691031], [2.2340199, 48.8694251], [2.2346207, 48.86972680000002], [2.2350845, 48.86993650000002]]}}, {"type": "Feature", "properties": {"highway": "footway", "footway": null, "name": null, "surface": "dirt", "lit": "no", "length_m": 10.17, "type_element": "Way", "__fid": 1854}, "geometry": {"type": "LineString", "coordinates": [[2.2317132, 48.8671907], [2.2317053, 48.867282]]}}, {"type": "Feature", "properties": {"highway": "service", "footway": null, "name": null, "surface": "asphalt", "lit": null, "length_m": 35.81, "type_element": "Way", "__fid": 1855}, "geometry": {"type": "LineString", "coordinates": [[2.2320949, 48.8670879], [2.2317053, 48.867282]]}}, {"type": "Feature", "properties": {"highway": "footway", "footway": null, "name": null, "surface": "dirt", "lit": "no", "length_m": 34.59, "type_element": "Way", "__fid": 1856}, "geometry": {"type": "LineString", "coordinates": [[2.2317132, 48.8671907], [2.2317821, 48.8669776], [2.2317842, 48.866944], [2.2317546, 48.8668877]]}}, {"type": "Feature", "properties": {"highway": "path", "footway": null, "name": null, "surface": "compacted", "lit": null, "length_m": 128.14, "type_element": "Way", "__fid": 1857}, "geometry": {"type": "LineString", "coordinates": [[2.231747, 48.86614710000001], [2.23201, 48.865764200000015], [2.2320659, 48.86570020000001], [2.2322275, 48.8655679], [2.2324632, 48.865426700000015], [2.2325273, 48.865380399999985], [2.2326031, 48.86531780000003], [2.232715, 48.86520440000001]]}}, {"type": "Feature", "properties": {"highway": "footway", "footway": null, "name": null, "surface": "compacted", "lit": "yes", "length_m": 2.48, "type_element": "Way", "__fid": 1858}, "geometry": {"type": "LineString", "coordinates": [[2.2317775, 48.8661374], [2.231747, 48.86614710000001]]}}, {"type": "Feature", "properties": {"highway": "steps", "footway": null, "name": null, "surface": null, "lit": "no", "length_m": 33.5, "type_element": "Way", "__fid": 1859}, "geometry": {"type": "LineString", "coordinates": [[2.2320949, 48.8670879], [2.2320192, 48.8670523], [2.2317546, 48.8668877]]}}, {"type": "Feature", "properties": {"highway": "footway", "footway": null, "name": null, "surface": "compacted", "lit": "yes", "length_m": 96.81, "type_element": "Way", "__fid": 1860}, "geometry": {"type": "LineString", "coordinates": [[2.2329182, 48.8657009], [2.2325575, 48.8658528], [2.2321887, 48.8659966], [2.2317775, 48.8661374]]}}, {"type": "Feature", "properties": {"highway": "footway", "footway": null, "name": null, "surface": "compacted", "lit": null, "length_m": 63.38, "type_element": "Way", "__fid": 1861}, "geometry": {"type": "LineString", "coordinates": [[2.2327566, 48.8674509], [2.2325126, 48.8673301], [2.2321737, 48.8671157], [2.2320949, 48.8670879]]}}, {"type": "Feature", "properties": {"highway": "service", "footway": null, "name": null, "surface": "asphalt", "lit": null, "length_m": 9.28, "type_element": "Way", "__fid": 1862}, "geometry": {"type": "LineString", "coordinates": [[2.2322002, 48.8670416], [2.2320949, 48.8670879]]}}, {"type": "Feature", "properties": {"highway": "service", "footway": null, "name": null, "surface": "pebblestone", "lit": null, "length_m": 38.04, "type_element": "Way", "__fid": 1864}, "geometry": {"type": "LineString", "coordinates": [[2.232669, 48.868126299999986], [2.2324352, 48.8680494], [2.2321987, 48.8679825]]}}, {"type": "Feature", "properties": {"highway": "service", "footway": null, "name": null, "surface": "asphalt", "lit": null, "length_m": 31.27, "type_element": "Way", "__fid": 1869}, "geometry": {"type": "LineString", "coordinates": [[2.2327566, 48.8674509], [2.2326312, 48.8675299], [2.232534, 48.867566900000014], [2.2324636, 48.8675696], [2.2323952, 48.8675594]]}}, {"type": "Feature", "properties": {"highway": "path", "footway": null, "name": null, "surface": null, "lit": null, "length_m": 103.47, "type_element": "Way", "__fid": 1871}, "geometry": {"type": "LineString", "coordinates": [[2.233799520000021, 48.866041940000244], [2.2337262, 48.86605440000001], [2.2335096, 48.8660482], [2.233393, 48.8660588], [2.2332119, 48.8660923], [2.233051, 48.866147], [2.2328297, 48.86624410000001], [2.2326228, 48.8663036], [2.2325052, 48.866353299999986]]}}, {"type": "Feature", "properties": {"highway": "path", "footway": null, "name": null, "surface": "compacted", "lit": null, "length_m": 144.56, "type_element": "Way", "__fid": 1873}, "geometry": {"type": "LineString", "coordinates": [[2.232715, 48.86520440000001], [2.2327819, 48.864998], [2.2328009, 48.8647929], [2.2327887, 48.864615], [2.2327651, 48.8644688], [2.2326504, 48.8641527], [2.232618, 48.8640897], [2.2325907, 48.8639949], [2.2325521, 48.8639293]]}}, {"type": "Feature", "properties": {"highway": "service", "footway": null, "name": null, "surface": "pebblestone", "lit": null, "length_m": 52.82, "type_element": "Way", "__fid": 1878}, "geometry": {"type": "LineString", "coordinates": [[2.2329136, 48.8685161], [2.2326131, 48.868290100000024], [2.2325991, 48.8682291], [2.232669, 48.868126299999986]]}}, {"type": "Feature", "properties": {"highway": "service", "footway": null, "name": null, "surface": "asphalt", "lit": null, "length_m": 61.41, "type_element": "Way", "__fid": 1879}, "geometry": {"type": "LineString", "coordinates": [[2.232669, 48.868126299999986], [2.2328012, 48.8679206], [2.2329029, 48.8678754], [2.2330915, 48.867847599999976], [2.2332601, 48.8678938]]}}, {"type": "Feature", "properties": {"highway": "path", "footway": null, "name": null, "surface": "compacted", "lit": null, "length_m": 126.31, "type_element": "Way", "__fid": 1880}, "geometry": {"type": "LineString", "coordinates": [[2.232715, 48.86520440000001], [2.232892, 48.8650698], [2.2329342, 48.8650189], [2.233029, 48.8649675], [2.2332385, 48.864916], [2.2333266, 48.8649097], [2.2338237, 48.8649137], [2.2341095, 48.8649065], [2.2342037, 48.8649225], [2.2342401, 48.86494350000001]]}}, {"type": "Feature", "properties": {"highway": "footway", "footway": null, "name": null, "surface": "compacted", "lit": null, "length_m": 147.95, "type_element": "Way", "__fid": 1883}, "geometry": {"type": "LineString", "coordinates": [[2.234478, 48.8681419], [2.2329657, 48.8675573], [2.2327566, 48.8674509]]}}, {"type": "Feature", "properties": {"highway": "service", "footway": null, "name": null, "surface": "asphalt", "lit": null, "length_m": 6.9, "type_element": "Way", "__fid": 1884}, "geometry": {"type": "LineString", "coordinates": [[2.2328216, 48.867406], [2.2327566, 48.8674509]]}}, {"type": "Feature", "properties": {"highway": "footway", "footway": null, "name": null, "surface": "compacted", "lit": "yes", "length_m": 33.2, "type_element": "Way", "__fid": 1885}, "geometry": {"type": "LineString", "coordinates": [[2.233281, 48.8655224], [2.2329182, 48.8657009]]}}, {"type": "Feature", "properties": {"highway": "service", "footway": null, "name": null, "surface": "pebblestone", "lit": null, "length_m": 57.4, "type_element": "Way", "__fid": 1886}, "geometry": {"type": "LineString", "coordinates": [[2.2335359, 48.8688269], [2.2329677, 48.8685569], [2.2329136, 48.8685161]]}}, {"type": "Feature", "properties": {"highway": "service", "footway": null, "name": null, "surface": "asphalt", "lit": null, "length_m": 51.03, "type_element": "Way", "__fid": 1887}, "geometry": {"type": "LineString", "coordinates": [[2.2329136, 48.8685161], [2.2331317, 48.86808030000001]]}}, {"type": "Feature", "properties": {"highway": "footway", "footway": null, "name": null, "surface": null, "lit": null, "length_m": 82.41, "type_element": "Way", "__fid": 1891}, "geometry": {"type": "LineString", "coordinates": [[2.233771, 48.86867979999999], [2.2336659, 48.8685285], [2.2335935, 48.8684888], [2.2335559, 48.8684244], [2.2331317, 48.86808030000001]]}}, {"type": "Feature", "properties": {"highway": "service", "footway": null, "name": null, "surface": "asphalt", "lit": null, "length_m": 22.78, "type_element": "Way", "__fid": 1892}, "geometry": {"type": "LineString", "coordinates": [[2.2331317, 48.86808030000001], [2.2332601, 48.8678938]]}}, {"type": "Feature", "properties": {"highway": "path", "footway": null, "name": null, "surface": null, "lit": null, "length_m": 30.85, "type_element": "Way", "__fid": 1893}, "geometry": {"type": "LineString", "coordinates": [[2.233167, 48.86651890000002], [2.2331247, 48.86656649999998], [2.2331647, 48.8666243], [2.2333752, 48.8667012]]}}, {"type": "Feature", "properties": {"highway": "footway", "footway": null, "name": null, "surface": "compacted", "lit": null, "length_m": 47.21, "type_element": "Way", "__fid": 1897}, "geometry": {"type": "LineString", "coordinates": [[2.2333752, 48.8667012], [2.2333271, 48.8667644], [2.2332637, 48.8669049], [2.2332315, 48.86711110000001]]}}, {"type": "Feature", "properties": {"highway": "footway", "footway": null, "name": null, "surface": "compacted", "lit": "yes", "length_m": 82.79, "type_element": "Way", "__fid": 1898}, "geometry": {"type": "LineString", "coordinates": [[2.2341566, 48.8650527], [2.233281, 48.8655224]]}}, {"type": "Feature", "properties": {"highway": "service", "footway": null, "name": null, "surface": "asphalt", "lit": null, "length_m": 65.1, "type_element": "Way", "__fid": 1899}, "geometry": {"type": "LineString", "coordinates": [[2.2332601, 48.8678938], [2.2339368, 48.8680971], [2.2340481, 48.8681572]]}}, {"type": "Feature", "properties": {"highway": "footway", "footway": null, "name": null, "surface": "compacted", "lit": null, "length_m": 85.21, "type_element": "Way", "__fid": 1902}, "geometry": {"type": "LineString", "coordinates": [[2.233799520000021, 48.866041940000244], [2.2338612, 48.8661022], [2.233849, 48.8661553], [2.2337306, 48.8662182], [2.2336206, 48.8664244], [2.2334505, 48.8666021], [2.2333752, 48.8667012]]}}, {"type": "Feature", "properties": {"highway": "service", "footway": null, "name": null, "surface": "asphalt", "lit": null, "length_m": 72.93, "type_element": "Way", "__fid": 1904}, "geometry": {"type": "LineString", "coordinates": [[2.2335359, 48.8688269], [2.23341, 48.8689523], [2.2339846, 48.869286700000025]]}}, {"type": "Feature", "properties": {"highway": "service", "footway": null, "name": null, "surface": "asphalt", "lit": null, "length_m": 5.68, "type_element": "Way", "__fid": 1905}, "geometry": {"type": "LineString", "coordinates": [[2.2335921, 48.86879170000001], [2.2335359, 48.8688269]]}}, {"type": "Feature", "properties": {"highway": "footway", "footway": null, "name": null, "surface": null, "lit": null, "length_m": 62.58, "type_element": "Way", "__fid": 1909}, "geometry": {"type": "LineString", "coordinates": [[2.2335921, 48.86879170000001], [2.2338384, 48.8688988], [2.233981, 48.8689405], [2.2342566, 48.86913370000001]]}}, {"type": "Feature", "properties": {"highway": "service", "footway": null, "name": null, "surface": "asphalt", "lit": null, "length_m": 18.08, "type_element": "Way", "__fid": 1910}, "geometry": {"type": "LineString", "coordinates": [[2.233771, 48.86867979999999], [2.2335921, 48.86879170000001]]}}, {"type": "Feature", "properties": {"highway": "footway", "footway": null, "name": null, "surface": null, "lit": null, "length_m": 70.41, "type_element": "Way", "__fid": 1911}, "geometry": {"type": "LineString", "coordinates": [[2.2340521, 48.8654343], [2.2338875, 48.8657504], [2.2338647, 48.8658215], [2.2338607, 48.86590450000002], [2.233799520000021, 48.866041940000244]]}}, {"type": "Feature", "properties": {"highway": "service", "footway": null, "name": null, "surface": "asphalt", "lit": null, "length_m": 25.17, "type_element": "Way", "__fid": 1912}, "geometry": {"type": "LineString", "coordinates": [[2.2340868, 48.8685914], [2.233771, 48.86867979999999]]}}, {"type": "Feature", "properties": {"highway": "service", "footway": null, "name": null, "surface": "asphalt", "lit": null, "length_m": 111.03, "type_element": "Way", "__fid": 1918}, "geometry": {"type": "LineString", "coordinates": [[2.2339846, 48.869286700000025], [2.2344955, 48.869561], [2.2347459, 48.8696672], [2.2349277, 48.8696638], [2.2350827, 48.8696404], [2.2352237, 48.8695322]]}}, {"type": "Feature", "properties": {"highway": "service", "footway": null, "name": null, "surface": "asphalt", "lit": null, "length_m": 26.22, "type_element": "Way", "__fid": 1919}, "geometry": {"type": "LineString", "coordinates": [[2.2339846, 48.869286700000025], [2.2342566, 48.86913370000001]]}}, {"type": "Feature", "properties": {"highway": "path", "footway": null, "name": "Route de Suresnes", "surface": "concrete", "lit": "yes", "length_m": 37.39, "type_element": "Way", "__fid": 1920}, "geometry": {"type": "LineString", "coordinates": [[2.2340521, 48.8654343], [2.2344663, 48.8652383]]}}, {"type": "Feature", "properties": {"highway": "service", "footway": null, "name": null, "surface": "asphalt", "lit": null, "length_m": 29.26, "type_element": "Way", "__fid": 1921}, "geometry": {"type": "LineString", "coordinates": [[2.2340481, 48.8681572], [2.2342782, 48.8683721]]}}, {"type": "Feature", "properties": {"highway": "footway", "footway": null, "name": null, "surface": null, "lit": null, "length_m": 68.24, "type_element": "Way", "__fid": 1922}, "geometry": {"type": "LineString", "coordinates": [[2.2340868, 48.8685914], [2.2339235, 48.8685268], [2.233757, 48.8683428], [2.233796, 48.8682833], [2.2339489, 48.86821269999999], [2.2340481, 48.8681572]]}}, {"type": "Feature", "properties": {"highway": "service", "footway": null, "name": null, "surface": "asphalt", "lit": null, "length_m": 88.6, "type_element": "Way", "__fid": 1923}, "geometry": {"type": "LineString", "coordinates": [[2.2340654, 48.8678888], [2.2344805, 48.86796720000001], [2.2347247, 48.8680408], [2.2348662, 48.8681342], [2.2348687, 48.86821230000001], [2.2347702, 48.8683187]]}}, {"type": "Feature", "properties": {"highway": "service", "footway": null, "name": null, "surface": null, "lit": null, "length_m": 30.52, "type_element": "Way", "__fid": 1924}, "geometry": {"type": "LineString", "coordinates": [[2.2344279, 48.8687432], [2.2341359, 48.8686324], [2.2340868, 48.8685914]]}}, {"type": "Feature", "properties": {"highway": "service", "footway": null, "name": null, "surface": "asphalt", "lit": null, "length_m": 8.53, "type_element": "Way", "__fid": 1925}, "geometry": {"type": "LineString", "coordinates": [[2.2341473, 48.8685259], [2.2340868, 48.8685914]]}}, {"type": "Feature", "properties": {"highway": "service", "footway": null, "name": null, "surface": "asphalt", "lit": null, "length_m": 28.91, "type_element": "Way", "__fid": 1928}, "geometry": {"type": "LineString", "coordinates": [[2.234505, 48.868635], [2.2341473, 48.8685259]]}}, {"type": "Feature", "properties": {"highway": "service", "footway": null, "name": null, "surface": "asphalt", "lit": null, "length_m": 19.61, "type_element": "Way", "__fid": 1929}, "geometry": {"type": "LineString", "coordinates": [[2.2342782, 48.8683721], [2.2341473, 48.8685259]]}}, {"type": "Feature", "properties": {"highway": "footway", "footway": "crossing", "name": null, "surface": "dirt", "lit": "yes", "length_m": 26.66, "type_element": "Way", "__fid": 1930}, "geometry": {"type": "LineString", "coordinates": [[2.234207, 48.86502330000001], [2.2344324, 48.8652114]]}}, {"type": "Feature", "properties": {"highway": "service", "footway": null, "name": null, "surface": "asphalt", "lit": null, "length_m": 84.55, "type_element": "Way", "__fid": 1933}, "geometry": {"type": "LineString", "coordinates": [[2.2352237, 48.8695322], [2.2348835, 48.869451599999984], [2.2345133, 48.8692738], [2.2342566, 48.86913370000001]]}}, {"type": "Feature", "properties": {"highway": "service", "footway": null, "name": null, "surface": "asphalt", "lit": null, "length_m": 20.53, "type_element": "Way", "__fid": 1934}, "geometry": {"type": "LineString", "coordinates": [[2.2342566, 48.86913370000001], [2.2343329, 48.869061399999985], [2.2344431, 48.8689979]]}}, {"type": "Feature", "properties": {"highway": "service", "footway": null, "name": null, "surface": "asphalt", "lit": null, "length_m": 9.35, "type_element": "Way", "__fid": 1935}, "geometry": {"type": "LineString", "coordinates": [[2.2342782, 48.8683721], [2.2343478, 48.8683017]]}}, {"type": "Feature", "properties": {"highway": "service", "footway": null, "name": null, "surface": "asphalt", "lit": null, "length_m": 28.03, "type_element": "Way", "__fid": 1938}, "geometry": {"type": "LineString", "coordinates": [[2.2346819, 48.868424], [2.2343478, 48.8683017]]}}, {"type": "Feature", "properties": {"highway": "service", "footway": null, "name": null, "surface": "asphalt", "lit": null, "length_m": 14.25, "type_element": "Way", "__fid": 1939}, "geometry": {"type": "LineString", "coordinates": [[2.2343478, 48.8683017], [2.2344539, 48.8681943]]}}, {"type": "Feature", "properties": {"highway": "footway", "footway": "crossing", "name": null, "surface": "dirt", "lit": "yes", "length_m": 3.89, "type_element": "Way", "__fid": 1940}, "geometry": {"type": "LineString", "coordinates": [[2.2344324, 48.8652114], [2.2344663, 48.8652383]]}}, {"type": "Feature", "properties": {"highway": "footway", "footway": null, "name": null, "surface": null, "lit": "yes", "length_m": 52.0, "type_element": "Way", "__fid": 1941}, "geometry": {"type": "LineString", "coordinates": [[2.2344893, 48.8648639], [2.2346725, 48.8650211], [2.2346851, 48.8650413], [2.2346556, 48.8651029], [2.2344324, 48.8652114]]}}, {"type": "Feature", "properties": {"highway": "path", "footway": null, "name": "Route de Suresnes", "surface": "concrete", "lit": "yes", "length_m": 5.46, "type_element": "Way", "__fid": 1942}, "geometry": {"type": "LineString", "coordinates": [[2.2344663, 48.8652383], [2.2345262, 48.8652091]]}}, {"type": "Feature", "properties": {"highway": "service", "footway": null, "name": null, "surface": "asphalt", "lit": null, "length_m": 28.34, "type_element": "Way", "__fid": 1943}, "geometry": {"type": "LineString", "coordinates": [[2.2344431, 48.8689979], [2.2344279, 48.8687432]]}}, {"type": "Feature", "properties": {"highway": "service", "footway": null, "name": null, "surface": "asphalt", "lit": null, "length_m": 13.29, "type_element": "Way", "__fid": 1944}, "geometry": {"type": "LineString", "coordinates": [[2.234505, 48.868635], [2.2344279, 48.8687432]]}}, {"type": "Feature", "properties": {"highway": "service", "footway": null, "name": null, "surface": "asphalt", "lit": "yes", "length_m": 27.01, "type_element": "Way", "__fid": 1946}, "geometry": {"type": "LineString", "coordinates": [[2.2347702, 48.8683187], [2.2344539, 48.8681943]]}}, {"type": "Feature", "properties": {"highway": "service", "footway": null, "name": null, "surface": "asphalt", "lit": "yes", "length_m": 6.09, "type_element": "Way", "__fid": 1947}, "geometry": {"type": "LineString", "coordinates": [[2.2344539, 48.8681943], [2.234478, 48.8681419]]}}, {"type": "Feature", "properties": {"highway": "service", "footway": null, "name": null, "surface": "asphalt", "lit": null, "length_m": 38.8, "type_element": "Way", "__fid": 1948}, "geometry": {"type": "LineString", "coordinates": [[2.2344431, 48.8689979], [2.234615, 48.869102], [2.2348853, 48.869181]]}}, {"type": "Feature", "properties": {"highway": "service", "footway": null, "name": null, "surface": "asphalt", "lit": "yes", "length_m": 9.02, "type_element": "Way", "__fid": 1949}, "geometry": {"type": "LineString", "coordinates": [[2.234478, 48.8681419], [2.2345136, 48.8680643]]}}, {"type": "Feature", "properties": {"highway": "service", "footway": null, "name": null, "surface": "asphalt", "lit": null, "length_m": 26.81, "type_element": "Way", "__fid": 1950}, "geometry": {"type": "LineString", "coordinates": [[2.2346819, 48.868424], [2.234505, 48.868635]]}}, {"type": "Feature", "properties": {"highway": "service", "footway": null, "name": null, "surface": "asphalt", "lit": null, "length_m": 13.38, "type_element": "Way", "__fid": 1959}, "geometry": {"type": "LineString", "coordinates": [[2.2347702, 48.8683187], [2.2346819, 48.868424]]}}, {"type": "Feature", "properties": {"highway": "path", "footway": null, "name": null, "surface": "dirt", "lit": "no", "length_m": 165.34, "type_element": "Way", "__fid": 1960}, "geometry": {"type": "LineString", "coordinates": [[2.2347956, 48.8651153], [2.2346852, 48.86513090000001], [2.2353365, 48.865565], [2.2358161, 48.86584340000001], [2.2362756, 48.8660728]]}}, {"type": "Feature", "properties": {"highway": "path", "footway": null, "name": "Carrefour de Norvège", "surface": "vegecol", "lit": "yes", "length_m": 370.62, "type_element": "Way", "__fid": 1961}, "geometry": {"type": "LineString", "coordinates": [[2.2347956, 48.8651153], [2.2349134, 48.86503959999999], [2.2350011, 48.864933], [2.2355056, 48.8646435], [2.2360411, 48.8644201], [2.2362448, 48.8643168], [2.236396, 48.8642768], [2.2365807, 48.86415760000001], [2.23672, 48.86408940000001], [2.2371969, 48.8639274], [2.2376936, 48.8637988], [2.2383359, 48.8636887], [2.2387348, 48.86364370000001], [2.2388942, 48.8636371], [2.2390458, 48.8636447], [2.2391434, 48.8636581]]}}, {"type": "Feature", "properties": {"highway": "path", "footway": null, "name": null, "surface": "dirt", "lit": "no", "length_m": 117.8, "type_element": "Way", "__fid": 1962}, "geometry": {"type": "LineString", "coordinates": [[2.2361861, 48.864592], [2.2360677, 48.8646413], [2.2357725, 48.8647274], [2.2356442, 48.864773], [2.2353849, 48.8648836], [2.2351257, 48.8649833], [2.2349588, 48.8650669], [2.2347956, 48.8651153]]}}, {"type": "Feature", "properties": {"highway": "track", "footway": null, "name": null, "surface": "compacted", "lit": "no", "length_m": 92.23, "type_element": "Way", "__fid": 1963}, "geometry": {"type": "LineString", "coordinates": [[2.2347956, 48.8651153], [2.2353665, 48.8650789], [2.2355297, 48.8650623], [2.2357252, 48.86502320000001], [2.2360154, 48.86494359999999]]}}, {"type": "Feature", "properties": {"highway": "service", "footway": null, "name": null, "surface": "asphalt", "lit": "yes", "length_m": 21.88, "type_element": "Way", "__fid": 1964}, "geometry": {"type": "LineString", "coordinates": [[2.2350345, 48.8682815], [2.2348366, 48.8683455], [2.2347702, 48.8683187]]}}, {"type": "Feature", "properties": {"highway": "service", "footway": null, "name": null, "surface": "asphalt", "lit": null, "length_m": 106.59, "type_element": "Way", "__fid": 1966}, "geometry": {"type": "LineString", "coordinates": [[2.2348853, 48.869181], [2.2362314, 48.86954189999999]]}}, {"type": "Feature", "properties": {"highway": "service", "footway": null, "name": null, "surface": "asphalt", "lit": null, "length_m": 26.99, "type_element": "Way", "__fid": 1967}, "geometry": {"type": "LineString", "coordinates": [[2.2348853, 48.869181], [2.234952, 48.8691513], [2.2350821, 48.8690454], [2.2351562, 48.86902410000001]]}}, {"type": "Feature", "properties": {"highway": "service", "footway": null, "name": null, "surface": "asphalt", "lit": null, "length_m": 67.05, "type_element": "Way", "__fid": 1968}, "geometry": {"type": "LineString", "coordinates": [[2.2350845, 48.86993650000002], [2.2353714, 48.8700685], [2.2358777, 48.8702329]]}}, {"type": "Feature", "properties": {"highway": "path", "footway": null, "name": null, "surface": "compacted", "lit": null, "length_m": 303.76, "type_element": "Way", "__fid": 1969}, "geometry": {"type": "LineString", "coordinates": [[2.2350845, 48.86993650000002], [2.2351519, 48.8699204], [2.2352974, 48.8697292], [2.2363468, 48.869951], [2.2363488, 48.8699784], [2.2362649, 48.8700996], [2.2361772, 48.870269599999986], [2.2361798, 48.8703273], [2.2362308, 48.8703732], [2.2364809, 48.8704198], [2.2373499, 48.8706262], [2.2380634, 48.8708173]]}}, {"type": "Feature", "properties": {"highway": "service", "footway": null, "name": null, "surface": "asphalt", "lit": null, "length_m": 35.43, "type_element": "Way", "__fid": 1970}, "geometry": {"type": "LineString", "coordinates": [[2.2351562, 48.86902410000001], [2.2356211, 48.8691104]]}}, {"type": "Feature", "properties": {"highway": "footway", "footway": null, "name": null, "surface": null, "lit": null, "length_m": 19.76, "type_element": "Way", "__fid": 1971}, "geometry": {"type": "LineString", "coordinates": [[2.2351562, 48.86902410000001], [2.23529, 48.8688699]]}}, {"type": "Feature", "properties": {"highway": "footway", "footway": null, "name": null, "surface": null, "lit": null, "length_m": 39.22, "type_element": "Way", "__fid": 1972}, "geometry": {"type": "LineString", "coordinates": [[2.2357051, 48.868848599999986], [2.2354576, 48.8687989], [2.2352162, 48.8687107]]}}, {"type": "Feature", "properties": {"highway": "service", "footway": null, "name": null, "surface": "asphalt", "lit": null, "length_m": 68.95, "type_element": "Way", "__fid": 1973}, "geometry": {"type": "LineString", "coordinates": [[2.2361235, 48.8697115], [2.2352237, 48.8695322]]}}, {"type": "Feature", "properties": {"highway": "service", "footway": null, "name": null, "surface": "asphalt", "lit": null, "length_m": 58.15, "type_element": "Way", "__fid": 1986}, "geometry": {"type": "LineString", "coordinates": [[2.2356211, 48.8691104], [2.2361873, 48.8692566], [2.2363349, 48.8693298]]}}, {"type": "Feature", "properties": {"highway": "footway", "footway": null, "name": null, "surface": null, "lit": null, "length_m": 30.15, "type_element": "Way", "__fid": 1987}, "geometry": {"type": "LineString", "coordinates": [[2.2357051, 48.868848599999986], [2.2357097, 48.8689158], [2.2356889, 48.8689885], [2.2356211, 48.8691104]]}}, {"type": "Feature", "properties": {"highway": "footway", "footway": null, "name": null, "surface": null, "lit": null, "length_m": 24.85, "type_element": "Way", "__fid": 1990}, "geometry": {"type": "LineString", "coordinates": [[2.2360155, 48.8689365], [2.2357848, 48.8688633], [2.2357051, 48.868848599999986]]}}, {"type": "Feature", "properties": {"highway": "path", "footway": null, "name": null, "surface": "dirt", "lit": "no", "length_m": 129.13, "type_element": "Way", "__fid": 1991}, "geometry": {"type": "LineString", "coordinates": [[2.2360154, 48.86494359999999], [2.2361657, 48.86540159999998], [2.2362428, 48.8655396], [2.2362643, 48.8656243], [2.236328, 48.8657836], [2.2363327, 48.8658255], [2.2363092, 48.86591150000002], [2.2362696, 48.8659922], [2.2362756, 48.8660728]]}}, {"type": "Feature", "properties": {"highway": "service", "footway": null, "name": null, "surface": null, "lit": null, "length_m": 25.52, "type_element": "Way", "__fid": 1997}, "geometry": {"type": "LineString", "coordinates": [[2.2361235, 48.8697115], [2.2362343, 48.8697257], [2.2364463, 48.869792599999975]]}}, {"type": "Feature", "properties": {"highway": "service", "footway": null, "name": null, "surface": "asphalt", "lit": null, "length_m": 20.45, "type_element": "Way", "__fid": 1998}, "geometry": {"type": "LineString", "coordinates": [[2.2362314, 48.86954189999999], [2.2361235, 48.8697115]]}}, {"type": "Feature", "properties": {"highway": "path", "footway": null, "name": null, "surface": "dirt", "lit": "no", "length_m": 146.3, "type_element": "Way", "__fid": 1999}, "geometry": {"type": "LineString", "coordinates": [[2.2362756, 48.8660728], [2.2364339, 48.86613689999999], [2.2366604, 48.8661864], [2.237375, 48.8664166], [2.2375973, 48.8664973], [2.2378645, 48.866578300000015], [2.2380913, 48.8665836]]}}, {"type": "Feature", "properties": {"highway": "path", "footway": null, "name": null, "surface": null, "lit": "no", "length_m": 9.77, "type_element": "Way", "__fid": 2000}, "geometry": {"type": "LineString", "coordinates": [[2.2362756, 48.8660728], [2.2364079, 48.8660628]]}}, {"type": "Feature", "properties": {"highway": "service", "footway": null, "name": null, "surface": "asphalt", "lit": null, "length_m": 26.02, "type_element": "Way", "__fid": 2003}, "geometry": {"type": "LineString", "coordinates": [[2.2363349, 48.8693298], [2.2363462, 48.8694197], [2.2362314, 48.86954189999999]]}}, {"type": "Feature", "properties": {"highway": "service", "footway": null, "name": null, "surface": null, "lit": null, "length_m": 73.47, "type_element": "Way", "__fid": 2008}, "geometry": {"type": "LineString", "coordinates": [[2.2363349, 48.8693298], [2.2364478, 48.8693403], [2.2367097, 48.869459800000016], [2.2364463, 48.869792599999975]]}}, {"type": "Feature", "properties": {"highway": "path", "footway": null, "name": null, "surface": null, "lit": "no", "length_m": 91.87, "type_element": "Way", "__fid": 2009}, "geometry": {"type": "LineString", "coordinates": [[2.2364079, 48.8660628], [2.2364961, 48.8660561], [2.2368153, 48.86596890000002], [2.2370519, 48.86613949999998], [2.2374694, 48.8662783]]}}, {"type": "Feature", "properties": {"highway": "track", "footway": null, "name": null, "surface": null, "lit": null, "length_m": 77.87, "type_element": "Way", "__fid": 2010}, "geometry": {"type": "LineString", "coordinates": [[2.2364902, 48.8650271], [2.2365915, 48.8650875], [2.2367491, 48.8651585], [2.2368872, 48.8651868], [2.2370019, 48.8651903], [2.2373841, 48.8650046]]}}, {"type": "Feature", "properties": {"highway": "path", "footway": null, "name": null, "surface": null, "lit": null, "length_m": 90.62, "type_element": "Way", "__fid": 2011}, "geometry": {"type": "LineString", "coordinates": [[2.2371997, 48.865571400000015], [2.2368919, 48.8655123], [2.2367565, 48.865473], [2.2366472, 48.865413], [2.2365077, 48.8652353], [2.2364688, 48.865099], [2.2364902, 48.8650271]]}}, {"type": "Feature", "properties": {"highway": "service", "footway": null, "name": null, "surface": null, "lit": null, "length_m": 23.57, "type_element": "Way", "__fid": 2012}, "geometry": {"type": "LineString", "coordinates": [[2.2364463, 48.869792599999975], [2.2367272, 48.8698956]]}}, {"type": "Feature", "properties": {"highway": "footway", "footway": null, "name": null, "surface": null, "lit": null, "length_m": 31.49, "type_element": "Way", "__fid": 2015}, "geometry": {"type": "LineString", "coordinates": [[2.2365271, 48.8701014], [2.2365399, 48.8701098], [2.2366827, 48.8701371], [2.2367068, 48.8701477], [2.236807, 48.8702869]]}}, {"type": "Feature", "properties": {"highway": "footway", "footway": null, "name": null, "surface": null, "lit": null, "length_m": 34.35, "type_element": "Way", "__fid": 2016}, "geometry": {"type": "LineString", "coordinates": [[2.2365271, 48.8701014], [2.236446, 48.8701772], [2.2364393, 48.8702103], [2.2364641, 48.8702491], [2.2365278, 48.8703131], [2.2366056, 48.8703515]]}}, {"type": "Feature", "properties": {"highway": "footway", "footway": null, "name": null, "surface": null, "lit": null, "length_m": 30.66, "type_element": "Way", "__fid": 2017}, "geometry": {"type": "LineString", "coordinates": [[2.2367272, 48.8698956], [2.2366096, 48.8700057], [2.2365238, 48.87002860000001], [2.236503, 48.8700643], [2.236513, 48.8700921], [2.2365271, 48.8701014]]}}, {"type": "Feature", "properties": {"highway": "service", "footway": null, "name": null, "surface": null, "lit": null, "length_m": 18.96, "type_element": "Way", "__fid": 2026}, "geometry": {"type": "LineString", "coordinates": [[2.2367272, 48.8698956], [2.2367643, 48.86990880000002], [2.2369296, 48.8698168]]}}]}