{"type": "FeatureCollection", "features": [{"type": "Feature", "properties": {"highway": "track", "footway": null, "name": "Chemin des Pépinières", "surface": "compacted", "lit": "no", "length_m": 218.21, "type_element": "Way", "__fid": 1688}, "geometry": {"type": "LineString", "coordinates": [[2.2282176, 48.8569552], [2.2281405, 48.856900300000014], [2.2277476, 48.8565613], [2.226635, 48.8556574], [2.2263603, 48.855423]]}}, {"type": "Feature", "properties": {"highway": "service", "footway": null, "name": null, "surface": null, "lit": null, "length_m": 93.95, "type_element": "Way", "__fid": 1700}, "geometry": {"type": "LineString", "coordinates": [[2.2271588, 48.8572673], [2.2284128, 48.8570965]]}}, {"type": "Feature", "properties": {"highway": "service", "footway": null, "name": null, "surface": null, "lit": null, "length_m": 129.66, "type_element": "Way", "__fid": 1704}, "geometry": {"type": "LineString", "coordinates": [[2.2273734, 48.8560258], [2.2274727, 48.8561237], [2.227702, 48.856279], [2.2280359, 48.8563929], [2.2280909, 48.85645380000001], [2.2281942, 48.8566664], [2.2282176, 48.8569552]]}}, {"type": "Feature", "properties": {"highway": "service", "footway": null, "name": "Route de la Seine à la Butte Mortemart", "surface": "asphalt", "lit": null, "length_m": 156.86, "type_element": "Way", "__fid": 1709}, "geometry": {"type": "LineString", "coordinates": [[2.2298066, 48.8528516], [2.228433, 48.85323069999998], [2.2281249, 48.8532962], [2.2278061, 48.8533384]]}}, {"type": "Feature", "properties": {"highway": "track", "footway": null, "name": "Chemin des Pépinières", "surface": "compacted", "lit": "no", "length_m": 21.26, "type_element": "Way", "__fid": 1715}, "geometry": {"type": "LineString", "coordinates": [[2.2284128, 48.8570965], [2.2282176, 48.8569552]]}}, {"type": "Feature", "properties": {"highway": "service", "footway": null, "name": "Route des Tribunes", "surface": "asphalt", "lit": "no", "length_m": 28.94, "type_element": "Way", "__fid": 1721}, "geometry": {"type": "LineString", "coordinates": [[2.2286117, 48.8573179], [2.2284553, 48.85717970000001], [2.2284128, 48.8570965]]}}, {"type": "Feature", "properties": {"highway": "service", "footway": null, "name": "Route des Tribunes", "surface": "asphalt", "lit": "no", "length_m": 6.94, "type_element": "Way", "__fid": 1722}, "geometry": {"type": "LineString", "coordinates": [[2.2284128, 48.8570965], [2.2284981, 48.85706960000002]]}}, {"type": "Feature", "properties": {"highway": "service", "footway": null, "name": "Route des Tribunes", "surface": "asphalt", "lit": "no", "length_m": 30.99, "type_element": "Way", "__fid": 1726}, "geometry": {"type": "LineString", "coordinates": [[2.2284981, 48.85706960000002], [2.2285693, 48.85709379999999], [2.2286117, 48.8573179]]}}, {"type": "Feature", "properties": {"highway": "service", "footway": null, "name": "Route des Tribunes", "surface": "asphalt", "lit": "no", "length_m": 88.63, "type_element": "Way", "__fid": 1727}, "geometry": {"type": "LineString", "coordinates": [[2.2284981, 48.85706960000002], [2.2285109, 48.8570449], [2.228513, 48.8568575], [2.228553, 48.85672790000001], [2.2285229, 48.856277]]}}, {"type": "Feature", "properties": {"highway": "service", "footway": null, "name": "Route des Tribunes", "surface": "asphalt", "lit": "no", "length_m": 361.22, "type_element": "Way", "__fid": 1730}, "geometry": {"type": "LineString", "coordinates": [[2.2299414, 48.8532159], [2.2296585, 48.8535073], [2.2293877, 48.8538222], [2.2291731, 48.854123], [2.2289297, 48.8545732], [2.2286609, 48.8553357], [2.2285875, 48.855642], [2.2285344, 48.8559731], [2.2285229, 48.856277]]}}, {"type": "Feature", "properties": {"highway": "path", "footway": null, "name": null, "surface": null, "lit": null, "length_m": 7.64, "type_element": "Way", "__fid": 1731}, "geometry": {"type": "LineString", "coordinates": [[2.2285229, 48.856277], [2.228627, 48.8562753]]}}, {"type": "Feature", "properties": {"highway": "footway", "footway": "sidewalk", "name": null, "surface": "compacted", "lit": null, "length_m": 146.25, "type_element": "Way", "__fid": 1735}, "geometry": {"type": "LineString", "coordinates": [[2.2287926, 48.8575836], [2.2287083, 48.8572768], [2.2286425, 48.8567574], [2.228627, 48.8562753]]}}, {"type": "Feature", "properties": {"highway": "footway", "footway": "sidewalk", "name": null, "surface": "unpaved", "lit": null, "length_m": 356.39, "type_element": "Way", "__fid": 1736}, "geometry": {"type": "LineString", "coordinates": [[2.2300176, 48.8532481], [2.2293657, 48.8540059], [2.2290117, 48.8546585], [2.2288933, 48.8549499], [2.2288146, 48.8551774], [2.2287334, 48.8555172], [2.2286828, 48.8558024], [2.228627, 48.8562753]]}}, {"type": "Feature", "properties": {"highway": "path", "footway": null, "name": null, "surface": null, "lit": null, "length_m": 18.63, "type_element": "Way", "__fid": 1737}, "geometry": {"type": "LineString", "coordinates": [[2.228627, 48.8562753], [2.2288808, 48.85627820000002]]}}, {"type": "Feature", "properties": {"highway": "service", "footway": null, "name": null, "surface": "sett", "lit": null, "length_m": 4.45, "type_element": "Way", "__fid": 1738}, "geometry": {"type": "LineString", "coordinates": [[2.2286117, 48.8573179], [2.2286724, 48.8573179]]}}, {"type": "Feature", "properties": {"highway": "path", "footway": null, "name": null, "surface": "dirt", "lit": "no", "length_m": 392.69, "type_element": "Way", "__fid": 1739}, "geometry": {"type": "LineString", "coordinates": [[2.2290506, 48.8607297], [2.2289054, 48.8606038], [2.2288947, 48.8605474], [2.2286953, 48.8603244], [2.2285483, 48.8602463], [2.228377, 48.8599368], [2.228259, 48.8597515], [2.2278862, 48.8588498], [2.2278379, 48.8585427], [2.2279103, 48.8583274], [2.2280203, 48.85820920000001], [2.2284923, 48.8575968], [2.22866, 48.857574700000015]]}}, {"type": "Feature", "properties": {"highway": "service", "footway": null, "name": null, "surface": "asphalt", "lit": null, "length_m": 9.39, "type_element": "Way", "__fid": 1742}, "geometry": {"type": "LineString", "coordinates": [[2.2286695, 48.85760680000002], [2.2287926, 48.8575836]]}}, {"type": "Feature", "properties": {"highway": "service", "footway": null, "name": null, "surface": "asphalt", "lit": null, "length_m": 138.7, "type_element": "Way", "__fid": 1745}, "geometry": {"type": "LineString", "coordinates": [[2.2287926, 48.8575836], [2.2290159, 48.8575176], [2.2291581, 48.8567594], [2.229148, 48.8567137], [2.2291206, 48.8566747], [2.2290825, 48.8566514], [2.2289905, 48.8566234], [2.2287994, 48.85658559999999]]}}, {"type": "Feature", "properties": {"highway": "footway", "footway": "sidewalk", "name": null, "surface": "compacted", "lit": null, "length_m": 59.7, "type_element": "Way", "__fid": 1746}, "geometry": {"type": "LineString", "coordinates": [[2.2289537, 48.8581099], [2.2287926, 48.8575836]]}}, {"type": "Feature", "properties": {"highway": "service", "footway": null, "name": null, "surface": "asphalt", "lit": null, "length_m": 8.34, "type_element": "Way", "__fid": 1748}, "geometry": {"type": "LineString", "coordinates": [[2.2288522, 48.8581437], [2.2289537, 48.8581099]]}}, {"type": "Feature", "properties": {"highway": "path", "footway": null, "name": null, "surface": null, "lit": null, "length_m": 116.09, "type_element": "Way", "__fid": 1749}, "geometry": {"type": "LineString", "coordinates": [[2.2288808, 48.85627820000002], [2.2290874, 48.8562993], [2.2293636, 48.8563646], [2.2295393, 48.8564185], [2.229601, 48.8564529], [2.2296426, 48.856512], [2.2296493, 48.8568407], [2.2296647, 48.8569126], [2.2296634, 48.8569774]]}}, {"type": "Feature", "properties": {"highway": "path", "footway": null, "name": null, "surface": null, "lit": null, "length_m": 153.62, "type_element": "Way", "__fid": 1750}, "geometry": {"type": "LineString", "coordinates": [[2.2288808, 48.85627820000002], [2.2289935, 48.8562252], [2.229086, 48.85616609999999], [2.229141, 48.8561087], [2.229204, 48.8559693], [2.2293368, 48.8557302], [2.2296345, 48.8552758], [2.2297385, 48.8551686], [2.2298491, 48.8550799]]}}, {"type": "Feature", "properties": {"highway": "footway", "footway": "sidewalk", "name": null, "surface": "compacted", "lit": null, "length_m": 90.47, "type_element": "Way", "__fid": 1755}, "geometry": {"type": "LineString", "coordinates": [[2.2292684, 48.8588965], [2.2291429, 48.8586078], [2.2289537, 48.8581099]]}}, {"type": "Feature", "properties": {"highway": "service", "footway": null, "name": null, "surface": "asphalt", "lit": null, "length_m": 22.0, "type_element": "Way", "__fid": 1756}, "geometry": {"type": "LineString", "coordinates": [[2.2289537, 48.8581099], [2.2292195, 48.8580183]]}}, {"type": "Feature", "properties": {"highway": "service", "footway": null, "name": null, "surface": null, "lit": null, "length_m": 8.93, "type_element": "Way", "__fid": 1766}, "geometry": {"type": "LineString", "coordinates": [[2.2292684, 48.8588965], [2.2291547, 48.8589251]]}}, {"type": "Feature", "properties": {"highway": "service", "footway": null, "name": null, "surface": "compacted", "lit": null, "length_m": 92.49, "type_element": "Way", "__fid": 1769}, "geometry": {"type": "LineString", "coordinates": [[2.2292195, 48.8580183], [2.2296157, 48.85880789999999]]}}, {"type": "Feature", "properties": {"highway": "service", "footway": null, "name": null, "surface": "asphalt", "lit": null, "length_m": 17.29, "type_element": "Way", "__fid": 1770}, "geometry": {"type": "LineString", "coordinates": [[2.2292195, 48.8580183], [2.2294193, 48.8579359]]}}, {"type": "Feature", "properties": {"highway": "footway", "footway": "sidewalk", "name": null, "surface": "compacted", "lit": null, "length_m": 266.27, "type_element": "Way", "__fid": 1775}, "geometry": {"type": "LineString", "coordinates": [[2.2302113, 48.8612065], [2.2300502, 48.8609192], [2.2299785, 48.8607693], [2.2295576, 48.8595639], [2.2292684, 48.8588965]]}}, {"type": "Feature", "properties": {"highway": "service", "footway": null, "name": null, "surface": null, "lit": null, "length_m": 27.32, "type_element": "Way", "__fid": 1776}, "geometry": {"type": "LineString", "coordinates": [[2.2296157, 48.85880789999999], [2.2292684, 48.8588965]]}}, {"type": "Feature", "properties": {"highway": "service", "footway": null, "name": null, "surface": null, "lit": null, "length_m": 30.22, "type_element": "Way", "__fid": 1781}, "geometry": {"type": "LineString", "coordinates": [[2.2295726, 48.8581881], [2.2294193, 48.8579359]]}}, {"type": "Feature", "properties": {"highway": "service", "footway": null, "name": null, "surface": null, "lit": null, "length_m": 61.63, "type_element": "Way", "__fid": 1782}, "geometry": {"type": "LineString", "coordinates": [[2.2294193, 48.8579359], [2.229626, 48.8577703], [2.2298814, 48.8574753]]}}, {"type": "Feature", "properties": {"highway": "service", "footway": null, "name": null, "surface": null, "lit": null, "length_m": 33.5, "type_element": "Way", "__fid": 1789}, "geometry": {"type": "LineString", "coordinates": [[2.2295726, 48.8581881], [2.2297426, 48.8584677]]}}, {"type": "Feature", "properties": {"highway": "service", "footway": null, "name": null, "surface": null, "lit": null, "length_m": 50.88, "type_element": "Way", "__fid": 1790}, "geometry": {"type": "LineString", "coordinates": [[2.2302209, 48.8580258], [2.2295726, 48.8581881]]}}, {"type": "Feature", "properties": {"highway": "service", "footway": null, "name": null, "surface": null, "lit": null, "length_m": 35.46, "type_element": "Way", "__fid": 1793}, "geometry": {"type": "LineString", "coordinates": [[2.2296157, 48.85880789999999], [2.2300693, 48.8586979]]}}, {"type": "Feature", "properties": {"highway": "service", "footway": null, "name": null, "surface": null, "lit": null, "length_m": 66.09, "type_element": "Way", "__fid": 1805}, "geometry": {"type": "LineString", "coordinates": [[2.2298814, 48.8574753], [2.2302209, 48.8580258]]}}, {"type": "Feature", "properties": {"highway": "service", "footway": null, "name": null, "surface": null, "lit": null, "length_m": 198.96, "type_element": "Way", "__fid": 1806}, "geometry": {"type": "LineString", "coordinates": [[2.2298814, 48.8574753], [2.2298814, 48.85732020000001], [2.2299214, 48.8571899], [2.230037, 48.85708980000001], [2.2300559, 48.8568153], [2.2300641, 48.8563796], [2.2300476, 48.8560252], [2.2300583, 48.8558547], [2.2301565, 48.855731]]}}, {"type": "Feature", "properties": {"highway": "service", "footway": null, "name": null, "surface": null, "lit": null, "length_m": 544.68, "type_element": "Way", "__fid": 1810}, "geometry": {"type": "LineString", "coordinates": [[2.2300693, 48.8586979], [2.2308614, 48.8601524], [2.2325126, 48.86296830000001], [2.2325125, 48.863042], [2.2323597, 48.863281500000014]]}}, {"type": "Feature", "properties": {"highway": "service", "footway": null, "name": null, "surface": null, "lit": null, "length_m": 105.56, "type_element": "Way", "__fid": 1811}, "geometry": {"type": "LineString", "coordinates": [[2.2302209, 48.8580258], [2.2305692, 48.8585784], [2.2300693, 48.8586979]]}}, {"type": "Feature", "properties": {"highway": "track", "footway": null, "name": null, "surface": null, "lit": null, "length_m": 73.1, "type_element": "Way", "__fid": 1812}, "geometry": {"type": "LineString", "coordinates": [[2.2301565, 48.855731], [2.2304217, 48.85569190000001], [2.2305721, 48.8556471], [2.2306261, 48.8555844], [2.2306461, 48.855453], [2.2306217, 48.8552888]]}}, {"type": "Feature", "properties": {"highway": "service", "footway": null, "name": null, "surface": null, "lit": null, "length_m": 192.41, "type_element": "Way", "__fid": 1826}, "geometry": {"type": "LineString", "coordinates": [[2.2306217, 48.8552888], [2.2306831, 48.8552313], [2.2307691, 48.8550669], [2.2308192, 48.8549079], [2.2309534, 48.8542176], [2.2309231, 48.8538254], [2.2309573, 48.8536687], [2.2310032, 48.853598200000015]]}}, {"type": "Feature", "properties": {"highway": "service", "footway": null, "name": null, "surface": null, "lit": null, "length_m": 160.46, "type_element": "Way", "__fid": 1835}, "geometry": {"type": "LineString", "coordinates": [[2.2310032, 48.853598200000015], [2.2312613, 48.85344], [2.2313402, 48.8533787], [2.2314546, 48.8532113], [2.2316042, 48.8530205], [2.2317904, 48.8528592], [2.231854, 48.8528119], [2.2321003, 48.8526654], [2.2322973, 48.852566], [2.2324065, 48.8525243]]}}, {"type": "Feature", "properties": {"highway": "service", "footway": null, "name": null, "surface": null, "lit": null, "length_m": 226.55, "type_element": "Way", "__fid": 1850}, "geometry": {"type": "LineString", "coordinates": [[2.2335765, 48.8584066], [2.2322255, 48.8587029], [2.2321665, 48.8586817], [2.2321209, 48.8586446], [2.2317106, 48.85767579999998]]}}, {"type": "Feature", "properties": {"highway": "service", "footway": null, "name": null, "surface": null, "lit": null, "length_m": 1593.23, "type_element": "Way", "__fid": 1863}, "geometry": {"type": "LineString", "coordinates": [[2.2324065, 48.8525243], [2.2326997, 48.852412500000014], [2.2327347, 48.8523911], [2.2328022, 48.8523034], [2.2327931, 48.8522343], [2.2327272, 48.8520967], [2.2327339, 48.85203910000001], [2.2327681, 48.8519738], [2.2328264, 48.8519344], [2.2329581, 48.8518987], [2.2330822, 48.851885], [2.2331639, 48.851885], [2.2332772, 48.8519217], [2.2333947, 48.8520413], [2.2334555, 48.8520895], [2.2335222, 48.85211970000002], [2.2336463, 48.85214050000001], [2.2337897, 48.8521252], [2.2342638, 48.8520254], [2.2357729, 48.85165640000001], [2.235992, 48.8516109], [2.2360887, 48.85160040000002], [2.2362328, 48.8515961], [2.2363053, 48.8516087], [2.2364116, 48.851662400000016], [2.2364794, 48.851731], [2.2365364, 48.8518093], [2.236532, 48.8518527], [2.2364166, 48.8519448], [2.2363726, 48.85200179999999], [2.2363652, 48.8520676], [2.2364085, 48.8522841], [2.2364386, 48.8528977], [2.2365107, 48.8530771], [2.2367166, 48.85331949999998], [2.2368008, 48.8534389], [2.2369302, 48.8537087], [2.2370023, 48.853890800000016], [2.2370653, 48.8541238], [2.237113, 48.854365], [2.237183, 48.8549673], [2.2371883, 48.8551482], [2.2371576, 48.8555929], [2.2371572, 48.855853], [2.2371749, 48.8559781], [2.2372187, 48.8561551], [2.2372888, 48.8563692], [2.2373115, 48.85654], [2.2372972, 48.85670120000002], [2.2372424, 48.85689979999999], [2.2371658, 48.8571162], [2.2370612, 48.8574921], [2.2369839, 48.857785], [2.2369129, 48.858137], [2.2367491, 48.8586689], [2.236709, 48.85884260000001], [2.2366866, 48.8590279], [2.2366347, 48.8598853], [2.2366795, 48.8600861], [2.2367726, 48.860333500000024], [2.2371191, 48.8611677], [2.2372723, 48.86149710000002], [2.2373229, 48.8616693], [2.237363, 48.8618693], [2.2373512, 48.8619848], [2.2372163, 48.8623926]]}}, {"type": "Feature", "properties": {"highway": "service", "footway": null, "name": null, "surface": null, "lit": null, "length_m": 52.94, "type_element": "Way", "__fid": 1890}, "geometry": {"type": "LineString", "coordinates": [[2.2331028, 48.85733070000001], [2.2333095, 48.8577868]]}}, {"type": "Feature", "properties": {"highway": "service", "footway": null, "name": null, "surface": null, "lit": null, "length_m": 71.65, "type_element": "Way", "__fid": 1894}, "geometry": {"type": "LineString", "coordinates": [[2.2333095, 48.8577868], [2.2335765, 48.8584066]]}}, {"type": "Feature", "properties": {"highway": "service", "footway": null, "name": null, "surface": null, "lit": null, "length_m": 125.21, "type_element": "Way", "__fid": 1895}, "geometry": {"type": "LineString", "coordinates": [[2.2333095, 48.8577868], [2.2349534, 48.8574847]]}}, {"type": "Feature", "properties": {"highway": "service", "footway": null, "name": null, "surface": null, "lit": null, "length_m": 100.99, "type_element": "Way", "__fid": 1903}, "geometry": {"type": "LineString", "coordinates": [[2.2335765, 48.8584066], [2.2339528, 48.8592802]]}}, {"type": "Feature", "properties": {"highway": "service", "footway": null, "name": null, "surface": null, "lit": null, "length_m": 123.94, "type_element": "Way", "__fid": 1916}, "geometry": {"type": "LineString", "coordinates": [[2.2339528, 48.8592802], [2.2355797, 48.85898030000002]]}}, {"type": "Feature", "properties": {"highway": "service", "footway": null, "name": null, "surface": null, "lit": null, "length_m": 125.12, "type_element": "Way", "__fid": 1917}, "geometry": {"type": "LineString", "coordinates": [[2.2356458, 48.8591381], [2.2340003, 48.8594337]]}}, {"type": "Feature", "properties": {"highway": "service", "footway": null, "name": null, "surface": null, "lit": null, "length_m": 184.74, "type_element": "Way", "__fid": 1926}, "geometry": {"type": "LineString", "coordinates": [[2.2342828, 48.8558833], [2.2349534, 48.8574847]]}}, {"type": "Feature", "properties": {"highway": "service", "footway": null, "name": null, "surface": null, "lit": null, "length_m": 172.54, "type_element": "Way", "__fid": 1965}, "geometry": {"type": "LineString", "coordinates": [[2.2349534, 48.8574847], [2.2355797, 48.85898030000002]]}}, {"type": "Feature", "properties": {"highway": "service", "footway": null, "name": null, "surface": null, "lit": null, "length_m": 18.2, "type_element": "Way", "__fid": 1979}, "geometry": {"type": "LineString", "coordinates": [[2.2355797, 48.85898030000002], [2.2356458, 48.8591381]]}}, {"type": "Feature", "properties": {"highway": "service", "footway": null, "name": null, "surface": null, "lit": null, "length_m": 284.64, "type_element": "Way", "__fid": 1982}, "geometry": {"type": "LineString", "coordinates": [[2.2356458, 48.8591381], [2.2359826, 48.8599425], [2.2359893, 48.8600981], [2.2357279, 48.861658200000015]]}}, {"type": "Feature", "properties": {"highway": "footway", "footway": "sidewalk", "name": null, "surface": "unpaved", "lit": null, "length_m": 771.59, "type_element": "Way", "__fid": 2013}, "geometry": {"type": "LineString", "coordinates": [[2.2367177, 48.8520737], [2.2366874, 48.8522787], [2.2366874, 48.85241240000001], [2.2367351, 48.8526922], [2.2367788, 48.8528624], [2.2370387, 48.8534808], [2.2372322, 48.8540097], [2.2372948, 48.8542168], [2.237352, 48.8544699], [2.2374186, 48.8551087], [2.2374351, 48.8558547], [2.2374283, 48.8563408], [2.2373185, 48.8569506], [2.2369938, 48.8582708], [2.2368937, 48.85876620000001], [2.2368809, 48.858864], [2.2369871, 48.858869]]}}]}