{"type": "FeatureCollection", "features": [{"type": "Feature", "properties": {"@id": "node/5820072824", "amenity": "drinking_water", "type_element": "Fontaines à boire", "__fid": 571}, "geometry": {"type": "Point", "coordinates": [2.2333171, 48.8639985]}, "id": "node/5820072824"}, {"type": "Feature", "geometry": {"type": "Point", "coordinates": [2.234761, 48.86492]}, "properties": {"id": 2780, "name": "Pré Catelan et jardin Shakespeare", "categorie": "Parcs, jardins et bois", "photo_url": "https://cdn.paris.fr/eqpts-prod/2023/10/18/d6dac6bb10d6a97655f3624aab5dc929.jpg", "photo_credit": "Sonia Yassa / Ville de Paris", "photo_alt": null, "address_street": "route de Suresnes", "address_postcode": "75016", "address_city": "PARIS", "phone": null, "accessibility": "{\"handicaps\": [{\"name\": \"Personnes à mobilité réduite\", \"status\": \"accessible\"}, {\"name\": \"Personnes déficientes visuelles\", \"status\": \"undefined\"}, {\"name\": \"Personnes déficientes auditives\", \"status\": \"undefined\"}, {\"name\": \"Personnes déficientes mentales\", \"status\": \"undefined\"}, {\"name\": \"Accueil en langue des signes\", \"status\": \"undefined\"}]}", "latitude": 48.86492, "longitude": 2.234761, "url": "https://www.paris.fr/lieux/pre-catelan-et-jardin-shakespeare-2780", "type_element": "Parcs, Jardins et Bois", "__fid": 1371}}, {"type": "Feature", "properties": {"highway": "track", "footway": null, "name": null, "surface": "compacted", "lit": null, "length_m": 65.15, "type_element": "Way", "__fid": 1707}, "geometry": {"type": "LineString", "coordinates": [[2.2278842, 48.86088860000002], [2.2277362, 48.8606047], [2.2275827, 48.8605107], [2.2275119, 48.8603708]]}}, {"type": "Feature", "properties": {"highway": "service", "footway": null, "name": null, "surface": null, "lit": null, "length_m": 52.74, "type_element": "Way", "__fid": 1708}, "geometry": {"type": "LineString", "coordinates": [[2.2275119, 48.8603708], [2.2276048, 48.8603273], [2.2281743, 48.8601928]]}}, {"type": "Feature", "properties": {"highway": "path", "footway": null, "name": null, "surface": "paving_stones", "lit": null, "length_m": 44.18, "type_element": "Way", "__fid": 1710}, "geometry": {"type": "LineString", "coordinates": [[2.2278842, 48.86088860000002], [2.2278381, 48.860983200000014], [2.2278354, 48.8610163], [2.2278643, 48.861049], [2.2279474, 48.86122319999998], [2.2279608, 48.8612387], [2.2279975, 48.8612494]]}}, {"type": "Feature", "properties": {"highway": "track", "footway": null, "name": null, "surface": "compacted", "lit": null, "length_m": 19.01, "type_element": "Way", "__fid": 1712}, "geometry": {"type": "LineString", "coordinates": [[2.2280304, 48.861419], [2.2279975, 48.8612494]]}}, {"type": "Feature", "properties": {"highway": "path", "footway": null, "name": null, "surface": "dirt", "lit": null, "length_m": 31.97, "type_element": "Way", "__fid": 1713}, "geometry": {"type": "LineString", "coordinates": [[2.2280304, 48.861419], [2.2281006, 48.8614425], [2.2281841, 48.8614969], [2.2281952, 48.861510400000014], [2.2282133, 48.8615958], [2.2282961, 48.8616104]]}}, {"type": "Feature", "properties": {"highway": "track", "footway": null, "name": null, "surface": "compacted", "lit": null, "length_m": 46.96, "type_element": "Way", "__fid": 1714}, "geometry": {"type": "LineString", "coordinates": [[2.2282146, 48.8618235], [2.2280304, 48.861419]]}}, {"type": "Feature", "properties": {"highway": "track", "footway": null, "name": null, "surface": "compacted", "lit": null, "length_m": 225.4, "type_element": "Way", "__fid": 1716}, "geometry": {"type": "LineString", "coordinates": [[2.2289304, 48.863786199999986], [2.2288683, 48.86373429999998], [2.2287843, 48.8635091], [2.2286498, 48.8629574], [2.2285399, 48.8626125], [2.2283316, 48.8620805], [2.2282146, 48.8618235]]}}, {"type": "Feature", "properties": {"highway": "footway", "footway": null, "name": null, "surface": "dirt", "lit": null, "length_m": 11.28, "type_element": "Way", "__fid": 1717}, "geometry": {"type": "LineString", "coordinates": [[2.2282146, 48.8618235], [2.2283626, 48.8617961]]}}, {"type": "Feature", "properties": {"highway": "service", "footway": null, "name": null, "surface": null, "lit": null, "length_m": 21.38, "type_element": "Way", "__fid": 1719}, "geometry": {"type": "LineString", "coordinates": [[2.2283626, 48.8617961], [2.2283041, 48.86168270000001], [2.2282961, 48.8616104]]}}, {"type": "Feature", "properties": {"highway": "service", "footway": null, "name": null, "surface": null, "lit": null, "length_m": 11.85, "type_element": "Way", "__fid": 1720}, "geometry": {"type": "LineString", "coordinates": [[2.2282961, 48.8616104], [2.2283041, 48.8615742], [2.2284001, 48.8615444]]}}, {"type": "Feature", "properties": {"highway": "service", "footway": null, "name": null, "surface": null, "lit": null, "length_m": 16.67, "type_element": "Way", "__fid": 1723}, "geometry": {"type": "LineString", "coordinates": [[2.2284357, 48.861938], [2.2283626, 48.8617961]]}}, {"type": "Feature", "properties": {"highway": "service", "footway": null, "name": null, "surface": null, "lit": null, "length_m": 41.66, "type_element": "Way", "__fid": 1724}, "geometry": {"type": "LineString", "coordinates": [[2.2285969, 48.8618958], [2.2284001, 48.8615444]]}}, {"type": "Feature", "properties": {"highway": "service", "footway": null, "name": null, "surface": null, "lit": null, "length_m": 54.61, "type_element": "Way", "__fid": 1725}, "geometry": {"type": "LineString", "coordinates": [[2.2284001, 48.8615444], [2.2285482, 48.86149829999999], [2.2287664, 48.8618533]]}}, {"type": "Feature", "properties": {"highway": "service", "footway": null, "name": null, "surface": null, "lit": null, "length_m": 11.27, "type_element": "Way", "__fid": 1728}, "geometry": {"type": "LineString", "coordinates": [[2.2284852, 48.86203390000002], [2.2284357, 48.861938]]}}, {"type": "Feature", "properties": {"highway": "service", "footway": null, "name": null, "surface": null, "lit": null, "length_m": 12.72, "type_element": "Way", "__fid": 1729}, "geometry": {"type": "LineString", "coordinates": [[2.2284357, 48.861938], [2.2285969, 48.8618958]]}}, {"type": "Feature", "properties": {"highway": "service", "footway": null, "name": null, "surface": null, "lit": null, "length_m": 141.71, "type_element": "Way", "__fid": 1732}, "geometry": {"type": "LineString", "coordinates": [[2.229239, 48.8630761], [2.2290592, 48.86311819999999], [2.2284852, 48.86203390000002]]}}, {"type": "Feature", "properties": {"highway": "service", "footway": null, "name": null, "surface": null, "lit": null, "length_m": 13.01, "type_element": "Way", "__fid": 1733}, "geometry": {"type": "LineString", "coordinates": [[2.2284852, 48.86203390000002], [2.2286511, 48.8619927]]}}, {"type": "Feature", "properties": {"highway": "footway", "footway": "sidewalk", "name": null, "surface": "compacted", "lit": null, "length_m": 93.93, "type_element": "Way", "__fid": 1734}, "geometry": {"type": "LineString", "coordinates": [[2.2290275, 48.8614492], [2.2289321, 48.8613292], [2.2287347, 48.8610471], [2.2285263, 48.8606731]]}}, {"type": "Feature", "properties": {"highway": "path", "footway": null, "name": null, "surface": "dirt", "lit": "no", "length_m": 392.69, "type_element": "Way", "__fid": 1739}, "geometry": {"type": "LineString", "coordinates": [[2.2290506, 48.8607297], [2.2289054, 48.8606038], [2.2288947, 48.8605474], [2.2286953, 48.8603244], [2.2285483, 48.8602463], [2.228377, 48.8599368], [2.228259, 48.8597515], [2.2278862, 48.8588498], [2.2278379, 48.8585427], [2.2279103, 48.8583274], [2.2280203, 48.85820920000001], [2.2284923, 48.8575968], [2.22866, 48.857574700000015]]}}, {"type": "Feature", "properties": {"highway": "service", "footway": null, "name": null, "surface": null, "lit": null, "length_m": 11.49, "type_element": "Way", "__fid": 1740}, "geometry": {"type": "LineString", "coordinates": [[2.2286511, 48.8619927], [2.2285969, 48.8618958]]}}, {"type": "Feature", "properties": {"highway": "service", "footway": null, "name": null, "surface": null, "lit": null, "length_m": 13.3, "type_element": "Way", "__fid": 1741}, "geometry": {"type": "LineString", "coordinates": [[2.2285969, 48.8618958], [2.2287664, 48.8618533]]}}, {"type": "Feature", "properties": {"highway": "service", "footway": null, "name": null, "surface": null, "lit": null, "length_m": 127.96, "type_element": "Way", "__fid": 1743}, "geometry": {"type": "LineString", "coordinates": [[2.229239, 48.8630761], [2.2286511, 48.8619927]]}}, {"type": "Feature", "properties": {"highway": "service", "footway": null, "name": null, "surface": null, "lit": null, "length_m": 13.67, "type_element": "Way", "__fid": 1744}, "geometry": {"type": "LineString", "coordinates": [[2.2286511, 48.8619927], [2.2288255, 48.8619495]]}}, {"type": "Feature", "properties": {"highway": "service", "footway": null, "name": null, "surface": null, "lit": null, "length_m": 11.54, "type_element": "Way", "__fid": 1747}, "geometry": {"type": "LineString", "coordinates": [[2.2287664, 48.8618533], [2.2288255, 48.8619495]]}}, {"type": "Feature", "properties": {"highway": "footway", "footway": "crossing", "name": null, "surface": null, "lit": null, "length_m": 17.5, "type_element": "Way", "__fid": 1751}, "geometry": {"type": "LineString", "coordinates": [[2.2288062, 48.861508], [2.2290275, 48.8614492]]}}, {"type": "Feature", "properties": {"highway": "service", "footway": null, "name": null, "surface": null, "lit": null, "length_m": 56.85, "type_element": "Way", "__fid": 1752}, "geometry": {"type": "LineString", "coordinates": [[2.2288255, 48.8619495], [2.2290935, 48.86242919999999]]}}, {"type": "Feature", "properties": {"highway": "service", "footway": null, "name": null, "surface": null, "lit": null, "length_m": 20.24, "type_element": "Way", "__fid": 1753}, "geometry": {"type": "LineString", "coordinates": [[2.2288255, 48.8619495], [2.2290837, 48.8618853]]}}, {"type": "Feature", "properties": {"highway": "footway", "footway": null, "name": null, "surface": "asphalt", "lit": "yes", "length_m": 5.4, "type_element": "Way", "__fid": 1754}, "geometry": {"type": "LineString", "coordinates": [[2.2288588, 48.8637975], [2.2289304, 48.863786199999986]]}}, {"type": "Feature", "properties": {"highway": "track", "footway": null, "name": null, "surface": "compacted", "lit": null, "length_m": 193.27, "type_element": "Way", "__fid": 1757}, "geometry": {"type": "LineString", "coordinates": [[2.2297076, 48.8654316], [2.2296511, 48.8653658], [2.2294281, 48.8650146], [2.2292564, 48.8646397], [2.2290091, 48.864184299999984], [2.2289385, 48.86399840000003], [2.228911, 48.8638409], [2.2289304, 48.863786199999986]]}}, {"type": "Feature", "properties": {"highway": "service", "footway": null, "name": null, "surface": "asphalt", "lit": null, "length_m": 19.86, "type_element": "Way", "__fid": 1758}, "geometry": {"type": "LineString", "coordinates": [[2.2289304, 48.863786199999986], [2.2289304, 48.86375360000001], [2.2289506, 48.8637364], [2.2289881, 48.863724], [2.2291323, 48.8637077]]}}, {"type": "Feature", "properties": {"highway": "footway", "footway": "sidewalk", "name": null, "surface": null, "lit": null, "length_m": 15.38, "type_element": "Way", "__fid": 1759}, "geometry": {"type": "LineString", "coordinates": [[2.2290275, 48.8614492], [2.2290661, 48.86148870000001], [2.229123, 48.86152079999999], [2.2291831, 48.8615343]]}}, {"type": "Feature", "properties": {"highway": "footway", "footway": null, "name": null, "surface": "dirt", "lit": null, "length_m": 92.77, "type_element": "Way", "__fid": 1760}, "geometry": {"type": "LineString", "coordinates": [[2.2290506, 48.8607297], [2.2290606, 48.8607754], [2.2290645, 48.8609651], [2.2291461, 48.8611415], [2.229317, 48.8614059], [2.2293588, 48.86143289999998], [2.2294084, 48.8614501], [2.2294571, 48.8614897]]}}, {"type": "Feature", "properties": {"highway": "path", "footway": null, "name": null, "surface": "dirt", "lit": null, "length_m": 9.41, "type_element": "Way", "__fid": 1761}, "geometry": {"type": "LineString", "coordinates": [[2.2291121, 48.86065540000001], [2.2290506, 48.8607297]]}}, {"type": "Feature", "properties": {"highway": "path", "footway": null, "name": null, "surface": "dirt", "lit": null, "length_m": 64.62, "type_element": "Way", "__fid": 1762}, "geometry": {"type": "LineString", "coordinates": [[2.2298839, 48.8608515], [2.2296323, 48.8606832], [2.229407, 48.8606797], [2.2291121, 48.86065540000001]]}}, {"type": "Feature", "properties": {"highway": "path", "footway": null, "name": null, "surface": "dirt", "lit": null, "length_m": 85.95, "type_element": "Way", "__fid": 1763}, "geometry": {"type": "LineString", "coordinates": [[2.2291121, 48.86065540000001], [2.229131, 48.860607], [2.2292108, 48.8602228], [2.2292473, 48.8601606], [2.2293194, 48.8601306], [2.2294506, 48.8600464], [2.2294832, 48.860034], [2.2295814, 48.86001850000001]]}}, {"type": "Feature", "properties": {"highway": "service", "footway": null, "name": null, "surface": null, "lit": null, "length_m": 80.25, "type_element": "Way", "__fid": 1764}, "geometry": {"type": "LineString", "coordinates": [[2.2290935, 48.86242919999999], [2.2294212, 48.8630158], [2.2293703, 48.8630458], [2.2292965, 48.86306260000002]]}}, {"type": "Feature", "properties": {"highway": "footway", "footway": "crossing", "name": "Carrefour des Tribunes", "surface": "asphalt", "lit": "yes", "length_m": 45.66, "type_element": "Way", "__fid": 1765}, "geometry": {"type": "LineString", "coordinates": [[2.2295842, 48.8622465], [2.2295395, 48.862292], [2.2295284, 48.8623181], [2.2295312, 48.8623471], [2.2290935, 48.86242919999999]]}}, {"type": "Feature", "properties": {"highway": "footway", "footway": "crossing", "name": null, "surface": null, "lit": null, "length_m": 21.35, "type_element": "Way", "__fid": 1767}, "geometry": {"type": "LineString", "coordinates": [[2.2294269, 48.8620704], [2.229148, 48.8621251]]}}, {"type": "Feature", "properties": {"highway": "service", "footway": null, "name": null, "surface": "asphalt", "lit": null, "length_m": 4.93, "type_element": "Way", "__fid": 1768}, "geometry": {"type": "LineString", "coordinates": [[2.2291961, 48.8636937], [2.2291323, 48.8637077]]}}, {"type": "Feature", "properties": {"highway": "footway", "footway": "sidewalk", "name": null, "surface": null, "lit": null, "length_m": 20.92, "type_element": "Way", "__fid": 1771}, "geometry": {"type": "LineString", "coordinates": [[2.2291831, 48.8615343], [2.2292477, 48.8615353], [2.2294571, 48.8614897]]}}, {"type": "Feature", "properties": {"highway": "path", "footway": null, "name": null, "surface": "dirt", "lit": null, "length_m": 62.98, "type_element": "Way", "__fid": 1772}, "geometry": {"type": "LineString", "coordinates": [[2.2291831, 48.8615343], [2.2292488, 48.8616948], [2.2292419, 48.8617702], [2.2293276, 48.8619349], [2.2294269, 48.8620704]]}}, {"type": "Feature", "properties": {"highway": "service", "footway": null, "name": null, "surface": null, "lit": null, "length_m": 14.47, "type_element": "Way", "__fid": 1773}, "geometry": {"type": "LineString", "coordinates": [[2.2292855, 48.8635801], [2.2292275, 48.86362830000002], [2.2291961, 48.8636937]]}}, {"type": "Feature", "properties": {"highway": "service", "footway": null, "name": null, "surface": "asphalt", "lit": null, "length_m": 98.54, "type_element": "Way", "__fid": 1774}, "geometry": {"type": "LineString", "coordinates": [[2.230285, 48.8632463], [2.229978, 48.86352279999998], [2.2291961, 48.8636937]]}}, {"type": "Feature", "properties": {"highway": "footway", "footway": "sidewalk", "name": null, "surface": "compacted", "lit": null, "length_m": 266.27, "type_element": "Way", "__fid": 1775}, "geometry": {"type": "LineString", "coordinates": [[2.2302113, 48.8612065], [2.2300502, 48.8609192], [2.2299785, 48.8607693], [2.2295576, 48.8595639], [2.2292684, 48.8588965]]}}, {"type": "Feature", "properties": {"highway": "service", "footway": null, "name": null, "surface": null, "lit": null, "length_m": 4.48, "type_element": "Way", "__fid": 1777}, "geometry": {"type": "LineString", "coordinates": [[2.2292965, 48.86306260000002], [2.229239, 48.8630761]]}}, {"type": "Feature", "properties": {"highway": "service", "footway": null, "name": null, "surface": null, "lit": null, "length_m": 51.08, "type_element": "Way", "__fid": 1778}, "geometry": {"type": "LineString", "coordinates": [[2.2292855, 48.8635801], [2.2291444, 48.8632845], [2.2293606, 48.8632398]]}}, {"type": "Feature", "properties": {"highway": "service", "footway": null, "name": null, "surface": null, "lit": null, "length_m": 16.35, "type_element": "Way", "__fid": 1779}, "geometry": {"type": "LineString", "coordinates": [[2.2294978, 48.8635354], [2.2292855, 48.8635801]]}}, {"type": "Feature", "properties": {"highway": "path", "footway": null, "name": null, "surface": null, "lit": null, "length_m": 21.82, "type_element": "Way", "__fid": 1780}, "geometry": {"type": "LineString", "coordinates": [[2.2292965, 48.86306260000002], [2.2293891, 48.8632202], [2.2293606, 48.8632398]]}}, {"type": "Feature", "properties": {"highway": "service", "footway": null, "name": null, "surface": null, "lit": null, "length_m": 11.7, "type_element": "Way", "__fid": 1783}, "geometry": {"type": "LineString", "coordinates": [[2.2293606, 48.8632398], [2.2294085, 48.8633402]]}}, {"type": "Feature", "properties": {"highway": "footway", "footway": "crossing", "name": null, "surface": "asphalt", "lit": null, "length_m": 23.13, "type_element": "Way", "__fid": 1784}, "geometry": {"type": "LineString", "coordinates": [[2.2294269, 48.8620704], [2.2294843, 48.8621164], [2.2295675, 48.86224090000001], [2.2295842, 48.8622465]]}}, {"type": "Feature", "properties": {"highway": "service", "footway": null, "name": null, "surface": null, "lit": null, "length_m": 22.67, "type_element": "Way", "__fid": 1785}, "geometry": {"type": "LineString", "coordinates": [[2.2294085, 48.8633402], [2.2294978, 48.8635354]]}}, {"type": "Feature", "properties": {"highway": "service", "footway": null, "name": null, "surface": null, "lit": null, "length_m": 12.47, "type_element": "Way", "__fid": 1786}, "geometry": {"type": "LineString", "coordinates": [[2.2294085, 48.8633402], [2.2295689, 48.863303]]}}, {"type": "Feature", "properties": {"highway": "footway", "footway": null, "name": null, "surface": "dirt", "lit": null, "length_m": 6.22, "type_element": "Way", "__fid": 1787}, "geometry": {"type": "LineString", "coordinates": [[2.2294571, 48.8614897], [2.2295007, 48.8615377]]}}, {"type": "Feature", "properties": {"highway": "footway", "footway": "sidewalk", "name": null, "surface": null, "lit": null, "length_m": 17.5, "type_element": "Way", "__fid": 1788}, "geometry": {"type": "LineString", "coordinates": [[2.2294571, 48.8614897], [2.2296801, 48.8614338]]}}, {"type": "Feature", "properties": {"highway": "service", "footway": null, "name": null, "surface": null, "lit": null, "length_m": 35.94, "type_element": "Way", "__fid": 1791}, "geometry": {"type": "LineString", "coordinates": [[2.2295689, 48.863303], [2.2296639, 48.863502], [2.2294978, 48.8635354]]}}, {"type": "Feature", "properties": {"highway": "service", "footway": null, "name": null, "surface": null, "lit": null, "length_m": 11.27, "type_element": "Way", "__fid": 1792}, "geometry": {"type": "LineString", "coordinates": [[2.2295228, 48.8632063], [2.2295689, 48.863303]]}}, {"type": "Feature", "properties": {"highway": "path", "footway": null, "name": null, "surface": "dirt", "lit": null, "length_m": 89.49, "type_element": "Way", "__fid": 1794}, "geometry": {"type": "LineString", "coordinates": [[2.2295842, 48.8622465], [2.2296748, 48.8622718], [2.2299296, 48.862563], [2.2301153, 48.862814], [2.2301777, 48.862862], [2.2302247, 48.8629146]]}}, {"type": "Feature", "properties": {"highway": "footway", "footway": "sidewalk", "name": null, "surface": null, "lit": null, "length_m": 68.14, "type_element": "Way", "__fid": 1795}, "geometry": {"type": "LineString", "coordinates": [[2.2295842, 48.8622465], [2.2296279, 48.8622171], [2.2296717, 48.8622037], [2.2301244, 48.862102100000016], [2.2302076, 48.8620924], [2.2302757, 48.8621004], [2.2303335, 48.8621221], [2.2303767, 48.8621577], [2.2303983, 48.8621879]]}}, {"type": "Feature", "properties": {"highway": "service", "footway": null, "name": null, "surface": null, "lit": null, "length_m": 20.24, "type_element": "Way", "__fid": 1796}, "geometry": {"type": "LineString", "coordinates": [[2.2295689, 48.863303], [2.2298242, 48.86323389999998]]}}, {"type": "Feature", "properties": {"highway": "footway", "footway": "crossing", "name": null, "surface": "compacted", "lit": null, "length_m": 5.74, "type_element": "Way", "__fid": 1799}, "geometry": {"type": "LineString", "coordinates": [[2.2296801, 48.8614338], [2.2297079, 48.8614821]]}}, {"type": "Feature", "properties": {"highway": "footway", "footway": "sidewalk", "name": null, "surface": "compacted", "lit": null, "length_m": 48.7, "type_element": "Way", "__fid": 1800}, "geometry": {"type": "LineString", "coordinates": [[2.2302113, 48.8612065], [2.2300197, 48.86124], [2.2299524, 48.8612667], [2.2298755, 48.8613601], [2.2298106, 48.8613917], [2.2296801, 48.8614338]]}}, {"type": "Feature", "properties": {"highway": "service", "footway": null, "name": null, "surface": null, "lit": null, "length_m": 544.68, "type_element": "Way", "__fid": 1810}, "geometry": {"type": "LineString", "coordinates": [[2.2300693, 48.8586979], [2.2308614, 48.8601524], [2.2325126, 48.86296830000001], [2.2325125, 48.863042], [2.2323597, 48.863281500000014]]}}, {"type": "Feature", "properties": {"highway": "footway", "footway": null, "name": null, "surface": null, "lit": "yes", "length_m": 106.35, "type_element": "Way", "__fid": 1814}, "geometry": {"type": "LineString", "coordinates": [[2.2306701, 48.86211380000001], [2.2302113, 48.8612065]]}}, {"type": "Feature", "properties": {"highway": "path", "footway": null, "name": null, "surface": "dirt", "lit": null, "length_m": 37.95, "type_element": "Way", "__fid": 1815}, "geometry": {"type": "LineString", "coordinates": [[2.2302247, 48.8629146], [2.2302147, 48.8630151], [2.230226, 48.8630858], [2.2302233, 48.863158099999985], [2.230285, 48.8632463]]}}, {"type": "Feature", "properties": {"highway": "path", "footway": null, "name": null, "surface": "dirt", "lit": null, "length_m": 13.16, "type_element": "Way", "__fid": 1816}, "geometry": {"type": "LineString", "coordinates": [[2.2303682, 48.8628554], [2.23024, 48.8628894], [2.2302247, 48.8629146]]}}, {"type": "Feature", "properties": {"highway": "path", "footway": null, "name": null, "surface": "dirt", "lit": null, "length_m": 311.81, "type_element": "Way", "__fid": 1817}, "geometry": {"type": "LineString", "coordinates": [[2.230285, 48.8632463], [2.2304057, 48.8633963], [2.2305514, 48.8634924], [2.2306882, 48.8635701], [2.2308697, 48.863788], [2.2312023, 48.8642768], [2.2313686, 48.8644056], [2.2314866, 48.86448149999999], [2.231897, 48.864979099999985], [2.2319855, 48.8651326], [2.2320392, 48.8651996], [2.2321196, 48.8652614], [2.2321867, 48.8652931], [2.2323289, 48.8653108], [2.2325676, 48.8652667], [2.232715, 48.86520440000001]]}}, {"type": "Feature", "properties": {"highway": "path", "footway": null, "name": null, "surface": "dirt", "lit": null, "length_m": 204.46, "type_element": "Way", "__fid": 1818}, "geometry": {"type": "LineString", "coordinates": [[2.2303682, 48.8628554], [2.2307225, 48.8629295], [2.2308781, 48.8630054], [2.2312462, 48.8632791], [2.2314718, 48.86346849999999], [2.2316414, 48.86358829999998], [2.2318232, 48.86368250000002], [2.2320468, 48.863778900000014], [2.2324346, 48.8638845], [2.2325521, 48.8639293]]}}, {"type": "Feature", "properties": {"highway": "path", "footway": null, "name": null, "surface": "dirt", "lit": null, "length_m": 44.03, "type_element": "Way", "__fid": 1819}, "geometry": {"type": "LineString", "coordinates": [[2.2306217, 48.8625012], [2.2305542, 48.8626626], [2.2303682, 48.8628554]]}}, {"type": "Feature", "properties": {"highway": "footway", "footway": "sidewalk", "name": null, "surface": null, "lit": null, "length_m": 38.5, "type_element": "Way", "__fid": 1820}, "geometry": {"type": "LineString", "coordinates": [[2.2303983, 48.8621879], [2.2306217, 48.8625012]]}}, {"type": "Feature", "properties": {"highway": "footway", "footway": "crossing", "name": null, "surface": "asphalt", "lit": null, "length_m": 21.58, "type_element": "Way", "__fid": 1821}, "geometry": {"type": "LineString", "coordinates": [[2.2306701, 48.86211380000001], [2.2303983, 48.8621879]]}}, {"type": "Feature", "properties": {"highway": "footway", "footway": null, "name": null, "surface": null, "lit": null, "length_m": 192.39, "type_element": "Way", "__fid": 1827}, "geometry": {"type": "LineString", "coordinates": [[2.2306217, 48.8625012], [2.2308294, 48.8627231], [2.2309826, 48.8628515], [2.231254, 48.8630744], [2.2316335, 48.8633395], [2.2321135, 48.863596299999976], [2.232418, 48.8637412]]}}, {"type": "Feature", "properties": {"highway": "footway", "footway": null, "name": null, "surface": null, "lit": "yes", "length_m": 130.29, "type_element": "Way", "__fid": 1828}, "geometry": {"type": "LineString", "coordinates": [[2.2315944, 48.8630985], [2.231178, 48.8627685], [2.2309899, 48.8626054], [2.2309147, 48.8625265], [2.2308517, 48.8624483], [2.230685, 48.8621554], [2.2306701, 48.86211380000001]]}}, {"type": "Feature", "properties": {"highway": "service", "footway": null, "name": null, "surface": "asphalt", "lit": null, "length_m": 12.14, "type_element": "Way", "__fid": 1832}, "geometry": {"type": "LineString", "coordinates": [[2.230651, 48.8651218], [2.2308009, 48.8650756]]}}, {"type": "Feature", "properties": {"highway": "service", "footway": null, "name": null, "surface": null, "lit": null, "length_m": 9.35, "type_element": "Way", "__fid": 1844}, "geometry": {"type": "LineString", "coordinates": [[2.2315944, 48.8630985], [2.2314888, 48.86314559999998]]}}, {"type": "Feature", "properties": {"highway": "footway", "footway": null, "name": null, "surface": null, "lit": "yes", "length_m": 89.51, "type_element": "Way", "__fid": 1848}, "geometry": {"type": "LineString", "coordinates": [[2.2325353, 48.8636085], [2.2323684, 48.8635351], [2.232017, 48.863357700000016], [2.2315944, 48.8630985]]}}, {"type": "Feature", "properties": {"highway": "service", "footway": null, "name": null, "surface": null, "lit": null, "length_m": 63.68, "type_element": "Way", "__fid": 1849}, "geometry": {"type": "LineString", "coordinates": [[2.2323597, 48.863281500000014], [2.2320432, 48.863129], [2.2319161, 48.8630827], [2.2318398, 48.8630713], [2.2317697, 48.8630716], [2.2317002, 48.8630752], [2.231617, 48.863088399999974], [2.2315944, 48.8630985]]}}, {"type": "Feature", "properties": {"highway": "service", "footway": null, "name": null, "surface": null, "lit": null, "length_m": 1593.23, "type_element": "Way", "__fid": 1863}, "geometry": {"type": "LineString", "coordinates": [[2.2324065, 48.8525243], [2.2326997, 48.852412500000014], [2.2327347, 48.8523911], [2.2328022, 48.8523034], [2.2327931, 48.8522343], [2.2327272, 48.8520967], [2.2327339, 48.85203910000001], [2.2327681, 48.8519738], [2.2328264, 48.8519344], [2.2329581, 48.8518987], [2.2330822, 48.851885], [2.2331639, 48.851885], [2.2332772, 48.8519217], [2.2333947, 48.8520413], [2.2334555, 48.8520895], [2.2335222, 48.85211970000002], [2.2336463, 48.85214050000001], [2.2337897, 48.8521252], [2.2342638, 48.8520254], [2.2357729, 48.85165640000001], [2.235992, 48.8516109], [2.2360887, 48.85160040000002], [2.2362328, 48.8515961], [2.2363053, 48.8516087], [2.2364116, 48.851662400000016], [2.2364794, 48.851731], [2.2365364, 48.8518093], [2.236532, 48.8518527], [2.2364166, 48.8519448], [2.2363726, 48.85200179999999], [2.2363652, 48.8520676], [2.2364085, 48.8522841], [2.2364386, 48.8528977], [2.2365107, 48.8530771], [2.2367166, 48.85331949999998], [2.2368008, 48.8534389], [2.2369302, 48.8537087], [2.2370023, 48.853890800000016], [2.2370653, 48.8541238], [2.237113, 48.854365], [2.237183, 48.8549673], [2.2371883, 48.8551482], [2.2371576, 48.8555929], [2.2371572, 48.855853], [2.2371749, 48.8559781], [2.2372187, 48.8561551], [2.2372888, 48.8563692], [2.2373115, 48.85654], [2.2372972, 48.85670120000002], [2.2372424, 48.85689979999999], [2.2371658, 48.8571162], [2.2370612, 48.8574921], [2.2369839, 48.857785], [2.2369129, 48.858137], [2.2367491, 48.8586689], [2.236709, 48.85884260000001], [2.2366866, 48.8590279], [2.2366347, 48.8598853], [2.2366795, 48.8600861], [2.2367726, 48.860333500000024], [2.2371191, 48.8611677], [2.2372723, 48.86149710000002], [2.2373229, 48.8616693], [2.237363, 48.8618693], [2.2373512, 48.8619848], [2.2372163, 48.8623926]]}}, {"type": "Feature", "properties": {"highway": "service", "footway": null, "name": null, "surface": null, "lit": null, "length_m": 39.75, "type_element": "Way", "__fid": 1865}, "geometry": {"type": "LineString", "coordinates": [[2.2327551, 48.8635191], [2.2327132, 48.8634657], [2.2326807, 48.8634451], [2.2323597, 48.863281500000014]]}}, {"type": "Feature", "properties": {"highway": "footway", "footway": null, "name": null, "surface": null, "lit": null, "length_m": 53.9, "type_element": "Way", "__fid": 1866}, "geometry": {"type": "LineString", "coordinates": [[2.232418, 48.8637412], [2.2329949, 48.8640413]]}}, {"type": "Feature", "properties": {"highway": "path", "footway": null, "name": null, "surface": "compacted", "lit": null, "length_m": 23.21, "type_element": "Way", "__fid": 1867}, "geometry": {"type": "LineString", "coordinates": [[2.2325521, 48.8639293], [2.2324596, 48.8638211], [2.232418, 48.8637412]]}}, {"type": "Feature", "properties": {"highway": "footway", "footway": "crossing", "name": null, "surface": "asphalt", "lit": "yes", "length_m": 17.18, "type_element": "Way", "__fid": 1868}, "geometry": {"type": "LineString", "coordinates": [[2.232418, 48.8637412], [2.232425, 48.86372260000001], [2.2325353, 48.8636085]]}}, {"type": "Feature", "properties": {"highway": "footway", "footway": null, "name": null, "surface": null, "lit": "yes", "length_m": 11.97, "type_element": "Way", "__fid": 1870}, "geometry": {"type": "LineString", "coordinates": [[2.2326776, 48.86366120000001], [2.2325353, 48.8636085]]}}, {"type": "Feature", "properties": {"highway": "path", "footway": null, "name": null, "surface": "dirt", "lit": null, "length_m": 35.34, "type_element": "Way", "__fid": 1872}, "geometry": {"type": "LineString", "coordinates": [[2.2325521, 48.8639293], [2.2329658, 48.8640478], [2.2329949, 48.8640413]]}}, {"type": "Feature", "properties": {"highway": "path", "footway": null, "name": null, "surface": "compacted", "lit": null, "length_m": 144.56, "type_element": "Way", "__fid": 1873}, "geometry": {"type": "LineString", "coordinates": [[2.232715, 48.86520440000001], [2.2327819, 48.864998], [2.2328009, 48.8647929], [2.2327887, 48.864615], [2.2327651, 48.8644688], [2.2326504, 48.8641527], [2.232618, 48.8640897], [2.2325907, 48.8639949], [2.2325521, 48.8639293]]}}, {"type": "Feature", "properties": {"highway": "footway", "footway": null, "name": null, "surface": null, "lit": null, "length_m": 101.61, "type_element": "Way", "__fid": 1874}, "geometry": {"type": "LineString", "coordinates": [[2.233894150924426, 48.862380604919245], [2.232821, 48.8626097], [2.2325796, 48.862667899999984]]}}, {"type": "Feature", "properties": {"highway": "service", "footway": null, "name": null, "surface": null, "lit": null, "length_m": 9.66, "type_element": "Way", "__fid": 1875}, "geometry": {"type": "LineString", "coordinates": [[2.2326776, 48.86366120000001], [2.232598, 48.8637304]]}}, {"type": "Feature", "properties": {"highway": "footway", "footway": null, "name": null, "surface": null, "lit": "yes", "length_m": 200.7, "type_element": "Way", "__fid": 1876}, "geometry": {"type": "LineString", "coordinates": [[2.2353342, 48.8640279], [2.2348855, 48.864016], [2.2345625, 48.8639967], [2.2339963, 48.86394030000001], [2.2335583, 48.86387779999998], [2.2333144, 48.8638337], [2.2329769, 48.8637501], [2.2326776, 48.86366120000001]]}}, {"type": "Feature", "properties": {"highway": "service", "footway": null, "name": null, "surface": null, "lit": null, "length_m": 17.32, "type_element": "Way", "__fid": 1877}, "geometry": {"type": "LineString", "coordinates": [[2.2327551, 48.8635191], [2.2327531, 48.8635772], [2.2326776, 48.86366120000001]]}}, {"type": "Feature", "properties": {"highway": "path", "footway": null, "name": null, "surface": "compacted", "lit": null, "length_m": 126.31, "type_element": "Way", "__fid": 1880}, "geometry": {"type": "LineString", "coordinates": [[2.232715, 48.86520440000001], [2.232892, 48.8650698], [2.2329342, 48.8650189], [2.233029, 48.8649675], [2.2332385, 48.864916], [2.2333266, 48.8649097], [2.2338237, 48.8649137], [2.2341095, 48.8649065], [2.2342037, 48.8649225], [2.2342401, 48.86494350000001]]}}, {"type": "Feature", "properties": {"highway": "service", "footway": null, "name": null, "surface": null, "lit": null, "length_m": 153.93, "type_element": "Way", "__fid": 1881}, "geometry": {"type": "LineString", "coordinates": [[2.2346885, 48.8632946], [2.234622, 48.8633822], [2.2345379, 48.8634101], [2.2344264, 48.8634101], [2.2341318, 48.8633683], [2.2338065, 48.8633063], [2.2334954, 48.8633388], [2.2327551, 48.8635191]]}}, {"type": "Feature", "properties": {"highway": "footway", "footway": null, "name": null, "surface": null, "lit": null, "length_m": 43.67, "type_element": "Way", "__fid": 1888}, "geometry": {"type": "LineString", "coordinates": [[2.2329949, 48.8640413], [2.2334102, 48.8643226]]}}, {"type": "Feature", "properties": {"highway": "path", "footway": null, "name": null, "surface": "dirt", "lit": null, "length_m": 6.05, "type_element": "Way", "__fid": 1889}, "geometry": {"type": "LineString", "coordinates": [[2.2329949, 48.8640413], [2.233073, 48.8640239]]}}, {"type": "Feature", "properties": {"highway": "service", "footway": null, "name": null, "surface": null, "lit": null, "length_m": 116.73, "type_element": "Way", "__fid": 1896}, "geometry": {"type": "LineString", "coordinates": [[2.2346885, 48.8632946], [2.2344912, 48.8632841], [2.234285, 48.8632523], [2.2339114, 48.8631686], [2.2335696, 48.8630469], [2.233242, 48.862897300000014]]}}, {"type": "Feature", "properties": {"highway": "footway", "footway": null, "name": null, "surface": "compacted", "lit": "yes", "length_m": 82.79, "type_element": "Way", "__fid": 1898}, "geometry": {"type": "LineString", "coordinates": [[2.2341566, 48.8650527], [2.233281, 48.8655224]]}}, {"type": "Feature", "properties": {"highway": "footway", "footway": null, "name": null, "surface": null, "lit": null, "length_m": 92.15, "type_element": "Way", "__fid": 1900}, "geometry": {"type": "LineString", "coordinates": [[2.2334102, 48.8643226], [2.234079, 48.8648087], [2.2342179, 48.8649161], [2.2342401, 48.86494350000001]]}}, {"type": "Feature", "properties": {"highway": "footway", "footway": "crossing", "name": null, "surface": null, "lit": null, "length_m": 9.8, "type_element": "Way", "__fid": 1901}, "geometry": {"type": "LineString", "coordinates": [[2.2334102, 48.8643226], [2.2335117, 48.864265300000014]]}}, {"type": "Feature", "properties": {"highway": "service", "footway": null, "name": null, "surface": null, "lit": null, "length_m": 100.99, "type_element": "Way", "__fid": 1903}, "geometry": {"type": "LineString", "coordinates": [[2.2335765, 48.8584066], [2.2339528, 48.8592802]]}}, {"type": "Feature", "properties": {"highway": "service", "footway": null, "name": null, "surface": null, "lit": null, "length_m": 88.46, "type_element": "Way", "__fid": 1906}, "geometry": {"type": "LineString", "coordinates": [[2.2336835, 48.8615693], [2.2346259, 48.8620656]]}}, {"type": "Feature", "properties": {"highway": "service", "footway": null, "name": null, "surface": null, "lit": null, "length_m": 93.73, "type_element": "Way", "__fid": 1907}, "geometry": {"type": "LineString", "coordinates": [[2.2336835, 48.8615693], [2.233642, 48.861944], [2.233894150924426, 48.862380604919245]]}}, {"type": "Feature", "properties": {"highway": "service", "footway": null, "name": null, "surface": null, "lit": null, "length_m": 238.72, "type_element": "Way", "__fid": 1908}, "geometry": {"type": "LineString", "coordinates": [[2.2340003, 48.8594337], [2.2340003, 48.8596291], [2.2336835, 48.8615693]]}}, {"type": "Feature", "properties": {"highway": "service", "footway": null, "name": null, "surface": null, "lit": null, "length_m": 95.34, "type_element": "Way", "__fid": 1913}, "geometry": {"type": "LineString", "coordinates": [[2.233894150924426, 48.862380604919245], [2.2341079, 48.86275849999998], [2.2347095, 48.8629789]]}}, {"type": "Feature", "properties": {"highway": "steps", "footway": null, "name": null, "surface": null, "lit": null, "length_m": 13.24, "type_element": "Way", "__fid": 1914}, "geometry": {"type": "LineString", "coordinates": [[2.2340655, 48.86234330000001], [2.233894150924426, 48.862380604919245]]}}, {"type": "Feature", "properties": {"highway": "service", "footway": null, "name": null, "surface": null, "lit": null, "length_m": 17.42, "type_element": "Way", "__fid": 1915}, "geometry": {"type": "LineString", "coordinates": [[2.2340003, 48.8594337], [2.2339528, 48.8592802]]}}, {"type": "Feature", "properties": {"highway": "service", "footway": null, "name": null, "surface": null, "lit": null, "length_m": 123.94, "type_element": "Way", "__fid": 1916}, "geometry": {"type": "LineString", "coordinates": [[2.2339528, 48.8592802], [2.2355797, 48.85898030000002]]}}, {"type": "Feature", "properties": {"highway": "service", "footway": null, "name": null, "surface": null, "lit": null, "length_m": 125.12, "type_element": "Way", "__fid": 1917}, "geometry": {"type": "LineString", "coordinates": [[2.2356458, 48.8591381], [2.2340003, 48.8594337]]}}, {"type": "Feature", "properties": {"highway": "footway", "footway": null, "name": null, "surface": "compacted", "lit": "yes", "length_m": 4.94, "type_element": "Way", "__fid": 1927}, "geometry": {"type": "LineString", "coordinates": [[2.234207, 48.86502330000001], [2.2341566, 48.8650527]]}}, {"type": "Feature", "properties": {"highway": "footway", "footway": "crossing", "name": null, "surface": "dirt", "lit": "yes", "length_m": 26.66, "type_element": "Way", "__fid": 1930}, "geometry": {"type": "LineString", "coordinates": [[2.234207, 48.86502330000001], [2.2344324, 48.8652114]]}}, {"type": "Feature", "properties": {"highway": "footway", "footway": null, "name": null, "surface": "dirt", "lit": "yes", "length_m": 9.64, "type_element": "Way", "__fid": 1931}, "geometry": {"type": "LineString", "coordinates": [[2.2342401, 48.86494350000001], [2.2342414, 48.8649896], [2.234207, 48.86502330000001]]}}, {"type": "Feature", "properties": {"highway": "footway", "footway": null, "name": null, "surface": "compacted", "lit": "no", "length_m": 11.97, "type_element": "Way", "__fid": 1932}, "geometry": {"type": "LineString", "coordinates": [[2.2343738, 48.8648818], [2.2342401, 48.86494350000001]]}}, {"type": "Feature", "properties": {"highway": "footway", "footway": null, "name": null, "surface": "dirt", "lit": "no", "length_m": 122.18, "type_element": "Way", "__fid": 1936}, "geometry": {"type": "LineString", "coordinates": [[2.2343738, 48.8648818], [2.2344149, 48.8648242], [2.2344833, 48.8647725], [2.2345566, 48.8647267], [2.2348272, 48.86459129999999], [2.2350632, 48.8644078], [2.2353207, 48.8641731], [2.2353342, 48.8640279]]}}, {"type": "Feature", "properties": {"highway": "footway", "footway": null, "name": null, "surface": "compacted", "lit": "no", "length_m": 8.7, "type_element": "Way", "__fid": 1937}, "geometry": {"type": "LineString", "coordinates": [[2.2344893, 48.8648639], [2.2343738, 48.8648818]]}}, {"type": "Feature", "properties": {"highway": "footway", "footway": null, "name": null, "surface": null, "lit": "yes", "length_m": 52.0, "type_element": "Way", "__fid": 1941}, "geometry": {"type": "LineString", "coordinates": [[2.2344893, 48.8648639], [2.2346725, 48.8650211], [2.2346851, 48.8650413], [2.2346556, 48.8651029], [2.2344324, 48.8652114]]}}, {"type": "Feature", "properties": {"highway": "footway", "footway": "sidewalk", "name": null, "surface": "unpaved", "lit": null, "length_m": 122.74, "type_element": "Way", "__fid": 1945}, "geometry": {"type": "LineString", "coordinates": [[2.2358205, 48.8641988], [2.2357697, 48.8642124], [2.2356926, 48.8642609], [2.2354677, 48.8643608], [2.235065, 48.8645608], [2.2344893, 48.8648639]]}}, {"type": "Feature", "properties": {"highway": "service", "footway": null, "name": null, "surface": null, "lit": null, "length_m": 75.39, "type_element": "Way", "__fid": 1951}, "geometry": {"type": "LineString", "coordinates": [[2.2346259, 48.8620656], [2.2356471, 48.8621407]]}}, {"type": "Feature", "properties": {"highway": "service", "footway": null, "name": null, "surface": "concrete", "lit": null, "length_m": 40.35, "type_element": "Way", "__fid": 1952}, "geometry": {"type": "LineString", "coordinates": [[2.2347601, 48.862417500000014], [2.2346259, 48.8620656]]}}, {"type": "Feature", "properties": {"highway": "service", "footway": null, "name": null, "surface": null, "lit": null, "length_m": 118.51, "type_element": "Way", "__fid": 1953}, "geometry": {"type": "LineString", "coordinates": [[2.2346259, 48.8620656], [2.2343794, 48.8621205], [2.2347227, 48.862825], [2.2347095, 48.8629789]]}}, {"type": "Feature", "properties": {"highway": "service", "footway": null, "name": null, "surface": null, "lit": null, "length_m": 92.68, "type_element": "Way", "__fid": 1954}, "geometry": {"type": "LineString", "coordinates": [[2.2346259, 48.8620656], [2.2357279, 48.861658200000015]]}}, {"type": "Feature", "properties": {"highway": "service", "footway": null, "name": null, "surface": null, "lit": null, "length_m": 153.16, "type_element": "Way", "__fid": 1955}, "geometry": {"type": "LineString", "coordinates": [[2.236321012753687, 48.86312858926994], [2.2362901, 48.8631666], [2.2361316, 48.86344620000001], [2.2360114, 48.8635012], [2.2358322, 48.8635198], [2.2355188, 48.86349029999999], [2.235441, 48.8634461], [2.2353573, 48.8633795], [2.2352242, 48.8633298], [2.2350533, 48.8633112], [2.2346885, 48.8632946]]}}, {"type": "Feature", "properties": {"highway": "service", "footway": null, "name": null, "surface": null, "lit": null, "length_m": 55.4, "type_element": "Way", "__fid": 1956}, "geometry": {"type": "LineString", "coordinates": [[2.235443353115513, 48.86302397322715], [2.2354145, 48.8630348], [2.2350479, 48.8630491], [2.2347095, 48.8629789]]}}, {"type": "Feature", "properties": {"highway": "service", "footway": null, "name": null, "surface": "concrete", "lit": null, "length_m": 86.97, "type_element": "Way", "__fid": 1957}, "geometry": {"type": "LineString", "coordinates": [[2.235524717407694, 48.862979418778835], [2.2353546, 48.8629388], [2.2351366, 48.8628093], [2.2349539, 48.862644199999984], [2.2348691, 48.8624961], [2.2347601, 48.862417500000014]]}}, {"type": "Feature", "properties": {"highway": "service", "footway": null, "name": null, "surface": "concrete", "lit": null, "length_m": 87.6, "type_element": "Way", "__fid": 1958}, "geometry": {"type": "LineString", "coordinates": [[2.235443353115513, 48.86302397322715], [2.2352491, 48.8629607], [2.2349807, 48.8627762], [2.2347938, 48.86251949999998], [2.2347601, 48.862417500000014]]}}, {"type": "Feature", "properties": {"highway": "path", "footway": null, "name": "Carrefour de Norvège", "surface": "vegecol", "lit": "yes", "length_m": 370.62, "type_element": "Way", "__fid": 1961}, "geometry": {"type": "LineString", "coordinates": [[2.2347956, 48.8651153], [2.2349134, 48.86503959999999], [2.2350011, 48.864933], [2.2355056, 48.8646435], [2.2360411, 48.8644201], [2.2362448, 48.8643168], [2.236396, 48.8642768], [2.2365807, 48.86415760000001], [2.23672, 48.86408940000001], [2.2371969, 48.8639274], [2.2376936, 48.8637988], [2.2383359, 48.8636887], [2.2387348, 48.86364370000001], [2.2388942, 48.8636371], [2.2390458, 48.8636447], [2.2391434, 48.8636581]]}}, {"type": "Feature", "properties": {"highway": "path", "footway": null, "name": null, "surface": "dirt", "lit": "no", "length_m": 117.8, "type_element": "Way", "__fid": 1962}, "geometry": {"type": "LineString", "coordinates": [[2.2361861, 48.864592], [2.2360677, 48.8646413], [2.2357725, 48.8647274], [2.2356442, 48.864773], [2.2353849, 48.8648836], [2.2351257, 48.8649833], [2.2349588, 48.8650669], [2.2347956, 48.8651153]]}}, {"type": "Feature", "properties": {"highway": "track", "footway": null, "name": null, "surface": "compacted", "lit": "no", "length_m": 92.23, "type_element": "Way", "__fid": 1963}, "geometry": {"type": "LineString", "coordinates": [[2.2347956, 48.8651153], [2.2353665, 48.8650789], [2.2355297, 48.8650623], [2.2357252, 48.86502320000001], [2.2360154, 48.86494359999999]]}}, {"type": "Feature", "properties": {"highway": "footway", "footway": null, "name": null, "surface": null, "lit": null, "length_m": 30.18, "type_element": "Way", "__fid": 1974}, "geometry": {"type": "LineString", "coordinates": [[2.2353342, 48.8640279], [2.2357418, 48.8639912]]}}, {"type": "Feature", "properties": {"highway": "footway", "footway": null, "name": null, "surface": null, "lit": null, "length_m": 42.52, "type_element": "Way", "__fid": 1975}, "geometry": {"type": "LineString", "coordinates": [[2.2356666, 48.86386670000001], [2.2355092, 48.86396520000002], [2.2353501, 48.8638423], [2.2353501, 48.8637803], [2.2353392, 48.86376639999999]]}}, {"type": "Feature", "properties": {"highway": "footway", "footway": null, "name": null, "surface": null, "lit": null, "length_m": 49.04, "type_element": "Way", "__fid": 1976}, "geometry": {"type": "LineString", "coordinates": [[2.2353392, 48.86376639999999], [2.2353059, 48.8637365], [2.2352647, 48.8637253], [2.2352164, 48.863721799999986], [2.2351633, 48.8637291], [2.2351256, 48.8637633], [2.2351191, 48.86380980000001], [2.2351674, 48.86384969999999], [2.2352022, 48.86385710000001], [2.2352511, 48.863855499999985], [2.2352717, 48.8638489], [2.2352918, 48.8638295], [2.2353112, 48.8637896], [2.2353392, 48.86376639999999]]}}, {"type": "Feature", "properties": {"highway": "service", "footway": null, "name": null, "surface": "concrete", "lit": null, "length_m": 66.23, "type_element": "Way", "__fid": 1977}, "geometry": {"type": "LineString", "coordinates": [[2.236321012753687, 48.86312858926994], [2.2360811, 48.863133], [2.2355733, 48.8630663], [2.235443353115513, 48.86302397322715]]}}, {"type": "Feature", "properties": {"highway": "service", "footway": null, "name": null, "surface": null, "lit": null, "length_m": 8.24, "type_element": "Way", "__fid": 1978}, "geometry": {"type": "LineString", "coordinates": [[2.235524717407694, 48.862979418778835], [2.2355195, 48.8629954], [2.235443353115513, 48.86302397322715]]}}, {"type": "Feature", "properties": {"highway": "service", "footway": null, "name": null, "surface": "concrete", "lit": null, "length_m": 64.33, "type_element": "Way", "__fid": 1980}, "geometry": {"type": "LineString", "coordinates": [[2.236385331551152, 48.86306428787292], [2.2360982, 48.8630683], [2.235595, 48.8629962], [2.235524717407694, 48.862979418778835]]}}, {"type": "Feature", "properties": {"highway": "service", "footway": null, "name": null, "surface": null, "lit": null, "length_m": 93.77, "type_element": "Way", "__fid": 1981}, "geometry": {"type": "LineString", "coordinates": [[2.2356471, 48.8621407], [2.2355528, 48.86289339999998], [2.235524717407694, 48.862979418778835]]}}, {"type": "Feature", "properties": {"highway": "service", "footway": null, "name": null, "surface": null, "lit": null, "length_m": 284.64, "type_element": "Way", "__fid": 1982}, "geometry": {"type": "LineString", "coordinates": [[2.2356458, 48.8591381], [2.2359826, 48.8599425], [2.2359893, 48.8600981], [2.2357279, 48.861658200000015]]}}, {"type": "Feature", "properties": {"highway": "service", "footway": null, "name": null, "surface": null, "lit": null, "length_m": 53.98, "type_element": "Way", "__fid": 1983}, "geometry": {"type": "LineString", "coordinates": [[2.2357279, 48.861658200000015], [2.2356471, 48.8621407]]}}, {"type": "Feature", "properties": {"highway": "service", "footway": null, "name": null, "surface": null, "lit": null, "length_m": 14.9, "type_element": "Way", "__fid": 1984}, "geometry": {"type": "LineString", "coordinates": [[2.2356666, 48.86386670000001], [2.2357418, 48.8639912]]}}, {"type": "Feature", "properties": {"highway": "footway", "footway": null, "name": null, "surface": null, "lit": null, "length_m": 11.23, "type_element": "Way", "__fid": 1985}, "geometry": {"type": "LineString", "coordinates": [[2.2356666, 48.86386670000001], [2.2357377, 48.86377730000002]]}}, {"type": "Feature", "properties": {"highway": "service", "footway": null, "name": null, "surface": null, "lit": null, "length_m": 9.47, "type_element": "Way", "__fid": 1988}, "geometry": {"type": "LineString", "coordinates": [[2.2357418, 48.8639912], [2.2357897, 48.86407029999999]]}}, {"type": "Feature", "properties": {"highway": "footway", "footway": null, "name": null, "surface": null, "lit": null, "length_m": 26.91, "type_element": "Way", "__fid": 1989}, "geometry": {"type": "LineString", "coordinates": [[2.2357418, 48.8639912], [2.235896, 48.8639439], [2.2360659, 48.8638785]]}}, {"type": "Feature", "properties": {"highway": "path", "footway": null, "name": null, "surface": "dirt", "lit": "no", "length_m": 129.13, "type_element": "Way", "__fid": 1991}, "geometry": {"type": "LineString", "coordinates": [[2.2360154, 48.86494359999999], [2.2361657, 48.86540159999998], [2.2362428, 48.8655396], [2.2362643, 48.8656243], [2.236328, 48.8657836], [2.2363327, 48.8658255], [2.2363092, 48.86591150000002], [2.2362696, 48.8659922], [2.2362756, 48.8660728]]}}, {"type": "Feature", "properties": {"highway": "path", "footway": null, "name": null, "surface": "dirt", "lit": "no", "length_m": 42.42, "type_element": "Way", "__fid": 1992}, "geometry": {"type": "LineString", "coordinates": [[2.2361861, 48.864592], [2.2360383, 48.8647487], [2.2360235, 48.86479279999999], [2.2360316, 48.8648643], [2.2360154, 48.86494359999999]]}}, {"type": "Feature", "properties": {"highway": "track", "footway": null, "name": null, "surface": "asphalt", "lit": null, "length_m": 29.25, "type_element": "Way", "__fid": 1993}, "geometry": {"type": "LineString", "coordinates": [[2.2363736, 48.86482810000001], [2.2360154, 48.86494359999999]]}}, {"type": "Feature", "properties": {"highway": "footway", "footway": null, "name": null, "surface": null, "lit": null, "length_m": 75.96, "type_element": "Way", "__fid": 1994}, "geometry": {"type": "LineString", "coordinates": [[2.2360659, 48.8638785], [2.2364513, 48.86367830000001], [2.2367245, 48.8634946], [2.2368229, 48.8634158]]}}, {"type": "Feature", "properties": {"highway": "path", "footway": null, "name": null, "surface": null, "lit": null, "length_m": 88.98, "type_element": "Way", "__fid": 1995}, "geometry": {"type": "LineString", "coordinates": [[2.2360659, 48.8638785], [2.2361919, 48.8638612], [2.2364487, 48.8637659], [2.2369355, 48.8636164], [2.2370549, 48.8635317], [2.237096, 48.86348850000002]]}}, {"type": "Feature", "properties": {"highway": "path", "footway": null, "name": null, "surface": "dirt", "lit": "no", "length_m": 231.0, "type_element": "Way", "__fid": 1996}, "geometry": {"type": "LineString", "coordinates": [[2.2389869, 48.8640633], [2.2387322, 48.86404189999999], [2.2381893, 48.8639085], [2.238025, 48.8639101], [2.2378517, 48.8639313], [2.2377439, 48.8639549], [2.2375167, 48.8640283], [2.2371972, 48.8641026], [2.2368673, 48.86421919999998], [2.2363655, 48.864448], [2.2361861, 48.864592]]}}, {"type": "Feature", "properties": {"highway": "service", "footway": null, "name": null, "surface": null, "lit": null, "length_m": 8.57, "type_element": "Way", "__fid": 2001}, "geometry": {"type": "LineString", "coordinates": [[2.236385331551152, 48.86306428787292], [2.236321012753687, 48.86312858926994]]}}, {"type": "Feature", "properties": {"highway": "service", "footway": null, "name": null, "surface": "concrete", "lit": null, "length_m": 79.05, "type_element": "Way", "__fid": 2002}, "geometry": {"type": "LineString", "coordinates": [[2.236321012753687, 48.86312858926994], [2.2364564, 48.8631261], [2.236707, 48.863063899999986], [2.2369376, 48.8629728], [2.2371413, 48.8628405], [2.2372112, 48.862776400000016]]}}, {"type": "Feature", "properties": {"highway": "service", "footway": null, "name": null, "surface": null, "lit": null, "length_m": 97.18, "type_element": "Way", "__fid": 2004}, "geometry": {"type": "LineString", "coordinates": [[2.2372163, 48.8623926], [2.23693, 48.862700799999985], [2.2368528, 48.8627645], [2.2367649, 48.8628237], [2.2365199, 48.8629632], [2.236385331551152, 48.86306428787292]]}}, {"type": "Feature", "properties": {"highway": "service", "footway": null, "name": null, "surface": "concrete", "lit": null, "length_m": 69.76, "type_element": "Way", "__fid": 2005}, "geometry": {"type": "LineString", "coordinates": [[2.2372112, 48.862776400000016], [2.2370433, 48.86284340000001], [2.2367817, 48.8629737], [2.2365578, 48.8630481], [2.2364918, 48.8630628], [2.236385331551152, 48.86306428787292]]}}, {"type": "Feature", "properties": {"highway": "track", "footway": null, "name": null, "surface": null, "lit": null, "length_m": 23.78, "type_element": "Way", "__fid": 2006}, "geometry": {"type": "LineString", "coordinates": [[2.2363736, 48.86482810000001], [2.2364467, 48.864971500000024], [2.2364902, 48.8650271]]}}, {"type": "Feature", "properties": {"highway": "track", "footway": null, "name": null, "surface": null, "lit": null, "length_m": 78.53, "type_element": "Way", "__fid": 2007}, "geometry": {"type": "LineString", "coordinates": [[2.2372439, 48.8647315], [2.2371125, 48.86460009999998], [2.2370535, 48.8645943], [2.2367444, 48.864679], [2.2365104, 48.8647531], [2.2363736, 48.86482810000001]]}}, {"type": "Feature", "properties": {"highway": "track", "footway": null, "name": null, "surface": null, "lit": null, "length_m": 77.87, "type_element": "Way", "__fid": 2010}, "geometry": {"type": "LineString", "coordinates": [[2.2364902, 48.8650271], [2.2365915, 48.8650875], [2.2367491, 48.8651585], [2.2368872, 48.8651868], [2.2370019, 48.8651903], [2.2373841, 48.8650046]]}}, {"type": "Feature", "properties": {"highway": "path", "footway": null, "name": null, "surface": null, "lit": null, "length_m": 90.62, "type_element": "Way", "__fid": 2011}, "geometry": {"type": "LineString", "coordinates": [[2.2371997, 48.865571400000015], [2.2368919, 48.8655123], [2.2367565, 48.865473], [2.2366472, 48.865413], [2.2365077, 48.8652353], [2.2364688, 48.865099], [2.2364902, 48.8650271]]}}]}