{"type": "FeatureCollection", "features": [{"type": "Feature", "properties": {"highway": "path", "footway": null, "name": null, "surface": "compacted", "lit": null, "length_m": 415.2, "type_element": "Way", "__fid": 2117}, "geometry": {"type": "LineString", "coordinates": [[2.2380634, 48.8708173], [2.2386997, 48.871021], [2.2393522, 48.8712042], [2.2400931, 48.87147], [2.2402299, 48.8715438], [2.240576, 48.8716832], [2.2413203, 48.8720686], [2.2419486, 48.8724374], [2.2421182, 48.8724729], [2.2424203, 48.87248379999998], [2.2426191, 48.87249910000001], [2.2427245, 48.8725334], [2.2428247, 48.87258949999999], [2.2428902, 48.8726407]]}}, {"type": "Feature", "properties": {"highway": "footway", "footway": null, "name": null, "surface": null, "lit": null, "length_m": 473.6, "type_element": "Way", "__fid": 2165}, "geometry": {"type": "LineString", "coordinates": [[2.2431415, 48.8725096], [2.2427012, 48.872180499999985], [2.242488, 48.87204710000001], [2.2421142, 48.87178309999999], [2.2419915, 48.8716848], [2.2419271, 48.8716455], [2.2418614, 48.8715626], [2.2417957, 48.87150969999998], [2.2412559, 48.87112910000001], [2.2409488, 48.8709328], [2.2406584, 48.87071], [2.2403318, 48.87051330000001], [2.2401354, 48.870415], [2.2399248, 48.87022], [2.239662, 48.8699448], [2.2395118, 48.8697644], [2.2393448, 48.86960160000001], [2.2390296, 48.8693449], [2.2389744, 48.86928630000001]]}}, {"type": "Feature", "properties": {"highway": "service", "footway": null, "name": null, "surface": "asphalt", "lit": null, "length_m": 156.72, "type_element": "Way", "__fid": 2186}, "geometry": {"type": "LineString", "coordinates": [[2.2394056, 48.8708251], [2.2396776, 48.8710124], [2.2400868, 48.871325], [2.2404529, 48.87151309999999], [2.2409485, 48.8717938]]}}, {"type": "Feature", "properties": {"highway": "service", "footway": null, "name": null, "surface": "asphalt", "lit": null, "length_m": 72.87, "type_element": "Way", "__fid": 2238}, "geometry": {"type": "LineString", "coordinates": [[2.241432, 48.8718358], [2.2411332, 48.871629200000015], [2.2407724, 48.871460699999986], [2.2406839, 48.87140870000001]]}}, {"type": "Feature", "properties": {"highway": "service", "footway": null, "name": null, "surface": "asphalt", "lit": null, "length_m": 35.83, "type_element": "Way", "__fid": 2264}, "geometry": {"type": "LineString", "coordinates": [[2.2409485, 48.8717938], [2.2411372, 48.8718153], [2.2412592, 48.871818], [2.241432, 48.8718358]]}}, {"type": "Feature", "properties": {"highway": "service", "footway": null, "name": null, "surface": "asphalt", "lit": null, "length_m": 60.23, "type_element": "Way", "__fid": 2265}, "geometry": {"type": "LineString", "coordinates": [[2.2409485, 48.8717938], [2.2412713, 48.871979400000015], [2.2413558, 48.872005], [2.2414389, 48.8720138], [2.2416468, 48.8719759]]}}, {"type": "Feature", "properties": {"highway": "service", "footway": null, "name": null, "surface": "asphalt", "lit": null, "length_m": 22.16, "type_element": "Way", "__fid": 2297}, "geometry": {"type": "LineString", "coordinates": [[2.2416468, 48.8719759], [2.241432, 48.8718358]]}}, {"type": "Feature", "properties": {"highway": "service", "footway": null, "name": null, "surface": "asphalt", "lit": null, "length_m": 46.69, "type_element": "Way", "__fid": 2313}, "geometry": {"type": "LineString", "coordinates": [[2.2416468, 48.8719759], [2.2417541, 48.8720209], [2.2421148, 48.8722582]]}}, {"type": "Feature", "properties": {"highway": "service", "footway": null, "name": null, "surface": "asphalt", "lit": null, "length_m": 13.81, "type_element": "Way", "__fid": 2392}, "geometry": {"type": "LineString", "coordinates": [[2.2429307, 48.87274810000001], [2.2428813, 48.8728679]]}}, {"type": "Feature", "properties": {"highway": "path", "footway": null, "name": null, "surface": "compacted", "lit": null, "length_m": 12.4, "type_element": "Way", "__fid": 2393}, "geometry": {"type": "LineString", "coordinates": [[2.2428902, 48.8726407], [2.2429209, 48.872693099999985], [2.2429307, 48.87274810000001]]}}, {"type": "Feature", "properties": {"highway": "footway", "footway": "crossing", "name": null, "surface": "asphalt", "lit": null, "length_m": 12.72, "type_element": "Way", "__fid": 2394}, "geometry": {"type": "LineString", "coordinates": [[2.2428902, 48.8726407], [2.2430255, 48.8725692]]}}, {"type": "Feature", "properties": {"highway": "path", "footway": null, "name": null, "surface": "compacted", "lit": null, "length_m": 449.7, "type_element": "Way", "__fid": 2401}, "geometry": {"type": "LineString", "coordinates": [[2.2429307, 48.87274810000001], [2.2429578, 48.872816700000016], [2.2430624, 48.872941900000015], [2.2432475, 48.87313420000001], [2.2435908, 48.8735258], [2.2448246, 48.8746655], [2.245361, 48.8752723], [2.2455021, 48.87532560000001], [2.2455356, 48.8753564], [2.2460671, 48.8760602], [2.2460849, 48.8761046], [2.2460822, 48.8761745]]}}, {"type": "Feature", "properties": {"highway": "service", "footway": null, "name": null, "surface": "asphalt", "lit": null, "length_m": 12.6, "type_element": "Way", "__fid": 2402}, "geometry": {"type": "LineString", "coordinates": [[2.24303, 48.872658], [2.2429576, 48.8727065], [2.2429307, 48.87274810000001]]}}, {"type": "Feature", "properties": {"highway": "footway", "footway": null, "name": null, "surface": "grass", "lit": null, "length_m": 216.65, "type_element": "Way", "__fid": 2413}, "geometry": {"type": "LineString", "coordinates": [[2.2448514, 48.874096], [2.2447662, 48.874054500000014], [2.2447213, 48.8740157], [2.2442921, 48.8736122], [2.2437584, 48.8731486], [2.2430255, 48.8725692]]}}, {"type": "Feature", "properties": {"highway": "footway", "footway": null, "name": null, "surface": null, "lit": null, "length_m": 10.79, "type_element": "Way", "__fid": 2414}, "geometry": {"type": "LineString", "coordinates": [[2.2430255, 48.8725692], [2.2431415, 48.8725096]]}}, {"type": "Feature", "properties": {"highway": "footway", "footway": null, "name": null, "surface": null, "lit": null, "length_m": 237.54, "type_element": "Way", "__fid": 2428}, "geometry": {"type": "LineString", "coordinates": [[2.2452111, 48.8741461], [2.2451377, 48.87411010000001], [2.2449939, 48.8739868], [2.24479, 48.87384460000001], [2.2446133, 48.8736807], [2.2444356, 48.873545599999986], [2.2442988, 48.87342070000001], [2.2441687, 48.8733299], [2.2437704, 48.8729713], [2.24347, 48.8727362], [2.2431415, 48.8725096]]}}, {"type": "Feature", "properties": {"highway": "footway", "footway": null, "name": null, "surface": null, "lit": null, "length_m": 21.32, "type_element": "Way", "__fid": 2429}, "geometry": {"type": "LineString", "coordinates": [[2.2431415, 48.8725096], [2.2432377, 48.872456], [2.2433823, 48.872404]]}}, {"type": "Feature", "properties": {"highway": "footway", "footway": "crossing", "name": null, "surface": null, "lit": null, "length_m": 14.0, "type_element": "Way", "__fid": 2709}, "geometry": {"type": "LineString", "coordinates": [[2.2449563, 48.8742545], [2.244785, 48.874310100000024]]}}, {"type": "Feature", "properties": {"highway": "footway", "footway": null, "name": null, "surface": "grass", "lit": null, "length_m": 28.08, "type_element": "Way", "__fid": 2716}, "geometry": {"type": "LineString", "coordinates": [[2.2452088, 48.8741859], [2.2449962, 48.874137900000015], [2.2448514, 48.874096]]}}, {"type": "Feature", "properties": {"highway": "footway", "footway": "crossing", "name": null, "surface": null, "lit": null, "length_m": 19.74, "type_element": "Way", "__fid": 2717}, "geometry": {"type": "LineString", "coordinates": [[2.2448514, 48.874096], [2.2449607, 48.8742245], [2.2449563, 48.8742545]]}}, {"type": "Feature", "properties": {"highway": "footway", "footway": "sidewalk", "name": null, "surface": null, "lit": "yes", "length_m": 179.3, "type_element": "Way", "__fid": 2730}, "geometry": {"type": "LineString", "coordinates": [[2.2449563, 48.8742545], [2.2451038, 48.8743789], [2.2451156, 48.8744237], [2.2453647, 48.8746944], [2.246163, 48.87565150000001]]}}, {"type": "Feature", "properties": {"highway": "footway", "footway": null, "name": null, "surface": "dirt", "lit": "no", "length_m": 40.86, "type_element": "Way", "__fid": 2751}, "geometry": {"type": "LineString", "coordinates": [[2.2452111, 48.8741461], [2.2452235, 48.8741114], [2.2452195, 48.8740488], [2.2451548, 48.8737831]]}}, {"type": "Feature", "properties": {"highway": "footway", "footway": null, "name": null, "surface": "compacted", "lit": "no", "length_m": 163.12, "type_element": "Way", "__fid": 2765}, "geometry": {"type": "LineString", "coordinates": [[2.2452088, 48.8741859], [2.2453462, 48.8744013], [2.2458143, 48.8750032], [2.246243, 48.8754828]]}}, {"type": "Feature", "properties": {"highway": "footway", "footway": null, "name": null, "surface": "dirt", "lit": "no", "length_m": 4.43, "type_element": "Way", "__fid": 2766}, "geometry": {"type": "LineString", "coordinates": [[2.2452088, 48.8741859], [2.2452111, 48.8741461]]}}, {"type": "Feature", "properties": {"highway": "path", "footway": null, "name": null, "surface": "dirt", "lit": "no", "length_m": 13.22, "type_element": "Way", "__fid": 2800}, "geometry": {"type": "LineString", "coordinates": [[2.2455665, 48.8713014], [2.2457097, 48.871313], [2.2457424, 48.8713032]]}}, {"type": "Feature", "properties": {"highway": "footway", "footway": "sidewalk", "name": null, "surface": "dirt", "lit": null, "length_m": 184.76, "type_element": "Way", "__fid": 2819}, "geometry": {"type": "LineString", "coordinates": [[2.2457424, 48.8713032], [2.2469484, 48.8727619]]}}, {"type": "Feature", "properties": {"highway": "service", "footway": null, "name": null, "surface": "sett", "lit": "yes", "length_m": 75.17, "type_element": "Way", "__fid": 2820}, "geometry": {"type": "LineString", "coordinates": [[2.2457424, 48.8713032], [2.245925, 48.8712444], [2.2459484, 48.871219], [2.2459722, 48.871121299999984], [2.2459834, 48.8708601], [2.2460684, 48.8707188]]}}]}