{"type": "FeatureCollection", "features": [{"type": "Feature", "properties": {"@id": "node/592662413", "amenity": "drinking_water", "check_date": "2025-03-29", "man_made": "water_tap", "type_element": "Fontaines à boire", "__fid": 125}, "geometry": {"type": "Point", "coordinates": [2.2376688, 48.8554501]}, "id": "node/592662413"}, {"type": "Feature", "properties": {"@id": "node/2467783110", "amenity": "drinking_water", "type_element": "Fontaines à boire", "__fid": 358}, "geometry": {"type": "Point", "coordinates": [2.2446579, 48.8585095]}, "id": "node/2467783110"}, {"type": "Feature", "properties": {"@id": "node/12006735110", "access": "yes", "amenity": "drinking_water", "type_element": "Fontaines à boire", "__fid": 937}, "geometry": {"type": "Point", "coordinates": [2.2428691, 48.8557953]}, "id": "node/12006735110"}, {"type": "Feature", "properties": {"highway": "service", "footway": null, "name": null, "surface": null, "lit": null, "length_m": 1593.23, "type_element": "Way", "__fid": 1863}, "geometry": {"type": "LineString", "coordinates": [[2.2324065, 48.8525243], [2.2326997, 48.852412500000014], [2.2327347, 48.8523911], [2.2328022, 48.8523034], [2.2327931, 48.8522343], [2.2327272, 48.8520967], [2.2327339, 48.85203910000001], [2.2327681, 48.8519738], [2.2328264, 48.8519344], [2.2329581, 48.8518987], [2.2330822, 48.851885], [2.2331639, 48.851885], [2.2332772, 48.8519217], [2.2333947, 48.8520413], [2.2334555, 48.8520895], [2.2335222, 48.85211970000002], [2.2336463, 48.85214050000001], [2.2337897, 48.8521252], [2.2342638, 48.8520254], [2.2357729, 48.85165640000001], [2.235992, 48.8516109], [2.2360887, 48.85160040000002], [2.2362328, 48.8515961], [2.2363053, 48.8516087], [2.2364116, 48.851662400000016], [2.2364794, 48.851731], [2.2365364, 48.8518093], [2.236532, 48.8518527], [2.2364166, 48.8519448], [2.2363726, 48.85200179999999], [2.2363652, 48.8520676], [2.2364085, 48.8522841], [2.2364386, 48.8528977], [2.2365107, 48.8530771], [2.2367166, 48.85331949999998], [2.2368008, 48.8534389], [2.2369302, 48.8537087], [2.2370023, 48.853890800000016], [2.2370653, 48.8541238], [2.237113, 48.854365], [2.237183, 48.8549673], [2.2371883, 48.8551482], [2.2371576, 48.8555929], [2.2371572, 48.855853], [2.2371749, 48.8559781], [2.2372187, 48.8561551], [2.2372888, 48.8563692], [2.2373115, 48.85654], [2.2372972, 48.85670120000002], [2.2372424, 48.85689979999999], [2.2371658, 48.8571162], [2.2370612, 48.8574921], [2.2369839, 48.857785], [2.2369129, 48.858137], [2.2367491, 48.8586689], [2.236709, 48.85884260000001], [2.2366866, 48.8590279], [2.2366347, 48.8598853], [2.2366795, 48.8600861], [2.2367726, 48.860333500000024], [2.2371191, 48.8611677], [2.2372723, 48.86149710000002], [2.2373229, 48.8616693], [2.237363, 48.8618693], [2.2373512, 48.8619848], [2.2372163, 48.8623926]]}}, {"type": "Feature", "properties": {"highway": "footway", "footway": "sidewalk", "name": null, "surface": "unpaved", "lit": null, "length_m": 771.59, "type_element": "Way", "__fid": 2013}, "geometry": {"type": "LineString", "coordinates": [[2.2367177, 48.8520737], [2.2366874, 48.8522787], [2.2366874, 48.85241240000001], [2.2367351, 48.8526922], [2.2367788, 48.8528624], [2.2370387, 48.8534808], [2.2372322, 48.8540097], [2.2372948, 48.8542168], [2.237352, 48.8544699], [2.2374186, 48.8551087], [2.2374351, 48.8558547], [2.2374283, 48.8563408], [2.2373185, 48.8569506], [2.2369938, 48.8582708], [2.2368937, 48.85876620000001], [2.2368809, 48.858864], [2.2369871, 48.858869]]}}, {"type": "Feature", "properties": {"highway": "service", "footway": null, "name": "Route de Sèvres à Neuilly", "surface": "asphalt", "lit": "yes", "length_m": 279.1, "type_element": "Way", "__fid": 2022}, "geometry": {"type": "LineString", "coordinates": [[2.237539, 48.8553766], [2.2374807, 48.8548257], [2.2374099, 48.8543229], [2.2372532, 48.85378750000002], [2.2368963, 48.8529111]]}}, {"type": "Feature", "properties": {"highway": "service", "footway": null, "name": "Route de Sèvres à Neuilly", "surface": "asphalt", "lit": "yes", "length_m": 425.13, "type_element": "Way", "__fid": 2036}, "geometry": {"type": "LineString", "coordinates": [[2.2375259, 48.8624876], [2.2379874, 48.8620589], [2.2381054, 48.862022099999976], [2.2379318, 48.8618221], [2.2375953, 48.861276], [2.2373861, 48.8609119], [2.2371752, 48.86043690000001], [2.237014, 48.8599611], [2.236957, 48.85959], [2.2369452, 48.8593732], [2.2369755, 48.85894420000002]]}}, {"type": "Feature", "properties": {"highway": "service", "footway": null, "name": "Route de Sèvres à Neuilly", "surface": "asphalt", "lit": "yes", "length_m": 8.41, "type_element": "Way", "__fid": 2037}, "geometry": {"type": "LineString", "coordinates": [[2.2369755, 48.85894420000002], [2.2369871, 48.858869]]}}, {"type": "Feature", "properties": {"highway": "service", "footway": null, "name": "Route du Point du Jour à Suresnes", "surface": "asphalt", "lit": null, "length_m": 11.22, "type_element": "Way", "__fid": 2038}, "geometry": {"type": "LineString", "coordinates": [[2.2369755, 48.85894420000002], [2.2370753, 48.8589415], [2.2371234, 48.8589268]]}}, {"type": "Feature", "properties": {"highway": "path", "footway": null, "name": null, "surface": null, "lit": null, "length_m": 13.47, "type_element": "Way", "__fid": 2039}, "geometry": {"type": "LineString", "coordinates": [[2.2369871, 48.858869], [2.2370769, 48.8588732], [2.2371234, 48.8589268]]}}, {"type": "Feature", "properties": {"highway": "service", "footway": null, "name": "Route de Sèvres à Neuilly", "surface": "asphalt", "lit": "yes", "length_m": 391.12, "type_element": "Way", "__fid": 2040}, "geometry": {"type": "LineString", "coordinates": [[2.2369871, 48.858869], [2.2371683, 48.85800780000001], [2.2374931, 48.8565695], [2.2375339, 48.856165], [2.237539, 48.8553766]]}}, {"type": "Feature", "properties": {"highway": "service", "footway": null, "name": "Route du Point du Jour à Suresnes", "surface": "asphalt", "lit": null, "length_m": 10.87, "type_element": "Way", "__fid": 2045}, "geometry": {"type": "LineString", "coordinates": [[2.2371234, 48.8589268], [2.2371662, 48.8589138], [2.2372348, 48.85886480000001]]}}, {"type": "Feature", "properties": {"highway": "track", "footway": null, "name": null, "surface": "asphalt", "lit": null, "length_m": 375.86, "type_element": "Way", "__fid": 2050}, "geometry": {"type": "LineString", "coordinates": [[2.2384121, 48.8620659], [2.238306, 48.8619722], [2.2381932, 48.86182379999999], [2.2381247, 48.861677], [2.2380907, 48.861536], [2.2380606, 48.8612124], [2.2380051, 48.86110990000001], [2.2378582, 48.8609924], [2.2376359, 48.8607723], [2.237457, 48.860505], [2.2373638, 48.86028670000001], [2.2372877, 48.860049], [2.237202, 48.8596019], [2.2371881, 48.85930889999999], [2.2372348, 48.85886480000001]]}}, {"type": "Feature", "properties": {"highway": "track", "footway": null, "name": null, "surface": "asphalt", "lit": null, "length_m": 235.13, "type_element": "Way", "__fid": 2051}, "geometry": {"type": "LineString", "coordinates": [[2.2372348, 48.85886480000001], [2.2373004, 48.8585381], [2.2373629, 48.8583778], [2.2375475, 48.8581431], [2.2379317, 48.8577666], [2.2383323, 48.8573494], [2.238516, 48.857063], [2.2385264, 48.856967]]}}, {"type": "Feature", "properties": {"highway": "service", "footway": null, "name": "Route du Point du Jour à Suresnes", "surface": "asphalt", "lit": null, "length_m": 186.97, "type_element": "Way", "__fid": 2052}, "geometry": {"type": "LineString", "coordinates": [[2.2372348, 48.85886480000001], [2.2374369, 48.8587351], [2.2378391, 48.8585238], [2.2380906, 48.85833860000001], [2.2389514, 48.8576308]]}}, {"type": "Feature", "properties": {"highway": "track", "footway": null, "name": "Chemin des Réservoirs", "surface": "asphalt", "lit": null, "length_m": 197.62, "type_element": "Way", "__fid": 2067}, "geometry": {"type": "LineString", "coordinates": [[2.2385264, 48.856967], [2.237708, 48.8553924], [2.237539, 48.8553766]]}}, {"type": "Feature", "properties": {"highway": "path", "footway": null, "name": null, "surface": null, "lit": null, "length_m": 9.93, "type_element": "Way", "__fid": 2081}, "geometry": {"type": "LineString", "coordinates": [[2.2378576, 48.8587736], [2.2377764, 48.8587021]]}}, {"type": "Feature", "properties": {"highway": "path", "footway": null, "name": null, "surface": null, "lit": null, "length_m": 105.24, "type_element": "Way", "__fid": 2090}, "geometry": {"type": "LineString", "coordinates": [[2.2392568, 48.8586392], [2.2385589, 48.8587075], [2.2381823, 48.8587879], [2.2379956, 48.8588028], [2.2378576, 48.8587736]]}}, {"type": "Feature", "properties": {"highway": "path", "footway": null, "name": null, "surface": "dirt", "lit": null, "length_m": 346.88, "type_element": "Way", "__fid": 2091}, "geometry": {"type": "LineString", "coordinates": [[2.2388328, 48.861756], [2.2387393, 48.8615536], [2.2386293, 48.86136130000001], [2.2383316, 48.8609943], [2.238117, 48.8606846], [2.238007, 48.8604666], [2.2379105, 48.8602425], [2.2378112, 48.8599117], [2.2377415, 48.8593152], [2.237779, 48.8590664], [2.2378576, 48.8587736]]}}, {"type": "Feature", "properties": {"highway": "path", "footway": null, "name": null, "surface": "dirt", "lit": null, "length_m": 151.49, "type_element": "Way", "__fid": 2092}, "geometry": {"type": "LineString", "coordinates": [[2.2378576, 48.8587736], [2.2379494, 48.8586217], [2.2380567, 48.8585158], [2.2383597, 48.8582926], [2.2389136, 48.8577191], [2.2389514, 48.8576308]]}}, {"type": "Feature", "properties": {"highway": "track", "footway": null, "name": "Chemin des Réservoirs", "surface": "asphalt", "lit": null, "length_m": 66.56, "type_element": "Way", "__fid": 2130}, "geometry": {"type": "LineString", "coordinates": [[2.2388716, 48.8575206], [2.2385264, 48.856967]]}}, {"type": "Feature", "properties": {"highway": "track", "footway": null, "name": null, "surface": "asphalt", "lit": null, "length_m": 573.75, "type_element": "Way", "__fid": 2131}, "geometry": {"type": "LineString", "coordinates": [[2.2385264, 48.856967], [2.2385693, 48.856825600000015], [2.2386069, 48.8566001], [2.2386509, 48.8560733], [2.2387895, 48.8557462], [2.2389595, 48.8554223], [2.2389934, 48.8553084], [2.2390015, 48.8551415], [2.2389834, 48.8548545], [2.2390161, 48.8546739], [2.2390128, 48.8545613], [2.2389237, 48.854360700000015], [2.2388776, 48.8541854], [2.2388945, 48.8540097], [2.2389669, 48.853547700000014], [2.2389565, 48.8532639], [2.2387778, 48.8524874], [2.2388048, 48.852287299999986], [2.238956, 48.8518831]]}}, {"type": "Feature", "properties": {"highway": "track", "footway": null, "name": "Chemin des Réservoirs", "surface": "asphalt", "lit": null, "length_m": 13.58, "type_element": "Way", "__fid": 2139}, "geometry": {"type": "LineString", "coordinates": [[2.2389514, 48.8576308], [2.2388716, 48.8575206]]}}, {"type": "Feature", "properties": {"highway": "path", "footway": null, "name": null, "surface": "compacted", "lit": null, "length_m": 16.18, "type_element": "Way", "__fid": 2140}, "geometry": {"type": "LineString", "coordinates": [[2.2388716, 48.8575206], [2.2389954, 48.8574658], [2.2390478, 48.85743380000003]]}}, {"type": "Feature", "properties": {"highway": "track", "footway": null, "name": "Chemin des Réservoirs", "surface": "asphalt", "lit": null, "length_m": 115.11, "type_element": "Way", "__fid": 2150}, "geometry": {"type": "LineString", "coordinates": [[2.2392568, 48.8586392], [2.2392229, 48.8585565], [2.2391937, 48.8582618], [2.2391548, 48.8580521], [2.2390478, 48.85778890000001], [2.2389514, 48.8576308]]}}, {"type": "Feature", "properties": {"highway": "footway", "footway": null, "name": null, "surface": "dirt", "lit": null, "length_m": 23.02, "type_element": "Way", "__fid": 2151}, "geometry": {"type": "LineString", "coordinates": [[2.2389514, 48.8576308], [2.2390478, 48.85743380000003]]}}, {"type": "Feature", "properties": {"highway": "service", "footway": null, "name": "Route du Point du Jour à Suresnes", "surface": "asphalt", "lit": null, "length_m": 174.86, "type_element": "Way", "__fid": 2152}, "geometry": {"type": "LineString", "coordinates": [[2.2389514, 48.8576308], [2.239196, 48.85741249999999], [2.2402802, 48.85667], [2.2405895, 48.8564933]]}}, {"type": "Feature", "properties": {"highway": "path", "footway": null, "name": null, "surface": "compacted", "lit": null, "length_m": 604.31, "type_element": "Way", "__fid": 2157}, "geometry": {"type": "LineString", "coordinates": [[2.2390478, 48.85743380000003], [2.2392087, 48.8573441], [2.2393589, 48.85719320000001], [2.2394501, 48.85704230000002], [2.2394957, 48.856916100000014], [2.239489, 48.8566655], [2.2394675, 48.8564599], [2.2394675, 48.8558934], [2.2394393, 48.8554981], [2.2393683, 48.85491840000001], [2.2393392, 48.8540048], [2.2393168, 48.8536497], [2.2392462, 48.8532144], [2.2392033, 48.85302380000002], [2.2392449, 48.8528535], [2.2392543, 48.8526567], [2.2392569, 48.852348800000016], [2.2392194, 48.85219170000001], [2.2392175, 48.8521053]]}}, {"type": "Feature", "properties": {"highway": "track", "footway": null, "name": "Route de la Seine à la Butte Mortemart", "surface": "compacted", "lit": null, "length_m": 219.87, "type_element": "Way", "__fid": 2163}, "geometry": {"type": "LineString", "coordinates": [[2.2392175, 48.8521053], [2.2392989, 48.85212989999998], [2.2397556, 48.8524666], [2.2403016, 48.8528516], [2.2411982, 48.8533714], [2.2413941, 48.8534503]]}}, {"type": "Feature", "properties": {"highway": "track", "footway": null, "name": "Chemin des Réservoirs", "surface": "asphalt", "lit": null, "length_m": 145.48, "type_element": "Way", "__fid": 2169}, "geometry": {"type": "LineString", "coordinates": [[2.2400584, 48.8598101], [2.2399966, 48.8597019], [2.2398898, 48.8593468], [2.2397304, 48.8591579], [2.2395118, 48.8589923], [2.2393368, 48.85881279999999], [2.2392568, 48.8586392]]}}, {"type": "Feature", "properties": {"highway": "path", "footway": null, "name": null, "surface": null, "lit": null, "length_m": 111.28, "type_element": "Way", "__fid": 2170}, "geometry": {"type": "LineString", "coordinates": [[2.2407657, 48.8585851], [2.2405707, 48.85858039999999], [2.240384, 48.8585931], [2.2402231, 48.8586164], [2.2397757, 48.85860790000001], [2.2394184, 48.85862270000001], [2.2392568, 48.8586392]]}}, {"type": "Feature", "properties": {"highway": "path", "footway": null, "name": null, "surface": null, "lit": null, "length_m": 8.24, "type_element": "Way", "__fid": 2216}, "geometry": {"type": "LineString", "coordinates": [[2.2406338, 48.8565614], [2.2405895, 48.8564933]]}}, {"type": "Feature", "properties": {"highway": "service", "footway": null, "name": "Route du Point du Jour à Suresnes", "surface": "asphalt", "lit": null, "length_m": 49.94, "type_element": "Way", "__fid": 2217}, "geometry": {"type": "LineString", "coordinates": [[2.2405895, 48.8564933], [2.241104, 48.8561993]]}}, {"type": "Feature", "properties": {"highway": "path", "footway": null, "name": null, "surface": null, "lit": null, "length_m": 104.23, "type_element": "Way", "__fid": 2218}, "geometry": {"type": "LineString", "coordinates": [[2.2409183, 48.85740650000001], [2.2408073, 48.857281399999984], [2.2407416, 48.8572263], [2.2405853, 48.8571373], [2.2405554, 48.8571004], [2.2405404, 48.85701910000002], [2.2405891, 48.856704100000016], [2.2406338, 48.8565614]]}}, {"type": "Feature", "properties": {"highway": "path", "footway": null, "name": null, "surface": null, "lit": null, "length_m": 31.37, "type_element": "Way", "__fid": 2219}, "geometry": {"type": "LineString", "coordinates": [[2.2406338, 48.8565614], [2.2407237, 48.8565171], [2.2408696, 48.8564802], [2.2410278, 48.8564692]]}}, {"type": "Feature", "properties": {"highway": "track", "footway": null, "name": "Chemin des Gravilliers", "surface": "asphalt", "lit": null, "length_m": 76.87, "type_element": "Way", "__fid": 2223}, "geometry": {"type": "LineString", "coordinates": [[2.2407657, 48.8585851], [2.2406765, 48.8592739]]}}, {"type": "Feature", "properties": {"highway": "track", "footway": null, "name": "Route d'Auteuil à Suresnes", "surface": "compacted", "lit": null, "length_m": 335.48, "type_element": "Way", "__fid": 2224}, "geometry": {"type": "LineString", "coordinates": [[2.2433971, 48.8568539], [2.2432615, 48.8569739], [2.2430684, 48.8571905], [2.2429121, 48.8573119], [2.2427599, 48.857457900000014], [2.2425735, 48.8575876], [2.2417514, 48.8583491], [2.2412297, 48.8587929], [2.2407711, 48.8592039], [2.2406765, 48.8592739]]}}, {"type": "Feature", "properties": {"highway": "path", "footway": null, "name": "Avenue de l'Hippodrome", "surface": "concrete", "lit": "yes", "length_m": 357.07, "type_element": "Way", "__fid": 2229}, "geometry": {"type": "LineString", "coordinates": [[2.2407193, 48.8604939], [2.2420693, 48.8596965], [2.2430107, 48.859211500000015], [2.2433226, 48.8590672], [2.2437624, 48.8588789], [2.2441599, 48.8587221], [2.2445938, 48.8585689]]}}, {"type": "Feature", "properties": {"highway": "track", "footway": null, "name": "Chemin des Gravilliers", "surface": "asphalt", "lit": null, "length_m": 131.53, "type_element": "Way", "__fid": 2230}, "geometry": {"type": "LineString", "coordinates": [[2.2409183, 48.85740650000001], [2.2407657, 48.8585851]]}}, {"type": "Feature", "properties": {"highway": "track", "footway": null, "name": "Chemin des Gravilliers", "surface": "asphalt", "lit": null, "length_m": 19.92, "type_element": "Way", "__fid": 2241}, "geometry": {"type": "LineString", "coordinates": [[2.2409414, 48.857228], [2.2409183, 48.85740650000001]]}}, {"type": "Feature", "properties": {"highway": "service", "footway": null, "name": "Chemin des Gravilliers", "surface": "asphalt", "lit": null, "length_m": 84.77, "type_element": "Way", "__fid": 2242}, "geometry": {"type": "LineString", "coordinates": [[2.2410278, 48.8564692], [2.2409481, 48.8568552], [2.2409414, 48.857228]]}}, {"type": "Feature", "properties": {"highway": "path", "footway": null, "name": null, "surface": null, "lit": null, "length_m": 182.34, "type_element": "Way", "__fid": 2243}, "geometry": {"type": "LineString", "coordinates": [[2.2409414, 48.857228], [2.2412851, 48.8571521], [2.241484, 48.8570892], [2.2420963, 48.8569243], [2.2423081, 48.8568768], [2.2424579, 48.8568513], [2.2426697, 48.8568411], [2.243034, 48.8567306], [2.243269, 48.8566762]]}}, {"type": "Feature", "properties": {"highway": "path", "footway": null, "name": "Avenue de l'Hippodrome", "surface": "concrete", "lit": "yes", "length_m": 355.9, "type_element": "Way", "__fid": 2247}, "geometry": {"type": "LineString", "coordinates": [[2.2447913, 48.8586783], [2.2442646, 48.8588537], [2.2438529, 48.859018300000024], [2.2434614, 48.8591876], [2.2431133, 48.8593496], [2.2427524, 48.8595283], [2.2421632, 48.8598439], [2.2409144, 48.8605807]]}}, {"type": "Feature", "properties": {"highway": "service", "footway": null, "name": "Chemin des Gravilliers", "surface": "asphalt", "lit": null, "length_m": 30.53, "type_element": "Way", "__fid": 2252}, "geometry": {"type": "LineString", "coordinates": [[2.241104, 48.8561993], [2.2410278, 48.8564692]]}}, {"type": "Feature", "properties": {"highway": "track", "footway": null, "name": "Chemin des Gravilliers", "surface": "ground", "lit": null, "length_m": 287.26, "type_element": "Way", "__fid": 2253}, "geometry": {"type": "LineString", "coordinates": [[2.2413622, 48.8536221], [2.2413301, 48.8538154], [2.2412994, 48.8541975], [2.2412512, 48.854515100000015], [2.2411305, 48.8557576], [2.241104, 48.8561993]]}}, {"type": "Feature", "properties": {"highway": "service", "footway": null, "name": "Route du Point du Jour à Suresnes", "surface": "asphalt", "lit": null, "length_m": 146.37, "type_element": "Way", "__fid": 2254}, "geometry": {"type": "LineString", "coordinates": [[2.241104, 48.8561993], [2.24161, 48.8558783], [2.2418792, 48.8556341], [2.2420659, 48.8553992], [2.2422229, 48.8551327]]}}, {"type": "Feature", "properties": {"highway": "path", "footway": null, "name": null, "surface": null, "lit": null, "length_m": 180.12, "type_element": "Way", "__fid": 2276}, "geometry": {"type": "LineString", "coordinates": [[2.2413622, 48.8536221], [2.2422248, 48.8550508], [2.2422229, 48.8551327]]}}, {"type": "Feature", "properties": {"highway": "track", "footway": null, "name": "Chemin des Gravilliers", "surface": "ground", "lit": null, "length_m": 19.25, "type_element": "Way", "__fid": 2277}, "geometry": {"type": "LineString", "coordinates": [[2.2413941, 48.8534503], [2.2413622, 48.8536221]]}}, {"type": "Feature", "properties": {"highway": "track", "footway": null, "name": "Route de la Seine à la Butte Mortemart", "surface": "compacted", "lit": null, "length_m": 29.2, "type_element": "Way", "__fid": 2280}, "geometry": {"type": "LineString", "coordinates": [[2.2413941, 48.8534503], [2.2417345, 48.8535864]]}}, {"type": "Feature", "properties": {"highway": "footway", "footway": "sidewalk", "name": null, "surface": "dirt", "lit": null, "length_m": 364.29, "type_element": "Way", "__fid": 2281}, "geometry": {"type": "LineString", "coordinates": [[2.2413941, 48.8534503], [2.2417998, 48.8501851]]}}, {"type": "Feature", "properties": {"highway": "track", "footway": null, "name": "Route de la Seine à la Butte Mortemart", "surface": "compacted", "lit": null, "length_m": 17.59, "type_element": "Way", "__fid": 2301}, "geometry": {"type": "LineString", "coordinates": [[2.2417345, 48.8535864], [2.2419388, 48.853669100000026]]}}, {"type": "Feature", "properties": {"highway": "footway", "footway": "sidewalk", "name": null, "surface": "dirt", "lit": null, "length_m": 518.28, "type_element": "Way", "__fid": 2302}, "geometry": {"type": "LineString", "coordinates": [[2.2422138, 48.848943], [2.2417137, 48.8529935], [2.2416872, 48.853310499999985], [2.2416966, 48.8535012], [2.2417345, 48.8535864]]}}, {"type": "Feature", "properties": {"highway": "track", "footway": null, "name": "Route de la Seine à la Butte Mortemart", "surface": "compacted", "lit": null, "length_m": 113.04, "type_element": "Way", "__fid": 2318}, "geometry": {"type": "LineString", "coordinates": [[2.2419388, 48.853669100000026], [2.2420367, 48.8537175], [2.2425661, 48.8537192], [2.2429279, 48.85367629999998], [2.2431797, 48.85363140000001], [2.2434235, 48.8535712]]}}, {"type": "Feature", "properties": {"highway": "path", "footway": null, "name": null, "surface": null, "lit": null, "length_m": 117.61, "type_element": "Way", "__fid": 2319}, "geometry": {"type": "LineString", "coordinates": [[2.2425736, 48.85464], [2.2419974, 48.8537774], [2.2419388, 48.853669100000026]]}}, {"type": "Feature", "properties": {"highway": "path", "footway": null, "name": null, "surface": "dirt", "lit": null, "length_m": 387.43, "type_element": "Way", "__fid": 2320}, "geometry": {"type": "LineString", "coordinates": [[2.2421773, 48.850211899999984], [2.242057, 48.85138360000002], [2.241936, 48.85233010000001], [2.24185, 48.85285669999998], [2.2418029, 48.8533827], [2.241828, 48.8535099], [2.2419388, 48.853669100000026]]}}, {"type": "Feature", "properties": {"highway": "path", "footway": null, "name": null, "surface": null, "lit": null, "length_m": 32.83, "type_element": "Way", "__fid": 2338}, "geometry": {"type": "LineString", "coordinates": [[2.2422229, 48.8551327], [2.2422408, 48.8552157], [2.2423199, 48.8553207], [2.2424111, 48.8553931]]}}, {"type": "Feature", "properties": {"highway": "service", "footway": null, "name": "Route du Point du Jour à Suresnes", "surface": "asphalt", "lit": null, "length_m": 60.77, "type_element": "Way", "__fid": 2339}, "geometry": {"type": "LineString", "coordinates": [[2.2422229, 48.8551327], [2.2423969, 48.8548319], [2.2425736, 48.85464]]}}, {"type": "Feature", "properties": {"highway": "path", "footway": null, "name": null, "surface": "unpaved", "lit": null, "length_m": 31.22, "type_element": "Way", "__fid": 2345}, "geometry": {"type": "LineString", "coordinates": [[2.2423683, 48.85500130000001], [2.2425384, 48.8552587]]}}, {"type": "Feature", "properties": {"highway": "path", "footway": null, "name": null, "surface": null, "lit": null, "length_m": 55.53, "type_element": "Way", "__fid": 2347}, "geometry": {"type": "LineString", "coordinates": [[2.2424111, 48.8553931], [2.2426978, 48.8558553]]}}, {"type": "Feature", "properties": {"highway": "path", "footway": null, "name": null, "surface": null, "lit": null, "length_m": 3.46, "type_element": "Way", "__fid": 2348}, "geometry": {"type": "LineString", "coordinates": [[2.2424111, 48.8553931], [2.2424553, 48.8553822]]}}, {"type": "Feature", "properties": {"highway": "path", "footway": null, "name": null, "surface": null, "lit": null, "length_m": 15.03, "type_element": "Way", "__fid": 2353}, "geometry": {"type": "LineString", "coordinates": [[2.2424553, 48.8553822], [2.2425384, 48.8552587]]}}, {"type": "Feature", "properties": {"highway": "path", "footway": null, "name": null, "surface": null, "lit": null, "length_m": 11.07, "type_element": "Way", "__fid": 2354}, "geometry": {"type": "LineString", "coordinates": [[2.2424553, 48.8553822], [2.2425965, 48.8553472]]}}, {"type": "Feature", "properties": {"highway": "path", "footway": null, "name": null, "surface": "unpaved", "lit": null, "length_m": 10.72, "type_element": "Way", "__fid": 2357}, "geometry": {"type": "LineString", "coordinates": [[2.2425384, 48.8552587], [2.2425965, 48.8553472]]}}, {"type": "Feature", "properties": {"highway": "track", "footway": null, "name": "Allée Saint-Denis", "surface": "compacted", "lit": null, "length_m": 382.43, "type_element": "Way", "__fid": 2358}, "geometry": {"type": "LineString", "coordinates": [[2.2434235, 48.8535712], [2.2426181, 48.8501732]]}}, {"type": "Feature", "properties": {"highway": "path", "footway": null, "name": null, "surface": null, "lit": null, "length_m": 145.2, "type_element": "Way", "__fid": 2360}, "geometry": {"type": "LineString", "coordinates": [[2.2433496, 48.8558412], [2.2425736, 48.85464]]}}, {"type": "Feature", "properties": {"highway": "service", "footway": null, "name": "Route du Point du Jour à Suresnes", "surface": "asphalt", "lit": null, "length_m": 112.31, "type_element": "Way", "__fid": 2361}, "geometry": {"type": "LineString", "coordinates": [[2.2425736, 48.85464], [2.2428647, 48.854328299999985], [2.2432219, 48.8540138], [2.2434769, 48.8538277]]}}, {"type": "Feature", "properties": {"highway": "path", "footway": null, "name": null, "surface": "unpaved", "lit": null, "length_m": 51.22, "type_element": "Way", "__fid": 2362}, "geometry": {"type": "LineString", "coordinates": [[2.2425965, 48.8553472], [2.2428752, 48.8557695]]}}, {"type": "Feature", "properties": {"highway": "path", "footway": null, "name": null, "surface": null, "lit": null, "length_m": 9.66, "type_element": "Way", "__fid": 2366}, "geometry": {"type": "LineString", "coordinates": [[2.2426978, 48.8558553], [2.2427391, 48.8559378]]}}, {"type": "Feature", "properties": {"highway": "path", "footway": null, "name": null, "surface": null, "lit": null, "length_m": 16.14, "type_element": "Way", "__fid": 2367}, "geometry": {"type": "LineString", "coordinates": [[2.2426978, 48.8558553], [2.2428752, 48.8557695]]}}, {"type": "Feature", "properties": {"highway": "path", "footway": null, "name": null, "surface": null, "lit": null, "length_m": 23.34, "type_element": "Way", "__fid": 2370}, "geometry": {"type": "LineString", "coordinates": [[2.2427391, 48.8559378], [2.2428388, 48.8561371]]}}, {"type": "Feature", "properties": {"highway": "path", "footway": null, "name": null, "surface": null, "lit": null, "length_m": 16.91, "type_element": "Way", "__fid": 2371}, "geometry": {"type": "LineString", "coordinates": [[2.2427391, 48.8559378], [2.2428528, 48.8559115], [2.242946, 48.855873]]}}, {"type": "Feature", "properties": {"highway": "path", "footway": null, "name": null, "surface": null, "lit": null, "length_m": 37.4, "type_element": "Way", "__fid": 2381}, "geometry": {"type": "LineString", "coordinates": [[2.2428388, 48.8561371], [2.2428859, 48.8562313], [2.2430844, 48.856429]]}}, {"type": "Feature", "properties": {"highway": "path", "footway": null, "name": null, "surface": null, "lit": null, "length_m": 19.44, "type_element": "Way", "__fid": 2382}, "geometry": {"type": "LineString", "coordinates": [[2.2428388, 48.8561371], [2.2429043, 48.85610350000001], [2.2430661, 48.8560485]]}}, {"type": "Feature", "properties": {"highway": "path", "footway": null, "name": null, "surface": "unpaved", "lit": null, "length_m": 12.63, "type_element": "Way", "__fid": 2383}, "geometry": {"type": "LineString", "coordinates": [[2.2428752, 48.8557695], [2.242946, 48.855873]]}}, {"type": "Feature", "properties": {"highway": "path", "footway": null, "name": null, "surface": "unpaved", "lit": null, "length_m": 21.41, "type_element": "Way", "__fid": 2385}, "geometry": {"type": "LineString", "coordinates": [[2.242946, 48.855873], [2.2430661, 48.8560485]]}}, {"type": "Feature", "properties": {"highway": "path", "footway": null, "name": null, "surface": "unpaved", "lit": null, "length_m": 34.01, "type_element": "Way", "__fid": 2386}, "geometry": {"type": "LineString", "coordinates": [[2.2430661, 48.8560485], [2.2432491, 48.8563295]]}}, {"type": "Feature", "properties": {"highway": "path", "footway": null, "name": null, "surface": null, "lit": null, "length_m": 6.73, "type_element": "Way", "__fid": 2388}, "geometry": {"type": "LineString", "coordinates": [[2.2430844, 48.856429], [2.2431264, 48.8564828]]}}, {"type": "Feature", "properties": {"highway": "path", "footway": null, "name": null, "surface": null, "lit": null, "length_m": 17.41, "type_element": "Way", "__fid": 2389}, "geometry": {"type": "LineString", "coordinates": [[2.2430844, 48.856429], [2.2430871, 48.8564051], [2.2431229, 48.856377], [2.2432491, 48.8563295]]}}, {"type": "Feature", "properties": {"highway": "path", "footway": null, "name": null, "surface": null, "lit": null, "length_m": 8.2, "type_element": "Way", "__fid": 2395}, "geometry": {"type": "LineString", "coordinates": [[2.2431264, 48.8564828], [2.2431776, 48.8565484]]}}, {"type": "Feature", "properties": {"highway": "path", "footway": null, "name": null, "surface": null, "lit": null, "length_m": 14.99, "type_element": "Way", "__fid": 2396}, "geometry": {"type": "LineString", "coordinates": [[2.2431264, 48.8564828], [2.2433161, 48.8564328]]}}, {"type": "Feature", "properties": {"highway": "path", "footway": null, "name": null, "surface": null, "lit": null, "length_m": 19.8, "type_element": "Way", "__fid": 2397}, "geometry": {"type": "LineString", "coordinates": [[2.2431414, 48.8559545], [2.2433496, 48.8558412]]}}, {"type": "Feature", "properties": {"highway": "path", "footway": null, "name": null, "surface": null, "lit": null, "length_m": 15.71, "type_element": "Way", "__fid": 2405}, "geometry": {"type": "LineString", "coordinates": [[2.2431776, 48.8565484], [2.243269, 48.8566762]]}}, {"type": "Feature", "properties": {"highway": "path", "footway": null, "name": null, "surface": null, "lit": null, "length_m": 14.42, "type_element": "Way", "__fid": 2406}, "geometry": {"type": "LineString", "coordinates": [[2.2431776, 48.8565484], [2.2433625, 48.85650440000001]]}}, {"type": "Feature", "properties": {"highway": "path", "footway": null, "name": null, "surface": "unpaved", "lit": null, "length_m": 12.49, "type_element": "Way", "__fid": 2412}, "geometry": {"type": "LineString", "coordinates": [[2.2432491, 48.8563295], [2.2433161, 48.8564328]]}}, {"type": "Feature", "properties": {"highway": "path", "footway": null, "name": null, "surface": null, "lit": null, "length_m": 15.33, "type_element": "Way", "__fid": 2415}, "geometry": {"type": "LineString", "coordinates": [[2.243269, 48.8566762], [2.2433282, 48.8566925], [2.24347, 48.8566733]]}}, {"type": "Feature", "properties": {"highway": "path", "footway": null, "name": null, "surface": null, "lit": null, "length_m": 21.88, "type_element": "Way", "__fid": 2416}, "geometry": {"type": "LineString", "coordinates": [[2.243269, 48.8566762], [2.2433971, 48.8568539]]}}, {"type": "Feature", "properties": {"highway": "path", "footway": null, "name": null, "surface": "unpaved", "lit": null, "length_m": 8.66, "type_element": "Way", "__fid": 2419}, "geometry": {"type": "LineString", "coordinates": [[2.2433161, 48.8564328], [2.2433625, 48.85650440000001]]}}, {"type": "Feature", "properties": {"highway": "path", "footway": null, "name": null, "surface": null, "lit": null, "length_m": 84.38, "type_element": "Way", "__fid": 2423}, "geometry": {"type": "LineString", "coordinates": [[2.2438048, 48.8565381], [2.2433496, 48.8558412]]}}, {"type": "Feature", "properties": {"highway": "path", "footway": null, "name": null, "surface": null, "lit": null, "length_m": 103.37, "type_element": "Way", "__fid": 2424}, "geometry": {"type": "LineString", "coordinates": [[2.2433496, 48.8558412], [2.2438796, 48.855464], [2.2442012, 48.8551071]]}}, {"type": "Feature", "properties": {"highway": "path", "footway": null, "name": null, "surface": "unpaved", "lit": null, "length_m": 20.37, "type_element": "Way", "__fid": 2427}, "geometry": {"type": "LineString", "coordinates": [[2.2433625, 48.85650440000001], [2.24347, 48.8566733]]}}, {"type": "Feature", "properties": {"highway": "track", "footway": null, "name": "Allée Saint-Denis", "surface": "compacted", "lit": null, "length_m": 28.79, "type_element": "Way", "__fid": 2432}, "geometry": {"type": "LineString", "coordinates": [[2.2434769, 48.8538277], [2.2434235, 48.8535712]]}}, {"type": "Feature", "properties": {"highway": "track", "footway": null, "name": "Route de la Seine à la Butte Mortemart", "surface": "compacted", "lit": null, "length_m": 72.1, "type_element": "Way", "__fid": 2433}, "geometry": {"type": "LineString", "coordinates": [[2.2434235, 48.8535712], [2.2443252, 48.8533135]]}}, {"type": "Feature", "properties": {"highway": "path", "footway": null, "name": null, "surface": null, "lit": null, "length_m": 198.52, "type_element": "Way", "__fid": 2436}, "geometry": {"type": "LineString", "coordinates": [[2.2433971, 48.8568539], [2.2435081, 48.8569505], [2.2436101, 48.8571781], [2.2437261, 48.8573343], [2.2437771, 48.8574243], [2.2440152, 48.8577305], [2.2440909, 48.85787780000001], [2.244118, 48.8579891], [2.2441903, 48.8581115], [2.2443377, 48.8582687], [2.2444624, 48.85848140000002]]}}, {"type": "Feature", "properties": {"highway": "track", "footway": null, "name": "Route d'Auteuil à Suresnes", "surface": "compacted", "lit": null, "length_m": 14.81, "type_element": "Way", "__fid": 2437}, "geometry": {"type": "LineString", "coordinates": [[2.2435371, 48.8567579], [2.2433971, 48.8568539]]}}, {"type": "Feature", "properties": {"highway": "track", "footway": null, "name": "Allée Saint-Denis", "surface": "compacted", "lit": null, "length_m": 9.32, "type_element": "Way", "__fid": 2445}, "geometry": {"type": "LineString", "coordinates": [[2.2435091, 48.85390880000001], [2.2434769, 48.8538277]]}}, {"type": "Feature", "properties": {"highway": "service", "footway": null, "name": "Route du Point du Jour à Suresnes", "surface": "asphalt", "lit": null, "length_m": 84.54, "type_element": "Way", "__fid": 2446}, "geometry": {"type": "LineString", "coordinates": [[2.2434769, 48.8538277], [2.2435925, 48.8537505], [2.2443252, 48.8533135]]}}, {"type": "Feature", "properties": {"highway": "path", "footway": null, "name": null, "surface": null, "lit": null, "length_m": 85.02, "type_element": "Way", "__fid": 2452}, "geometry": {"type": "LineString", "coordinates": [[2.2435091, 48.85390880000001], [2.2436439, 48.853911], [2.2438443, 48.853928], [2.2441286, 48.8538973], [2.2443469, 48.8538847], [2.2444963, 48.853894799999985], [2.2446533, 48.8539268]]}}, {"type": "Feature", "properties": {"highway": "track", "footway": null, "name": "Allée Saint-Denis", "surface": "compacted", "lit": null, "length_m": 144.18, "type_element": "Way", "__fid": 2453}, "geometry": {"type": "LineString", "coordinates": [[2.2442012, 48.8551071], [2.2438033, 48.85465640000002], [2.243642, 48.8543708], [2.2435091, 48.85390880000001]]}}, {"type": "Feature", "properties": {"highway": "path", "footway": null, "name": null, "surface": null, "lit": null, "length_m": 1.04, "type_element": "Way", "__fid": 2456}, "geometry": {"type": "LineString", "coordinates": [[2.24347, 48.8566733], [2.2434835, 48.856670499999964]]}}, {"type": "Feature", "properties": {"highway": "path", "footway": null, "name": null, "surface": "dirt", "lit": null, "length_m": 10.48, "type_element": "Way", "__fid": 2462}, "geometry": {"type": "LineString", "coordinates": [[2.2434835, 48.856670499999964], [2.2435371, 48.8567579]]}}, {"type": "Feature", "properties": {"highway": "footway", "footway": "crossing", "name": "Route d'Auteuil à Suresnes", "surface": "asphalt", "lit": null, "length_m": 28.34, "type_element": "Way", "__fid": 2463}, "geometry": {"type": "LineString", "coordinates": [[2.2438048, 48.8565381], [2.2437087, 48.856606], [2.2434835, 48.856670499999964]]}}, {"type": "Feature", "properties": {"highway": "path", "footway": null, "name": null, "surface": "dirt", "lit": "yes", "length_m": 212.64, "type_element": "Way", "__fid": 2469}, "geometry": {"type": "LineString", "coordinates": [[2.2435371, 48.8567579], [2.2446851, 48.8584927], [2.2446884, 48.8585119]]}}, {"type": "Feature", "properties": {"highway": "path", "footway": null, "name": null, "surface": null, "lit": "no", "length_m": 227.45, "type_element": "Way", "__fid": 2486}, "geometry": {"type": "LineString", "coordinates": [[2.2438048, 48.8565381], [2.2443176, 48.857318], [2.2445178, 48.8576422], [2.244767, 48.8580141], [2.2450118, 48.8583537], [2.2450185, 48.8583903], [2.2450081, 48.8584151]]}}, {"type": "Feature", "properties": {"highway": "track", "footway": null, "name": "Route d'Auteuil à Suresnes", "surface": "compacted", "lit": null, "length_m": 113.08, "type_element": "Way", "__fid": 2487}, "geometry": {"type": "LineString", "coordinates": [[2.2447198, 48.8557198], [2.2438048, 48.8565381]]}}, {"type": "Feature", "properties": {"highway": "track", "footway": null, "name": "Allée Saint-Denis", "surface": "compacted", "lit": null, "length_m": 78.04, "type_element": "Way", "__fid": 2557}, "geometry": {"type": "LineString", "coordinates": [[2.2447198, 48.8557198], [2.2442012, 48.8551071]]}}, {"type": "Feature", "properties": {"highway": "service", "footway": null, "name": "Route de la Seine à la Butte Mortemart", "surface": "asphalt", "lit": null, "length_m": 35.05, "type_element": "Way", "__fid": 2573}, "geometry": {"type": "LineString", "coordinates": [[2.2443252, 48.8533135], [2.2447164, 48.8531326]]}}, {"type": "Feature", "properties": {"highway": "path", "footway": null, "name": null, "surface": "unpaved", "lit": null, "length_m": 17.36, "type_element": "Way", "__fid": 2615}, "geometry": {"type": "LineString", "coordinates": [[2.2444624, 48.85848140000002], [2.2446558, 48.85849420000001], [2.2446884, 48.8585119]]}}, {"type": "Feature", "properties": {"highway": "path", "footway": null, "name": null, "surface": null, "lit": null, "length_m": 13.7, "type_element": "Way", "__fid": 2616}, "geometry": {"type": "LineString", "coordinates": [[2.2444624, 48.85848140000002], [2.2445938, 48.8585689]]}}, {"type": "Feature", "properties": {"highway": "path", "footway": null, "name": null, "surface": null, "lit": null, "length_m": 122.41, "type_element": "Way", "__fid": 2635}, "geometry": {"type": "LineString", "coordinates": [[2.2446533, 48.8539268], [2.2447912, 48.8539855], [2.2449712, 48.8541141], [2.2451662, 48.85421070000001], [2.2455364, 48.8542463], [2.2459036, 48.8543193], [2.246125, 48.8543759]]}}, {"type": "Feature", "properties": {"highway": "path", "footway": null, "name": null, "surface": null, "lit": null, "length_m": 134.72, "type_element": "Way", "__fid": 2636}, "geometry": {"type": "LineString", "coordinates": [[2.2453964, 48.8550217], [2.2452337, 48.85464790000002], [2.2448874, 48.85432440000001], [2.2446533, 48.8539268]]}}, {"type": "Feature", "properties": {"highway": "path", "footway": null, "name": null, "surface": null, "lit": null, "length_m": 88.44, "type_element": "Way", "__fid": 2637}, "geometry": {"type": "LineString", "coordinates": [[2.2446533, 48.8539268], [2.2446947, 48.853532], [2.2447164, 48.8531326]]}}, {"type": "Feature", "properties": {"highway": "path", "footway": null, "name": "Avenue de l'Hippodrome", "surface": "concrete", "lit": "yes", "length_m": 8.05, "type_element": "Way", "__fid": 2640}, "geometry": {"type": "LineString", "coordinates": [[2.2445938, 48.8585689], [2.2446927, 48.85853750000001]]}}, {"type": "Feature", "properties": {"highway": "track", "footway": null, "name": "Allée Saint-Denis", "surface": "compacted", "lit": "no", "length_m": 102.49, "type_element": "Way", "__fid": 2657}, "geometry": {"type": "LineString", "coordinates": [[2.245438, 48.85651030000001], [2.2447198, 48.8557198]]}}, {"type": "Feature", "properties": {"highway": "track", "footway": null, "name": "Route d'Auteuil à Suresnes", "surface": "compacted", "lit": null, "length_m": 49.74, "type_element": "Way", "__fid": 2658}, "geometry": {"type": "LineString", "coordinates": [[2.2450808, 48.8553413], [2.2448226, 48.8556027], [2.2447198, 48.8557198]]}}, {"type": "Feature", "properties": {"highway": "path", "footway": null, "name": null, "surface": "dirt", "lit": "yes", "length_m": 2.86, "type_element": "Way", "__fid": 2661}, "geometry": {"type": "LineString", "coordinates": [[2.2446884, 48.8585119], [2.2446927, 48.85853750000001]]}}, {"type": "Feature", "properties": {"highway": "footway", "footway": "crossing", "name": null, "surface": "asphalt", "lit": "yes", "length_m": 25.81, "type_element": "Way", "__fid": 2662}, "geometry": {"type": "LineString", "coordinates": [[2.2446884, 48.8585119], [2.2450081, 48.8584151]]}}, {"type": "Feature", "properties": {"highway": "footway", "footway": "crossing", "name": null, "surface": null, "lit": "yes", "length_m": 17.25, "type_element": "Way", "__fid": 2664}, "geometry": {"type": "LineString", "coordinates": [[2.2446927, 48.85853750000001], [2.2447913, 48.8586783]]}}, {"type": "Feature", "properties": {"highway": "path", "footway": null, "name": "Avenue de l'Hippodrome", "surface": "concrete", "lit": "yes", "length_m": 3.96, "type_element": "Way", "__fid": 2665}, "geometry": {"type": "LineString", "coordinates": [[2.2446927, 48.85853750000001], [2.244742, 48.8585229]]}}, {"type": "Feature", "properties": {"highway": "path", "footway": null, "name": null, "surface": "compacted", "lit": "yes", "length_m": 2.66, "type_element": "Way", "__fid": 2678}, "geometry": {"type": "LineString", "coordinates": [[2.2447913, 48.8586783], [2.2448123, 48.8586978]]}}, {"type": "Feature", "properties": {"highway": "path", "footway": null, "name": "Avenue de l'Hippodrome", "surface": "concrete", "lit": "yes", "length_m": 4.32, "type_element": "Way", "__fid": 2679}, "geometry": {"type": "LineString", "coordinates": [[2.2448445, 48.8586616], [2.2447913, 48.8586783]]}}, {"type": "Feature", "properties": {"highway": "path", "footway": null, "name": null, "surface": "compacted", "lit": "yes", "length_m": 208.67, "type_element": "Way", "__fid": 2680}, "geometry": {"type": "LineString", "coordinates": [[2.2448123, 48.8586978], [2.2448431, 48.8587263], [2.2450248, 48.8589969], [2.2459573, 48.8604148]]}}, {"type": "Feature", "properties": {"highway": "footway", "footway": "crossing", "name": null, "surface": "asphalt", "lit": "yes", "length_m": 23.02, "type_element": "Way", "__fid": 2681}, "geometry": {"type": "LineString", "coordinates": [[2.2448123, 48.8586978], [2.2450975, 48.8586115]]}}, {"type": "Feature", "properties": {"highway": "path", "footway": null, "name": null, "surface": null, "lit": null, "length_m": 31.87, "type_element": "Way", "__fid": 2683}, "geometry": {"type": "LineString", "coordinates": [[2.2448612, 48.855646], [2.2452452, 48.855512]]}}, {"type": "Feature", "properties": {"highway": "path", "footway": null, "name": "Avenue de l'Hippodrome", "surface": "concrete", "lit": "yes", "length_m": 6.74, "type_element": "Way", "__fid": 2693}, "geometry": {"type": "LineString", "coordinates": [[2.2449115, 48.8584719], [2.2449949, 48.8584464]]}}, {"type": "Feature", "properties": {"highway": "footway", "footway": "crossing", "name": null, "surface": null, "lit": "yes", "length_m": 16.83, "type_element": "Way", "__fid": 2705}, "geometry": {"type": "LineString", "coordinates": [[2.2449949, 48.8584464], [2.2450838, 48.8585859]]}}, {"type": "Feature", "properties": {"highway": "path", "footway": null, "name": null, "surface": null, "lit": "no", "length_m": 3.61, "type_element": "Way", "__fid": 2706}, "geometry": {"type": "LineString", "coordinates": [[2.2450081, 48.8584151], [2.2449949, 48.8584464]]}}, {"type": "Feature", "properties": {"highway": "path", "footway": null, "name": "Avenue de l'Hippodrome", "surface": "concrete", "lit": "yes", "length_m": 141.03, "type_element": "Way", "__fid": 2707}, "geometry": {"type": "LineString", "coordinates": [[2.2449949, 48.8584464], [2.2456729, 48.8582584], [2.2462421, 48.8581307], [2.2468019, 48.8580174]]}}, {"type": "Feature", "properties": {"highway": "path", "footway": null, "name": "Avenue de l'Hippodrome", "surface": "concrete", "lit": "yes", "length_m": 6.52, "type_element": "Way", "__fid": 2708}, "geometry": {"type": "LineString", "coordinates": [[2.2450838, 48.8585859], [2.2450037, 48.8586113]]}}, {"type": "Feature", "properties": {"highway": "path", "footway": null, "name": null, "surface": "unpaved", "lit": null, "length_m": 22.49, "type_element": "Way", "__fid": 2711}, "geometry": {"type": "LineString", "coordinates": [[2.2450808, 48.8553413], [2.2452452, 48.855512]]}}, {"type": "Feature", "properties": {"highway": "track", "footway": null, "name": "Route d'Auteuil à Suresnes", "surface": "compacted", "lit": null, "length_m": 42.42, "type_element": "Way", "__fid": 2712}, "geometry": {"type": "LineString", "coordinates": [[2.2453964, 48.8550217], [2.2450808, 48.8553413]]}}, {"type": "Feature", "properties": {"highway": "path", "footway": null, "name": null, "surface": "compacted", "lit": "no", "length_m": 3.02, "type_element": "Way", "__fid": 2718}, "geometry": {"type": "LineString", "coordinates": [[2.2450838, 48.8585859], [2.2450975, 48.8586115]]}}, {"type": "Feature", "properties": {"highway": "path", "footway": null, "name": "Avenue de l'Hippodrome", "surface": "concrete", "lit": "yes", "length_m": 142.32, "type_element": "Way", "__fid": 2719}, "geometry": {"type": "LineString", "coordinates": [[2.2469099, 48.858158], [2.246685, 48.8581971], [2.2460845, 48.858323], [2.2450838, 48.8585859]]}}, {"type": "Feature", "properties": {"highway": "path", "footway": null, "name": null, "surface": "compacted", "lit": "no", "length_m": 207.47, "type_element": "Way", "__fid": 2722}, "geometry": {"type": "LineString", "coordinates": [[2.2450975, 48.8586115], [2.2452254, 48.858686700000014], [2.2460826, 48.86004610000001], [2.2462193, 48.8601838], [2.2462891, 48.86029]]}}, {"type": "Feature", "properties": {"highway": "path", "footway": "sidewalk", "name": null, "surface": "compacted", "lit": "yes", "length_m": 206.49, "type_element": "Way", "__fid": 2723}, "geometry": {"type": "LineString", "coordinates": [[2.2450975, 48.8586115], [2.2450934, 48.85863769999999], [2.2461798, 48.86032220000001]]}}, {"type": "Feature", "properties": {"highway": "path", "footway": null, "name": null, "surface": "unpaved", "lit": null, "length_m": 107.64, "type_element": "Way", "__fid": 2731}, "geometry": {"type": "LineString", "coordinates": [[2.2452452, 48.855512], [2.2453248, 48.8556123], [2.2455134, 48.855806], [2.2457162, 48.855977400000015], [2.2459808, 48.8563452]]}}, {"type": "Feature", "properties": {"highway": "path", "footway": null, "name": null, "surface": null, "lit": null, "length_m": 166.62, "type_element": "Way", "__fid": 2748}, "geometry": {"type": "LineString", "coordinates": [[2.2467573, 48.8561568], [2.2465202, 48.856085], [2.2460811, 48.8557332], [2.245577, 48.8554122], [2.2453964, 48.8550217]]}}, {"type": "Feature", "properties": {"highway": "track", "footway": null, "name": "Route d'Auteuil à Suresnes", "surface": "compacted", "lit": null, "length_m": 89.53, "type_element": "Way", "__fid": 2749}, "geometry": {"type": "LineString", "coordinates": [[2.246125, 48.8543759], [2.2453964, 48.8550217]]}}, {"type": "Feature", "properties": {"highway": "track", "footway": null, "name": "Allée Saint-Denis", "surface": "compacted", "lit": "no", "length_m": 195.19, "type_element": "Way", "__fid": 2762}, "geometry": {"type": "LineString", "coordinates": [[2.2468019, 48.8580174], [2.245438, 48.85651030000001]]}}, {"type": "Feature", "properties": {"highway": "path", "footway": null, "name": null, "surface": null, "lit": null, "length_m": 43.87, "type_element": "Way", "__fid": 2763}, "geometry": {"type": "LineString", "coordinates": [[2.2459808, 48.8563452], [2.2455873, 48.8564597], [2.245438, 48.85651030000001]]}}]}