{"type": "FeatureCollection", "features": [{"type": "Feature", "properties": {"@id": "node/593440109", "amenity": "drinking_water", "check_date": "2025-04-12", "man_made": "water_tap", "type_element": "Fontaines à boire", "__fid": 126}, "geometry": {"type": "Point", "coordinates": [2.2378488, 48.8509656]}, "id": "node/593440109"}, {"type": "Feature", "properties": {"@id": "node/4414970468", "amenity": "drinking_water", "type_element": "Fontaines à boire", "__fid": 494}, "geometry": {"type": "Point", "coordinates": [2.2431554, 48.8491436]}, "id": "node/4414970468"}, {"type": "Feature", "properties": {"@id": "node/8145701606", "amenity": "drinking_water", "man_made": "water_tap", "type_element": "Fontaines à boire", "__fid": 742}, "geometry": {"type": "Point", "coordinates": [2.2379291, 48.8521868]}, "id": "node/8145701606"}, {"type": "Feature", "properties": {"@id": "node/9783944114", "access": "customers", "amenity": "drinking_water", "fee": "no", "man_made": "water_tap", "type_element": "Fontaines à boire", "__fid": 815}, "geometry": {"type": "Point", "coordinates": [2.2455972, 48.8478392]}, "id": "node/9783944114"}, {"type": "Feature", "properties": {"highway": "service", "footway": null, "name": "Route de la Seine à la Butte Mortemart", "surface": "asphalt", "lit": "no", "length_m": 525.82, "type_element": "Way", "__fid": 1813}, "geometry": {"type": "LineString", "coordinates": [[2.2368651, 48.8514135], [2.236694, 48.8513909], [2.2364588, 48.85138040000001], [2.2361981, 48.8513972], [2.2355486, 48.8514082], [2.2349783, 48.851451], [2.2343345, 48.8515302], [2.2335948, 48.851651], [2.2328838, 48.8518036], [2.2321804, 48.8519854], [2.2314721, 48.8522103], [2.2310622, 48.8523846], [2.2306536, 48.8525959], [2.2302553, 48.8528529]]}}, {"type": "Feature", "properties": {"highway": "service", "footway": null, "name": null, "surface": null, "lit": null, "length_m": 1593.23, "type_element": "Way", "__fid": 1863}, "geometry": {"type": "LineString", "coordinates": [[2.2324065, 48.8525243], [2.2326997, 48.852412500000014], [2.2327347, 48.8523911], [2.2328022, 48.8523034], [2.2327931, 48.8522343], [2.2327272, 48.8520967], [2.2327339, 48.85203910000001], [2.2327681, 48.8519738], [2.2328264, 48.8519344], [2.2329581, 48.8518987], [2.2330822, 48.851885], [2.2331639, 48.851885], [2.2332772, 48.8519217], [2.2333947, 48.8520413], [2.2334555, 48.8520895], [2.2335222, 48.85211970000002], [2.2336463, 48.85214050000001], [2.2337897, 48.8521252], [2.2342638, 48.8520254], [2.2357729, 48.85165640000001], [2.235992, 48.8516109], [2.2360887, 48.85160040000002], [2.2362328, 48.8515961], [2.2363053, 48.8516087], [2.2364116, 48.851662400000016], [2.2364794, 48.851731], [2.2365364, 48.8518093], [2.236532, 48.8518527], [2.2364166, 48.8519448], [2.2363726, 48.85200179999999], [2.2363652, 48.8520676], [2.2364085, 48.8522841], [2.2364386, 48.8528977], [2.2365107, 48.8530771], [2.2367166, 48.85331949999998], [2.2368008, 48.8534389], [2.2369302, 48.8537087], [2.2370023, 48.853890800000016], [2.2370653, 48.8541238], [2.237113, 48.854365], [2.237183, 48.8549673], [2.2371883, 48.8551482], [2.2371576, 48.8555929], [2.2371572, 48.855853], [2.2371749, 48.8559781], [2.2372187, 48.8561551], [2.2372888, 48.8563692], [2.2373115, 48.85654], [2.2372972, 48.85670120000002], [2.2372424, 48.85689979999999], [2.2371658, 48.8571162], [2.2370612, 48.8574921], [2.2369839, 48.857785], [2.2369129, 48.858137], [2.2367491, 48.8586689], [2.236709, 48.85884260000001], [2.2366866, 48.8590279], [2.2366347, 48.8598853], [2.2366795, 48.8600861], [2.2367726, 48.860333500000024], [2.2371191, 48.8611677], [2.2372723, 48.86149710000002], [2.2373229, 48.8616693], [2.237363, 48.8618693], [2.2373512, 48.8619848], [2.2372163, 48.8623926]]}}, {"type": "Feature", "properties": {"highway": "path", "footway": null, "name": null, "surface": "dirt", "lit": null, "length_m": 294.15, "type_element": "Way", "__fid": 1882}, "geometry": {"type": "LineString", "coordinates": [[2.2329725, 48.8516437], [2.2332609, 48.85160750000002], [2.2334191, 48.851580100000014], [2.2337678, 48.851499], [2.2338603, 48.8514893], [2.2341353, 48.8514381], [2.2345671, 48.8513728], [2.2346422, 48.8513463], [2.2347602, 48.8513242], [2.234948, 48.8513039], [2.2352189, 48.8512819], [2.2355971, 48.85126419999999], [2.2357929, 48.8512704], [2.2359404, 48.8512598], [2.2362663, 48.851253599999986], [2.2365721, 48.851258], [2.2367907, 48.8512766], [2.2368463, 48.851294199999984], [2.236873, 48.8513226]]}}, {"type": "Feature", "properties": {"highway": "footway", "footway": "sidewalk", "name": null, "surface": "unpaved", "lit": null, "length_m": 771.59, "type_element": "Way", "__fid": 2013}, "geometry": {"type": "LineString", "coordinates": [[2.2367177, 48.8520737], [2.2366874, 48.8522787], [2.2366874, 48.85241240000001], [2.2367351, 48.8526922], [2.2367788, 48.8528624], [2.2370387, 48.8534808], [2.2372322, 48.8540097], [2.2372948, 48.8542168], [2.237352, 48.8544699], [2.2374186, 48.8551087], [2.2374351, 48.8558547], [2.2374283, 48.8563408], [2.2373185, 48.8569506], [2.2369938, 48.8582708], [2.2368937, 48.85876620000001], [2.2368809, 48.858864], [2.2369871, 48.858869]]}}, {"type": "Feature", "properties": {"highway": "footway", "footway": "crossing", "name": null, "surface": null, "lit": null, "length_m": 60.54, "type_element": "Way", "__fid": 2014}, "geometry": {"type": "LineString", "coordinates": [[2.2369252, 48.8515511], [2.2369207, 48.8515971], [2.236853, 48.851761500000016], [2.2367811, 48.8518669], [2.23674, 48.8520447], [2.2367177, 48.8520737]]}}, {"type": "Feature", "properties": {"highway": "service", "footway": null, "name": "Route de la Seine à la Butte Mortemart", "surface": "asphalt", "lit": null, "length_m": 5.53, "type_element": "Way", "__fid": 2018}, "geometry": {"type": "LineString", "coordinates": [[2.2369386, 48.8514246], [2.2368651, 48.8514135]]}}, {"type": "Feature", "properties": {"highway": "footway", "footway": "sidewalk", "name": null, "surface": "unpaved", "lit": null, "length_m": 17.16, "type_element": "Way", "__fid": 2019}, "geometry": {"type": "LineString", "coordinates": [[2.2368651, 48.8514135], [2.2368628, 48.8514921], [2.2369109, 48.851517], [2.2369252, 48.8515511]]}}, {"type": "Feature", "properties": {"highway": "footway", "footway": "crossing", "name": null, "surface": "asphalt", "lit": null, "length_m": 10.12, "type_element": "Way", "__fid": 2020}, "geometry": {"type": "LineString", "coordinates": [[2.236873, 48.8513226], [2.2368651, 48.8514135]]}}, {"type": "Feature", "properties": {"highway": "footway", "footway": "sidewalk", "name": null, "surface": null, "lit": null, "length_m": 108.38, "type_element": "Way", "__fid": 2021}, "geometry": {"type": "LineString", "coordinates": [[2.236873, 48.8513226], [2.237002, 48.8513017], [2.2370689, 48.851272], [2.237129, 48.851216100000016], [2.2373078, 48.85100060000001], [2.2373884, 48.8509359], [2.2374751, 48.8508849], [2.2376408, 48.8508095], [2.2377013, 48.8507606], [2.2377317, 48.8507118], [2.2377414, 48.8506633], [2.23773, 48.8506022]]}}, {"type": "Feature", "properties": {"highway": "service", "footway": null, "name": "Route de Sèvres à Neuilly", "surface": "asphalt", "lit": "yes", "length_m": 279.1, "type_element": "Way", "__fid": 2022}, "geometry": {"type": "LineString", "coordinates": [[2.237539, 48.8553766], [2.2374807, 48.8548257], [2.2374099, 48.8543229], [2.2372532, 48.85378750000002], [2.2368963, 48.8529111]]}}, {"type": "Feature", "properties": {"highway": "service", "footway": null, "name": "Route de Sèvres à Neuilly", "surface": "asphalt", "lit": "yes", "length_m": 151.04, "type_element": "Way", "__fid": 2023}, "geometry": {"type": "LineString", "coordinates": [[2.2368963, 48.8529111], [2.2368244, 48.8526653], [2.2367866, 48.8524821], [2.2367982, 48.8521667], [2.2368662, 48.8519249], [2.2370411, 48.8515821]]}}, {"type": "Feature", "properties": {"highway": "path", "footway": null, "name": null, "surface": "unpaved", "lit": null, "length_m": 8.92, "type_element": "Way", "__fid": 2024}, "geometry": {"type": "LineString", "coordinates": [[2.236984, 48.85285550000001], [2.2368963, 48.8529111]]}}, {"type": "Feature", "properties": {"highway": "footway", "footway": "crossing", "name": null, "surface": "asphalt", "lit": null, "length_m": 9.18, "type_element": "Way", "__fid": 2025}, "geometry": {"type": "LineString", "coordinates": [[2.2369252, 48.8515511], [2.2370411, 48.8515821]]}}, {"type": "Feature", "properties": {"highway": "footway", "footway": "sidewalk", "name": null, "surface": "unpaved", "lit": null, "length_m": 142.3, "type_element": "Way", "__fid": 2029}, "geometry": {"type": "LineString", "coordinates": [[2.236984, 48.85285550000001], [2.2369325, 48.8527037], [2.2368936, 48.8525021], [2.2368777, 48.8523339], [2.2368846, 48.852180400000016], [2.2369236, 48.8520433], [2.2370404, 48.8517509], [2.2371361, 48.8516072]]}}, {"type": "Feature", "properties": {"highway": "path", "footway": null, "name": null, "surface": "unpaved", "lit": null, "length_m": 172.05, "type_element": "Way", "__fid": 2030}, "geometry": {"type": "LineString", "coordinates": [[2.2386324, 48.8517555], [2.238127, 48.8521063], [2.2374482, 48.8525614], [2.236984, 48.85285550000001]]}}, {"type": "Feature", "properties": {"highway": "footway", "footway": "crossing", "name": null, "surface": "asphalt", "lit": null, "length_m": 7.51, "type_element": "Way", "__fid": 2031}, "geometry": {"type": "LineString", "coordinates": [[2.2370411, 48.8515821], [2.2371361, 48.8516072]]}}, {"type": "Feature", "properties": {"highway": "service", "footway": null, "name": "Route de Sèvres à Neuilly", "surface": "asphalt", "lit": "yes", "length_m": 5.13, "type_element": "Way", "__fid": 2032}, "geometry": {"type": "LineString", "coordinates": [[2.2370519, 48.85153649999999], [2.2370411, 48.8515821]]}}, {"type": "Feature", "properties": {"highway": "footway", "footway": "sidewalk", "name": null, "surface": null, "lit": null, "length_m": 63.6, "type_element": "Way", "__fid": 2033}, "geometry": {"type": "LineString", "coordinates": [[2.23773, 48.8506022], [2.2377042, 48.850479599999986], [2.2376469, 48.8504563], [2.2370642, 48.8505793]]}}, {"type": "Feature", "properties": {"highway": "footway", "footway": "sidewalk", "name": null, "surface": "unpaved", "lit": null, "length_m": 20.79, "type_element": "Way", "__fid": 2041}, "geometry": {"type": "LineString", "coordinates": [[2.2371361, 48.8516072], [2.237252, 48.851436600000014]]}}, {"type": "Feature", "properties": {"highway": "track", "footway": null, "name": "Route de la Seine à la Butte Mortemart", "surface": "asphalt", "lit": null, "length_m": 5.5, "type_element": "Way", "__fid": 2042}, "geometry": {"type": "LineString", "coordinates": [[2.2371787, 48.8514262], [2.237252, 48.851436600000014]]}}, {"type": "Feature", "properties": {"highway": "track", "footway": null, "name": "Route de la Seine à la Butte Mortemart", "surface": "asphalt", "lit": null, "length_m": 108.09, "type_element": "Way", "__fid": 2047}, "geometry": {"type": "LineString", "coordinates": [[2.237252, 48.851436600000014], [2.2377221, 48.8514973], [2.238203, 48.851605], [2.2386324, 48.8517555]]}}, {"type": "Feature", "properties": {"highway": "footway", "footway": "sidewalk", "name": null, "surface": null, "lit": null, "length_m": 69.19, "type_element": "Way", "__fid": 2048}, "geometry": {"type": "LineString", "coordinates": [[2.237252, 48.851436600000014], [2.2373483, 48.8512621], [2.2374924, 48.8510601], [2.2375411, 48.85102209999998], [2.2377546, 48.85093920000001]]}}, {"type": "Feature", "properties": {"highway": "service", "footway": null, "name": null, "surface": "asphalt", "lit": null, "length_m": 11.51, "type_element": "Way", "__fid": 2065}, "geometry": {"type": "LineString", "coordinates": [[2.23773, 48.8506022], [2.2375764, 48.8506231]]}}, {"type": "Feature", "properties": {"highway": "footway", "footway": "traffic_island", "name": null, "surface": null, "lit": null, "length_m": 16.76, "type_element": "Way", "__fid": 2070}, "geometry": {"type": "LineString", "coordinates": [[2.237712066666751, 48.8504784666668], [2.2379351, 48.8504462]]}}, {"type": "Feature", "properties": {"highway": "service", "footway": null, "name": null, "surface": "asphalt", "lit": null, "length_m": 4.63, "type_element": "Way", "__fid": 2071}, "geometry": {"type": "LineString", "coordinates": [[2.2377918, 48.8505938], [2.23773, 48.8506022]]}}, {"type": "Feature", "properties": {"highway": "path", "footway": null, "name": null, "surface": "asphalt", "lit": null, "length_m": 46.68, "type_element": "Way", "__fid": 2074}, "geometry": {"type": "LineString", "coordinates": [[2.2383363, 48.8510822], [2.2380694, 48.8509704], [2.2380072, 48.8509556], [2.2377546, 48.85093920000001]]}}, {"type": "Feature", "properties": {"highway": "footway", "footway": "sidewalk", "name": null, "surface": null, "lit": null, "length_m": 40.9, "type_element": "Way", "__fid": 2075}, "geometry": {"type": "LineString", "coordinates": [[2.2377546, 48.85093920000001], [2.2378839, 48.8508393], [2.237915, 48.8507992], [2.2379553, 48.850717], [2.2379687, 48.8506124]]}}, {"type": "Feature", "properties": {"highway": "service", "footway": null, "name": null, "surface": "asphalt", "lit": null, "length_m": 6.43, "type_element": "Way", "__fid": 2079}, "geometry": {"type": "LineString", "coordinates": [[2.2378805, 48.8505709], [2.2379651, 48.850556]]}}, {"type": "Feature", "properties": {"highway": "track", "footway": null, "name": null, "surface": "asphalt", "lit": null, "length_m": 5.95, "type_element": "Way", "__fid": 2080}, "geometry": {"type": "LineString", "coordinates": [[2.2379687, 48.8506124], [2.2378891, 48.850602400000014]]}}, {"type": "Feature", "properties": {"highway": "footway", "footway": "sidewalk", "name": null, "surface": null, "lit": null, "length_m": 12.41, "type_element": "Way", "__fid": 2084}, "geometry": {"type": "LineString", "coordinates": [[2.2379651, 48.850556], [2.2379351, 48.8504462]]}}, {"type": "Feature", "properties": {"highway": "footway", "footway": "sidewalk", "name": null, "surface": null, "lit": null, "length_m": 286.79, "type_element": "Way", "__fid": 2085}, "geometry": {"type": "LineString", "coordinates": [[2.2379351, 48.8504462], [2.2379286, 48.85041070000002], [2.2379434, 48.8503948], [2.2390998, 48.85015210000002], [2.2393464, 48.8500848], [2.2395936, 48.8500029], [2.2398185, 48.8499032], [2.2401102, 48.84973819999998], [2.2404349, 48.8494909], [2.2410018, 48.8490146]]}}, {"type": "Feature", "properties": {"highway": "footway", "footway": "sidewalk", "name": null, "surface": null, "lit": null, "length_m": 6.28, "type_element": "Way", "__fid": 2087}, "geometry": {"type": "LineString", "coordinates": [[2.2379687, 48.8506124], [2.2379651, 48.850556]]}}, {"type": "Feature", "properties": {"highway": "service", "footway": null, "name": null, "surface": "asphalt", "lit": null, "length_m": 12.33, "type_element": "Way", "__fid": 2088}, "geometry": {"type": "LineString", "coordinates": [[2.2379651, 48.850556], [2.2381275, 48.85052750000001]]}}, {"type": "Feature", "properties": {"highway": "track", "footway": null, "name": null, "surface": "asphalt", "lit": null, "length_m": 11.75, "type_element": "Way", "__fid": 2089}, "geometry": {"type": "LineString", "coordinates": [[2.2380983, 48.85067450000001], [2.2379687, 48.8506124]]}}, {"type": "Feature", "properties": {"highway": "track", "footway": null, "name": null, "surface": "asphalt", "lit": null, "length_m": 48.87, "type_element": "Way", "__fid": 2099}, "geometry": {"type": "LineString", "coordinates": [[2.2383363, 48.8510822], [2.2382158, 48.8508328], [2.2381468, 48.8507165], [2.2380983, 48.85067450000001]]}}, {"type": "Feature", "properties": {"highway": "path", "footway": null, "name": null, "surface": "compacted", "lit": null, "length_m": 136.07, "type_element": "Way", "__fid": 2100}, "geometry": {"type": "LineString", "coordinates": [[2.2380983, 48.85067450000001], [2.2385436, 48.8506157], [2.2389105, 48.8505257], [2.2390868, 48.85047140000001], [2.2397144, 48.8502314], [2.2397796, 48.8501916]]}}, {"type": "Feature", "properties": {"highway": "track", "footway": null, "name": null, "surface": "asphalt", "lit": null, "length_m": 99.99, "type_element": "Way", "__fid": 2116}, "geometry": {"type": "LineString", "coordinates": [[2.238956, 48.8518831], [2.2383363, 48.8510822]]}}, {"type": "Feature", "properties": {"highway": "track", "footway": null, "name": null, "surface": "asphalt", "lit": null, "length_m": 573.75, "type_element": "Way", "__fid": 2131}, "geometry": {"type": "LineString", "coordinates": [[2.2385264, 48.856967], [2.2385693, 48.856825600000015], [2.2386069, 48.8566001], [2.2386509, 48.8560733], [2.2387895, 48.8557462], [2.2389595, 48.8554223], [2.2389934, 48.8553084], [2.2390015, 48.8551415], [2.2389834, 48.8548545], [2.2390161, 48.8546739], [2.2390128, 48.8545613], [2.2389237, 48.854360700000015], [2.2388776, 48.8541854], [2.2388945, 48.8540097], [2.2389669, 48.853547700000014], [2.2389565, 48.8532639], [2.2387778, 48.8524874], [2.2388048, 48.852287299999986], [2.238956, 48.8518831]]}}, {"type": "Feature", "properties": {"highway": "track", "footway": null, "name": "Route de la Seine à la Butte Mortemart", "surface": "asphalt", "lit": null, "length_m": 27.66, "type_element": "Way", "__fid": 2133}, "geometry": {"type": "LineString", "coordinates": [[2.2386324, 48.8517555], [2.238956, 48.8518831]]}}, {"type": "Feature", "properties": {"highway": "track", "footway": null, "name": "Route de la Seine à la Butte Mortemart", "surface": "compacted", "lit": null, "length_m": 32.3, "type_element": "Way", "__fid": 2141}, "geometry": {"type": "LineString", "coordinates": [[2.238956, 48.8518831], [2.2390578, 48.8520236], [2.2390989, 48.852056], [2.2392175, 48.8521053]]}}, {"type": "Feature", "properties": {"highway": "track", "footway": null, "name": null, "surface": "asphalt", "lit": null, "length_m": 173.42, "type_element": "Way", "__fid": 2142}, "geometry": {"type": "LineString", "coordinates": [[2.238956, 48.8518831], [2.2389909, 48.8514541], [2.2390492, 48.851228], [2.2391493, 48.85101670000001], [2.2394053, 48.8506566], [2.2395438, 48.8505325], [2.2396957, 48.850454]]}}, {"type": "Feature", "properties": {"highway": "path", "footway": null, "name": null, "surface": "compacted", "lit": null, "length_m": 604.31, "type_element": "Way", "__fid": 2157}, "geometry": {"type": "LineString", "coordinates": [[2.2390478, 48.85743380000003], [2.2392087, 48.8573441], [2.2393589, 48.85719320000001], [2.2394501, 48.85704230000002], [2.2394957, 48.856916100000014], [2.239489, 48.8566655], [2.2394675, 48.8564599], [2.2394675, 48.8558934], [2.2394393, 48.8554981], [2.2393683, 48.85491840000001], [2.2393392, 48.8540048], [2.2393168, 48.8536497], [2.2392462, 48.8532144], [2.2392033, 48.85302380000002], [2.2392449, 48.8528535], [2.2392543, 48.8526567], [2.2392569, 48.852348800000016], [2.2392194, 48.85219170000001], [2.2392175, 48.8521053]]}}, {"type": "Feature", "properties": {"highway": "track", "footway": null, "name": "Route de la Seine à la Butte Mortemart", "surface": "compacted", "lit": null, "length_m": 219.87, "type_element": "Way", "__fid": 2163}, "geometry": {"type": "LineString", "coordinates": [[2.2392175, 48.8521053], [2.2392989, 48.85212989999998], [2.2397556, 48.8524666], [2.2403016, 48.8528516], [2.2411982, 48.8533714], [2.2413941, 48.8534503]]}}, {"type": "Feature", "properties": {"highway": "path", "footway": null, "name": null, "surface": null, "lit": null, "length_m": 129.15, "type_element": "Way", "__fid": 2164}, "geometry": {"type": "LineString", "coordinates": [[2.2392175, 48.8521053], [2.2392194, 48.8519296], [2.2392811, 48.8517522], [2.2394943, 48.8512245], [2.239556, 48.851108], [2.2396499, 48.8509889]]}}, {"type": "Feature", "properties": {"highway": "footway", "footway": null, "name": null, "surface": "dirt", "lit": null, "length_m": 239.34, "type_element": "Way", "__fid": 2180}, "geometry": {"type": "LineString", "coordinates": [[2.2396499, 48.8509889], [2.239742, 48.8507912], [2.2399437, 48.8505778], [2.2409548, 48.8500382], [2.2414215, 48.84974520000002], [2.241623, 48.849498799999985], [2.241549, 48.8493774]]}}, {"type": "Feature", "properties": {"highway": "path", "footway": null, "name": null, "surface": null, "lit": null, "length_m": 186.51, "type_element": "Way", "__fid": 2181}, "geometry": {"type": "LineString", "coordinates": [[2.2396499, 48.8509889], [2.2397196, 48.8509761], [2.2397719, 48.850958], [2.2398437, 48.8508843], [2.2399013, 48.8508552], [2.2400019, 48.8508225], [2.2400911, 48.85080529999998], [2.2402064, 48.8507016], [2.2403654, 48.850601], [2.2407255, 48.8504656], [2.2408012, 48.850421], [2.2409032, 48.850382600000025], [2.2413048, 48.8502613], [2.241396, 48.8502569], [2.2417998, 48.8501851]]}}, {"type": "Feature", "properties": {"highway": "path", "footway": null, "name": null, "surface": null, "lit": null, "length_m": 29.82, "type_element": "Way", "__fid": 2184}, "geometry": {"type": "LineString", "coordinates": [[2.2396957, 48.850454], [2.2397796, 48.8501916]]}}, {"type": "Feature", "properties": {"highway": "track", "footway": null, "name": null, "surface": "asphalt", "lit": null, "length_m": 182.7, "type_element": "Way", "__fid": 2185}, "geometry": {"type": "LineString", "coordinates": [[2.2396957, 48.850454], [2.239839, 48.8503934], [2.2400106, 48.85029770000001], [2.240288, 48.850065700000016], [2.2404551, 48.8499601], [2.2411128, 48.849673], [2.2413926, 48.8495062], [2.241549, 48.8493774]]}}, {"type": "Feature", "properties": {"highway": "path", "footway": null, "name": null, "surface": null, "lit": null, "length_m": 174.51, "type_element": "Way", "__fid": 2190}, "geometry": {"type": "LineString", "coordinates": [[2.2397796, 48.8501916], [2.240165, 48.849956], [2.2413581, 48.84902060000002]]}}, {"type": "Feature", "properties": {"highway": "footway", "footway": "sidewalk", "name": null, "surface": null, "lit": null, "length_m": 3.97, "type_element": "Way", "__fid": 2233}, "geometry": {"type": "LineString", "coordinates": [[2.2409579, 48.8489937], [2.2410018, 48.8490146]]}}, {"type": "Feature", "properties": {"highway": "footway", "footway": "sidewalk", "name": null, "surface": null, "lit": null, "length_m": 28.57, "type_element": "Way", "__fid": 2237}, "geometry": {"type": "LineString", "coordinates": [[2.2410018, 48.8490146], [2.2411894, 48.8488568], [2.2412314, 48.8488077]]}}, {"type": "Feature", "properties": {"highway": "path", "footway": null, "name": null, "surface": null, "lit": null, "length_m": 25.66, "type_element": "Way", "__fid": 2257}, "geometry": {"type": "LineString", "coordinates": [[2.2413581, 48.84902060000002], [2.2412404, 48.8488568], [2.2412314, 48.8488077]]}}, {"type": "Feature", "properties": {"highway": "footway", "footway": "sidewalk", "name": null, "surface": null, "lit": null, "length_m": 7.33, "type_element": "Way", "__fid": 2258}, "geometry": {"type": "LineString", "coordinates": [[2.2412314, 48.8488077], [2.2412699, 48.84874689999999]]}}, {"type": "Feature", "properties": {"highway": "service", "footway": null, "name": null, "surface": null, "lit": null, "length_m": 28.67, "type_element": "Way", "__fid": 2262}, "geometry": {"type": "LineString", "coordinates": [[2.2416522, 48.8487915], [2.2414657, 48.848784400000014], [2.2412699, 48.84874689999999]]}}, {"type": "Feature", "properties": {"highway": "footway", "footway": "sidewalk", "name": null, "surface": null, "lit": null, "length_m": 58.78, "type_element": "Way", "__fid": 2263}, "geometry": {"type": "LineString", "coordinates": [[2.2412699, 48.84874689999999], [2.2416727, 48.8483823], [2.2417232, 48.848357], [2.241775399914033, 48.848348085403785]]}}, {"type": "Feature", "properties": {"highway": "path", "footway": null, "name": null, "surface": null, "lit": null, "length_m": 43.16, "type_element": "Way", "__fid": 2270}, "geometry": {"type": "LineString", "coordinates": [[2.241549, 48.8493774], [2.2415261, 48.8493245], [2.2413746, 48.8491445], [2.241345, 48.849073], [2.2413581, 48.84902060000002]]}}, {"type": "Feature", "properties": {"highway": "path", "footway": null, "name": null, "surface": null, "lit": null, "length_m": 24.66, "type_element": "Way", "__fid": 2271}, "geometry": {"type": "LineString", "coordinates": [[2.2413581, 48.84902060000002], [2.2416717, 48.8489409]]}}, {"type": "Feature", "properties": {"highway": "footway", "footway": "sidewalk", "name": null, "surface": "dirt", "lit": null, "length_m": 364.29, "type_element": "Way", "__fid": 2281}, "geometry": {"type": "LineString", "coordinates": [[2.2413941, 48.8534503], [2.2417998, 48.8501851]]}}, {"type": "Feature", "properties": {"highway": "track", "footway": null, "name": null, "surface": "asphalt", "lit": null, "length_m": 45.16, "type_element": "Way", "__fid": 2284}, "geometry": {"type": "LineString", "coordinates": [[2.241549, 48.8493774], [2.2416645, 48.8492822], [2.2419149, 48.849051]]}}, {"type": "Feature", "properties": {"highway": "path", "footway": null, "name": null, "surface": null, "lit": null, "length_m": 35.08, "type_element": "Way", "__fid": 2290}, "geometry": {"type": "LineString", "coordinates": [[2.2416717, 48.8489409], [2.2418787, 48.8486565]]}}, {"type": "Feature", "properties": {"highway": "path", "footway": null, "name": null, "surface": null, "lit": null, "length_m": 19.65, "type_element": "Way", "__fid": 2291}, "geometry": {"type": "LineString", "coordinates": [[2.2416717, 48.8489409], [2.2417694, 48.8489383], [2.2419372, 48.848956500000014]]}}, {"type": "Feature", "properties": {"highway": "footway", "footway": "crossing", "name": null, "surface": null, "lit": null, "length_m": 7.67, "type_element": "Way", "__fid": 2296}, "geometry": {"type": "LineString", "coordinates": [[2.2417429, 48.8482825], [2.241775399914033, 48.848348085403785]]}}, {"type": "Feature", "properties": {"highway": "path", "footway": null, "name": null, "surface": null, "lit": null, "length_m": 16.8, "type_element": "Way", "__fid": 2298}, "geometry": {"type": "LineString", "coordinates": [[2.241775399914033, 48.848348085403785], [2.2418292, 48.8484949]]}}, {"type": "Feature", "properties": {"highway": "footway", "footway": "sidewalk", "name": null, "surface": null, "lit": null, "length_m": 26.54, "type_element": "Way", "__fid": 2299}, "geometry": {"type": "LineString", "coordinates": [[2.241775399914033, 48.848348085403785], [2.241822, 48.84834670000002], [2.2418809, 48.848356], [2.2419309, 48.8483777], [2.2420027, 48.84844479999999], [2.2420103, 48.8484908]]}}, {"type": "Feature", "properties": {"highway": "footway", "footway": "sidewalk", "name": null, "surface": "dirt", "lit": null, "length_m": 518.28, "type_element": "Way", "__fid": 2302}, "geometry": {"type": "LineString", "coordinates": [[2.2422138, 48.848943], [2.2417137, 48.8529935], [2.2416872, 48.853310499999985], [2.2416966, 48.8535012], [2.2417345, 48.8535864]]}}, {"type": "Feature", "properties": {"highway": "footway", "footway": "sidewalk", "name": null, "surface": "dirt", "lit": null, "length_m": 102.97, "type_element": "Way", "__fid": 2304}, "geometry": {"type": "LineString", "coordinates": [[2.2417998, 48.8501851], [2.2418806, 48.8492606]]}}, {"type": "Feature", "properties": {"highway": "path", "footway": null, "name": null, "surface": null, "lit": null, "length_m": 18.33, "type_element": "Way", "__fid": 2305}, "geometry": {"type": "LineString", "coordinates": [[2.2418292, 48.8484949], [2.2418787, 48.8486565]]}}, {"type": "Feature", "properties": {"highway": "path", "footway": null, "name": null, "surface": null, "lit": null, "length_m": 13.3, "type_element": "Way", "__fid": 2306}, "geometry": {"type": "LineString", "coordinates": [[2.2418292, 48.8484949], [2.2420103, 48.8484908]]}}, {"type": "Feature", "properties": {"highway": "path", "footway": null, "name": null, "surface": null, "lit": null, "length_m": 33.9, "type_element": "Way", "__fid": 2309}, "geometry": {"type": "LineString", "coordinates": [[2.2418787, 48.8486565], [2.2419032, 48.84869779999999], [2.2419402, 48.8488638], [2.2419372, 48.848956500000014]]}}, {"type": "Feature", "properties": {"highway": "path", "footway": null, "name": null, "surface": null, "lit": null, "length_m": 10.63, "type_element": "Way", "__fid": 2310}, "geometry": {"type": "LineString", "coordinates": [[2.2419372, 48.848956500000014], [2.2419149, 48.849051]]}}, {"type": "Feature", "properties": {"highway": "track", "footway": null, "name": "Allée de l'Espérance", "surface": "asphalt", "lit": null, "length_m": 15.57, "type_element": "Way", "__fid": 2311}, "geometry": {"type": "LineString", "coordinates": [[2.2419149, 48.849051], [2.2420676, 48.84895379999998]]}}, {"type": "Feature", "properties": {"highway": "path", "footway": null, "name": null, "surface": null, "lit": null, "length_m": 9.57, "type_element": "Way", "__fid": 2312}, "geometry": {"type": "LineString", "coordinates": [[2.2419372, 48.848956500000014], [2.2420676, 48.84895379999998]]}}, {"type": "Feature", "properties": {"highway": "footway", "footway": "sidewalk", "name": null, "surface": null, "lit": null, "length_m": 13.64, "type_element": "Way", "__fid": 2316}, "geometry": {"type": "LineString", "coordinates": [[2.2420103, 48.8484908], [2.2420086, 48.84861349999998]]}}, {"type": "Feature", "properties": {"highway": "footway", "footway": "traffic_island", "name": "Avenue de Saint-Cloud", "surface": "asphalt", "lit": null, "length_m": 19.45, "type_element": "Way", "__fid": 2317}, "geometry": {"type": "LineString", "coordinates": [[2.242257, 48.84854], [2.2421383, 48.8484951], [2.2420103, 48.8484908]]}}, {"type": "Feature", "properties": {"highway": "path", "footway": null, "name": null, "surface": "dirt", "lit": null, "length_m": 387.43, "type_element": "Way", "__fid": 2320}, "geometry": {"type": "LineString", "coordinates": [[2.2421773, 48.850211899999984], [2.242057, 48.85138360000002], [2.241936, 48.85233010000001], [2.24185, 48.85285669999998], [2.2418029, 48.8533827], [2.241828, 48.8535099], [2.2419388, 48.853669100000026]]}}, {"type": "Feature", "properties": {"highway": "track", "footway": null, "name": null, "surface": "asphalt", "lit": null, "length_m": 10.8, "type_element": "Way", "__fid": 2321}, "geometry": {"type": "LineString", "coordinates": [[2.2420676, 48.84895379999998], [2.2422138, 48.848943]]}}, {"type": "Feature", "properties": {"highway": "path", "footway": null, "name": null, "surface": "dirt", "lit": null, "length_m": 49.85, "type_element": "Way", "__fid": 2325}, "geometry": {"type": "LineString", "coordinates": [[2.2422232, 48.8497646], [2.2421773, 48.850211899999984]]}}, {"type": "Feature", "properties": {"highway": "path", "footway": null, "name": null, "surface": null, "lit": null, "length_m": 32.63, "type_element": "Way", "__fid": 2326}, "geometry": {"type": "LineString", "coordinates": [[2.2421773, 48.850211899999984], [2.2426181, 48.8501732]]}}, {"type": "Feature", "properties": {"highway": "track", "footway": null, "name": null, "surface": "asphalt", "lit": null, "length_m": 6.57, "type_element": "Way", "__fid": 2327}, "geometry": {"type": "LineString", "coordinates": [[2.2422138, 48.848943], [2.2423017, 48.848954]]}}, {"type": "Feature", "properties": {"highway": "footway", "footway": "sidewalk", "name": null, "surface": "dirt", "lit": null, "length_m": 44.92, "type_element": "Way", "__fid": 2328}, "geometry": {"type": "LineString", "coordinates": [[2.242257, 48.84854], [2.2422138, 48.848943]]}}, {"type": "Feature", "properties": {"highway": "path", "footway": null, "name": null, "surface": "dirt", "lit": null, "length_m": 90.32, "type_element": "Way", "__fid": 2329}, "geometry": {"type": "LineString", "coordinates": [[2.2423017, 48.848954], [2.2422232, 48.8497646]]}}, {"type": "Feature", "properties": {"highway": "path", "footway": null, "name": null, "surface": null, "lit": null, "length_m": 23.27, "type_element": "Way", "__fid": 2330}, "geometry": {"type": "LineString", "coordinates": [[2.2425323, 48.8498073], [2.2422742, 48.8497646], [2.2422232, 48.8497646]]}}, {"type": "Feature", "properties": {"highway": "footway", "footway": "sidewalk", "name": "Avenue de Saint-Cloud", "surface": "asphalt", "lit": null, "length_m": 10.87, "type_element": "Way", "__fid": 2332}, "geometry": {"type": "LineString", "coordinates": [[2.2423882, 48.8485049], [2.2422826, 48.8485196], [2.242257, 48.84854]]}}, {"type": "Feature", "properties": {"highway": "track", "footway": null, "name": null, "surface": "asphalt", "lit": null, "length_m": 43.46, "type_element": "Way", "__fid": 2336}, "geometry": {"type": "LineString", "coordinates": [[2.2423017, 48.848954], [2.2424174, 48.8489677], [2.2425728, 48.848949], [2.2427558, 48.84889290000001], [2.2428534, 48.8488529]]}}, {"type": "Feature", "properties": {"highway": "track", "footway": null, "name": "Allée Saint-Denis", "surface": "compacted", "lit": null, "length_m": 96.38, "type_element": "Way", "__fid": 2337}, "geometry": {"type": "LineString", "coordinates": [[2.2425323, 48.8498073], [2.2423017, 48.848954]]}}, {"type": "Feature", "properties": {"highway": "path", "footway": null, "name": "Avenue de Saint-Cloud", "surface": "asphalt", "lit": null, "length_m": 52.14, "type_element": "Way", "__fid": 2340}, "geometry": {"type": "LineString", "coordinates": [[2.2428534, 48.8488529], [2.2426296, 48.8486404], [2.2425066, 48.8485581], [2.2423882, 48.8485049]]}}, {"type": "Feature", "properties": {"highway": "footway", "footway": "sidewalk", "name": null, "surface": null, "lit": null, "length_m": 27.38, "type_element": "Way", "__fid": 2341}, "geometry": {"type": "LineString", "coordinates": [[2.2427601, 48.8485], [2.2427244, 48.84849470000001], [2.2423882, 48.8485049]]}}, {"type": "Feature", "properties": {"highway": "track", "footway": null, "name": "Allée Saint-Denis", "surface": "compacted", "lit": null, "length_m": 41.17, "type_element": "Way", "__fid": 2351}, "geometry": {"type": "LineString", "coordinates": [[2.2426181, 48.8501732], [2.2425323, 48.8498073]]}}, {"type": "Feature", "properties": {"highway": "path", "footway": null, "name": null, "surface": null, "lit": null, "length_m": 21.3, "type_element": "Way", "__fid": 2352}, "geometry": {"type": "LineString", "coordinates": [[2.2428194, 48.84977940000001], [2.2425323, 48.8498073]]}}, {"type": "Feature", "properties": {"highway": "track", "footway": null, "name": "Allée Saint-Denis", "surface": "compacted", "lit": null, "length_m": 382.43, "type_element": "Way", "__fid": 2358}, "geometry": {"type": "LineString", "coordinates": [[2.2434235, 48.8535712], [2.2426181, 48.8501732]]}}, {"type": "Feature", "properties": {"highway": "path", "footway": null, "name": null, "surface": null, "lit": null, "length_m": 16.34, "type_element": "Way", "__fid": 2359}, "geometry": {"type": "LineString", "coordinates": [[2.2426181, 48.8501732], [2.2428302, 48.85012859999998]]}}, {"type": "Feature", "properties": {"highway": "footway", "footway": null, "name": "Avenue de Saint-Cloud", "surface": "asphalt", "lit": null, "length_m": 35.35, "type_element": "Way", "__fid": 2363}, "geometry": {"type": "LineString", "coordinates": [[2.243, 48.8487734], [2.2428935, 48.8486752], [2.2428129, 48.848548500000014], [2.2427601, 48.8485]]}}, {"type": "Feature", "properties": {"highway": "footway", "footway": "sidewalk", "name": null, "surface": "compacted", "lit": null, "length_m": 49.5, "type_element": "Way", "__fid": 2364}, "geometry": {"type": "LineString", "coordinates": [[2.2427601, 48.8485], [2.2428509, 48.8483513], [2.2428798, 48.84827710000002], [2.2428892, 48.8482113], [2.2428793, 48.8481031], [2.2429229, 48.8480854]]}}, {"type": "Feature", "properties": {"highway": "path", "footway": null, "name": null, "surface": null, "lit": null, "length_m": 38.84, "type_element": "Way", "__fid": 2368}, "geometry": {"type": "LineString", "coordinates": [[2.2428302, 48.85012859999998], [2.2428194, 48.84977940000001]]}}, {"type": "Feature", "properties": {"highway": "path", "footway": null, "name": null, "surface": null, "lit": null, "length_m": 78.06, "type_element": "Way", "__fid": 2369}, "geometry": {"type": "LineString", "coordinates": [[2.2432755, 48.849158], [2.2430896, 48.8493046], [2.2429116, 48.8495301], [2.2428194, 48.84977940000001]]}}, {"type": "Feature", "properties": {"highway": "path", "footway": null, "name": null, "surface": null, "lit": null, "length_m": 302.68, "type_element": "Way", "__fid": 2372}, "geometry": {"type": "LineString", "coordinates": [[2.2446268, 48.8525036], [2.2445195, 48.8522263], [2.2441324, 48.851697], [2.2437921, 48.8514425], [2.2437688, 48.8513374], [2.2437151, 48.8512617], [2.2434321, 48.8510801], [2.2433436, 48.85087559999999], [2.2432812, 48.85081220000002], [2.2432305, 48.850727099999986], [2.2432381, 48.8506066], [2.2431806, 48.850483], [2.2430663, 48.85035], [2.2428751, 48.850214], [2.2428302, 48.85012859999998]]}}, {"type": "Feature", "properties": {"highway": "path", "footway": null, "name": null, "surface": null, "lit": null, "length_m": 74.64, "type_element": "Way", "__fid": 2373}, "geometry": {"type": "LineString", "coordinates": [[2.2428302, 48.85012859999998], [2.2430898, 48.8500332], [2.2432259, 48.8499617], [2.2432544, 48.8498864], [2.2432626, 48.8497619], [2.2431926, 48.8496107]]}}, {"type": "Feature", "properties": {"highway": "track", "footway": null, "name": null, "surface": "asphalt", "lit": null, "length_m": 6.74, "type_element": "Way", "__fid": 2374}, "geometry": {"type": "LineString", "coordinates": [[2.2428534, 48.8488529], [2.2429286, 48.8488181]]}}, {"type": "Feature", "properties": {"highway": "footway", "footway": "crossing", "name": null, "surface": "concrete", "lit": null, "length_m": 11.85, "type_element": "Way", "__fid": 2375}, "geometry": {"type": "LineString", "coordinates": [[2.2429229, 48.8480854], [2.2429237, 48.8479788]]}}, {"type": "Feature", "properties": {"highway": "footway", "footway": "sidewalk", "name": null, "surface": null, "lit": null, "length_m": 297.52, "type_element": "Way", "__fid": 2376}, "geometry": {"type": "LineString", "coordinates": [[2.2455484, 48.8469209], [2.2428132, 48.847621400000016], [2.2424507, 48.847717], [2.2424169, 48.847739], [2.2424022, 48.8477584], [2.2424017, 48.8477843], [2.242637, 48.84790669999999], [2.2427407, 48.8479467], [2.2428369, 48.8479709], [2.2429237, 48.8479788]]}}, {"type": "Feature", "properties": {"highway": "footway", "footway": "sidewalk", "name": null, "surface": null, "lit": null, "length_m": 91.15, "type_element": "Way", "__fid": 2377}, "geometry": {"type": "LineString", "coordinates": [[2.2429237, 48.8479788], [2.2441655, 48.8479605]]}}, {"type": "Feature", "properties": {"highway": "footway", "footway": "sidewalk", "name": null, "surface": "compacted", "lit": null, "length_m": 75.21, "type_element": "Way", "__fid": 2378}, "geometry": {"type": "LineString", "coordinates": [[2.2429229, 48.8480854], [2.2437289, 48.8480778], [2.2437521, 48.8480845], [2.2439456, 48.8480845]]}}, {"type": "Feature", "properties": {"highway": "service", "footway": null, "name": "Avenue de Saint-Cloud", "surface": "asphalt", "lit": null, "length_m": 45.57, "type_element": "Way", "__fid": 2379}, "geometry": {"type": "LineString", "coordinates": [[2.2429286, 48.8488181], [2.2432755, 48.849158]]}}, {"type": "Feature", "properties": {"highway": "track", "footway": null, "name": null, "surface": null, "lit": null, "length_m": 7.22, "type_element": "Way", "__fid": 2380}, "geometry": {"type": "LineString", "coordinates": [[2.2429286, 48.8488181], [2.243, 48.8487734]]}}, {"type": "Feature", "properties": {"highway": "track", "footway": null, "name": null, "surface": null, "lit": null, "length_m": 65.24, "type_element": "Way", "__fid": 2384}, "geometry": {"type": "LineString", "coordinates": [[2.243, 48.8487734], [2.2430946, 48.8487556], [2.2437896, 48.8490043]]}}, {"type": "Feature", "properties": {"highway": "service", "footway": null, "name": null, "surface": "asphalt", "lit": null, "length_m": 2.62, "type_element": "Way", "__fid": 2387}, "geometry": {"type": "LineString", "coordinates": [[2.2431926, 48.8496107], [2.2431649, 48.8496255]]}}, {"type": "Feature", "properties": {"highway": "service", "footway": null, "name": null, "surface": "asphalt", "lit": null, "length_m": 16.96, "type_element": "Way", "__fid": 2390}, "geometry": {"type": "LineString", "coordinates": [[2.243379, 48.8495206], [2.2431926, 48.8496107]]}}, {"type": "Feature", "properties": {"highway": "service", "footway": null, "name": "Avenue de Saint-Cloud", "surface": "asphalt", "lit": null, "length_m": 38.15, "type_element": "Way", "__fid": 2403}, "geometry": {"type": "LineString", "coordinates": [[2.2432755, 48.849158], [2.243575, 48.8494384]]}}, {"type": "Feature", "properties": {"highway": "path", "footway": null, "name": null, "surface": "dirt", "lit": null, "length_m": 19.2, "type_element": "Way", "__fid": 2404}, "geometry": {"type": "LineString", "coordinates": [[2.2434843, 48.8490571], [2.2434233, 48.8490731], [2.2432755, 48.849158]]}}, {"type": "Feature", "properties": {"highway": "path", "footway": null, "name": null, "surface": null, "lit": null, "length_m": 53.73, "type_element": "Way", "__fid": 2417}, "geometry": {"type": "LineString", "coordinates": [[2.243379, 48.8495206], [2.2436236, 48.8497878], [2.2437986, 48.849914]]}}, {"type": "Feature", "properties": {"highway": "service", "footway": null, "name": null, "surface": "asphalt", "lit": null, "length_m": 17.04, "type_element": "Way", "__fid": 2418}, "geometry": {"type": "LineString", "coordinates": [[2.243575, 48.8494384], [2.243379, 48.8495206]]}}, {"type": "Feature", "properties": {"highway": "path", "footway": null, "name": null, "surface": "dirt", "lit": null, "length_m": 52.49, "type_element": "Way", "__fid": 2430}, "geometry": {"type": "LineString", "coordinates": [[2.2434843, 48.8490571], [2.2437272, 48.8491458], [2.2439231, 48.849233199999986], [2.2440674, 48.8493258]]}}, {"type": "Feature", "properties": {"highway": "path", "footway": null, "name": null, "surface": null, "lit": null, "length_m": 23.25, "type_element": "Way", "__fid": 2431}, "geometry": {"type": "LineString", "coordinates": [[2.2437896, 48.8490043], [2.2436364, 48.8490214], [2.2434843, 48.8490571]]}}, {"type": "Feature", "properties": {"highway": "service", "footway": null, "name": "Avenue de Saint-Cloud", "surface": "asphalt", "lit": null, "length_m": 234.88, "type_element": "Way", "__fid": 2454}, "geometry": {"type": "LineString", "coordinates": [[2.243575, 48.8494384], [2.2447747, 48.85056129999999], [2.2454342, 48.8511578]]}}, {"type": "Feature", "properties": {"highway": "path", "footway": null, "name": null, "surface": "dirt", "lit": null, "length_m": 38.24, "type_element": "Way", "__fid": 2455}, "geometry": {"type": "LineString", "coordinates": [[2.2440674, 48.8493258], [2.243575, 48.8494384]]}}, {"type": "Feature", "properties": {"highway": "path", "footway": null, "name": null, "surface": null, "lit": null, "length_m": 130.76, "type_element": "Way", "__fid": 2479}, "geometry": {"type": "LineString", "coordinates": [[2.2455531, 48.8489611], [2.2454332, 48.8489976], [2.2452128, 48.84902970000001], [2.2445279, 48.8490279], [2.2437896, 48.8490043]]}}, {"type": "Feature", "properties": {"highway": "track", "footway": null, "name": null, "surface": null, "lit": null, "length_m": 48.08, "type_element": "Way", "__fid": 2480}, "geometry": {"type": "LineString", "coordinates": [[2.2437896, 48.8490043], [2.2443624, 48.8492143]]}}, {"type": "Feature", "properties": {"highway": "path", "footway": null, "name": null, "surface": "dirt", "lit": null, "length_m": 155.71, "type_element": "Way", "__fid": 2512}, "geometry": {"type": "LineString", "coordinates": [[2.2440674, 48.8493258], [2.2459223, 48.85000580000001]]}}, {"type": "Feature", "properties": {"highway": "path", "footway": null, "name": null, "surface": null, "lit": null, "length_m": 52.17, "type_element": "Way", "__fid": 2513}, "geometry": {"type": "LineString", "coordinates": [[2.2445442, 48.8496738], [2.2440674, 48.8493258]]}}, {"type": "Feature", "properties": {"highway": "path", "footway": null, "name": null, "surface": "dirt", "lit": null, "length_m": 25.14, "type_element": "Way", "__fid": 2514}, "geometry": {"type": "LineString", "coordinates": [[2.2443624, 48.8492143], [2.2441862, 48.849265], [2.2440674, 48.8493258]]}}, {"type": "Feature", "properties": {"highway": "footway", "footway": null, "name": "Allée des Princes", "surface": null, "lit": null, "length_m": 7.8, "type_element": "Way", "__fid": 2525}, "geometry": {"type": "LineString", "coordinates": [[2.2441655, 48.8479605], [2.2442056, 48.8480255]]}}, {"type": "Feature", "properties": {"highway": "footway", "footway": null, "name": "Allée des Princes", "surface": null, "lit": null, "length_m": 46.53, "type_element": "Way", "__fid": 2526}, "geometry": {"type": "LineString", "coordinates": [[2.2446737, 48.847787], [2.2441413, 48.8479213], [2.2441655, 48.8479605]]}}, {"type": "Feature", "properties": {"highway": "footway", "footway": "sidewalk", "name": null, "surface": null, "lit": null, "length_m": 138.8, "type_element": "Way", "__fid": 2527}, "geometry": {"type": "LineString", "coordinates": [[2.2441655, 48.8479605], [2.2460567, 48.8479458]]}}, {"type": "Feature", "properties": {"highway": "track", "footway": null, "name": null, "surface": null, "lit": null, "length_m": 144.63, "type_element": "Way", "__fid": 2568}, "geometry": {"type": "LineString", "coordinates": [[2.2443624, 48.8492143], [2.2460852, 48.8498461]]}}, {"type": "Feature", "properties": {"highway": "service", "footway": null, "name": "Route de la Seine à la Butte Mortemart", "surface": "asphalt", "lit": null, "length_m": 35.05, "type_element": "Way", "__fid": 2573}, "geometry": {"type": "LineString", "coordinates": [[2.2443252, 48.8533135], [2.2447164, 48.8531326]]}}, {"type": "Feature", "properties": {"highway": "path", "footway": null, "name": null, "surface": null, "lit": null, "length_m": 86.7, "type_element": "Way", "__fid": 2604}, "geometry": {"type": "LineString", "coordinates": [[2.2454407, 48.8501814], [2.2448928, 48.849861699999984], [2.2445442, 48.8496738]]}}, {"type": "Feature", "properties": {"highway": "path", "footway": null, "name": null, "surface": null, "lit": null, "length_m": 137.45, "type_element": "Way", "__fid": 2605}, "geometry": {"type": "LineString", "coordinates": [[2.2452982, 48.8506336], [2.2449549, 48.850347], [2.2447716, 48.8501735], [2.2445073, 48.8499423], [2.2443881, 48.84981819999999], [2.2443668, 48.8497611], [2.2444056, 48.8496962], [2.2445442, 48.8496738]]}}, {"type": "Feature", "properties": {"highway": "footway", "footway": null, "name": "Allée du court 14", "surface": "paving_stones", "lit": null, "length_m": 143.97, "type_element": "Way", "__fid": 2622}, "geometry": {"type": "LineString", "coordinates": [[2.2455664, 48.8470431], [2.2444145, 48.84734], [2.2446737, 48.847787]]}}, {"type": "Feature", "properties": {"highway": "footway", "footway": null, "name": "Allée des Princes", "surface": null, "lit": null, "length_m": 127.37, "type_element": "Way", "__fid": 2623}, "geometry": {"type": "LineString", "coordinates": [[2.2460107, 48.84781209999998], [2.2456424, 48.8478966], [2.2454625, 48.8475879], [2.2446737, 48.847787]]}}, {"type": "Feature", "properties": {"highway": "path", "footway": null, "name": null, "surface": null, "lit": null, "length_m": 70.25, "type_element": "Way", "__fid": 2632}, "geometry": {"type": "LineString", "coordinates": [[2.2447164, 48.8531326], [2.2446268, 48.8525036]]}}, {"type": "Feature", "properties": {"highway": "path", "footway": null, "name": null, "surface": null, "lit": null, "length_m": 16.1, "type_element": "Way", "__fid": 2633}, "geometry": {"type": "LineString", "coordinates": [[2.2446268, 48.8525036], [2.2447761, 48.8523975]]}}, {"type": "Feature", "properties": {"highway": "path", "footway": null, "name": null, "surface": null, "lit": null, "length_m": 88.44, "type_element": "Way", "__fid": 2637}, "geometry": {"type": "LineString", "coordinates": [[2.2446533, 48.8539268], [2.2446947, 48.853532], [2.2447164, 48.8531326]]}}, {"type": "Feature", "properties": {"highway": "service", "footway": null, "name": "Route de la Seine à la Butte Mortemart", "surface": "asphalt", "lit": null, "length_m": 229.56, "type_element": "Way", "__fid": 2648}, "geometry": {"type": "LineString", "coordinates": [[2.2447164, 48.8531326], [2.2451536, 48.8529708], [2.2456989, 48.85280729999999], [2.2465486, 48.8527215], [2.2472696, 48.8527611], [2.2476959, 48.85284570000001]]}}, {"type": "Feature", "properties": {"highway": "path", "footway": null, "name": null, "surface": null, "lit": null, "length_m": 147.57, "type_element": "Way", "__fid": 2659}, "geometry": {"type": "LineString", "coordinates": [[2.2447761, 48.8523975], [2.2449344, 48.8520674], [2.2451101, 48.8515796], [2.2451924, 48.851386300000016], [2.2454342, 48.8511578]]}}, {"type": "Feature", "properties": {"highway": "path", "footway": null, "name": null, "surface": null, "lit": null, "length_m": 141.42, "type_element": "Way", "__fid": 2660}, "geometry": {"type": "LineString", "coordinates": [[2.2447761, 48.8523975], [2.2450353, 48.85236430000001], [2.2456821, 48.8523463], [2.2466569, 48.8521577]]}}, {"type": "Feature", "properties": {"highway": "service", "footway": null, "name": "Route de Boulogne à Passy", "surface": "asphalt", "lit": null, "length_m": 28.14, "type_element": "Way", "__fid": 2721}, "geometry": {"type": "LineString", "coordinates": [[2.2455531, 48.8489611], [2.2453663, 48.8488888], [2.2452327, 48.848822799999986]]}}, {"type": "Feature", "properties": {"highway": "path", "footway": null, "name": null, "surface": null, "lit": null, "length_m": 112.41, "type_element": "Way", "__fid": 2727}, "geometry": {"type": "LineString", "coordinates": [[2.2461318, 48.8514785], [2.2456795, 48.85105150000001], [2.2455226, 48.8508353], [2.2452982, 48.8506336]]}}, {"type": "Feature", "properties": {"highway": "path", "footway": null, "name": null, "surface": null, "lit": null, "length_m": 59.16, "type_element": "Way", "__fid": 2728}, "geometry": {"type": "LineString", "coordinates": [[2.2454342, 48.8511578], [2.2453353, 48.8507379], [2.2452982, 48.8506336]]}}, {"type": "Feature", "properties": {"highway": "path", "footway": null, "name": null, "surface": "wood", "lit": "no", "length_m": 55.44, "type_element": "Way", "__fid": 2729}, "geometry": {"type": "LineString", "coordinates": [[2.2452982, 48.8506336], [2.2452771, 48.850533599999984], [2.2452761, 48.85038870000001], [2.2453131, 48.850249], [2.2453797, 48.8501979], [2.2454407, 48.8501814]]}}, {"type": "Feature", "properties": {"highway": "path", "footway": null, "name": null, "surface": "wood", "lit": "no", "length_m": 12.61, "type_element": "Way", "__fid": 2744}, "geometry": {"type": "LineString", "coordinates": [[2.2454407, 48.8501814], [2.24551, 48.8501741], [2.2456074, 48.8501932]]}}, {"type": "Feature", "properties": {"highway": "service", "footway": null, "name": "Avenue de Saint-Cloud", "surface": "asphalt", "lit": null, "length_m": 142.93, "type_element": "Way", "__fid": 2745}, "geometry": {"type": "LineString", "coordinates": [[2.2454342, 48.8511578], [2.2457223, 48.8514184], [2.2466569, 48.8521577]]}}, {"type": "Feature", "properties": {"highway": "footway", "footway": null, "name": null, "surface": "paving_stones", "lit": null, "length_m": 91.51, "type_element": "Way", "__fid": 2756}, "geometry": {"type": "LineString", "coordinates": [[2.2455664, 48.8470431], [2.2460107, 48.84781209999998]]}}, {"type": "Feature", "properties": {"highway": "service", "footway": null, "name": "Route de Boulogne à Passy", "surface": "asphalt", "lit": null, "length_m": 9.55, "type_element": "Way", "__fid": 2764}, "geometry": {"type": "LineString", "coordinates": [[2.2456645, 48.84900550000001], [2.2455531, 48.8489611]]}}, {"type": "Feature", "properties": {"highway": "path", "footway": null, "name": null, "surface": "wood", "lit": "no", "length_m": 127.39, "type_element": "Way", "__fid": 2771}, "geometry": {"type": "LineString", "coordinates": [[2.2456074, 48.8501932], [2.245779, 48.8502745], [2.2459426, 48.8503712], [2.2464157, 48.8505474], [2.2470058, 48.85086549999998]]}}, {"type": "Feature", "properties": {"highway": "path", "footway": null, "name": null, "surface": null, "lit": null, "length_m": 31.12, "type_element": "Way", "__fid": 2772}, "geometry": {"type": "LineString", "coordinates": [[2.2456074, 48.8501932], [2.2459223, 48.85000580000001]]}}, {"type": "Feature", "properties": {"highway": "service", "footway": null, "name": "Route de Boulogne à Passy", "surface": "asphalt", "lit": null, "length_m": 334.55, "type_element": "Way", "__fid": 2776}, "geometry": {"type": "LineString", "coordinates": [[2.2493113, 48.8508034], [2.2483271, 48.850305599999984], [2.247297, 48.8497375], [2.2466939, 48.84942979999999], [2.2461022, 48.8491724], [2.2456645, 48.84900550000001]]}}, {"type": "Feature", "properties": {"highway": "path", "footway": null, "name": null, "surface": null, "lit": null, "length_m": 114.41, "type_element": "Way", "__fid": 2777}, "geometry": {"type": "LineString", "coordinates": [[2.2470647, 48.848794], [2.2468622, 48.8488221], [2.2466708, 48.8487947], [2.2465103, 48.8487593], [2.2462441, 48.8487535], [2.2461506, 48.8487992], [2.2459539, 48.8489504], [2.2457785, 48.8489749], [2.2456645, 48.84900550000001]]}}]}