{"type": "FeatureCollection", "features": [{"type": "Feature", "properties": {"highway": "footway", "footway": "sidewalk", "name": null, "surface": null, "lit": null, "length_m": 297.52, "type_element": "Way", "__fid": 2376}, "geometry": {"type": "LineString", "coordinates": [[2.2455484, 48.8469209], [2.2428132, 48.847621400000016], [2.2424507, 48.847717], [2.2424169, 48.847739], [2.2424022, 48.8477584], [2.2424017, 48.8477843], [2.242637, 48.84790669999999], [2.2427407, 48.8479467], [2.2428369, 48.8479709], [2.2429237, 48.8479788]]}}, {"type": "Feature", "properties": {"highway": "footway", "footway": null, "name": "Allée du court 14", "surface": "paving_stones", "lit": null, "length_m": 143.97, "type_element": "Way", "__fid": 2622}, "geometry": {"type": "LineString", "coordinates": [[2.2455664, 48.8470431], [2.2444145, 48.84734], [2.2446737, 48.847787]]}}, {"type": "Feature", "properties": {"highway": "footway", "footway": null, "name": null, "surface": "paving_stones", "lit": null, "length_m": 14.12, "type_element": "Way", "__fid": 2752}, "geometry": {"type": "LineString", "coordinates": [[2.2455484, 48.8469209], [2.245559, 48.846937], [2.2455433, 48.846996], [2.2455664, 48.8470431]]}}, {"type": "Feature", "properties": {"highway": "footway", "footway": "sidewalk", "name": null, "surface": null, "lit": null, "length_m": 92.16, "type_element": "Way", "__fid": 2753}, "geometry": {"type": "LineString", "coordinates": [[2.2467229, 48.8466275], [2.2455484, 48.8469209]]}}, {"type": "Feature", "properties": {"highway": "footway", "footway": null, "name": null, "surface": "paving_stones", "lit": null, "length_m": 91.51, "type_element": "Way", "__fid": 2756}, "geometry": {"type": "LineString", "coordinates": [[2.2455664, 48.8470431], [2.2460107, 48.84781209999998]]}}]}