{"type": "FeatureCollection", "features": [{"type": "Feature", "properties": {"@id": "node/490042013", "amenity": "drinking_water", "man_made": "water_tap", "source": "cadastre-dgi-fr source : Direction Générale des Impôts - Cadastre ; mise à jour : 2009", "type_element": "Fontaines à boire", "__fid": 67}, "geometry": {"type": "Point", "coordinates": [2.2411821, 48.8639207]}, "id": "node/490042013"}, {"type": "Feature", "properties": {"@id": "node/6796889046", "amenity": "drinking_water", "type_element": "Fontaines à boire", "__fid": 653}, "geometry": {"type": "Point", "coordinates": [2.2372706, 48.864877]}, "id": "node/6796889046"}, {"type": "Feature", "properties": {"highway": "service", "footway": null, "name": null, "surface": null, "lit": null, "length_m": 1593.23, "type_element": "Way", "__fid": 1863}, "geometry": {"type": "LineString", "coordinates": [[2.2324065, 48.8525243], [2.2326997, 48.852412500000014], [2.2327347, 48.8523911], [2.2328022, 48.8523034], [2.2327931, 48.8522343], [2.2327272, 48.8520967], [2.2327339, 48.85203910000001], [2.2327681, 48.8519738], [2.2328264, 48.8519344], [2.2329581, 48.8518987], [2.2330822, 48.851885], [2.2331639, 48.851885], [2.2332772, 48.8519217], [2.2333947, 48.8520413], [2.2334555, 48.8520895], [2.2335222, 48.85211970000002], [2.2336463, 48.85214050000001], [2.2337897, 48.8521252], [2.2342638, 48.8520254], [2.2357729, 48.85165640000001], [2.235992, 48.8516109], [2.2360887, 48.85160040000002], [2.2362328, 48.8515961], [2.2363053, 48.8516087], [2.2364116, 48.851662400000016], [2.2364794, 48.851731], [2.2365364, 48.8518093], [2.236532, 48.8518527], [2.2364166, 48.8519448], [2.2363726, 48.85200179999999], [2.2363652, 48.8520676], [2.2364085, 48.8522841], [2.2364386, 48.8528977], [2.2365107, 48.8530771], [2.2367166, 48.85331949999998], [2.2368008, 48.8534389], [2.2369302, 48.8537087], [2.2370023, 48.853890800000016], [2.2370653, 48.8541238], [2.237113, 48.854365], [2.237183, 48.8549673], [2.2371883, 48.8551482], [2.2371576, 48.8555929], [2.2371572, 48.855853], [2.2371749, 48.8559781], [2.2372187, 48.8561551], [2.2372888, 48.8563692], [2.2373115, 48.85654], [2.2372972, 48.85670120000002], [2.2372424, 48.85689979999999], [2.2371658, 48.8571162], [2.2370612, 48.8574921], [2.2369839, 48.857785], [2.2369129, 48.858137], [2.2367491, 48.8586689], [2.236709, 48.85884260000001], [2.2366866, 48.8590279], [2.2366347, 48.8598853], [2.2366795, 48.8600861], [2.2367726, 48.860333500000024], [2.2371191, 48.8611677], [2.2372723, 48.86149710000002], [2.2373229, 48.8616693], [2.237363, 48.8618693], [2.2373512, 48.8619848], [2.2372163, 48.8623926]]}}, {"type": "Feature", "properties": {"highway": "path", "footway": null, "name": "Carrefour de Norvège", "surface": "vegecol", "lit": "yes", "length_m": 370.62, "type_element": "Way", "__fid": 1961}, "geometry": {"type": "LineString", "coordinates": [[2.2347956, 48.8651153], [2.2349134, 48.86503959999999], [2.2350011, 48.864933], [2.2355056, 48.8646435], [2.2360411, 48.8644201], [2.2362448, 48.8643168], [2.236396, 48.8642768], [2.2365807, 48.86415760000001], [2.23672, 48.86408940000001], [2.2371969, 48.8639274], [2.2376936, 48.8637988], [2.2383359, 48.8636887], [2.2387348, 48.86364370000001], [2.2388942, 48.8636371], [2.2390458, 48.8636447], [2.2391434, 48.8636581]]}}, {"type": "Feature", "properties": {"highway": "footway", "footway": null, "name": null, "surface": null, "lit": null, "length_m": 75.96, "type_element": "Way", "__fid": 1994}, "geometry": {"type": "LineString", "coordinates": [[2.2360659, 48.8638785], [2.2364513, 48.86367830000001], [2.2367245, 48.8634946], [2.2368229, 48.8634158]]}}, {"type": "Feature", "properties": {"highway": "path", "footway": null, "name": null, "surface": null, "lit": null, "length_m": 88.98, "type_element": "Way", "__fid": 1995}, "geometry": {"type": "LineString", "coordinates": [[2.2360659, 48.8638785], [2.2361919, 48.8638612], [2.2364487, 48.8637659], [2.2369355, 48.8636164], [2.2370549, 48.8635317], [2.237096, 48.86348850000002]]}}, {"type": "Feature", "properties": {"highway": "path", "footway": null, "name": null, "surface": "dirt", "lit": "no", "length_m": 231.0, "type_element": "Way", "__fid": 1996}, "geometry": {"type": "LineString", "coordinates": [[2.2389869, 48.8640633], [2.2387322, 48.86404189999999], [2.2381893, 48.8639085], [2.238025, 48.8639101], [2.2378517, 48.8639313], [2.2377439, 48.8639549], [2.2375167, 48.8640283], [2.2371972, 48.8641026], [2.2368673, 48.86421919999998], [2.2363655, 48.864448], [2.2361861, 48.864592]]}}, {"type": "Feature", "properties": {"highway": "service", "footway": null, "name": null, "surface": "concrete", "lit": null, "length_m": 79.05, "type_element": "Way", "__fid": 2002}, "geometry": {"type": "LineString", "coordinates": [[2.236321012753687, 48.86312858926994], [2.2364564, 48.8631261], [2.236707, 48.863063899999986], [2.2369376, 48.8629728], [2.2371413, 48.8628405], [2.2372112, 48.862776400000016]]}}, {"type": "Feature", "properties": {"highway": "service", "footway": null, "name": null, "surface": null, "lit": null, "length_m": 97.18, "type_element": "Way", "__fid": 2004}, "geometry": {"type": "LineString", "coordinates": [[2.2372163, 48.8623926], [2.23693, 48.862700799999985], [2.2368528, 48.8627645], [2.2367649, 48.8628237], [2.2365199, 48.8629632], [2.236385331551152, 48.86306428787292]]}}, {"type": "Feature", "properties": {"highway": "service", "footway": null, "name": null, "surface": "concrete", "lit": null, "length_m": 69.76, "type_element": "Way", "__fid": 2005}, "geometry": {"type": "LineString", "coordinates": [[2.2372112, 48.862776400000016], [2.2370433, 48.86284340000001], [2.2367817, 48.8629737], [2.2365578, 48.8630481], [2.2364918, 48.8630628], [2.236385331551152, 48.86306428787292]]}}, {"type": "Feature", "properties": {"highway": "track", "footway": null, "name": null, "surface": null, "lit": null, "length_m": 78.53, "type_element": "Way", "__fid": 2007}, "geometry": {"type": "LineString", "coordinates": [[2.2372439, 48.8647315], [2.2371125, 48.86460009999998], [2.2370535, 48.8645943], [2.2367444, 48.864679], [2.2365104, 48.8647531], [2.2363736, 48.86482810000001]]}}, {"type": "Feature", "properties": {"highway": "track", "footway": null, "name": null, "surface": null, "lit": null, "length_m": 77.87, "type_element": "Way", "__fid": 2010}, "geometry": {"type": "LineString", "coordinates": [[2.2364902, 48.8650271], [2.2365915, 48.8650875], [2.2367491, 48.8651585], [2.2368872, 48.8651868], [2.2370019, 48.8651903], [2.2373841, 48.8650046]]}}, {"type": "Feature", "properties": {"highway": "path", "footway": null, "name": null, "surface": null, "lit": null, "length_m": 90.62, "type_element": "Way", "__fid": 2011}, "geometry": {"type": "LineString", "coordinates": [[2.2371997, 48.865571400000015], [2.2368919, 48.8655123], [2.2367565, 48.865473], [2.2366472, 48.865413], [2.2365077, 48.8652353], [2.2364688, 48.865099], [2.2364902, 48.8650271]]}}, {"type": "Feature", "properties": {"highway": "footway", "footway": null, "name": null, "surface": null, "lit": null, "length_m": 21.79, "type_element": "Way", "__fid": 2027}, "geometry": {"type": "LineString", "coordinates": [[2.237096, 48.86348850000002], [2.2369672, 48.8634406], [2.2368229, 48.8634158]]}}, {"type": "Feature", "properties": {"highway": "footway", "footway": null, "name": null, "surface": null, "lit": null, "length_m": 140.75, "type_element": "Way", "__fid": 2028}, "geometry": {"type": "LineString", "coordinates": [[2.2368229, 48.8634158], [2.2370526, 48.863199], [2.2374837, 48.8628261], [2.2379527, 48.8624686], [2.2380217, 48.862457100000015], [2.2380362, 48.8624652]]}}, {"type": "Feature", "properties": {"highway": "service", "footway": null, "name": "Route de Sèvres à Neuilly", "surface": "asphalt", "lit": "yes", "length_m": 425.13, "type_element": "Way", "__fid": 2036}, "geometry": {"type": "LineString", "coordinates": [[2.2375259, 48.8624876], [2.2379874, 48.8620589], [2.2381054, 48.862022099999976], [2.2379318, 48.8618221], [2.2375953, 48.861276], [2.2373861, 48.8609119], [2.2371752, 48.86043690000001], [2.237014, 48.8599611], [2.236957, 48.85959], [2.2369452, 48.8593732], [2.2369755, 48.85894420000002]]}}, {"type": "Feature", "properties": {"highway": "track", "footway": null, "name": null, "surface": null, "lit": null, "length_m": 14.81, "type_element": "Way", "__fid": 2046}, "geometry": {"type": "LineString", "coordinates": [[2.2372439, 48.8647315], [2.2371445, 48.8647345], [2.2370468, 48.8647546]]}}, {"type": "Feature", "properties": {"highway": "footway", "footway": "sidewalk", "name": null, "surface": null, "lit": null, "length_m": 142.64, "type_element": "Way", "__fid": 2049}, "geometry": {"type": "LineString", "coordinates": [[2.2389616, 48.863393899999984], [2.2388791, 48.863432300000014], [2.2383122, 48.863505400000015], [2.2376208, 48.8636067], [2.237484, 48.8635917], [2.2373296, 48.8635568], [2.237096, 48.86348850000002]]}}, {"type": "Feature", "properties": {"highway": "track", "footway": null, "name": null, "surface": "asphalt", "lit": null, "length_m": 375.86, "type_element": "Way", "__fid": 2050}, "geometry": {"type": "LineString", "coordinates": [[2.2384121, 48.8620659], [2.238306, 48.8619722], [2.2381932, 48.86182379999999], [2.2381247, 48.861677], [2.2380907, 48.861536], [2.2380606, 48.8612124], [2.2380051, 48.86110990000001], [2.2378582, 48.8609924], [2.2376359, 48.8607723], [2.237457, 48.860505], [2.2373638, 48.86028670000001], [2.2372877, 48.860049], [2.237202, 48.8596019], [2.2371881, 48.85930889999999], [2.2372348, 48.85886480000001]]}}, {"type": "Feature", "properties": {"highway": "service", "footway": null, "name": null, "surface": "concrete", "lit": null, "length_m": 25.05, "type_element": "Way", "__fid": 2053}, "geometry": {"type": "LineString", "coordinates": [[2.2372163, 48.8623926], [2.2375259, 48.8624876]]}}, {"type": "Feature", "properties": {"highway": "service", "footway": null, "name": null, "surface": "concrete", "lit": null, "length_m": 39.55, "type_element": "Way", "__fid": 2054}, "geometry": {"type": "LineString", "coordinates": [[2.2372112, 48.862776400000016], [2.2375259, 48.8624876]]}}, {"type": "Feature", "properties": {"highway": "track", "footway": null, "name": null, "surface": null, "lit": null, "length_m": 16.11, "type_element": "Way", "__fid": 2057}, "geometry": {"type": "LineString", "coordinates": [[2.2373492, 48.8648586], [2.2372439, 48.8647315]]}}, {"type": "Feature", "properties": {"highway": "service", "footway": null, "name": "Carrefour de Longchamp", "surface": "asphalt", "lit": null, "length_m": 16.44, "type_element": "Way", "__fid": 2062}, "geometry": {"type": "LineString", "coordinates": [[2.2373492, 48.8648586], [2.2373841, 48.8650046]]}}, {"type": "Feature", "properties": {"highway": "service", "footway": null, "name": "Carrefour de Longchamp", "surface": "asphalt", "lit": null, "length_m": 25.34, "type_element": "Way", "__fid": 2063}, "geometry": {"type": "LineString", "coordinates": [[2.2376414, 48.8647371], [2.2373492, 48.8648586]]}}, {"type": "Feature", "properties": {"highway": "track", "footway": null, "name": null, "surface": null, "lit": null, "length_m": 52.91, "type_element": "Way", "__fid": 2066}, "geometry": {"type": "LineString", "coordinates": [[2.2373841, 48.8650046], [2.2377241, 48.8653711], [2.2377804, 48.8653985]]}}, {"type": "Feature", "properties": {"highway": "service", "footway": null, "name": null, "surface": "concrete", "lit": "yes", "length_m": 52.7, "type_element": "Way", "__fid": 2069}, "geometry": {"type": "LineString", "coordinates": [[2.2381603, 48.8622738], [2.2380256, 48.86229380000002], [2.2378199, 48.862383899999976], [2.2375259, 48.8624876]]}}, {"type": "Feature", "properties": {"highway": "footway", "footway": null, "name": null, "surface": "wood", "lit": null, "length_m": 73.48, "type_element": "Way", "__fid": 2077}, "geometry": {"type": "LineString", "coordinates": [[2.2376414, 48.8647371], [2.2379869, 48.86523], [2.2380818, 48.8653297]]}}, {"type": "Feature", "properties": {"highway": "service", "footway": null, "name": "Carrefour de Longchamp", "surface": "asphalt", "lit": null, "length_m": 20.2, "type_element": "Way", "__fid": 2078}, "geometry": {"type": "LineString", "coordinates": [[2.2378638, 48.86463160000001], [2.2378139, 48.864665400000014], [2.2376414, 48.8647371]]}}, {"type": "Feature", "properties": {"highway": "path", "footway": null, "name": null, "surface": "dirt", "lit": null, "length_m": 346.88, "type_element": "Way", "__fid": 2091}, "geometry": {"type": "LineString", "coordinates": [[2.2388328, 48.861756], [2.2387393, 48.8615536], [2.2386293, 48.86136130000001], [2.2383316, 48.8609943], [2.238117, 48.8606846], [2.238007, 48.8604666], [2.2379105, 48.8602425], [2.2378112, 48.8599117], [2.2377415, 48.8593152], [2.237779, 48.8590664], [2.2378576, 48.8587736]]}}, {"type": "Feature", "properties": {"highway": "footway", "footway": null, "name": null, "surface": null, "lit": null, "length_m": 44.32, "type_element": "Way", "__fid": 2093}, "geometry": {"type": "LineString", "coordinates": [[2.2379605, 48.86437080000002], [2.2378582, 48.8643672], [2.2378421, 48.8645119], [2.2377697, 48.8644642], [2.237779, 48.86458239999999]]}}, {"type": "Feature", "properties": {"highway": "track", "footway": null, "name": null, "surface": null, "lit": null, "length_m": 10.26, "type_element": "Way", "__fid": 2096}, "geometry": {"type": "LineString", "coordinates": [[2.2378638, 48.86463160000001], [2.2379909, 48.8646702]]}}, {"type": "Feature", "properties": {"highway": "service", "footway": null, "name": "Carrefour de Longchamp", "surface": "asphalt", "lit": null, "length_m": 30.17, "type_element": "Way", "__fid": 2097}, "geometry": {"type": "LineString", "coordinates": [[2.2379605, 48.86437080000002], [2.2379199, 48.8644232], [2.237876, 48.864534], [2.2378638, 48.86463160000001]]}}, {"type": "Feature", "properties": {"highway": "service", "footway": null, "name": "Carrefour de Longchamp", "surface": "asphalt", "lit": null, "length_m": 14.97, "type_element": "Way", "__fid": 2102}, "geometry": {"type": "LineString", "coordinates": [[2.238064, 48.864255399999976], [2.238022, 48.8642915], [2.2379605, 48.86437080000002]]}}, {"type": "Feature", "properties": {"highway": "track", "footway": null, "name": null, "surface": null, "lit": null, "length_m": 6.29, "type_element": "Way", "__fid": 2103}, "geometry": {"type": "LineString", "coordinates": [[2.2379909, 48.8646702], [2.2380597, 48.864704]]}}, {"type": "Feature", "properties": {"highway": "path", "footway": null, "name": null, "surface": null, "lit": null, "length_m": 69.26, "type_element": "Way", "__fid": 2104}, "geometry": {"type": "LineString", "coordinates": [[2.2387132, 48.8650464], [2.2386025, 48.8649768], [2.2382578, 48.8648824], [2.2379909, 48.8646702]]}}, {"type": "Feature", "properties": {"highway": "footway", "footway": null, "name": null, "surface": "compacted", "lit": "yes", "length_m": 126.28, "type_element": "Way", "__fid": 2105}, "geometry": {"type": "LineString", "coordinates": [[2.2380362, 48.8624652], [2.2383468, 48.8626447], [2.2384527, 48.8627285], [2.2389623, 48.8633311], [2.2389704, 48.8633761], [2.2389616, 48.863393899999984]]}}, {"type": "Feature", "properties": {"highway": "footway", "footway": "sidewalk", "name": null, "surface": null, "lit": null, "length_m": 23.36, "type_element": "Way", "__fid": 2106}, "geometry": {"type": "LineString", "coordinates": [[2.2380362, 48.8624652], [2.2381247, 48.86230159999998], [2.2381603, 48.8622738]]}}, {"type": "Feature", "properties": {"highway": "path", "footway": null, "name": null, "surface": null, "lit": null, "length_m": 106.28, "type_element": "Way", "__fid": 2108}, "geometry": {"type": "LineString", "coordinates": [[2.238064, 48.864255399999976], [2.2382545, 48.86433889999998], [2.2384684, 48.8644876], [2.2386535, 48.8646896], [2.2387212, 48.8648471], [2.2387259, 48.8650028], [2.2387132, 48.8650464]]}}, {"type": "Feature", "properties": {"highway": "service", "footway": null, "name": "Carrefour de Longchamp", "surface": "asphalt", "lit": null, "length_m": 72.17, "type_element": "Way", "__fid": 2109}, "geometry": {"type": "LineString", "coordinates": [[2.2389869, 48.8640633], [2.238488, 48.8641416], [2.2381132, 48.8642132], [2.238064, 48.864255399999976]]}}, {"type": "Feature", "properties": {"highway": "service", "footway": null, "name": null, "surface": "concrete", "lit": "yes", "length_m": 11.21, "type_element": "Way", "__fid": 2113}, "geometry": {"type": "LineString", "coordinates": [[2.2383105, 48.8622922], [2.2381603, 48.8622738]]}}, {"type": "Feature", "properties": {"highway": "footway", "footway": "crossing", "name": null, "surface": null, "lit": null, "length_m": 20.45, "type_element": "Way", "__fid": 2114}, "geometry": {"type": "LineString", "coordinates": [[2.2383385, 48.86213240000002], [2.2381603, 48.8622738]]}}, {"type": "Feature", "properties": {"highway": "footway", "footway": null, "name": null, "surface": null, "lit": null, "length_m": 9.48, "type_element": "Way", "__fid": 2123}, "geometry": {"type": "LineString", "coordinates": [[2.2383385, 48.86213240000002], [2.2384015, 48.8620929], [2.2384121, 48.8620659]]}}, {"type": "Feature", "properties": {"highway": "footway", "footway": "crossing", "name": null, "surface": null, "lit": "yes", "length_m": 20.25, "type_element": "Way", "__fid": 2124}, "geometry": {"type": "LineString", "coordinates": [[2.2385119, 48.862244], [2.2384161, 48.8621312], [2.2383846, 48.8621253], [2.2383385, 48.86213240000002]]}}, {"type": "Feature", "properties": {"highway": "path", "footway": null, "name": "Avenue de l'Hippodrome", "surface": "pebblestone", "lit": null, "length_m": 7.39, "type_element": "Way", "__fid": 2125}, "geometry": {"type": "LineString", "coordinates": [[2.2384203, 48.8623207], [2.238358, 48.8623729]]}}, {"type": "Feature", "properties": {"highway": "path", "footway": null, "name": null, "surface": null, "lit": null, "length_m": 62.36, "type_element": "Way", "__fid": 2126}, "geometry": {"type": "LineString", "coordinates": [[2.2387132, 48.8650464], [2.2386816, 48.865155], [2.2386085, 48.8652657], [2.238455, 48.8654276], [2.2383711, 48.8654995], [2.2383531, 48.8655458]]}}, {"type": "Feature", "properties": {"highway": "path", "footway": null, "name": "Avenue de l'Hippodrome", "surface": "concrete", "lit": "yes", "length_m": 46.28, "type_element": "Way", "__fid": 2127}, "geometry": {"type": "LineString", "coordinates": [[2.2384121, 48.8620659], [2.2387222, 48.8618454], [2.2388328, 48.861756]]}}, {"type": "Feature", "properties": {"highway": "path", "footway": null, "name": null, "surface": "pebblestone", "lit": null, "length_m": 113.77, "type_element": "Way", "__fid": 2128}, "geometry": {"type": "LineString", "coordinates": [[2.2391999, 48.8631947], [2.2391459, 48.8631747], [2.2390715, 48.8631202], [2.2389275, 48.862975300000016], [2.2384962, 48.8624414], [2.2384203, 48.8623207]]}}, {"type": "Feature", "properties": {"highway": "path", "footway": null, "name": "Avenue de l'Hippodrome", "surface": "pebblestone", "lit": null, "length_m": 10.86, "type_element": "Way", "__fid": 2129}, "geometry": {"type": "LineString", "coordinates": [[2.2385119, 48.862244], [2.2384203, 48.8623207]]}}, {"type": "Feature", "properties": {"highway": "path", "footway": null, "name": "Avenue de l'Hippodrome", "surface": "concrete", "lit": "yes", "length_m": 45.3, "type_element": "Way", "__fid": 2134}, "geometry": {"type": "LineString", "coordinates": [[2.2389063, 48.8619306], [2.2385119, 48.862244]]}}, {"type": "Feature", "properties": {"highway": "path", "footway": null, "name": null, "surface": null, "lit": null, "length_m": 20.15, "type_element": "Way", "__fid": 2143}, "geometry": {"type": "LineString", "coordinates": [[2.2388328, 48.861756], [2.2389063, 48.8619306]]}}, {"type": "Feature", "properties": {"highway": "track", "footway": null, "name": "Route d'Auteuil à Suresnes", "surface": "compacted", "lit": null, "length_m": 236.07, "type_element": "Way", "__fid": 2144}, "geometry": {"type": "LineString", "coordinates": [[2.2400584, 48.8598101], [2.2396465, 48.8602488], [2.2394823, 48.8604452], [2.2393251, 48.8606827], [2.2390753, 48.8611182], [2.2389505, 48.86148390000001], [2.2388328, 48.861756]]}}, {"type": "Feature", "properties": {"highway": "path", "footway": null, "name": "Avenue de l'Hippodrome", "surface": "concrete", "lit": "yes", "length_m": 197.15, "type_element": "Way", "__fid": 2145}, "geometry": {"type": "LineString", "coordinates": [[2.2388328, 48.861756], [2.2395427, 48.86125830000002], [2.2401615, 48.8608473], [2.2407193, 48.8604939]]}}, {"type": "Feature", "properties": {"highway": "path", "footway": null, "name": null, "surface": null, "lit": null, "length_m": 55.43, "type_element": "Way", "__fid": 2146}, "geometry": {"type": "LineString", "coordinates": [[2.2392379, 48.8645282], [2.2390752, 48.864342], [2.2389854, 48.8642675], [2.2388267, 48.8641109]]}}, {"type": "Feature", "properties": {"highway": "path", "footway": null, "name": null, "surface": "dirt", "lit": null, "length_m": 148.44, "type_element": "Way", "__fid": 2153}, "geometry": {"type": "LineString", "coordinates": [[2.2389063, 48.8619306], [2.239159, 48.8623459], [2.2394755, 48.8626768], [2.2397867, 48.862915], [2.2399126, 48.8630766]]}}, {"type": "Feature", "properties": {"highway": "path", "footway": null, "name": "Avenue de l'Hippodrome", "surface": "concrete", "lit": "yes", "length_m": 210.39, "type_element": "Way", "__fid": 2154}, "geometry": {"type": "LineString", "coordinates": [[2.2409144, 48.8605807], [2.240459, 48.8608667], [2.2395773, 48.861449], [2.2389063, 48.8619306]]}}, {"type": "Feature", "properties": {"highway": "footway", "footway": "crossing", "name": null, "surface": "asphalt", "lit": "yes", "length_m": 17.05, "type_element": "Way", "__fid": 2158}, "geometry": {"type": "LineString", "coordinates": [[2.2391931, 48.863407], [2.2389616, 48.863393899999984]]}}, {"type": "Feature", "properties": {"highway": "service", "footway": null, "name": "Carrefour de Longchamp", "surface": "asphalt", "lit": null, "length_m": 38.85, "type_element": "Way", "__fid": 2160}, "geometry": {"type": "LineString", "coordinates": [[2.2394769, 48.86393080000001], [2.2389869, 48.8640633]]}}, {"type": "Feature", "properties": {"highway": "path", "footway": null, "name": "Carrefour de Longchamp", "surface": "vegecol", "lit": "yes", "length_m": 30.99, "type_element": "Way", "__fid": 2166}, "geometry": {"type": "LineString", "coordinates": [[2.2391434, 48.8636581], [2.2392236, 48.8636812], [2.2392747, 48.8637079], [2.2393354, 48.8637648], [2.2394145, 48.8638598]]}}, {"type": "Feature", "properties": {"highway": "path", "footway": "traffic_island", "name": "Carrefour de Longchamp", "surface": "asphalt", "lit": "yes", "length_m": 28.16, "type_element": "Way", "__fid": 2167}, "geometry": {"type": "LineString", "coordinates": [[2.2391434, 48.8636581], [2.2391931, 48.863407]]}}, {"type": "Feature", "properties": {"highway": "path", "footway": null, "name": "Route de Sèvres à Neuilly", "surface": "ground", "lit": null, "length_m": 5.44, "type_element": "Way", "__fid": 2168}, "geometry": {"type": "LineString", "coordinates": [[2.2391999, 48.8631947], [2.2391818, 48.8631755], [2.2391746, 48.8631496]]}}, {"type": "Feature", "properties": {"highway": "track", "footway": null, "name": "Chemin des Réservoirs", "surface": "asphalt", "lit": null, "length_m": 145.48, "type_element": "Way", "__fid": 2169}, "geometry": {"type": "LineString", "coordinates": [[2.2400584, 48.8598101], [2.2399966, 48.8597019], [2.2398898, 48.8593468], [2.2397304, 48.8591579], [2.2395118, 48.8589923], [2.2393368, 48.85881279999999], [2.2392568, 48.8586392]]}}, {"type": "Feature", "properties": {"highway": "path", "footway": "crossing", "name": "Carrefour de Longchamp", "surface": "asphalt", "lit": "yes", "length_m": 14.59, "type_element": "Way", "__fid": 2171}, "geometry": {"type": "LineString", "coordinates": [[2.2391931, 48.863407], [2.2392006, 48.86338329999999], [2.2393156, 48.8633079]]}}, {"type": "Feature", "properties": {"highway": "path", "footway": null, "name": "Route de Sèvres à Neuilly", "surface": "ground", "lit": null, "length_m": 15.18, "type_element": "Way", "__fid": 2172}, "geometry": {"type": "LineString", "coordinates": [[2.2393156, 48.8633079], [2.2391999, 48.8631947]]}}, {"type": "Feature", "properties": {"highway": "path", "footway": null, "name": null, "surface": "compacted", "lit": null, "length_m": 293.67, "type_element": "Way", "__fid": 2174}, "geometry": {"type": "LineString", "coordinates": [[2.2392379, 48.8645282], [2.2392487, 48.8649096], [2.2393318, 48.8649375], [2.239568, 48.8650456], [2.2396241, 48.8650879], [2.2397534, 48.86514839999999], [2.2399076, 48.865258], [2.240012, 48.86534790000002], [2.2405987, 48.8660741], [2.240641, 48.8661918], [2.2407181, 48.8663178], [2.240727, 48.86636820000001], [2.2407007, 48.8665369], [2.2406417, 48.866664], [2.2404516, 48.8667495]]}}, {"type": "Feature", "properties": {"highway": "path", "footway": null, "name": null, "surface": "compacted", "lit": null, "length_m": 62.85, "type_element": "Way", "__fid": 2175}, "geometry": {"type": "LineString", "coordinates": [[2.2395767, 48.8640373], [2.2393979, 48.8641572], [2.2393332, 48.86421940000001], [2.2392785, 48.864293], [2.2392412, 48.864360099999985], [2.2392379, 48.8645282]]}}, {"type": "Feature", "properties": {"highway": "path", "footway": null, "name": null, "surface": "asphalt", "lit": null, "length_m": 20.03, "type_element": "Way", "__fid": 2176}, "geometry": {"type": "LineString", "coordinates": [[2.2393156, 48.8633079], [2.2394803, 48.8633654], [2.2395649, 48.863378]]}}, {"type": "Feature", "properties": {"highway": "path", "footway": null, "name": null, "surface": "ground", "lit": null, "length_m": 9.13, "type_element": "Way", "__fid": 2178}, "geometry": {"type": "LineString", "coordinates": [[2.2394145, 48.8638598], [2.2394769, 48.86393080000001]]}}, {"type": "Feature", "properties": {"highway": "footway", "footway": "crossing", "name": null, "surface": null, "lit": null, "length_m": 35.69, "type_element": "Way", "__fid": 2179}, "geometry": {"type": "LineString", "coordinates": [[2.2394145, 48.8638598], [2.2396519, 48.8638133], [2.2397089, 48.8638189], [2.2398252, 48.86386140000001], [2.2398406, 48.863869], [2.2398253, 48.8638853]]}}, {"type": "Feature", "properties": {"highway": "path", "footway": null, "name": null, "surface": "ground", "lit": null, "length_m": 13.92, "type_element": "Way", "__fid": 2182}, "geometry": {"type": "LineString", "coordinates": [[2.2394769, 48.86393080000001], [2.2395767, 48.8640373]]}}, {"type": "Feature", "properties": {"highway": "service", "footway": null, "name": "Carrefour de Longchamp", "surface": "asphalt", "lit": null, "length_m": 11.39, "type_element": "Way", "__fid": 2183}, "geometry": {"type": "LineString", "coordinates": [[2.2396212, 48.863893], [2.2394769, 48.86393080000001]]}}, {"type": "Feature", "properties": {"highway": "footway", "footway": null, "name": null, "surface": "asphalt", "lit": null, "length_m": 61.93, "type_element": "Way", "__fid": 2187}, "geometry": {"type": "LineString", "coordinates": [[2.2395649, 48.863378], [2.2395782, 48.8634], [2.2397178, 48.8634637], [2.2401067, 48.863623299999986], [2.2402374, 48.8636723], [2.2402671, 48.8636761]]}}, {"type": "Feature", "properties": {"highway": "path", "footway": null, "name": null, "surface": "asphalt", "lit": null, "length_m": 50.26, "type_element": "Way", "__fid": 2188}, "geometry": {"type": "LineString", "coordinates": [[2.2395649, 48.863378], [2.2396655, 48.8633714], [2.239746, 48.863355], [2.2398221, 48.8633311], [2.2398513, 48.8633145], [2.2399014, 48.8632567], [2.2399106, 48.8632137], [2.2398998, 48.8631022], [2.2399126, 48.8630766]]}}, {"type": "Feature", "properties": {"highway": "path", "footway": null, "name": null, "surface": "ground", "lit": null, "length_m": 417.41, "type_element": "Way", "__fid": 2189}, "geometry": {"type": "LineString", "coordinates": [[2.2395767, 48.8640373], [2.2396284, 48.8640921], [2.2405959, 48.86535929999999], [2.2414352, 48.8663276], [2.2414026, 48.8663748], [2.2416011, 48.8665259], [2.2418113, 48.8667209], [2.2423397, 48.8672858]]}}, {"type": "Feature", "properties": {"highway": "path", "footway": null, "name": "Allée de Longchamp", "surface": "concrete", "lit": null, "length_m": 1.57, "type_element": "Way", "__fid": 2191}, "geometry": {"type": "LineString", "coordinates": [[2.2398054, 48.8638802], [2.2398253, 48.8638853]]}}, {"type": "Feature", "properties": {"highway": "path", "footway": null, "name": "Allée de Longchamp", "surface": "concrete", "lit": null, "length_m": 24.18, "type_element": "Way", "__fid": 2193}, "geometry": {"type": "LineString", "coordinates": [[2.2398253, 48.8638853], [2.239911, 48.863904200000015], [2.2400687, 48.8638979], [2.2401448, 48.86391659999999]]}}, {"type": "Feature", "properties": {"highway": "footway", "footway": null, "name": null, "surface": null, "lit": null, "length_m": 71.68, "type_element": "Way", "__fid": 2194}, "geometry": {"type": "LineString", "coordinates": [[2.2398253, 48.8638853], [2.2398031, 48.8639425], [2.239815, 48.863965499999985], [2.240183, 48.8644716]]}}, {"type": "Feature", "properties": {"highway": "service", "footway": null, "name": null, "surface": "asphalt", "lit": null, "length_m": 16.86, "type_element": "Way", "__fid": 2195}, "geometry": {"type": "LineString", "coordinates": [[2.2398477, 48.8633828], [2.2399717, 48.8632551]]}}, {"type": "Feature", "properties": {"highway": "path", "footway": null, "name": null, "surface": "dirt", "lit": null, "length_m": 6.45, "type_element": "Way", "__fid": 2196}, "geometry": {"type": "LineString", "coordinates": [[2.2399126, 48.8630766], [2.2399477, 48.86312980000001]]}}, {"type": "Feature", "properties": {"highway": "service", "footway": null, "name": null, "surface": "asphalt", "lit": null, "length_m": 14.04, "type_element": "Way", "__fid": 2197}, "geometry": {"type": "LineString", "coordinates": [[2.2399717, 48.8632551], [2.2399477, 48.86312980000001]]}}, {"type": "Feature", "properties": {"highway": "service", "footway": null, "name": null, "surface": null, "lit": null, "length_m": 65.64, "type_element": "Way", "__fid": 2198}, "geometry": {"type": "LineString", "coordinates": [[2.2399477, 48.86312980000001], [2.2401028, 48.86294669999999], [2.2402346, 48.8628576], [2.2403365, 48.8628391], [2.240535, 48.8628585], [2.2405992, 48.862891900000015]]}}, {"type": "Feature", "properties": {"highway": "service", "footway": null, "name": null, "surface": null, "lit": null, "length_m": 24.44, "type_element": "Way", "__fid": 2199}, "geometry": {"type": "LineString", "coordinates": [[2.2399717, 48.8632551], [2.2402603, 48.8633648]]}}, {"type": "Feature", "properties": {"highway": "track", "footway": null, "name": "Chemin des Réservoirs", "surface": "asphalt", "lit": null, "length_m": 86.84, "type_element": "Way", "__fid": 2200}, "geometry": {"type": "LineString", "coordinates": [[2.2406551, 48.8604507], [2.2405281, 48.8604017], [2.2403431, 48.8602943], [2.2401951, 48.86010430000001], [2.2400584, 48.8598101]]}}, {"type": "Feature", "properties": {"highway": "track", "footway": null, "name": "Route d'Auteuil à Suresnes", "surface": "compacted", "lit": null, "length_m": 74.91, "type_element": "Way", "__fid": 2201}, "geometry": {"type": "LineString", "coordinates": [[2.2406765, 48.8592739], [2.2400584, 48.8598101]]}}, {"type": "Feature", "properties": {"highway": "service", "footway": null, "name": null, "surface": null, "lit": null, "length_m": 112.22, "type_element": "Way", "__fid": 2204}, "geometry": {"type": "LineString", "coordinates": [[2.2401461, 48.8621589], [2.2405712, 48.862180899999984], [2.240582, 48.862383], [2.2406369, 48.8624562], [2.2406745, 48.8625303], [2.2406651, 48.862664399999986], [2.2405992, 48.862891900000015]]}}, {"type": "Feature", "properties": {"highway": "path", "footway": null, "name": "Allée de Longchamp", "surface": "vegecol", "lit": null, "length_m": 62.7, "type_element": "Way", "__fid": 2205}, "geometry": {"type": "LineString", "coordinates": [[2.2401448, 48.86391659999999], [2.240349, 48.8639808], [2.2409043, 48.864175]]}}, {"type": "Feature", "properties": {"highway": "footway", "footway": "traffic_island", "name": null, "surface": null, "lit": "yes", "length_m": 25.35, "type_element": "Way", "__fid": 2206}, "geometry": {"type": "LineString", "coordinates": [[2.2403226, 48.8637211], [2.2401448, 48.86391659999999]]}}, {"type": "Feature", "properties": {"highway": "service", "footway": null, "name": null, "surface": "asphalt", "lit": null, "length_m": 17.71, "type_element": "Way", "__fid": 2207}, "geometry": {"type": "LineString", "coordinates": [[2.2402603, 48.8633648], [2.2401746, 48.8635137]]}}, {"type": "Feature", "properties": {"highway": "service", "footway": null, "name": "Route de la Vierge aux Berceaux", "surface": "asphalt", "lit": "no", "length_m": 44.73, "type_element": "Way", "__fid": 2210}, "geometry": {"type": "LineString", "coordinates": [[2.2402603, 48.8633648], [2.24075, 48.86312520000001]]}}, {"type": "Feature", "properties": {"highway": "footway", "footway": "sidewalk", "name": null, "surface": null, "lit": null, "length_m": 6.45, "type_element": "Way", "__fid": 2211}, "geometry": {"type": "LineString", "coordinates": [[2.2402671, 48.8636761], [2.2403226, 48.8637211]]}}, {"type": "Feature", "properties": {"highway": "footway", "footway": "sidewalk", "name": null, "surface": null, "lit": null, "length_m": 74.58, "type_element": "Way", "__fid": 2212}, "geometry": {"type": "LineString", "coordinates": [[2.2402671, 48.8636761], [2.24024, 48.86363349999998], [2.2402279, 48.863591], [2.2402334, 48.8635355], [2.2402608, 48.8634976], [2.2403362, 48.8634373], [2.2406275, 48.863248], [2.2407895, 48.8631644]]}}, {"type": "Feature", "properties": {"highway": "footway", "footway": "sidewalk", "name": null, "surface": null, "lit": null, "length_m": 60.11, "type_element": "Way", "__fid": 2213}, "geometry": {"type": "LineString", "coordinates": [[2.2403226, 48.8637211], [2.2405054, 48.86378460000002], [2.2405962, 48.863798], [2.2411137, 48.8637661]]}}, {"type": "Feature", "properties": {"highway": "service", "footway": null, "name": null, "surface": null, "lit": null, "length_m": 31.61, "type_element": "Way", "__fid": 2220}, "geometry": {"type": "LineString", "coordinates": [[2.2405992, 48.862891900000015], [2.2406436, 48.862915], [2.2407684, 48.8630199], [2.2407912, 48.8630649], [2.24075, 48.86312520000001]]}}, {"type": "Feature", "properties": {"highway": "track", "footway": null, "name": "Chemin des Réservoirs", "surface": "asphalt", "lit": null, "length_m": 6.73, "type_element": "Way", "__fid": 2221}, "geometry": {"type": "LineString", "coordinates": [[2.2407193, 48.8604939], [2.2406551, 48.8604507]]}}, {"type": "Feature", "properties": {"highway": "track", "footway": null, "name": "Chemin des Gravilliers", "surface": "asphalt", "lit": null, "length_m": 131.59, "type_element": "Way", "__fid": 2222}, "geometry": {"type": "LineString", "coordinates": [[2.2406765, 48.8592739], [2.240601, 48.8599596], [2.2405938, 48.860174], [2.240661, 48.8603818], [2.2406551, 48.8604507]]}}, {"type": "Feature", "properties": {"highway": "track", "footway": null, "name": "Chemin des Gravilliers", "surface": "asphalt", "lit": null, "length_m": 76.87, "type_element": "Way", "__fid": 2223}, "geometry": {"type": "LineString", "coordinates": [[2.2407657, 48.8585851], [2.2406765, 48.8592739]]}}, {"type": "Feature", "properties": {"highway": "track", "footway": null, "name": "Route d'Auteuil à Suresnes", "surface": "compacted", "lit": null, "length_m": 335.48, "type_element": "Way", "__fid": 2224}, "geometry": {"type": "LineString", "coordinates": [[2.2433971, 48.8568539], [2.2432615, 48.8569739], [2.2430684, 48.8571905], [2.2429121, 48.8573119], [2.2427599, 48.857457900000014], [2.2425735, 48.8575876], [2.2417514, 48.8583491], [2.2412297, 48.8587929], [2.2407711, 48.8592039], [2.2406765, 48.8592739]]}}, {"type": "Feature", "properties": {"highway": "path", "footway": null, "name": "Allée de Longchamp", "surface": null, "lit": null, "length_m": 40.19, "type_element": "Way", "__fid": 2227}, "geometry": {"type": "LineString", "coordinates": [[2.2411432, 48.8640329], [2.2406657, 48.8638557]]}}, {"type": "Feature", "properties": {"highway": "track", "footway": null, "name": "Chemin des Réservoirs", "surface": "asphalt", "lit": null, "length_m": 17.35, "type_element": "Way", "__fid": 2228}, "geometry": {"type": "LineString", "coordinates": [[2.2409144, 48.8605807], [2.2407539, 48.860517], [2.2407193, 48.8604939]]}}, {"type": "Feature", "properties": {"highway": "path", "footway": null, "name": "Avenue de l'Hippodrome", "surface": "concrete", "lit": "yes", "length_m": 357.07, "type_element": "Way", "__fid": 2229}, "geometry": {"type": "LineString", "coordinates": [[2.2407193, 48.8604939], [2.2420693, 48.8596965], [2.2430107, 48.859211500000015], [2.2433226, 48.8590672], [2.2437624, 48.8588789], [2.2441599, 48.8587221], [2.2445938, 48.8585689]]}}, {"type": "Feature", "properties": {"highway": "path", "footway": null, "name": null, "surface": null, "lit": "no", "length_m": 5.23, "type_element": "Way", "__fid": 2231}, "geometry": {"type": "LineString", "coordinates": [[2.2407895, 48.8631644], [2.24075, 48.86312520000001]]}}, {"type": "Feature", "properties": {"highway": "service", "footway": null, "name": "Route de la Vierge aux Berceaux", "surface": "asphalt", "lit": "no", "length_m": 37.65, "type_element": "Way", "__fid": 2232}, "geometry": {"type": "LineString", "coordinates": [[2.24075, 48.86312520000001], [2.2411576, 48.8629194]]}}, {"type": "Feature", "properties": {"highway": "path", "footway": null, "name": null, "surface": null, "lit": "no", "length_m": 3.83, "type_element": "Way", "__fid": 2236}, "geometry": {"type": "LineString", "coordinates": [[2.2408184, 48.86319309999999], [2.2407895, 48.8631644]]}}, {"type": "Feature", "properties": {"highway": "path", "footway": null, "name": null, "surface": null, "lit": null, "length_m": 72.34, "type_element": "Way", "__fid": 2239}, "geometry": {"type": "LineString", "coordinates": [[2.2408184, 48.86319309999999], [2.2408737, 48.8632935], [2.2410071, 48.863366100000015], [2.2410919, 48.8634268], [2.2411427, 48.8634778], [2.2411794, 48.86352810000002], [2.2411781, 48.863541], [2.2412626, 48.863556500000016], [2.241284, 48.8635035], [2.2413296, 48.8635154], [2.2413902, 48.86345519999998]]}}, {"type": "Feature", "properties": {"highway": "path", "footway": null, "name": null, "surface": null, "lit": "no", "length_m": 3.72, "type_element": "Way", "__fid": 2240}, "geometry": {"type": "LineString", "coordinates": [[2.2408562, 48.8631708], [2.2408184, 48.86319309999999]]}}, {"type": "Feature", "properties": {"highway": "footway", "footway": null, "name": null, "surface": null, "lit": null, "length_m": 2.96, "type_element": "Way", "__fid": 2244}, "geometry": {"type": "LineString", "coordinates": [[2.2408825, 48.863191], [2.2408562, 48.8631708]]}}, {"type": "Feature", "properties": {"highway": "path", "footway": null, "name": null, "surface": null, "lit": null, "length_m": 82.44, "type_element": "Way", "__fid": 2245}, "geometry": {"type": "LineString", "coordinates": [[2.2417938, 48.8627653], [2.2413811, 48.8629352], [2.2411292, 48.863026300000016], [2.2408562, 48.8631708]]}}, {"type": "Feature", "properties": {"highway": "track", "footway": null, "name": "Chemin des Réservoirs", "surface": "asphalt", "lit": null, "length_m": 235.83, "type_element": "Way", "__fid": 2246}, "geometry": {"type": "LineString", "coordinates": [[2.2439896, 48.861085400000015], [2.2435791, 48.8610597], [2.243147, 48.8610753], [2.242844, 48.8610488], [2.2424728, 48.8609694], [2.2415773, 48.8608005], [2.2410664, 48.8606364], [2.2409144, 48.8605807]]}}, {"type": "Feature", "properties": {"highway": "path", "footway": null, "name": "Avenue de l'Hippodrome", "surface": "concrete", "lit": "yes", "length_m": 355.9, "type_element": "Way", "__fid": 2247}, "geometry": {"type": "LineString", "coordinates": [[2.2447913, 48.8586783], [2.2442646, 48.8588537], [2.2438529, 48.859018300000024], [2.2434614, 48.8591876], [2.2431133, 48.8593496], [2.2427524, 48.8595283], [2.2421632, 48.8598439], [2.2409144, 48.8605807]]}}, {"type": "Feature", "properties": {"highway": "steps", "footway": null, "name": null, "surface": null, "lit": null, "length_m": 47.05, "type_element": "Way", "__fid": 2248}, "geometry": {"type": "LineString", "coordinates": [[2.2414342, 48.8632688], [2.2411126, 48.86332190000001], [2.240955, 48.863258], [2.2408825, 48.863191]]}}, {"type": "Feature", "properties": {"highway": "footway", "footway": null, "name": null, "surface": null, "lit": null, "length_m": 46.8, "type_element": "Way", "__fid": 2249}, "geometry": {"type": "LineString", "coordinates": [[2.2415088, 48.8631282], [2.2413443, 48.8631287], [2.241195, 48.8631387], [2.2410086, 48.8631616], [2.2408825, 48.863191]]}}, {"type": "Feature", "properties": {"highway": "path", "footway": null, "name": "Allée de Longchamp", "surface": "vegecol", "lit": null, "length_m": 8.93, "type_element": "Way", "__fid": 2250}, "geometry": {"type": "LineString", "coordinates": [[2.2410177, 48.8641982], [2.2409762, 48.8641984], [2.2409043, 48.864175]]}}, {"type": "Feature", "properties": {"highway": "track", "footway": null, "name": "Route de la Longue Queue", "surface": "asphalt", "lit": null, "length_m": 8.39, "type_element": "Way", "__fid": 2251}, "geometry": {"type": "LineString", "coordinates": [[2.2409256, 48.8641009], [2.2409043, 48.864175]]}}, {"type": "Feature", "properties": {"highway": "path", "footway": null, "name": null, "surface": "compacted", "lit": "yes", "length_m": 312.15, "type_element": "Way", "__fid": 2259}, "geometry": {"type": "LineString", "coordinates": [[2.244752, 48.8655437], [2.2410177, 48.8641982]]}}, {"type": "Feature", "properties": {"highway": "path", "footway": null, "name": null, "surface": "compacted", "lit": "no", "length_m": 34.04, "type_element": "Way", "__fid": 2260}, "geometry": {"type": "LineString", "coordinates": [[2.2410177, 48.8641982], [2.2410661, 48.8643676], [2.2410636, 48.86440410000002], [2.2410144, 48.86449570000001]]}}, {"type": "Feature", "properties": {"highway": "path", "footway": "crossing", "name": "Allée de Longchamp", "surface": "asphalt", "lit": "yes", "length_m": 20.56, "type_element": "Way", "__fid": 2261}, "geometry": {"type": "LineString", "coordinates": [[2.2411432, 48.8640329], [2.2410177, 48.8641982]]}}, {"type": "Feature", "properties": {"highway": "track", "footway": null, "name": "Route de la Grande Cascade", "surface": "asphalt", "lit": null, "length_m": 1.46, "type_element": "Way", "__fid": 2266}, "geometry": {"type": "LineString", "coordinates": [[2.2411138, 48.8638227], [2.2410941, 48.8638243]]}}, {"type": "Feature", "properties": {"highway": "path", "footway": null, "name": null, "surface": null, "lit": null, "length_m": 6.29, "type_element": "Way", "__fid": 2267}, "geometry": {"type": "LineString", "coordinates": [[2.2411137, 48.8637661], [2.2411138, 48.8638227]]}}, {"type": "Feature", "properties": {"highway": "path", "footway": null, "name": null, "surface": null, "lit": null, "length_m": 41.28, "type_element": "Way", "__fid": 2268}, "geometry": {"type": "LineString", "coordinates": [[2.2415201, 48.8635141], [2.2412579, 48.8636478], [2.2411868, 48.8637181], [2.2411137, 48.8637661]]}}, {"type": "Feature", "properties": {"highway": "track", "footway": null, "name": "Route de la Grande Cascade", "surface": "asphalt", "lit": null, "length_m": 16.13, "type_element": "Way", "__fid": 2269}, "geometry": {"type": "LineString", "coordinates": [[2.2413324, 48.86380740000002], [2.2411138, 48.8638227]]}}, {"type": "Feature", "properties": {"highway": "service", "footway": null, "name": "Route de la Vierge aux Berceaux", "surface": "asphalt", "lit": "no", "length_m": 38.71, "type_element": "Way", "__fid": 2272}, "geometry": {"type": "LineString", "coordinates": [[2.2411576, 48.8629194], [2.2415765, 48.86270780000001]]}}, {"type": "Feature", "properties": {"highway": "path", "footway": null, "name": "Allée de Longchamp", "surface": null, "lit": null, "length_m": 3.43, "type_element": "Way", "__fid": 2273}, "geometry": {"type": "LineString", "coordinates": [[2.2411856, 48.8640458], [2.2411432, 48.8640329]]}}, {"type": "Feature", "properties": {"highway": "path", "footway": null, "name": null, "surface": "ground", "lit": null, "length_m": 11.16, "type_element": "Way", "__fid": 2274}, "geometry": {"type": "LineString", "coordinates": [[2.241219, 48.8639459], [2.2411432, 48.8640329]]}}, {"type": "Feature", "properties": {"highway": "path", "footway": null, "name": null, "surface": null, "lit": null, "length_m": 15.2, "type_element": "Way", "__fid": 2275}, "geometry": {"type": "LineString", "coordinates": [[2.2411813, 48.8633739], [2.2413765, 48.8633282]]}}, {"type": "Feature", "properties": {"highway": "path", "footway": null, "name": null, "surface": "ground", "lit": null, "length_m": 326.45, "type_element": "Way", "__fid": 2278}, "geometry": {"type": "LineString", "coordinates": [[2.2450641, 48.865379], [2.2442331, 48.8650866], [2.2439669, 48.8649759], [2.2431321, 48.8645652], [2.2427914, 48.8644174], [2.2421242, 48.86416650000001], [2.2419485, 48.8641219], [2.241742, 48.864099], [2.2416059, 48.864076], [2.2415395, 48.8640381], [2.2413994, 48.86399], [2.241219, 48.8639459]]}}, {"type": "Feature", "properties": {"highway": "path", "footway": null, "name": null, "surface": "ground", "lit": null, "length_m": 17.5, "type_element": "Way", "__fid": 2279}, "geometry": {"type": "LineString", "coordinates": [[2.241219, 48.8639459], [2.2413324, 48.86380740000002]]}}, {"type": "Feature", "properties": {"highway": "steps", "footway": null, "name": null, "surface": null, "lit": null, "length_m": 36.04, "type_element": "Way", "__fid": 2282}, "geometry": {"type": "LineString", "coordinates": [[2.2415201, 48.8635141], [2.2414992, 48.8636128], [2.2414211, 48.863684], [2.2413324, 48.86380740000002]]}}, {"type": "Feature", "properties": {"highway": "track", "footway": null, "name": "Route de la Grande Cascade", "surface": "asphalt", "lit": null, "length_m": 125.48, "type_element": "Way", "__fid": 2283}, "geometry": {"type": "LineString", "coordinates": [[2.243035, 48.8637036], [2.2425662, 48.8637201], [2.2413324, 48.86380740000002]]}}, {"type": "Feature", "properties": {"highway": "path", "footway": null, "name": null, "surface": null, "lit": "no", "length_m": 14.41, "type_element": "Way", "__fid": 2285}, "geometry": {"type": "LineString", "coordinates": [[2.2413765, 48.8633282], [2.2413639, 48.8633769], [2.2413902, 48.86345519999998]]}}, {"type": "Feature", "properties": {"highway": "path", "footway": null, "name": null, "surface": null, "lit": "no", "length_m": 7.85, "type_element": "Way", "__fid": 2286}, "geometry": {"type": "LineString", "coordinates": [[2.2414342, 48.8632688], [2.2413765, 48.8633282]]}}, {"type": "Feature", "properties": {"highway": "path", "footway": null, "name": null, "surface": null, "lit": "no", "length_m": 11.56, "type_element": "Way", "__fid": 2287}, "geometry": {"type": "LineString", "coordinates": [[2.2413902, 48.86345519999998], [2.2415201, 48.8635141]]}}, {"type": "Feature", "properties": {"highway": "path", "footway": null, "name": null, "surface": null, "lit": null, "length_m": 35.2, "type_element": "Way", "__fid": 2288}, "geometry": {"type": "LineString", "coordinates": [[2.2415938, 48.8635607], [2.2414825, 48.8634464], [2.241441, 48.86332070000002], [2.2414342, 48.8632688]]}}, {"type": "Feature", "properties": {"highway": "path", "footway": null, "name": null, "surface": null, "lit": "no", "length_m": 16.56, "type_element": "Way", "__fid": 2289}, "geometry": {"type": "LineString", "coordinates": [[2.2415088, 48.8631282], [2.2414342, 48.8632688]]}}, {"type": "Feature", "properties": {"highway": "footway", "footway": null, "name": null, "surface": null, "lit": null, "length_m": 45.45, "type_element": "Way", "__fid": 2292}, "geometry": {"type": "LineString", "coordinates": [[2.2417938, 48.8627653], [2.2415088, 48.8631282]]}}, {"type": "Feature", "properties": {"highway": "path", "footway": null, "name": null, "surface": null, "lit": null, "length_m": 66.18, "type_element": "Way", "__fid": 2293}, "geometry": {"type": "LineString", "coordinates": [[2.2422627, 48.8628026], [2.241968, 48.8629459], [2.2415088, 48.8631282]]}}, {"type": "Feature", "properties": {"highway": "path", "footway": null, "name": null, "surface": null, "lit": "no", "length_m": 7.49, "type_element": "Way", "__fid": 2295}, "geometry": {"type": "LineString", "coordinates": [[2.2415201, 48.8635141], [2.2415938, 48.8635607]]}}, {"type": "Feature", "properties": {"highway": "service", "footway": null, "name": "Route de la Vierge aux Berceaux", "surface": "asphalt", "lit": "no", "length_m": 8.23, "type_element": "Way", "__fid": 2300}, "geometry": {"type": "LineString", "coordinates": [[2.2415765, 48.86270780000001], [2.2416642, 48.8626617]]}}, {"type": "Feature", "properties": {"highway": "path", "footway": null, "name": null, "surface": null, "lit": "no", "length_m": 116.6, "type_element": "Way", "__fid": 2303}, "geometry": {"type": "LineString", "coordinates": [[2.2415938, 48.8635607], [2.2416596, 48.8636023], [2.2418232, 48.8636412], [2.2422979, 48.8635441], [2.242483, 48.8635141], [2.2425581, 48.8635136], [2.242655, 48.86353230000001], [2.24287, 48.8636373], [2.243035, 48.8637036]]}}, {"type": "Feature", "properties": {"highway": "footway", "footway": null, "name": null, "surface": null, "lit": null, "length_m": 14.94, "type_element": "Way", "__fid": 2307}, "geometry": {"type": "LineString", "coordinates": [[2.2417938, 48.8627653], [2.2416642, 48.8626617]]}}, {"type": "Feature", "properties": {"highway": "service", "footway": null, "name": "Route de la Vierge aux Berceaux", "surface": "asphalt", "lit": "no", "length_m": 23.82, "type_element": "Way", "__fid": 2308}, "geometry": {"type": "LineString", "coordinates": [[2.2416642, 48.8626617], [2.2419052, 48.8625182]]}}, {"type": "Feature", "properties": {"highway": "footway", "footway": null, "name": null, "surface": null, "lit": null, "length_m": 26.95, "type_element": "Way", "__fid": 2314}, "geometry": {"type": "LineString", "coordinates": [[2.2419415, 48.8625442], [2.2418754, 48.86266660000001], [2.2417938, 48.8627653]]}}, {"type": "Feature", "properties": {"highway": "path", "footway": null, "name": null, "surface": null, "lit": null, "length_m": 34.08, "type_element": "Way", "__fid": 2315}, "geometry": {"type": "LineString", "coordinates": [[2.242232, 48.8627555], [2.2421613, 48.8627321], [2.2420391, 48.8627144], [2.2419107, 48.86272690000001], [2.2417938, 48.8627653]]}}, {"type": "Feature", "properties": {"highway": "footway", "footway": null, "name": null, "surface": null, "lit": null, "length_m": 3.93, "type_element": "Way", "__fid": 2322}, "geometry": {"type": "LineString", "coordinates": [[2.2419052, 48.8625182], [2.2419415, 48.8625442]]}}, {"type": "Feature", "properties": {"highway": "service", "footway": null, "name": "Route de la Vierge aux Berceaux", "surface": "asphalt", "lit": "no", "length_m": 221.43, "type_element": "Way", "__fid": 2323}, "geometry": {"type": "LineString", "coordinates": [[2.2419052, 48.8625182], [2.2427224, 48.8620037], [2.2433473, 48.8614934], [2.2436084, 48.8612964], [2.2439896, 48.861085400000015]]}}, {"type": "Feature", "properties": {"highway": "footway", "footway": null, "name": null, "surface": null, "lit": null, "length_m": 33.23, "type_element": "Way", "__fid": 2324}, "geometry": {"type": "LineString", "coordinates": [[2.2419415, 48.8625442], [2.2420538, 48.86257350000001], [2.2420941, 48.8625974], [2.2422034, 48.8627054], [2.242232, 48.8627555]]}}, {"type": "Feature", "properties": {"highway": "footway", "footway": null, "name": null, "surface": null, "lit": null, "length_m": 5.7, "type_element": "Way", "__fid": 2344}, "geometry": {"type": "LineString", "coordinates": [[2.242232, 48.8627555], [2.2422627, 48.8628026]]}}, {"type": "Feature", "properties": {"highway": "path", "footway": null, "name": null, "surface": null, "lit": null, "length_m": 86.1, "type_element": "Way", "__fid": 2346}, "geometry": {"type": "LineString", "coordinates": [[2.2432711, 48.8624192], [2.2431779, 48.8624533], [2.2429888, 48.8625603], [2.2427765, 48.8626596], [2.2422627, 48.8628026]]}}, {"type": "Feature", "properties": {"highway": "track", "footway": null, "name": "Route de Suresnes", "surface": "asphalt", "lit": null, "length_m": 10.69, "type_element": "Way", "__fid": 2398}, "geometry": {"type": "LineString", "coordinates": [[2.243035, 48.8637036], [2.243139, 48.8637709]]}}, {"type": "Feature", "properties": {"highway": "track", "footway": null, "name": "Chemin des Réservoirs", "surface": "asphalt", "lit": "no", "length_m": 66.45, "type_element": "Way", "__fid": 2399}, "geometry": {"type": "LineString", "coordinates": [[2.243035, 48.8637036], [2.2430369, 48.8635489], [2.2430623, 48.8634775], [2.243321, 48.8631497]]}}, {"type": "Feature", "properties": {"highway": "track", "footway": null, "name": "Route de la Grande Cascade", "surface": "asphalt", "lit": "no", "length_m": 22.64, "type_element": "Way", "__fid": 2400}, "geometry": {"type": "LineString", "coordinates": [[2.243342, 48.86368310000001], [2.243035, 48.8637036]]}}, {"type": "Feature", "properties": {"highway": "track", "footway": null, "name": "Route de Suresnes", "surface": "asphalt", "lit": null, "length_m": 240.35, "type_element": "Way", "__fid": 2410}, "geometry": {"type": "LineString", "coordinates": [[2.243139, 48.8637709], [2.2432293, 48.8638215], [2.2439835, 48.8640886], [2.244813, 48.8644411], [2.2451921, 48.86458849999999], [2.2455687, 48.8646369], [2.2460556, 48.8646804]]}}, {"type": "Feature", "properties": {"highway": "path", "footway": null, "name": null, "surface": null, "lit": null, "length_m": 21.83, "type_element": "Way", "__fid": 2411}, "geometry": {"type": "LineString", "coordinates": [[2.243139, 48.8637709], [2.2434345, 48.8637478]]}}, {"type": "Feature", "properties": {"highway": "path", "footway": null, "name": null, "surface": null, "lit": null, "length_m": 63.56, "type_element": "Way", "__fid": 2425}, "geometry": {"type": "LineString", "coordinates": [[2.244033, 48.8621501], [2.2437802, 48.8622592], [2.2434158, 48.8623664], [2.2432711, 48.8624192]]}}, {"type": "Feature", "properties": {"highway": "path", "footway": null, "name": null, "surface": null, "lit": null, "length_m": 37.53, "type_element": "Way", "__fid": 2426}, "geometry": {"type": "LineString", "coordinates": [[2.2432711, 48.8624192], [2.243421, 48.86240810000002], [2.2435582, 48.8624275], [2.2436675, 48.8624778], [2.2437278, 48.86251930000001]]}}, {"type": "Feature", "properties": {"highway": "path", "footway": null, "name": null, "surface": null, "lit": null, "length_m": 80.37, "type_element": "Way", "__fid": 2438}, "geometry": {"type": "LineString", "coordinates": [[2.2437278, 48.86251930000001], [2.2437399, 48.8626287], [2.2436929, 48.8627284], [2.2434864, 48.8628695], [2.2434113, 48.8629957], [2.2433141, 48.8630778], [2.2433098, 48.8631166], [2.243321, 48.8631497]]}}, {"type": "Feature", "properties": {"highway": "track", "footway": null, "name": "Chemin des Réservoirs", "surface": "asphalt", "lit": "no", "length_m": 29.13, "type_element": "Way", "__fid": 2439}, "geometry": {"type": "LineString", "coordinates": [[2.243321, 48.8631497], [2.2434083, 48.8630923], [2.2436266, 48.8629832]]}}, {"type": "Feature", "properties": {"highway": "path", "footway": null, "name": null, "surface": null, "lit": null, "length_m": 9.89, "type_element": "Way", "__fid": 2449}, "geometry": {"type": "LineString", "coordinates": [[2.2434345, 48.8637478], [2.243342, 48.86368310000001]]}}, {"type": "Feature", "properties": {"highway": "track", "footway": null, "name": "Route de la Grande Cascade", "surface": "asphalt", "lit": null, "length_m": 115.73, "type_element": "Way", "__fid": 2450}, "geometry": {"type": "LineString", "coordinates": [[2.2449145, 48.86362780000002], [2.2443938, 48.86361710000001], [2.243342, 48.86368310000001]]}}, {"type": "Feature", "properties": {"highway": "path", "footway": null, "name": null, "surface": null, "lit": null, "length_m": 184.53, "type_element": "Way", "__fid": 2467}, "geometry": {"type": "LineString", "coordinates": [[2.2434345, 48.8637478], [2.2435646, 48.8637606], [2.2448286, 48.863769900000015], [2.2453898, 48.863743], [2.2459464, 48.86372929999999]]}}, {"type": "Feature", "properties": {"highway": "path", "footway": null, "name": null, "surface": null, "lit": null, "length_m": 189.84, "type_element": "Way", "__fid": 2468}, "geometry": {"type": "LineString", "coordinates": [[2.245755, 48.86447889999999], [2.245414, 48.8644139], [2.2447622, 48.8642595], [2.2444873, 48.8641651], [2.2440661, 48.8639869], [2.2436598, 48.8638449], [2.2434606, 48.8637655], [2.2434345, 48.8637478]]}}, {"type": "Feature", "properties": {"highway": "track", "footway": null, "name": "Chemin des Réservoirs", "surface": "asphalt", "lit": null, "length_m": 49.99, "type_element": "Way", "__fid": 2481}, "geometry": {"type": "LineString", "coordinates": [[2.2436266, 48.8629832], [2.2437862, 48.86289960000001], [2.2439028, 48.8627734], [2.2439666, 48.8626115]]}}, {"type": "Feature", "properties": {"highway": "path", "footway": null, "name": null, "surface": null, "lit": null, "length_m": 59.01, "type_element": "Way", "__fid": 2482}, "geometry": {"type": "LineString", "coordinates": [[2.2443897, 48.8628346], [2.2442345, 48.86287220000001], [2.2440547, 48.862936200000014], [2.2437503, 48.8629772], [2.2436266, 48.8629832]]}}, {"type": "Feature", "properties": {"highway": "path", "footway": null, "name": null, "surface": null, "lit": null, "length_m": 20.3, "type_element": "Way", "__fid": 2490}, "geometry": {"type": "LineString", "coordinates": [[2.2437278, 48.86251930000001], [2.2439666, 48.8626115]]}}, {"type": "Feature", "properties": {"highway": "path", "footway": null, "name": null, "surface": null, "lit": null, "length_m": 39.84, "type_element": "Way", "__fid": 2530}, "geometry": {"type": "LineString", "coordinates": [[2.2439666, 48.8626115], [2.2442482, 48.8627439], [2.2443897, 48.8628346]]}}, {"type": "Feature", "properties": {"highway": "track", "footway": null, "name": "Chemin des Réservoirs", "surface": "asphalt", "lit": null, "length_m": 51.54, "type_element": "Way", "__fid": 2531}, "geometry": {"type": "LineString", "coordinates": [[2.2439666, 48.8626115], [2.244033, 48.8621501]]}}, {"type": "Feature", "properties": {"highway": "track", "footway": null, "name": "Chemin des Réservoirs", "surface": "asphalt", "lit": null, "length_m": 17.35, "type_element": "Way", "__fid": 2532}, "geometry": {"type": "LineString", "coordinates": [[2.2441125, 48.8612144], [2.2440723, 48.8611406], [2.2439896, 48.861085400000015]]}}, {"type": "Feature", "properties": {"highway": "service", "footway": null, "name": "Route de la Vierge aux Berceaux", "surface": "asphalt", "lit": "no", "length_m": 162.97, "type_element": "Way", "__fid": 2533}, "geometry": {"type": "LineString", "coordinates": [[2.2439896, 48.861085400000015], [2.2442675, 48.8609615], [2.2446121, 48.86084879999998], [2.2454974, 48.8606014], [2.2459573, 48.8604148]]}}, {"type": "Feature", "properties": {"highway": "track", "footway": null, "name": "Chemin des Réservoirs", "surface": "asphalt", "lit": null, "length_m": 106.65, "type_element": "Way", "__fid": 2544}, "geometry": {"type": "LineString", "coordinates": [[2.244033, 48.8621501], [2.244148, 48.8619088], [2.2441982, 48.8617371], [2.2442188, 48.8615809], [2.2441902, 48.8613979], [2.2441125, 48.8612144]]}}, {"type": "Feature", "properties": {"highway": "path", "footway": null, "name": null, "surface": "dirt", "lit": null, "length_m": 69.93, "type_element": "Way", "__fid": 2556}, "geometry": {"type": "LineString", "coordinates": [[2.2449272, 48.8608894], [2.2443485, 48.8611036], [2.2441125, 48.8612144]]}}, {"type": "Feature", "properties": {"highway": "path", "footway": null, "name": null, "surface": null, "lit": null, "length_m": 45.06, "type_element": "Way", "__fid": 2612}, "geometry": {"type": "LineString", "coordinates": [[2.2443897, 48.8628346], [2.2445316, 48.8630005], [2.2446404, 48.8632029]]}}, {"type": "Feature", "properties": {"highway": "path", "footway": null, "name": null, "surface": null, "lit": null, "length_m": 114.54, "type_element": "Way", "__fid": 2613}, "geometry": {"type": "LineString", "coordinates": [[2.2456835, 48.8622624], [2.2454089, 48.86237860000002], [2.2450809, 48.862491], [2.2443897, 48.8628346]]}}, {"type": "Feature", "properties": {"highway": "path", "footway": null, "name": null, "surface": null, "lit": null, "length_m": 51.63, "type_element": "Way", "__fid": 2668}, "geometry": {"type": "LineString", "coordinates": [[2.2446404, 48.8632029], [2.2446947, 48.8633173], [2.2447602, 48.8634075], [2.2448318, 48.8634766], [2.2449145, 48.86362780000002]]}}, {"type": "Feature", "properties": {"highway": "path", "footway": null, "name": null, "surface": null, "lit": null, "length_m": 144.58, "type_element": "Way", "__fid": 2669}, "geometry": {"type": "LineString", "coordinates": [[2.2446404, 48.8632029], [2.2447179, 48.8631638], [2.2450961, 48.8630879], [2.2456339, 48.8630129], [2.2457667, 48.86297410000002], [2.2465163, 48.862825]]}}, {"type": "Feature", "properties": {"highway": "path", "footway": null, "name": null, "surface": "compacted", "lit": "yes", "length_m": 208.67, "type_element": "Way", "__fid": 2680}, "geometry": {"type": "LineString", "coordinates": [[2.2448123, 48.8586978], [2.2448431, 48.8587263], [2.2450248, 48.8589969], [2.2459573, 48.8604148]]}}, {"type": "Feature", "properties": {"highway": "path", "footway": null, "name": null, "surface": "dirt", "lit": null, "length_m": 176.48, "type_element": "Way", "__fid": 2700}, "geometry": {"type": "LineString", "coordinates": [[2.2449272, 48.8608894], [2.2452443, 48.8610718], [2.2456905, 48.8613767], [2.2456835, 48.8622624]]}}, {"type": "Feature", "properties": {"highway": "path", "footway": null, "name": null, "surface": "dirt", "lit": null, "length_m": 93.51, "type_element": "Way", "__fid": 2701}, "geometry": {"type": "LineString", "coordinates": [[2.2461278, 48.8606664], [2.2460793, 48.8606719], [2.2457848, 48.8606617], [2.2456505, 48.8606753], [2.2455058, 48.860729700000014], [2.245294, 48.8607773], [2.2449272, 48.8608894]]}}, {"type": "Feature", "properties": {"highway": "track", "footway": null, "name": "Route de la Grande Cascade", "surface": "asphalt", "lit": null, "length_m": 72.71, "type_element": "Way", "__fid": 2704}, "geometry": {"type": "LineString", "coordinates": [[2.2459047, 48.863616], [2.2456514, 48.8636304], [2.2449145, 48.86362780000002]]}}, {"type": "Feature", "properties": {"highway": "path", "footway": null, "name": null, "surface": "compacted", "lit": "no", "length_m": 207.47, "type_element": "Way", "__fid": 2722}, "geometry": {"type": "LineString", "coordinates": [[2.2450975, 48.8586115], [2.2452254, 48.858686700000014], [2.2460826, 48.86004610000001], [2.2462193, 48.8601838], [2.2462891, 48.86029]]}}, {"type": "Feature", "properties": {"highway": "path", "footway": "sidewalk", "name": null, "surface": "compacted", "lit": "yes", "length_m": 206.49, "type_element": "Way", "__fid": 2723}, "geometry": {"type": "LineString", "coordinates": [[2.2450975, 48.8586115], [2.2450934, 48.85863769999999], [2.2461798, 48.86032220000001]]}}, {"type": "Feature", "properties": {"highway": "path", "footway": null, "name": null, "surface": "dirt", "lit": null, "length_m": 126.0, "type_element": "Way", "__fid": 2782}, "geometry": {"type": "LineString", "coordinates": [[2.2455199, 48.865156], [2.2457764, 48.86520130000002], [2.2461248, 48.8652266], [2.2463321, 48.8651816], [2.2465052, 48.8650972], [2.246767, 48.8649415], [2.2470379, 48.8648348]]}}, {"type": "Feature", "properties": {"highway": "path", "footway": null, "name": "Route des Moulins", "surface": "dirt", "lit": null, "length_m": 26.03, "type_element": "Way", "__fid": 2783}, "geometry": {"type": "LineString", "coordinates": [[2.2455199, 48.865156], [2.2458009, 48.8650131]]}}, {"type": "Feature", "properties": {"highway": "path", "footway": null, "name": null, "surface": null, "lit": null, "length_m": 89.03, "type_element": "Way", "__fid": 2796}, "geometry": {"type": "LineString", "coordinates": [[2.2456835, 48.8622624], [2.2459214, 48.8624666], [2.2460803, 48.86252580000002], [2.2462364, 48.8626904], [2.2465163, 48.862825]]}}, {"type": "Feature", "properties": {"highway": "path", "footway": null, "name": null, "surface": null, "lit": null, "length_m": 101.02, "type_element": "Way", "__fid": 2797}, "geometry": {"type": "LineString", "coordinates": [[2.2469052, 48.8618433], [2.2456835, 48.8622624]]}}, {"type": "Feature", "properties": {"highway": "path", "footway": null, "name": null, "surface": null, "lit": null, "length_m": 35.0, "type_element": "Way", "__fid": 2809}, "geometry": {"type": "LineString", "coordinates": [[2.2462267, 48.8645238], [2.245992, 48.864509199999986], [2.245755, 48.86447889999999]]}}, {"type": "Feature", "properties": {"highway": "path", "footway": null, "name": null, "surface": "dirt", "lit": null, "length_m": 31.7, "type_element": "Way", "__fid": 2810}, "geometry": {"type": "LineString", "coordinates": [[2.2460556, 48.8646804], [2.2459859, 48.8646098], [2.245755, 48.86447889999999]]}}]}