{"type": "FeatureCollection", "features": [{"type": "Feature", "properties": {"@id": "node/4171947771", "amenity": "drinking_water", "man_made": "water_tap", "type_element": "Fontaines à boire", "__fid": 471}, "geometry": {"type": "Point", "coordinates": [2.2542225, 48.8646245]}, "id": "node/4171947771"}, {"type": "Feature", "geometry": {"type": "Point", "coordinates": [2.253003, 48.864355]}, "properties": {"id": 2779, "name": "Bois de Boulogne", "categorie": "Parcs, jardins et bois", "photo_url": "https://cdn.paris.fr/eqpts-prod/2022/05/10/f5b5e0600e2b2f36797b2a6cf31614c5.jpg", "photo_credit": "Sonia Yassa /Ville de Paris", "photo_alt": null, "address_street": "Bois de Boulogne", "address_postcode": "75016", "address_city": "PARIS", "phone": null, "accessibility": "{\"handicaps\": [{\"name\": \"Personnes déficientes visuelles\", \"status\": \"undefined\"}, {\"name\": \"Personnes déficientes auditives\", \"status\": \"undefined\"}, {\"name\": \"Personnes déficientes mentales\", \"status\": \"undefined\"}, {\"name\": \"Personnes à mobilité réduite\", \"status\": \"undefined\"}, {\"name\": \"Accueil en langue des signes\", \"status\": \"undefined\"}]}", "latitude": 48.864355, "longitude": 2.253003, "url": "https://www.paris.fr/lieux/bois-de-boulogne-2779", "type_element": "Parcs, Jardins et Bois", "__fid": 1464}}, {"type": "Feature", "properties": {"highway": "track", "footway": null, "name": "Route de Suresnes", "surface": "asphalt", "lit": null, "length_m": 240.35, "type_element": "Way", "__fid": 2410}, "geometry": {"type": "LineString", "coordinates": [[2.243139, 48.8637709], [2.2432293, 48.8638215], [2.2439835, 48.8640886], [2.244813, 48.8644411], [2.2451921, 48.86458849999999], [2.2455687, 48.8646369], [2.2460556, 48.8646804]]}}, {"type": "Feature", "properties": {"highway": "path", "footway": null, "name": null, "surface": null, "lit": null, "length_m": 184.53, "type_element": "Way", "__fid": 2467}, "geometry": {"type": "LineString", "coordinates": [[2.2434345, 48.8637478], [2.2435646, 48.8637606], [2.2448286, 48.863769900000015], [2.2453898, 48.863743], [2.2459464, 48.86372929999999]]}}, {"type": "Feature", "properties": {"highway": "service", "footway": null, "name": "Route de la Vierge aux Berceaux", "surface": "asphalt", "lit": "no", "length_m": 162.97, "type_element": "Way", "__fid": 2533}, "geometry": {"type": "LineString", "coordinates": [[2.2439896, 48.861085400000015], [2.2442675, 48.8609615], [2.2446121, 48.86084879999998], [2.2454974, 48.8606014], [2.2459573, 48.8604148]]}}, {"type": "Feature", "properties": {"highway": "path", "footway": null, "name": null, "surface": null, "lit": null, "length_m": 144.58, "type_element": "Way", "__fid": 2669}, "geometry": {"type": "LineString", "coordinates": [[2.2446404, 48.8632029], [2.2447179, 48.8631638], [2.2450961, 48.8630879], [2.2456339, 48.8630129], [2.2457667, 48.86297410000002], [2.2465163, 48.862825]]}}, {"type": "Feature", "properties": {"highway": "path", "footway": null, "name": null, "surface": "compacted", "lit": "yes", "length_m": 208.67, "type_element": "Way", "__fid": 2680}, "geometry": {"type": "LineString", "coordinates": [[2.2448123, 48.8586978], [2.2448431, 48.8587263], [2.2450248, 48.8589969], [2.2459573, 48.8604148]]}}, {"type": "Feature", "properties": {"highway": "path", "footway": null, "name": null, "surface": "dirt", "lit": null, "length_m": 93.51, "type_element": "Way", "__fid": 2701}, "geometry": {"type": "LineString", "coordinates": [[2.2461278, 48.8606664], [2.2460793, 48.8606719], [2.2457848, 48.8606617], [2.2456505, 48.8606753], [2.2455058, 48.860729700000014], [2.245294, 48.8607773], [2.2449272, 48.8608894]]}}, {"type": "Feature", "properties": {"highway": "track", "footway": null, "name": "Route de la Grande Cascade", "surface": "asphalt", "lit": null, "length_m": 72.71, "type_element": "Way", "__fid": 2704}, "geometry": {"type": "LineString", "coordinates": [[2.2459047, 48.863616], [2.2456514, 48.8636304], [2.2449145, 48.86362780000002]]}}, {"type": "Feature", "properties": {"highway": "path", "footway": null, "name": null, "surface": "compacted", "lit": "no", "length_m": 207.47, "type_element": "Way", "__fid": 2722}, "geometry": {"type": "LineString", "coordinates": [[2.2450975, 48.8586115], [2.2452254, 48.858686700000014], [2.2460826, 48.86004610000001], [2.2462193, 48.8601838], [2.2462891, 48.86029]]}}, {"type": "Feature", "properties": {"highway": "path", "footway": "sidewalk", "name": null, "surface": "compacted", "lit": "yes", "length_m": 206.49, "type_element": "Way", "__fid": 2723}, "geometry": {"type": "LineString", "coordinates": [[2.2450975, 48.8586115], [2.2450934, 48.85863769999999], [2.2461798, 48.86032220000001]]}}, {"type": "Feature", "properties": {"highway": "path", "footway": null, "name": null, "surface": "dirt", "lit": null, "length_m": 126.0, "type_element": "Way", "__fid": 2782}, "geometry": {"type": "LineString", "coordinates": [[2.2455199, 48.865156], [2.2457764, 48.86520130000002], [2.2461248, 48.8652266], [2.2463321, 48.8651816], [2.2465052, 48.8650972], [2.246767, 48.8649415], [2.2470379, 48.8648348]]}}, {"type": "Feature", "properties": {"highway": "path", "footway": null, "name": "Route des Moulins", "surface": "dirt", "lit": null, "length_m": 26.03, "type_element": "Way", "__fid": 2783}, "geometry": {"type": "LineString", "coordinates": [[2.2455199, 48.865156], [2.2458009, 48.8650131]]}}, {"type": "Feature", "properties": {"highway": "path", "footway": null, "name": null, "surface": null, "lit": null, "length_m": 89.03, "type_element": "Way", "__fid": 2796}, "geometry": {"type": "LineString", "coordinates": [[2.2456835, 48.8622624], [2.2459214, 48.8624666], [2.2460803, 48.86252580000002], [2.2462364, 48.8626904], [2.2465163, 48.862825]]}}, {"type": "Feature", "properties": {"highway": "path", "footway": null, "name": null, "surface": null, "lit": null, "length_m": 101.02, "type_element": "Way", "__fid": 2797}, "geometry": {"type": "LineString", "coordinates": [[2.2469052, 48.8618433], [2.2456835, 48.8622624]]}}, {"type": "Feature", "properties": {"highway": "path", "footway": null, "name": null, "surface": null, "lit": null, "length_m": 35.0, "type_element": "Way", "__fid": 2809}, "geometry": {"type": "LineString", "coordinates": [[2.2462267, 48.8645238], [2.245992, 48.864509199999986], [2.245755, 48.86447889999999]]}}, {"type": "Feature", "properties": {"highway": "path", "footway": null, "name": null, "surface": "dirt", "lit": null, "length_m": 31.7, "type_element": "Way", "__fid": 2810}, "geometry": {"type": "LineString", "coordinates": [[2.2460556, 48.8646804], [2.2459859, 48.8646098], [2.245755, 48.86447889999999]]}}, {"type": "Feature", "properties": {"highway": "path", "footway": null, "name": null, "surface": "dirt", "lit": null, "length_m": 43.94, "type_element": "Way", "__fid": 2814}, "geometry": {"type": "LineString", "coordinates": [[2.2458009, 48.8650131], [2.2458874, 48.8649305], [2.24606, 48.8648062], [2.2460651, 48.864738500000016], [2.2460556, 48.8646804]]}}, {"type": "Feature", "properties": {"highway": "path", "footway": null, "name": "Route des Moulins", "surface": "dirt", "lit": null, "length_m": 72.42, "type_element": "Way", "__fid": 2815}, "geometry": {"type": "LineString", "coordinates": [[2.2458009, 48.8650131], [2.2464652, 48.86479770000001], [2.2466596, 48.8646972]]}}, {"type": "Feature", "properties": {"highway": "path", "footway": null, "name": null, "surface": null, "lit": null, "length_m": 12.96, "type_element": "Way", "__fid": 2826}, "geometry": {"type": "LineString", "coordinates": [[2.2459047, 48.863616], [2.2459464, 48.86372929999999]]}}, {"type": "Feature", "properties": {"highway": "track", "footway": null, "name": "Route de la Grande Cascade", "surface": "asphalt", "lit": null, "length_m": 152.0, "type_element": "Way", "__fid": 2827}, "geometry": {"type": "LineString", "coordinates": [[2.247962, 48.863456099999986], [2.2463819, 48.86358880000002], [2.2459047, 48.863616]]}}, {"type": "Feature", "properties": {"highway": "path", "footway": null, "name": null, "surface": "compacted", "lit": "yes", "length_m": 30.65, "type_element": "Way", "__fid": 2828}, "geometry": {"type": "LineString", "coordinates": [[2.2459573, 48.8604148], [2.2461278, 48.8606664]]}}, {"type": "Feature", "properties": {"highway": "service", "footway": null, "name": "Route de la Vierge aux Berceaux", "surface": "asphalt", "lit": null, "length_m": 19.3, "type_element": "Way", "__fid": 2829}, "geometry": {"type": "LineString", "coordinates": [[2.2459573, 48.8604148], [2.2461798, 48.86032220000001]]}}, {"type": "Feature", "properties": {"highway": "path", "footway": null, "name": null, "surface": null, "lit": null, "length_m": 90.97, "type_element": "Way", "__fid": 2831}, "geometry": {"type": "LineString", "coordinates": [[2.2459464, 48.86372929999999], [2.2460483, 48.8641369], [2.2461516, 48.86439630000001], [2.2462267, 48.8645238]]}}, {"type": "Feature", "properties": {"highway": "path", "footway": null, "name": null, "surface": null, "lit": null, "length_m": 166.8, "type_element": "Way", "__fid": 2832}, "geometry": {"type": "LineString", "coordinates": [[2.2459464, 48.86372929999999], [2.2461952, 48.8637227], [2.246863, 48.8636803], [2.2478648, 48.8636455], [2.248011, 48.863530800000014], [2.247962, 48.863456099999986]]}}, {"type": "Feature", "properties": {"highway": "track", "footway": null, "name": "Route de Suresnes", "surface": "asphalt", "lit": null, "length_m": 44.35, "type_element": "Way", "__fid": 2839}, "geometry": {"type": "LineString", "coordinates": [[2.2460556, 48.8646804], [2.2466596, 48.8646972]]}}, {"type": "Feature", "properties": {"highway": "path", "footway": null, "name": null, "surface": "compacted", "lit": "yes", "length_m": 142.75, "type_element": "Way", "__fid": 2840}, "geometry": {"type": "LineString", "coordinates": [[2.2461278, 48.8606664], [2.2469052, 48.8618433]]}}, {"type": "Feature", "properties": {"highway": "path", "footway": null, "name": null, "surface": "dirt", "lit": null, "length_m": 19.23, "type_element": "Way", "__fid": 2841}, "geometry": {"type": "LineString", "coordinates": [[2.2463845, 48.8606314], [2.2461278, 48.8606664]]}}, {"type": "Feature", "properties": {"highway": "path", "footway": "sidewalk", "name": null, "surface": "compacted", "lit": "yes", "length_m": 37.52, "type_element": "Way", "__fid": 2845}, "geometry": {"type": "LineString", "coordinates": [[2.2461798, 48.86032220000001], [2.2463845, 48.8606314]]}}, {"type": "Feature", "properties": {"highway": "service", "footway": null, "name": "Route de la Vierge aux Berceaux", "surface": "asphalt", "lit": null, "length_m": 8.78, "type_element": "Way", "__fid": 2846}, "geometry": {"type": "LineString", "coordinates": [[2.2461798, 48.86032220000001], [2.2462891, 48.86029]]}}, {"type": "Feature", "properties": {"highway": "path", "footway": null, "name": null, "surface": null, "lit": null, "length_m": 37.32, "type_element": "Way", "__fid": 2854}, "geometry": {"type": "LineString", "coordinates": [[2.2462267, 48.8645238], [2.2465606, 48.8646415], [2.2466596, 48.8646972]]}}, {"type": "Feature", "properties": {"highway": "path", "footway": null, "name": null, "surface": null, "lit": null, "length_m": 114.91, "type_element": "Way", "__fid": 2855}, "geometry": {"type": "LineString", "coordinates": [[2.2477916, 48.8645451], [2.2475168, 48.8645268], [2.2462267, 48.8645238]]}}, {"type": "Feature", "properties": {"highway": "path", "footway": null, "name": null, "surface": "compacted", "lit": "no", "length_m": 39.05, "type_element": "Way", "__fid": 2856}, "geometry": {"type": "LineString", "coordinates": [[2.2462891, 48.86029], [2.2465008, 48.8606122]]}}, {"type": "Feature", "properties": {"highway": "service", "footway": null, "name": "Route de la Vierge aux Berceaux", "surface": "asphalt", "lit": null, "length_m": 191.99, "type_element": "Way", "__fid": 2857}, "geometry": {"type": "LineString", "coordinates": [[2.2462891, 48.86029], [2.2467119, 48.8601655], [2.2469725, 48.8601256], [2.2482285, 48.8601623], [2.2485088, 48.8601327], [2.2488322, 48.8600531]]}}, {"type": "Feature", "properties": {"highway": "path", "footway": "sidewalk", "name": null, "surface": "compacted", "lit": "yes", "length_m": 140.26, "type_element": "Way", "__fid": 2860}, "geometry": {"type": "LineString", "coordinates": [[2.2463845, 48.8606314], [2.2471553, 48.86178570000002]]}}, {"type": "Feature", "properties": {"highway": "path", "footway": null, "name": null, "surface": "dirt", "lit": null, "length_m": 8.8, "type_element": "Way", "__fid": 2861}, "geometry": {"type": "LineString", "coordinates": [[2.2465008, 48.8606122], [2.2463845, 48.8606314]]}}, {"type": "Feature", "properties": {"highway": "path", "footway": null, "name": null, "surface": "compacted", "lit": "no", "length_m": 139.28, "type_element": "Way", "__fid": 2867}, "geometry": {"type": "LineString", "coordinates": [[2.2465008, 48.8606122], [2.2472693, 48.8617575]]}}, {"type": "Feature", "properties": {"highway": "path", "footway": null, "name": null, "surface": "dirt", "lit": null, "length_m": 196.84, "type_element": "Way", "__fid": 2868}, "geometry": {"type": "LineString", "coordinates": [[2.2491243, 48.8602649], [2.2488258, 48.8602962], [2.2481896, 48.8603345], [2.2480346, 48.8603663], [2.2478408, 48.860394], [2.2475275, 48.8604598], [2.2465008, 48.8606122]]}}, {"type": "Feature", "properties": {"highway": "path", "footway": null, "name": null, "surface": null, "lit": null, "length_m": 70.45, "type_element": "Way", "__fid": 2872}, "geometry": {"type": "LineString", "coordinates": [[2.2465163, 48.862825], [2.2474345, 48.8626396]]}}, {"type": "Feature", "properties": {"highway": "path", "footway": null, "name": null, "surface": null, "lit": null, "length_m": 32.18, "type_element": "Way", "__fid": 2882}, "geometry": {"type": "LineString", "coordinates": [[2.2470379, 48.8648348], [2.2469884, 48.8648284], [2.2469338, 48.8647896], [2.2466596, 48.8646972]]}}, {"type": "Feature", "properties": {"highway": "track", "footway": null, "name": "Route de Suresnes", "surface": "asphalt", "lit": null, "length_m": 97.81, "type_element": "Way", "__fid": 2883}, "geometry": {"type": "LineString", "coordinates": [[2.2466596, 48.8646972], [2.2477533, 48.8646215], [2.2479861, 48.8646336]]}}, {"type": "Feature", "properties": {"highway": "track", "footway": null, "name": "Allée Saint-Denis", "surface": "compacted", "lit": "no", "length_m": 255.02, "type_element": "Way", "__fid": 2895}, "geometry": {"type": "LineString", "coordinates": [[2.2488322, 48.8600531], [2.2481667, 48.8595348], [2.247556, 48.8590078], [2.2469099, 48.858158]]}}, {"type": "Feature", "properties": {"highway": "path", "footway": null, "name": null, "surface": "compacted", "lit": "yes", "length_m": 96.69, "type_element": "Way", "__fid": 2905}, "geometry": {"type": "LineString", "coordinates": [[2.2469052, 48.8618433], [2.2474345, 48.8626396]]}}, {"type": "Feature", "properties": {"highway": "path", "footway": null, "name": null, "surface": null, "lit": null, "length_m": 19.43, "type_element": "Way", "__fid": 2906}, "geometry": {"type": "LineString", "coordinates": [[2.2471553, 48.86178570000002], [2.2469052, 48.8618433]]}}, {"type": "Feature", "properties": {"highway": "path", "footway": null, "name": null, "surface": "dirt", "lit": null, "length_m": 65.0, "type_element": "Way", "__fid": 2916}, "geometry": {"type": "LineString", "coordinates": [[2.2478823, 48.8647804], [2.2477938, 48.8647757], [2.2474575, 48.8648799], [2.2472336, 48.8648628], [2.2470379, 48.8648348]]}}, {"type": "Feature", "properties": {"highway": "path", "footway": "sidewalk", "name": null, "surface": "compacted", "lit": "yes", "length_m": 189.67, "type_element": "Way", "__fid": 2929}, "geometry": {"type": "LineString", "coordinates": [[2.2471553, 48.86178570000002], [2.2481761, 48.8633528]]}}, {"type": "Feature", "properties": {"highway": "path", "footway": null, "name": null, "surface": null, "lit": null, "length_m": 8.93, "type_element": "Way", "__fid": 2930}, "geometry": {"type": "LineString", "coordinates": [[2.2472693, 48.8617575], [2.2471553, 48.86178570000002]]}}, {"type": "Feature", "properties": {"highway": "path", "footway": null, "name": null, "surface": "compacted", "lit": "no", "length_m": 194.07, "type_element": "Way", "__fid": 2939}, "geometry": {"type": "LineString", "coordinates": [[2.2472693, 48.8617575], [2.2474547, 48.862052], [2.2483269, 48.8633572]]}}, {"type": "Feature", "properties": {"highway": "path", "footway": null, "name": null, "surface": null, "lit": null, "length_m": 218.98, "type_element": "Way", "__fid": 2940}, "geometry": {"type": "LineString", "coordinates": [[2.2499823, 48.8609482], [2.2497158, 48.8610624], [2.2493467, 48.8611979], [2.2484961, 48.86144210000001], [2.2481817, 48.8615254], [2.2476239, 48.8616592], [2.2472693, 48.8617575]]}}, {"type": "Feature", "properties": {"highway": "path", "footway": null, "name": null, "surface": "compacted", "lit": "yes", "length_m": 92.66, "type_element": "Way", "__fid": 2944}, "geometry": {"type": "LineString", "coordinates": [[2.2474345, 48.8626396], [2.2479473, 48.8634011]]}}, {"type": "Feature", "properties": {"highway": "path", "footway": null, "name": null, "surface": null, "lit": null, "length_m": 105.11, "type_element": "Way", "__fid": 2972}, "geometry": {"type": "LineString", "coordinates": [[2.2491563, 48.8648149], [2.2488029, 48.864753599999986], [2.2486427, 48.864695800000014], [2.2483154, 48.864616], [2.2480828, 48.86457269999998], [2.2477916, 48.8645451]]}}, {"type": "Feature", "properties": {"highway": "path", "footway": null, "name": null, "surface": null, "lit": null, "length_m": 24.45, "type_element": "Way", "__fid": 2973}, "geometry": {"type": "LineString", "coordinates": [[2.2480929, 48.8646391], [2.2477916, 48.8645451]]}}, {"type": "Feature", "properties": {"highway": "path", "footway": null, "name": null, "surface": "dirt", "lit": null, "length_m": 32.63, "type_element": "Way", "__fid": 2984}, "geometry": {"type": "LineString", "coordinates": [[2.2482239, 48.8649392], [2.2480798, 48.8649071], [2.247943, 48.86478359999998], [2.2478823, 48.8647804]]}}, {"type": "Feature", "properties": {"highway": "path", "footway": null, "name": null, "surface": "dirt", "lit": null, "length_m": 18.42, "type_element": "Way", "__fid": 2985}, "geometry": {"type": "LineString", "coordinates": [[2.2479861, 48.8646336], [2.247983, 48.8646704], [2.2479669, 48.8646951], [2.2478823, 48.8647804]]}}, {"type": "Feature", "properties": {"highway": "path", "footway": null, "name": null, "surface": "compacted", "lit": "yes", "length_m": 6.21, "type_element": "Way", "__fid": 2991}, "geometry": {"type": "LineString", "coordinates": [[2.2479473, 48.8634011], [2.247962, 48.863456099999986]]}}, {"type": "Feature", "properties": {"highway": "footway", "footway": "crossing", "name": null, "surface": "asphalt", "lit": null, "length_m": 17.62, "type_element": "Way", "__fid": 2992}, "geometry": {"type": "LineString", "coordinates": [[2.2479473, 48.8634011], [2.2481761, 48.8633528]]}}, {"type": "Feature", "properties": {"highway": "track", "footway": null, "name": "Route de la Grande Cascade", "surface": "asphalt", "lit": null, "length_m": 11.03, "type_element": "Way", "__fid": 2994}, "geometry": {"type": "LineString", "coordinates": [[2.2481119, 48.863448900000016], [2.247962, 48.863456099999986]]}}, {"type": "Feature", "properties": {"highway": "track", "footway": null, "name": "Route de Suresnes", "surface": "asphalt", "lit": null, "length_m": 7.86, "type_element": "Way", "__fid": 3008}, "geometry": {"type": "LineString", "coordinates": [[2.2479861, 48.8646336], [2.2480929, 48.8646391]]}}, {"type": "Feature", "properties": {"highway": "track", "footway": null, "name": "Route de Suresnes", "surface": "asphalt", "lit": null, "length_m": 75.81, "type_element": "Way", "__fid": 3014}, "geometry": {"type": "LineString", "coordinates": [[2.2480929, 48.8646391], [2.2481797, 48.86464359999999], [2.2488505, 48.864816], [2.2490547, 48.8648806]]}}, {"type": "Feature", "properties": {"highway": "path", "footway": "sidewalk", "name": null, "surface": "compacted", "lit": "yes", "length_m": 12.72, "type_element": "Way", "__fid": 3021}, "geometry": {"type": "LineString", "coordinates": [[2.2481761, 48.8633528], [2.2482039, 48.8633775], [2.2483269, 48.8633572]]}}, {"type": "Feature", "properties": {"highway": "path", "footway": null, "name": null, "surface": "dirt", "lit": null, "length_m": 68.9, "type_element": "Way", "__fid": 3026}, "geometry": {"type": "LineString", "coordinates": [[2.2482239, 48.8649392], [2.248401, 48.8650691], [2.2488028, 48.86513380000001], [2.2490079, 48.8651507], [2.2490481, 48.8651268]]}}, {"type": "Feature", "properties": {"highway": "footway", "footway": "crossing", "name": null, "surface": null, "lit": null, "length_m": 26.69, "type_element": "Way", "__fid": 3032}, "geometry": {"type": "LineString", "coordinates": [[2.2483269, 48.8633572], [2.2482838, 48.8634831], [2.2483549, 48.8635837]]}}, {"type": "Feature", "properties": {"highway": "path", "footway": null, "name": null, "surface": "grass", "lit": "no", "length_m": 128.08, "type_element": "Way", "__fid": 3033}, "geometry": {"type": "LineString", "coordinates": [[2.2483269, 48.8633572], [2.2489415, 48.8633094], [2.2490937, 48.8632765], [2.249853, 48.863237], [2.250058, 48.8632413]]}}, {"type": "Feature", "properties": {"highway": "path", "footway": null, "name": null, "surface": null, "lit": null, "length_m": 7.23, "type_element": "Way", "__fid": 3034}, "geometry": {"type": "LineString", "coordinates": [[2.2483549, 48.8635837], [2.2484516, 48.86359620000002]]}}, {"type": "Feature", "properties": {"highway": "path", "footway": null, "name": null, "surface": null, "lit": null, "length_m": 149.0, "type_element": "Way", "__fid": 3035}, "geometry": {"type": "LineString", "coordinates": [[2.2483549, 48.8635837], [2.248813, 48.8642714], [2.2491563, 48.8648149]]}}, {"type": "Feature", "properties": {"highway": "path", "footway": null, "name": null, "surface": null, "lit": null, "length_m": 96.45, "type_element": "Way", "__fid": 3039}, "geometry": {"type": "LineString", "coordinates": [[2.2484516, 48.86359620000002], [2.2485516, 48.86359690000001], [2.2488891, 48.8635448], [2.2489918, 48.8635393], [2.2492341, 48.86352870000001], [2.2494019, 48.8635337], [2.2495443, 48.8635498], [2.2497529, 48.86353540000001]]}}, {"type": "Feature", "properties": {"highway": "path", "footway": null, "name": null, "surface": null, "lit": null, "length_m": 136.84, "type_element": "Way", "__fid": 3040}, "geometry": {"type": "LineString", "coordinates": [[2.2484516, 48.86359620000002], [2.2485039, 48.8636306], [2.2488666, 48.8642102], [2.2492246, 48.8647123]]}}, {"type": "Feature", "properties": {"highway": "track", "footway": null, "name": "Allée Saint-Denis", "surface": "compacted", "lit": "no", "length_m": 31.84, "type_element": "Way", "__fid": 3065}, "geometry": {"type": "LineString", "coordinates": [[2.2491243, 48.8602649], [2.2488322, 48.8600531]]}}, {"type": "Feature", "properties": {"highway": "service", "footway": null, "name": "Route de la Vierge aux Berceaux", "surface": "asphalt", "lit": null, "length_m": 142.25, "type_element": "Way", "__fid": 3066}, "geometry": {"type": "LineString", "coordinates": [[2.2488322, 48.8600531], [2.2490725, 48.8599682], [2.249323, 48.8598577], [2.249599, 48.85970120000001], [2.2496706, 48.8596417], [2.2498839, 48.8594211], [2.2501197, 48.85913819999998]]}}, {"type": "Feature", "properties": {"highway": "track", "footway": null, "name": "Allée Saint-Denis", "surface": "compacted", "lit": "no", "length_m": 98.67, "type_element": "Way", "__fid": 3095}, "geometry": {"type": "LineString", "coordinates": [[2.2499823, 48.8609482], [2.2491243, 48.8602649]]}}, {"type": "Feature", "properties": {"highway": "path", "footway": null, "name": null, "surface": "dirt", "lit": null, "length_m": 270.46, "type_element": "Way", "__fid": 3096}, "geometry": {"type": "LineString", "coordinates": [[2.2515534, 48.8585132], [2.2509354, 48.85877730000002], [2.2506774, 48.85891620000002], [2.2504965, 48.85902460000001], [2.2503318, 48.8591478], [2.2501962, 48.8592647], [2.249983, 48.8594899], [2.2498377, 48.85972360000002], [2.249721, 48.8598792], [2.2495246, 48.86007450000002], [2.2493577, 48.8601778], [2.2491243, 48.8602649]]}}, {"type": "Feature", "properties": {"highway": "footway", "footway": "sidewalk", "name": null, "surface": "dirt", "lit": "no", "length_m": 306.63, "type_element": "Way", "__fid": 3106}, "geometry": {"type": "LineString", "coordinates": [[2.2491563, 48.8648149], [2.2492186, 48.8649384], [2.2493005, 48.865024], [2.250832, 48.8673393]]}}, {"type": "Feature", "properties": {"highway": "track", "footway": null, "name": "Route du Point du Jour à Bagatelle", "surface": "asphalt", "lit": "no", "length_m": 34.85, "type_element": "Way", "__fid": 3117}, "geometry": {"type": "LineString", "coordinates": [[2.2492246, 48.8647123], [2.249215, 48.8647614], [2.249243, 48.8648315], [2.2493521, 48.8648945], [2.2493831, 48.864988]]}}, {"type": "Feature", "properties": {"highway": "track", "footway": null, "name": "Route du Point du Jour à Bagatelle", "surface": "asphalt", "lit": "no", "length_m": 137.41, "type_element": "Way", "__fid": 3118}, "geometry": {"type": "LineString", "coordinates": [[2.2497529, 48.86353540000001], [2.2496362, 48.8636657], [2.2493926, 48.8641299], [2.2492497, 48.8645832], [2.2492246, 48.8647123]]}}, {"type": "Feature", "properties": {"highway": "track", "footway": null, "name": null, "surface": "asphalt", "lit": null, "length_m": 36.15, "type_element": "Way", "__fid": 3121}, "geometry": {"type": "LineString", "coordinates": [[2.2492967, 48.864965900000016], [2.2492946, 48.8649945], [2.2494687, 48.86513830000001], [2.2495098, 48.8651885], [2.2495899, 48.865205]]}}, {"type": "Feature", "properties": {"highway": "track", "footway": null, "name": "Route du Point du Jour à Bagatelle", "surface": "asphalt", "lit": "no", "length_m": 39.66, "type_element": "Way", "__fid": 3143}, "geometry": {"type": "LineString", "coordinates": [[2.250058, 48.8632413], [2.2498306, 48.8634487], [2.2497529, 48.86353540000001]]}}, {"type": "Feature", "properties": {"highway": "path", "footway": null, "name": null, "surface": null, "lit": null, "length_m": 7.8, "type_element": "Way", "__fid": 3144}, "geometry": {"type": "LineString", "coordinates": [[2.2497529, 48.86353540000001], [2.2498587, 48.8635286]]}}, {"type": "Feature", "properties": {"highway": "service", "footway": null, "name": null, "surface": null, "lit": null, "length_m": 63.15, "type_element": "Way", "__fid": 3150}, "geometry": {"type": "LineString", "coordinates": [[2.2505212, 48.8638834], [2.2501567, 48.8637364], [2.2498587, 48.8635286]]}}, {"type": "Feature", "properties": {"highway": "path", "footway": null, "name": null, "surface": null, "lit": null, "length_m": 106.68, "type_element": "Way", "__fid": 3151}, "geometry": {"type": "LineString", "coordinates": [[2.2498587, 48.8635286], [2.2509634, 48.86342540000001], [2.2513008, 48.86340770000002]]}}, {"type": "Feature", "properties": {"highway": "track", "footway": null, "name": "Allée Saint-Denis", "surface": "compacted", "lit": "no", "length_m": 123.34, "type_element": "Way", "__fid": 3158}, "geometry": {"type": "LineString", "coordinates": [[2.2510964, 48.86177889999998], [2.2499823, 48.8609482]]}}, {"type": "Feature", "properties": {"highway": "path", "footway": null, "name": null, "surface": null, "lit": null, "length_m": 283.62, "type_element": "Way", "__fid": 3159}, "geometry": {"type": "LineString", "coordinates": [[2.2520302, 48.8588978], [2.2519334, 48.85893809999999], [2.2518489, 48.8589937], [2.2517713, 48.8590643], [2.2517028, 48.8592251], [2.2516048, 48.8596699], [2.2515354, 48.8598198], [2.2513572, 48.85999769999999], [2.2510375, 48.8602831], [2.2507292, 48.8605412], [2.2499823, 48.8609482]]}}, {"type": "Feature", "properties": {"highway": "path", "footway": null, "name": null, "surface": "grass", "lit": "no", "length_m": 172.28, "type_element": "Way", "__fid": 3161}, "geometry": {"type": "LineString", "coordinates": [[2.250058, 48.8632413], [2.2505667, 48.8632594], [2.2509393, 48.86326479999999], [2.2517747, 48.8631935], [2.2522008, 48.8631123], [2.252381, 48.863114]]}}, {"type": "Feature", "properties": {"highway": "track", "footway": null, "name": "Route du Point du Jour à Bagatelle", "surface": "asphalt", "lit": "no", "length_m": 30.56, "type_element": "Way", "__fid": 3162}, "geometry": {"type": "LineString", "coordinates": [[2.2502655, 48.863003], [2.250058, 48.8632413]]}}, {"type": "Feature", "properties": {"highway": "service", "footway": null, "name": null, "surface": "asphalt", "lit": "yes", "length_m": 112.45, "type_element": "Way", "__fid": 3177}, "geometry": {"type": "LineString", "coordinates": [[2.2502433, 48.8641669], [2.2502111, 48.8642481], [2.2502312, 48.8644078], [2.2503398, 48.8646248], [2.2504976, 48.86483219999998], [2.2506504, 48.86492830000002], [2.2508838, 48.8649936]]}}, {"type": "Feature", "properties": {"highway": "service", "footway": null, "name": null, "surface": "asphalt", "lit": "yes", "length_m": 37.54, "type_element": "Way", "__fid": 3178}, "geometry": {"type": "LineString", "coordinates": [[2.2505212, 48.8638834], [2.2502433, 48.8641669]]}}, {"type": "Feature", "properties": {"highway": "track", "footway": null, "name": "Route du Point du Jour à Bagatelle", "surface": "asphalt", "lit": "no", "length_m": 150.76, "type_element": "Way", "__fid": 3179}, "geometry": {"type": "LineString", "coordinates": [[2.2510964, 48.86177889999998], [2.2510245, 48.86191930000001], [2.2509904, 48.862034600000015], [2.2508892, 48.8622538], [2.2507882, 48.8623595], [2.2506494, 48.8624696], [2.2504939, 48.86262889999998], [2.2502655, 48.863003]]}}, {"type": "Feature", "properties": {"highway": "path", "footway": null, "name": null, "surface": null, "lit": "no", "length_m": 161.86, "type_element": "Way", "__fid": 3180}, "geometry": {"type": "LineString", "coordinates": [[2.2524393, 48.86290659999999], [2.2521812, 48.8629181], [2.2519835, 48.86290380000001], [2.2518562, 48.8628806], [2.2516328, 48.86287950000001], [2.2514351, 48.8628636], [2.2512442, 48.8628717], [2.250949, 48.86290910000001], [2.250448, 48.863], [2.2502655, 48.863003]]}}, {"type": "Feature", "properties": {"highway": "service", "footway": null, "name": null, "surface": "asphalt", "lit": "yes", "length_m": 90.89, "type_element": "Way", "__fid": 3193}, "geometry": {"type": "LineString", "coordinates": [[2.2505212, 48.8638834], [2.2508133, 48.8635855], [2.2509027, 48.8635392], [2.2510194, 48.8635145], [2.2511171, 48.8635057], [2.2513252, 48.863510699999985], [2.2513008, 48.86340770000002]]}}, {"type": "Feature", "properties": {"highway": "service", "footway": null, "name": null, "surface": "asphalt", "lit": "yes", "length_m": 38.52, "type_element": "Way", "__fid": 3206}, "geometry": {"type": "LineString", "coordinates": [[2.2508838, 48.8649936], [2.2507028, 48.8651144], [2.2506166, 48.8651917], [2.2505734, 48.8652671]]}}, {"type": "Feature", "properties": {"highway": "service", "footway": null, "name": null, "surface": "asphalt", "lit": null, "length_m": 22.22, "type_element": "Way", "__fid": 3230}, "geometry": {"type": "LineString", "coordinates": [[2.2508838, 48.8649936], [2.2511864, 48.86498430000001]]}}, {"type": "Feature", "properties": {"highway": "track", "footway": null, "name": "Allée Saint-Denis", "surface": "compacted", "lit": "no", "length_m": 155.42, "type_element": "Way", "__fid": 3246}, "geometry": {"type": "LineString", "coordinates": [[2.252486, 48.8628316], [2.2522257, 48.862629100000014], [2.2516067, 48.862120400000016], [2.2513474, 48.861934799999986], [2.2510964, 48.86177889999998]]}}, {"type": "Feature", "properties": {"highway": "track", "footway": null, "name": "Route du Point du Jour à Bagatelle", "surface": "asphalt", "lit": "no", "length_m": 105.84, "type_element": "Way", "__fid": 3247}, "geometry": {"type": "LineString", "coordinates": [[2.2520529, 48.8610819], [2.2520139, 48.8611559], [2.2519381, 48.8612375], [2.2518701, 48.8612939], [2.2515354, 48.8614746], [2.2512207, 48.8616826], [2.2510964, 48.86177889999998]]}}, {"type": "Feature", "properties": {"highway": "footway", "footway": null, "name": null, "surface": "asphalt", "lit": "no", "length_m": 24.84, "type_element": "Way", "__fid": 3267}, "geometry": {"type": "LineString", "coordinates": [[2.2513869, 48.86515060000002], [2.2513226, 48.8651343], [2.2512817, 48.865114], [2.2511864, 48.86498430000001]]}}, {"type": "Feature", "properties": {"highway": "service", "footway": null, "name": null, "surface": "asphalt", "lit": null, "length_m": 45.34, "type_element": "Way", "__fid": 3268}, "geometry": {"type": "LineString", "coordinates": [[2.2511864, 48.86498430000001], [2.2516858, 48.8649716], [2.251804, 48.8649742]]}}, {"type": "Feature", "properties": {"highway": "footway", "footway": null, "name": null, "surface": null, "lit": null, "length_m": 10.56, "type_element": "Way", "__fid": 3286}, "geometry": {"type": "LineString", "coordinates": [[2.2513008, 48.86340770000002], [2.2512723, 48.8633146]]}}, {"type": "Feature", "properties": {"highway": "path", "footway": null, "name": null, "surface": null, "lit": null, "length_m": 139.84, "type_element": "Way", "__fid": 3291}, "geometry": {"type": "LineString", "coordinates": [[2.2513008, 48.86340770000002], [2.2523038, 48.863357399999984], [2.2532037, 48.8633425]]}}, {"type": "Feature", "properties": {"highway": "footway", "footway": null, "name": null, "surface": null, "lit": null, "length_m": 96.02, "type_element": "Way", "__fid": 3315}, "geometry": {"type": "LineString", "coordinates": [[2.2514352, 48.86359620000001], [2.2515082, 48.86363190000002], [2.2518837, 48.8637766], [2.2519964, 48.8637977], [2.252518, 48.8638688], [2.252651, 48.8638632]]}}, {"type": "Feature", "properties": {"highway": "footway", "footway": null, "name": null, "surface": null, "lit": null, "length_m": 73.34, "type_element": "Way", "__fid": 3316}, "geometry": {"type": "LineString", "coordinates": [[2.2516223, 48.86419810000001], [2.2515755, 48.8641024], [2.2514219, 48.8639442], [2.2513635, 48.863826], [2.2513779, 48.86363030000001], [2.2514352, 48.86359620000001]]}}, {"type": "Feature", "properties": {"highway": "footway", "footway": null, "name": null, "surface": null, "lit": null, "length_m": 117.19, "type_element": "Way", "__fid": 3317}, "geometry": {"type": "LineString", "coordinates": [[2.2514352, 48.86359620000001], [2.2514935, 48.8635568], [2.2515356, 48.8635027], [2.2521624, 48.8634868], [2.2526902, 48.8634917], [2.2529561, 48.8635048]]}}, {"type": "Feature", "properties": {"highway": "footway", "footway": null, "name": null, "surface": null, "lit": null, "length_m": 39.87, "type_element": "Way", "__fid": 3346}, "geometry": {"type": "LineString", "coordinates": [[2.2517534, 48.8645387], [2.2516423, 48.8643941], [2.2516223, 48.86419810000001]]}}, {"type": "Feature", "properties": {"highway": "footway", "footway": null, "name": null, "surface": null, "lit": null, "length_m": 25.4, "type_element": "Way", "__fid": 3347}, "geometry": {"type": "LineString", "coordinates": [[2.2516223, 48.86419810000001], [2.2516852, 48.8641753], [2.2518998, 48.8640624]]}}, {"type": "Feature", "properties": {"highway": "footway", "footway": null, "name": null, "surface": "compacted", "lit": null, "length_m": 18.24, "type_element": "Way", "__fid": 3367}, "geometry": {"type": "LineString", "coordinates": [[2.2517534, 48.8645387], [2.2519122, 48.86466490000002]]}}, {"type": "Feature", "properties": {"highway": "footway", "footway": null, "name": null, "surface": null, "lit": null, "length_m": 50.05, "type_element": "Way", "__fid": 3368}, "geometry": {"type": "LineString", "coordinates": [[2.251804, 48.8649742], [2.2517443, 48.8648847], [2.2517048, 48.8647738], [2.2517199, 48.864619200000014], [2.2517534, 48.8645387]]}}, {"type": "Feature", "properties": {"highway": "service", "footway": null, "name": null, "surface": "asphalt", "lit": null, "length_m": 28.45, "type_element": "Way", "__fid": 3381}, "geometry": {"type": "LineString", "coordinates": [[2.251804, 48.8649742], [2.2521916, 48.8649813]]}}, {"type": "Feature", "properties": {"highway": "footway", "footway": null, "name": null, "surface": null, "lit": null, "length_m": 76.9, "type_element": "Way", "__fid": 3382}, "geometry": {"type": "LineString", "coordinates": [[2.252506, 48.865481], [2.2523773, 48.8653973], [2.2521939, 48.8652941], [2.2519374, 48.865114], [2.2518408, 48.86502930000002], [2.251804, 48.8649742]]}}, {"type": "Feature", "properties": {"highway": "footway", "footway": null, "name": null, "surface": "compacted", "lit": null, "length_m": 11.81, "type_element": "Way", "__fid": 3391}, "geometry": {"type": "LineString", "coordinates": [[2.2520607, 48.8640651], [2.2518998, 48.8640624]]}}, {"type": "Feature", "properties": {"highway": "footway", "footway": null, "name": null, "surface": null, "lit": null, "length_m": 59.41, "type_element": "Way", "__fid": 3392}, "geometry": {"type": "LineString", "coordinates": [[2.2518998, 48.8640624], [2.2523096, 48.8639468], [2.252651, 48.8638632]]}}, {"type": "Feature", "properties": {"highway": "footway", "footway": null, "name": null, "surface": "compacted", "lit": null, "length_m": 33.31, "type_element": "Way", "__fid": 3395}, "geometry": {"type": "LineString", "coordinates": [[2.2519122, 48.86466490000002], [2.2520559, 48.8647007], [2.2522397, 48.8647025], [2.2523545, 48.8646887]]}}, {"type": "Feature", "properties": {"highway": "footway", "footway": null, "name": null, "surface": "compacted", "lit": null, "length_m": 36.09, "type_element": "Way", "__fid": 3396}, "geometry": {"type": "LineString", "coordinates": [[2.2519122, 48.86466490000002], [2.252005, 48.8647413], [2.2522009, 48.8649275]]}}, {"type": "Feature", "properties": {"highway": "track", "footway": null, "name": "Route du Point du Jour à Bagatelle", "surface": "asphalt", "lit": "no", "length_m": 249.7, "type_element": "Way", "__fid": 3404}, "geometry": {"type": "LineString", "coordinates": [[2.2520302, 48.8588978], [2.2520497, 48.8591564], [2.2521122, 48.8592918], [2.2522937, 48.8594759], [2.2523233, 48.8595676], [2.2523183, 48.8596844], [2.2522876, 48.8598022], [2.252145, 48.8602195], [2.2520742, 48.8604848], [2.2520548, 48.8606625], [2.2520684, 48.860983], [2.2520529, 48.8610819]]}}, {"type": "Feature", "properties": {"highway": "footway", "footway": null, "name": null, "surface": "fine_gravel", "lit": null, "length_m": 35.15, "type_element": "Way", "__fid": 3412}, "geometry": {"type": "LineString", "coordinates": [[2.2522469, 48.8645092], [2.2521932, 48.8645317], [2.2521275, 48.8645441], [2.2520611, 48.864533500000014], [2.2520186, 48.86451120000001], [2.2519518, 48.8644364], [2.2519512, 48.8644066], [2.2519867, 48.8643855]]}}, {"type": "Feature", "properties": {"highway": "path", "footway": null, "name": null, "surface": null, "lit": "no", "length_m": 92.58, "type_element": "Way", "__fid": 3415}, "geometry": {"type": "LineString", "coordinates": [[2.2520529, 48.8610819], [2.2521933, 48.861093], [2.2523026, 48.8611294], [2.2525586, 48.8612897], [2.2527143, 48.8613681], [2.2528901, 48.8614404], [2.2529878, 48.8614659], [2.2531243, 48.861473400000015]]}}, {"type": "Feature", "properties": {"highway": "footway", "footway": null, "name": null, "surface": "compacted", "lit": null, "length_m": 39.6, "type_element": "Way", "__fid": 3425}, "geometry": {"type": "LineString", "coordinates": [[2.2525997, 48.8640841], [2.2520607, 48.8640651]]}}, {"type": "Feature", "properties": {"highway": "footway", "footway": null, "name": null, "surface": "compacted", "lit": "no", "length_m": 33.72, "type_element": "Way", "__fid": 3426}, "geometry": {"type": "LineString", "coordinates": [[2.2520607, 48.8640651], [2.2523135, 48.8641555], [2.2524293, 48.86423949999998]]}}, {"type": "Feature", "properties": {"highway": "footway", "footway": null, "name": null, "surface": "fine_gravel", "lit": null, "length_m": 37.27, "type_element": "Way", "__fid": 3435}, "geometry": {"type": "LineString", "coordinates": [[2.2522469, 48.8645092], [2.2522891, 48.8644845], [2.2523133, 48.8644382], [2.2522978, 48.8643559], [2.2522643, 48.8643156], [2.2522023, 48.8642864], [2.2521745, 48.8642869], [2.2521131, 48.8643186]]}}, {"type": "Feature", "properties": {"highway": "service", "footway": null, "name": null, "surface": "asphalt", "lit": null, "length_m": 56.68, "type_element": "Way", "__fid": 3446}, "geometry": {"type": "LineString", "coordinates": [[2.2525806, 48.8654124], [2.2524767, 48.86533270000001], [2.2522651, 48.8651246], [2.2521874, 48.8650054], [2.2521916, 48.8649813]]}}, {"type": "Feature", "properties": {"highway": "service", "footway": null, "name": null, "surface": "asphalt", "lit": null, "length_m": 6.02, "type_element": "Way", "__fid": 3447}, "geometry": {"type": "LineString", "coordinates": [[2.2521916, 48.8649813], [2.2522009, 48.8649275]]}}, {"type": "Feature", "properties": {"highway": "service", "footway": null, "name": null, "surface": "asphalt", "lit": null, "length_m": 16.66, "type_element": "Way", "__fid": 3450}, "geometry": {"type": "LineString", "coordinates": [[2.2522009, 48.8649275], [2.2522073, 48.8648909], [2.2522853, 48.86479030000002]]}}, {"type": "Feature", "properties": {"highway": "footway", "footway": null, "name": null, "surface": "fine_gravel", "lit": null, "length_m": 18.35, "type_element": "Way", "__fid": 3458}, "geometry": {"type": "LineString", "coordinates": [[2.2523884, 48.8646453], [2.2522469, 48.8645092]]}}, {"type": "Feature", "properties": {"highway": "footway", "footway": null, "name": null, "surface": "compacted", "lit": "no", "length_m": 29.21, "type_element": "Way", "__fid": 3464}, "geometry": {"type": "LineString", "coordinates": [[2.2522853, 48.86479030000002], [2.2523382, 48.8647973], [2.252424, 48.8649067], [2.2524806, 48.86500370000001]]}}, {"type": "Feature", "properties": {"highway": "service", "footway": null, "name": null, "surface": "asphalt", "lit": null, "length_m": 12.39, "type_element": "Way", "__fid": 3465}, "geometry": {"type": "LineString", "coordinates": [[2.2522853, 48.86479030000002], [2.2523545, 48.8646887]]}}, {"type": "Feature", "properties": {"highway": "service", "footway": null, "name": null, "surface": "asphalt", "lit": null, "length_m": 5.43, "type_element": "Way", "__fid": 3472}, "geometry": {"type": "LineString", "coordinates": [[2.2523545, 48.8646887], [2.2523884, 48.8646453]]}}, {"type": "Feature", "properties": {"highway": "path", "footway": null, "name": null, "surface": "grass", "lit": "no", "length_m": 41.34, "type_element": "Way", "__fid": 3473}, "geometry": {"type": "LineString", "coordinates": [[2.252381, 48.863114], [2.2529445, 48.8631191]]}}, {"type": "Feature", "properties": {"highway": "path", "footway": null, "name": null, "surface": null, "lit": null, "length_m": 23.46, "type_element": "Way", "__fid": 3474}, "geometry": {"type": "LineString", "coordinates": [[2.2524393, 48.86290659999999], [2.252381, 48.863114]]}}, {"type": "Feature", "properties": {"highway": "service", "footway": null, "name": null, "surface": "asphalt", "lit": null, "length_m": 19.35, "type_element": "Way", "__fid": 3475}, "geometry": {"type": "LineString", "coordinates": [[2.2523884, 48.8646453], [2.2525482, 48.86450679999999]]}}, {"type": "Feature", "properties": {"highway": "path", "footway": null, "name": null, "surface": "dirt", "lit": null, "length_m": 85.81, "type_element": "Way", "__fid": 3481}, "geometry": {"type": "LineString", "coordinates": [[2.252437, 48.862616], [2.2529445, 48.86261170000002], [2.2536047, 48.8625782]]}}, {"type": "Feature", "properties": {"highway": "path", "footway": null, "name": null, "surface": null, "lit": "no", "length_m": 9.02, "type_element": "Way", "__fid": 3483}, "geometry": {"type": "LineString", "coordinates": [[2.252486, 48.8628316], [2.2524393, 48.86290659999999]]}}, {"type": "Feature", "properties": {"highway": "footway", "footway": null, "name": null, "surface": "compacted", "lit": "no", "length_m": 31.77, "type_element": "Way", "__fid": 3484}, "geometry": {"type": "LineString", "coordinates": [[2.2524293, 48.86423949999998], [2.2524704, 48.86426930000001], [2.2525281, 48.8643646], [2.2525482, 48.86450679999999]]}}, {"type": "Feature", "properties": {"highway": "footway", "footway": null, "name": null, "surface": "compacted", "lit": "no", "length_m": 21.33, "type_element": "Way", "__fid": 3485}, "geometry": {"type": "LineString", "coordinates": [[2.2524293, 48.86423949999998], [2.2525997, 48.8640841]]}}, {"type": "Feature", "properties": {"highway": "track", "footway": null, "name": "Allée Saint-Denis", "surface": "compacted", "lit": "no", "length_m": 46.54, "type_element": "Way", "__fid": 3489}, "geometry": {"type": "LineString", "coordinates": [[2.2529445, 48.8631191], [2.2527442, 48.8630128], [2.2525876, 48.8629106], [2.252486, 48.8628316]]}}, {"type": "Feature", "properties": {"highway": "footway", "footway": null, "name": null, "surface": "compacted", "lit": "no", "length_m": 24.01, "type_element": "Way", "__fid": 3492}, "geometry": {"type": "LineString", "coordinates": [[2.2526412, 48.8651915], [2.2525596, 48.865107], [2.2524806, 48.86500370000001]]}}, {"type": "Feature", "properties": {"highway": "footway", "footway": null, "name": null, "surface": "compacted", "lit": "no", "length_m": 119.47, "type_element": "Way", "__fid": 3493}, "geometry": {"type": "LineString", "coordinates": [[2.2524806, 48.86500370000001], [2.2525522, 48.8647906], [2.2526294, 48.864715299999986], [2.2528118, 48.8646059], [2.2530532, 48.86454590000001], [2.2533005, 48.8645446], [2.2537032, 48.864588]]}}, {"type": "Feature", "properties": {"highway": "service", "footway": null, "name": null, "surface": "asphalt", "lit": null, "length_m": 53.93, "type_element": "Way", "__fid": 3501}, "geometry": {"type": "LineString", "coordinates": [[2.2525482, 48.86450679999999], [2.2527822, 48.8644031], [2.2532262, 48.864343]]}}, {"type": "Feature", "properties": {"highway": "footway", "footway": null, "name": null, "surface": null, "lit": null, "length_m": 55.58, "type_element": "Way", "__fid": 3519}, "geometry": {"type": "LineString", "coordinates": [[2.2525997, 48.8640841], [2.2527248, 48.8641015], [2.2528213, 48.8641255], [2.2529473, 48.864169], [2.2530542, 48.86422610000001], [2.2532262, 48.864343]]}}, {"type": "Feature", "properties": {"highway": "footway", "footway": null, "name": null, "surface": null, "lit": null, "length_m": 21.63, "type_element": "Way", "__fid": 3520}, "geometry": {"type": "LineString", "coordinates": [[2.2528087, 48.863947300000014], [2.2526913, 48.8640162], [2.2525997, 48.8640841]]}}, {"type": "Feature", "properties": {"highway": "footway", "footway": null, "name": null, "surface": null, "lit": null, "length_m": 15.55, "type_element": "Way", "__fid": 3534}, "geometry": {"type": "LineString", "coordinates": [[2.252651, 48.8638632], [2.2526943, 48.86391010000001], [2.2527491, 48.8639344], [2.2528087, 48.863947300000014]]}}, {"type": "Feature", "properties": {"highway": "footway", "footway": null, "name": null, "surface": null, "lit": null, "length_m": 45.98, "type_element": "Way", "__fid": 3535}, "geometry": {"type": "LineString", "coordinates": [[2.252651, 48.8638632], [2.2527398, 48.8637886], [2.2528416, 48.863679200000014], [2.2529083, 48.86358949999999], [2.2529561, 48.8635048]]}}, {"type": "Feature", "properties": {"highway": "footway", "footway": null, "name": null, "surface": null, "lit": null, "length_m": 33.42, "type_element": "Way", "__fid": 3564}, "geometry": {"type": "LineString", "coordinates": [[2.2528087, 48.863947300000014], [2.2530049, 48.86387180000001], [2.2532143, 48.8638116]]}}, {"type": "Feature", "properties": {"highway": "service", "footway": null, "name": null, "surface": "asphalt", "lit": "no", "length_m": 115.12, "type_element": "Way", "__fid": 3574}, "geometry": {"type": "LineString", "coordinates": [[2.2529823, 48.858773099999986], [2.2533266, 48.859074], [2.2533546, 48.859137], [2.2534921, 48.8596346], [2.253541, 48.8597152]]}}, {"type": "Feature", "properties": {"highway": "track", "footway": null, "name": "Allée Saint-Denis", "surface": "compacted", "lit": "no", "length_m": 14.79, "type_element": "Way", "__fid": 3577}, "geometry": {"type": "LineString", "coordinates": [[2.2530727, 48.8632218], [2.2529445, 48.8631191]]}}, {"type": "Feature", "properties": {"highway": "path", "footway": null, "name": null, "surface": "grass", "lit": "no", "length_m": 32.91, "type_element": "Way", "__fid": 3578}, "geometry": {"type": "LineString", "coordinates": [[2.2529445, 48.8631191], [2.253107, 48.8631071], [2.2533921, 48.8631043]]}}, {"type": "Feature", "properties": {"highway": "footway", "footway": null, "name": null, "surface": null, "lit": null, "length_m": 18.44, "type_element": "Way", "__fid": 3579}, "geometry": {"type": "LineString", "coordinates": [[2.2529561, 48.8635048], [2.2532074, 48.863504]]}}, {"type": "Feature", "properties": {"highway": "path", "footway": null, "name": null, "surface": null, "lit": "no", "length_m": 87.92, "type_element": "Way", "__fid": 3592}, "geometry": {"type": "LineString", "coordinates": [[2.2531243, 48.861473400000015], [2.2532532, 48.861516], [2.2535105, 48.8616264], [2.2537325, 48.861769], [2.2538138, 48.8618474], [2.2540037, 48.861995]]}}, {"type": "Feature", "properties": {"highway": "path", "footway": null, "name": null, "surface": null, "lit": null, "length_m": 109.01, "type_element": "Way", "__fid": 3593}, "geometry": {"type": "LineString", "coordinates": [[2.2531243, 48.861473400000015], [2.2532749, 48.861459], [2.2534265, 48.86146969999998], [2.2539556, 48.861405], [2.2545738, 48.861288299999984]]}}, {"type": "Feature", "properties": {"highway": "service", "footway": null, "name": null, "surface": null, "lit": null, "length_m": 13.1, "type_element": "Way", "__fid": 3598}, "geometry": {"type": "LineString", "coordinates": [[2.2532037, 48.8633425], [2.2532011, 48.8632247]]}}, {"type": "Feature", "properties": {"highway": "service", "footway": null, "name": null, "surface": null, "lit": null, "length_m": 17.96, "type_element": "Way", "__fid": 3599}, "geometry": {"type": "LineString", "coordinates": [[2.2532074, 48.863504], [2.2532037, 48.8633425]]}}, {"type": "Feature", "properties": {"highway": "path", "footway": null, "name": null, "surface": null, "lit": null, "length_m": 10.29, "type_element": "Way", "__fid": 3600}, "geometry": {"type": "LineString", "coordinates": [[2.2532037, 48.8633425], [2.2533438, 48.863339]]}}, {"type": "Feature", "properties": {"highway": "service", "footway": null, "name": null, "surface": null, "lit": null, "length_m": 34.21, "type_element": "Way", "__fid": 3603}, "geometry": {"type": "LineString", "coordinates": [[2.2532143, 48.8638116], [2.2532074, 48.863504]]}}, {"type": "Feature", "properties": {"highway": "service", "footway": null, "name": null, "surface": null, "lit": null, "length_m": 142.88, "type_element": "Way", "__fid": 3604}, "geometry": {"type": "LineString", "coordinates": [[2.2532074, 48.863504], [2.2533794, 48.8634901], [2.2534617, 48.8635305], [2.2536222, 48.8637094], [2.2537859, 48.8638158], [2.2540434, 48.86393669999999], [2.254258, 48.8640479], [2.2544082, 48.8641564], [2.2545638, 48.8643372]]}}, {"type": "Feature", "properties": {"highway": "service", "footway": null, "name": null, "surface": null, "lit": null, "length_m": 59.1, "type_element": "Way", "__fid": 3607}, "geometry": {"type": "LineString", "coordinates": [[2.2532262, 48.864343], [2.2532143, 48.8638116]]}}, {"type": "Feature", "properties": {"highway": "service", "footway": null, "name": null, "surface": "asphalt", "lit": null, "length_m": 31.19, "type_element": "Way", "__fid": 3608}, "geometry": {"type": "LineString", "coordinates": [[2.2532262, 48.864343], [2.2536377, 48.864413599999985]]}}, {"type": "Feature", "properties": {"highway": "footway", "footway": null, "name": null, "surface": "compacted", "lit": "no", "length_m": 27.86, "type_element": "Way", "__fid": 3609}, "geometry": {"type": "LineString", "coordinates": [[2.2532262, 48.864343], [2.2535175, 48.86418230000001]]}}, {"type": "Feature", "properties": {"highway": "path", "footway": null, "name": null, "surface": null, "lit": null, "length_m": 106.54, "type_element": "Way", "__fid": 3618}, "geometry": {"type": "LineString", "coordinates": [[2.2533438, 48.863339], [2.2533714, 48.863361], [2.2536879, 48.8635246], [2.2541345, 48.8637721], [2.2543383, 48.86390309999999], [2.2544294, 48.86397239999999]]}}, {"type": "Feature", "properties": {"highway": "path", "footway": null, "name": null, "surface": null, "lit": null, "length_m": 158.12, "type_element": "Way", "__fid": 3619}, "geometry": {"type": "LineString", "coordinates": [[2.2533438, 48.863339], [2.2535011, 48.8633331], [2.2538583, 48.863335100000015], [2.2544014, 48.86330310000002], [2.2544862, 48.8633148], [2.254607, 48.8635438], [2.2546609, 48.863588600000014], [2.2550082, 48.8637937], [2.2550126, 48.86385189999998]]}}, {"type": "Feature", "properties": {"highway": "path", "footway": null, "name": null, "surface": "compacted", "lit": null, "length_m": 60.54, "type_element": "Way", "__fid": 3627}, "geometry": {"type": "LineString", "coordinates": [[2.2536047, 48.8625782], [2.2533921, 48.8631043]]}}, {"type": "Feature", "properties": {"highway": "path", "footway": null, "name": null, "surface": "grass", "lit": "no", "length_m": 51.64, "type_element": "Way", "__fid": 3628}, "geometry": {"type": "LineString", "coordinates": [[2.2533921, 48.8631043], [2.2538119, 48.8630821], [2.2540946, 48.8630797]]}}, {"type": "Feature", "properties": {"highway": "footway", "footway": null, "name": null, "surface": null, "lit": null, "length_m": 65.58, "type_element": "Way", "__fid": 3633}, "geometry": {"type": "LineString", "coordinates": [[2.25339, 48.86532730000001], [2.2537709, 48.8650562], [2.2538468, 48.864989], [2.2539503, 48.864871]]}}, {"type": "Feature", "properties": {"highway": "service", "footway": null, "name": null, "surface": null, "lit": null, "length_m": 176.46, "type_element": "Way", "__fid": 3642}, "geometry": {"type": "LineString", "coordinates": [[2.253541, 48.8597152], [2.2528211, 48.86007039999998], [2.2528105, 48.86008], [2.2528142, 48.86009009999999], [2.2529968, 48.8602654], [2.2531993, 48.8603015], [2.2535507, 48.8605521], [2.2537049, 48.86054950000001], [2.2538972, 48.8604257]]}}, {"type": "Feature", "properties": {"highway": "service", "footway": null, "name": null, "surface": null, "lit": null, "length_m": 43.46, "type_element": "Way", "__fid": 3643}, "geometry": {"type": "LineString", "coordinates": [[2.2540038, 48.85947119999999], [2.253541, 48.8597152]]}}, {"type": "Feature", "properties": {"highway": "footway", "footway": null, "name": null, "surface": "sett", "lit": "no", "length_m": 61.84, "type_element": "Way", "__fid": 3648}, "geometry": {"type": "LineString", "coordinates": [[2.2539927, 48.864286100000015], [2.2540061, 48.8642602], [2.2539988, 48.8642379], [2.2537784, 48.8640951], [2.2536607, 48.8640486], [2.2536064, 48.8640442], [2.2535509, 48.86405770000001], [2.2535143, 48.864086], [2.2535004, 48.86412360000002], [2.2535042, 48.8641618], [2.2535175, 48.86418230000001]]}}, {"type": "Feature", "properties": {"highway": "path", "footway": null, "name": null, "surface": "dirt", "lit": null, "length_m": 92.39, "type_element": "Way", "__fid": 3655}, "geometry": {"type": "LineString", "coordinates": [[2.2536047, 48.8625782], [2.2536355, 48.8626081], [2.2536896, 48.8626081], [2.2537682, 48.8625706], [2.2539361, 48.8625083], [2.2540661, 48.86249760000001], [2.2542583, 48.862513600000014], [2.2543504, 48.8625493], [2.2544723, 48.8625778], [2.2546645, 48.86272970000001]]}}, {"type": "Feature", "properties": {"highway": "path", "footway": null, "name": null, "surface": "compacted", "lit": null, "length_m": 71.28, "type_element": "Way", "__fid": 3656}, "geometry": {"type": "LineString", "coordinates": [[2.2540037, 48.861995], [2.2538776, 48.8621475], [2.2537759, 48.862291], [2.2536346, 48.8625121], [2.2536047, 48.8625782]]}}, {"type": "Feature", "properties": {"highway": "service", "footway": null, "name": null, "surface": "asphalt", "lit": null, "length_m": 44.53, "type_element": "Way", "__fid": 3662}, "geometry": {"type": "LineString", "coordinates": [[2.2536377, 48.864413599999985], [2.2540019, 48.864535], [2.2541443, 48.86462660000002]]}}, {"type": "Feature", "properties": {"highway": "footway", "footway": null, "name": null, "surface": "compacted", "lit": "no", "length_m": 20.34, "type_element": "Way", "__fid": 3663}, "geometry": {"type": "LineString", "coordinates": [[2.2537032, 48.864588], [2.2537087, 48.8645703], [2.2536403, 48.8644483], [2.2536377, 48.864413599999985]]}}, {"type": "Feature", "properties": {"highway": "footway", "footway": null, "name": null, "surface": "fine_gravel", "lit": "no", "length_m": 36.54, "type_element": "Way", "__fid": 3666}, "geometry": {"type": "LineString", "coordinates": [[2.2537032, 48.864588], [2.2537695, 48.8646396], [2.253862, 48.864738500000016], [2.2539503, 48.864871]]}}, {"type": "Feature", "properties": {"highway": "service", "footway": null, "name": null, "surface": null, "lit": null, "length_m": 30.56, "type_element": "Way", "__fid": 3669}, "geometry": {"type": "LineString", "coordinates": [[2.254008, 48.8601899], [2.2538582, 48.8600334], [2.2537959, 48.8599536]]}}, {"type": "Feature", "properties": {"highway": "service", "footway": null, "name": null, "surface": null, "lit": null, "length_m": 87.79, "type_element": "Way", "__fid": 3670}, "geometry": {"type": "LineString", "coordinates": [[2.2537959, 48.8599536], [2.2537362, 48.8599002], [2.2537181, 48.859898], [2.2534549, 48.8600243], [2.2538972, 48.8604257]]}}, {"type": "Feature", "properties": {"highway": "service", "footway": null, "name": null, "surface": null, "lit": null, "length_m": 26.36, "type_element": "Way", "__fid": 3671}, "geometry": {"type": "LineString", "coordinates": [[2.2537959, 48.8599536], [2.2540858, 48.85981360000002]]}}, {"type": "Feature", "properties": {"highway": "service", "footway": null, "name": null, "surface": null, "lit": null, "length_m": 28.44, "type_element": "Way", "__fid": 3673}, "geometry": {"type": "LineString", "coordinates": [[2.2538972, 48.8604257], [2.2539597, 48.8603854], [2.254008, 48.8601899]]}}, {"type": "Feature", "properties": {"highway": "service", "footway": null, "name": null, "surface": null, "lit": null, "length_m": 39.49, "type_element": "Way", "__fid": 3677}, "geometry": {"type": "LineString", "coordinates": [[2.2540858, 48.85981360000002], [2.2540778, 48.8595586], [2.2540038, 48.85947119999999]]}}, {"type": "Feature", "properties": {"highway": "service", "footway": null, "name": null, "surface": null, "lit": null, "length_m": 17.01, "type_element": "Way", "__fid": 3678}, "geometry": {"type": "LineString", "coordinates": [[2.2540038, 48.85947119999999], [2.2541841, 48.8593751]]}}, {"type": "Feature", "properties": {"highway": "service", "footway": null, "name": null, "surface": null, "lit": null, "length_m": 42.41, "type_element": "Way", "__fid": 3681}, "geometry": {"type": "LineString", "coordinates": [[2.254008, 48.8601899], [2.2540496, 48.8601004], [2.2540858, 48.85981360000002]]}}, {"type": "Feature", "properties": {"highway": "footway", "footway": null, "name": null, "surface": "fine_gravel", "lit": "no", "length_m": 54.72, "type_element": "Way", "__fid": 3683}, "geometry": {"type": "LineString", "coordinates": [[2.2539503, 48.864871], [2.2540661, 48.8650979], [2.254191, 48.8652539], [2.2542816, 48.8653012]]}}, {"type": "Feature", "properties": {"highway": "path", "footway": null, "name": null, "surface": "compacted", "lit": null, "length_m": 6.75, "type_element": "Way", "__fid": 3687}, "geometry": {"type": "LineString", "coordinates": [[2.2540385, 48.86193880000001], [2.2540037, 48.861995]]}}, {"type": "Feature", "properties": {"highway": "footway", "footway": null, "name": null, "surface": "compacted", "lit": "no", "length_m": 45.71, "type_element": "Way", "__fid": 3689}, "geometry": {"type": "LineString", "coordinates": [[2.2539927, 48.864286100000015], [2.2541316, 48.8643608], [2.2541197, 48.8644062], [2.2542049, 48.8644695], [2.2541443, 48.86462660000002]]}}, {"type": "Feature", "properties": {"highway": "path", "footway": null, "name": null, "surface": "compacted", "lit": null, "length_m": 82.45, "type_element": "Way", "__fid": 3690}, "geometry": {"type": "LineString", "coordinates": [[2.2545738, 48.861288299999984], [2.2542304, 48.8616609], [2.2540385, 48.86193880000001]]}}, {"type": "Feature", "properties": {"highway": "path", "footway": null, "name": null, "surface": null, "lit": null, "length_m": 85.44, "type_element": "Way", "__fid": 3691}, "geometry": {"type": "LineString", "coordinates": [[2.2551183, 48.8616533], [2.2544848, 48.86183960000001], [2.2540385, 48.86193880000001]]}}, {"type": "Feature", "properties": {"highway": "path", "footway": null, "name": null, "surface": "grass", "lit": "no", "length_m": 57.12, "type_element": "Way", "__fid": 3695}, "geometry": {"type": "LineString", "coordinates": [[2.2540946, 48.8630797], [2.2546645, 48.86272970000001]]}}, {"type": "Feature", "properties": {"highway": "path", "footway": null, "name": null, "surface": "grass", "lit": "no", "length_m": 76.48, "type_element": "Way", "__fid": 3696}, "geometry": {"type": "LineString", "coordinates": [[2.2540946, 48.8630797], [2.2544847, 48.8630554], [2.2548484, 48.8630669], [2.2551336, 48.8630489]]}}, {"type": "Feature", "properties": {"highway": "service", "footway": null, "name": null, "surface": null, "lit": null, "length_m": 10.19, "type_element": "Way", "__fid": 3710}, "geometry": {"type": "LineString", "coordinates": [[2.2542506, 48.8594556], [2.2541841, 48.8593751]]}}, {"type": "Feature", "properties": {"highway": "service", "footway": null, "name": null, "surface": null, "lit": null, "length_m": 18.95, "type_element": "Way", "__fid": 3711}, "geometry": {"type": "LineString", "coordinates": [[2.2541841, 48.8593751], [2.2543943, 48.8592761]]}}, {"type": "Feature", "properties": {"highway": "service", "footway": null, "name": null, "surface": "asphalt", "lit": null, "length_m": 8.4, "type_element": "Way", "__fid": 3712}, "geometry": {"type": "LineString", "coordinates": [[2.2541443, 48.86462660000002], [2.2542263, 48.8646793]]}}, {"type": "Feature", "properties": {"highway": "service", "footway": null, "name": null, "surface": null, "lit": null, "length_m": 9.37, "type_element": "Way", "__fid": 3715}, "geometry": {"type": "LineString", "coordinates": [[2.2543781, 48.8594501], [2.2542506, 48.8594556]]}}, {"type": "Feature", "properties": {"highway": "footway", "footway": null, "name": null, "surface": null, "lit": null, "length_m": 41.36, "type_element": "Way", "__fid": 3724}, "geometry": {"type": "LineString", "coordinates": [[2.2545423, 48.8644652], [2.2545066, 48.86459390000002], [2.2544356, 48.86467150000002], [2.2543658, 48.864701500000024], [2.254276, 48.8646936], [2.2542263, 48.8646793]]}}, {"type": "Feature", "properties": {"highway": "service", "footway": null, "name": null, "surface": "asphalt", "lit": null, "length_m": 31.9, "type_element": "Way", "__fid": 3725}, "geometry": {"type": "LineString", "coordinates": [[2.2542263, 48.8646793], [2.2543395, 48.86483960000001], [2.2543595, 48.8649488]]}}, {"type": "Feature", "properties": {"highway": "service", "footway": null, "name": null, "surface": null, "lit": null, "length_m": 7.32, "type_element": "Way", "__fid": 3739}, "geometry": {"type": "LineString", "coordinates": [[2.2544777, 48.8594461], [2.2543781, 48.8594501]]}}, {"type": "Feature", "properties": {"highway": "service", "footway": null, "name": null, "surface": null, "lit": null, "length_m": 12.92, "type_element": "Way", "__fid": 3740}, "geometry": {"type": "LineString", "coordinates": [[2.2544631, 48.8593831], [2.2543943, 48.8592761]]}}, {"type": "Feature", "properties": {"highway": "service", "footway": null, "name": null, "surface": null, "lit": null, "length_m": 20.68, "type_element": "Way", "__fid": 3741}, "geometry": {"type": "LineString", "coordinates": [[2.2543943, 48.8592761], [2.2544087, 48.8592265], [2.2544746, 48.8590982]]}}, {"type": "Feature", "properties": {"highway": "service", "footway": null, "name": null, "surface": "asphalt", "lit": null, "length_m": 11.76, "type_element": "Way", "__fid": 3743}, "geometry": {"type": "LineString", "coordinates": [[2.2543366, 48.8650705], [2.2543128, 48.86517509999999]]}}, {"type": "Feature", "properties": {"highway": "footway", "footway": null, "name": null, "surface": "compacted", "lit": "no", "length_m": 33.94, "type_element": "Way", "__fid": 3747}, "geometry": {"type": "LineString", "coordinates": [[2.2547979, 48.865094], [2.2543366, 48.8650705]]}}, {"type": "Feature", "properties": {"highway": "service", "footway": null, "name": null, "surface": "asphalt", "lit": null, "length_m": 13.64, "type_element": "Way", "__fid": 3748}, "geometry": {"type": "LineString", "coordinates": [[2.2543595, 48.8649488], [2.2543366, 48.8650705]]}}, {"type": "Feature", "properties": {"highway": "footway", "footway": null, "name": null, "surface": null, "lit": null, "length_m": 15.91, "type_element": "Way", "__fid": 3755}, "geometry": {"type": "LineString", "coordinates": [[2.2545759, 48.8649398], [2.2543595, 48.8649488]]}}, {"type": "Feature", "properties": {"highway": "service", "footway": null, "name": null, "surface": null, "lit": null, "length_m": 97.67, "type_element": "Way", "__fid": 3756}, "geometry": {"type": "LineString", "coordinates": [[2.2548935, 48.860195900000015], [2.2547771, 48.85972369999998], [2.2546877, 48.8595972], [2.2544631, 48.8593831]]}}, {"type": "Feature", "properties": {"highway": "service", "footway": null, "name": null, "surface": null, "lit": null, "length_m": 7.09, "type_element": "Way", "__fid": 3757}, "geometry": {"type": "LineString", "coordinates": [[2.2544631, 48.8593831], [2.2544777, 48.8594461]]}}, {"type": "Feature", "properties": {"highway": "service", "footway": null, "name": null, "surface": null, "lit": null, "length_m": 81.33, "type_element": "Way", "__fid": 3764}, "geometry": {"type": "LineString", "coordinates": [[2.2544777, 48.8594461], [2.254528, 48.8596726], [2.2545455, 48.8598989], [2.2545198, 48.86017430000001]]}}, {"type": "Feature", "properties": {"highway": "path", "footway": null, "name": null, "surface": null, "lit": null, "length_m": 41.83, "type_element": "Way", "__fid": 3765}, "geometry": {"type": "LineString", "coordinates": [[2.2544294, 48.86397239999999], [2.2546709, 48.8640094], [2.2547158, 48.8640059], [2.2549098, 48.864136400000014]]}}, {"type": "Feature", "properties": {"highway": "path", "footway": null, "name": null, "surface": null, "lit": null, "length_m": 54.78, "type_element": "Way", "__fid": 3766}, "geometry": {"type": "LineString", "coordinates": [[2.2544294, 48.86397239999999], [2.2545053, 48.8640301], [2.2547957, 48.8643208], [2.2548416, 48.86438179999998]]}}, {"type": "Feature", "properties": {"highway": "path", "footway": null, "name": null, "surface": "compacted", "lit": "no", "length_m": 179.0, "type_element": "Way", "__fid": 3783}, "geometry": {"type": "LineString", "coordinates": [[2.2558638, 48.860454899999986], [2.2555549, 48.8602011], [2.2551476, 48.85977089999999], [2.2545694, 48.859094]]}}, {"type": "Feature", "properties": {"highway": "path", "footway": null, "name": null, "surface": "compacted", "lit": null, "length_m": 56.91, "type_element": "Way", "__fid": 3786}, "geometry": {"type": "LineString", "coordinates": [[2.2551734, 48.86104739999998], [2.2548055, 48.861068], [2.2545738, 48.861288299999984]]}}, {"type": "Feature", "properties": {"highway": "footway", "footway": null, "name": null, "surface": null, "lit": null, "length_m": 53.36, "type_element": "Way", "__fid": 3790}, "geometry": {"type": "LineString", "coordinates": [[2.2545423, 48.8644652], [2.2546013, 48.8646204], [2.2545759, 48.8649398]]}}, {"type": "Feature", "properties": {"highway": "footway", "footway": null, "name": null, "surface": null, "lit": null, "length_m": 14.32, "type_element": "Way", "__fid": 3791}, "geometry": {"type": "LineString", "coordinates": [[2.2545638, 48.8643372], [2.2545423, 48.8644652]]}}, {"type": "Feature", "properties": {"highway": "service", "footway": null, "name": null, "surface": null, "lit": null, "length_m": 95.18, "type_element": "Way", "__fid": 3795}, "geometry": {"type": "LineString", "coordinates": [[2.2545638, 48.8643372], [2.2546349, 48.864451], [2.2547616, 48.8647246], [2.2550045, 48.86514170000002]]}}, {"type": "Feature", "properties": {"highway": "footway", "footway": null, "name": null, "surface": "compacted", "lit": "no", "length_m": 26.4, "type_element": "Way", "__fid": 3798}, "geometry": {"type": "LineString", "coordinates": [[2.2545759, 48.8649398], [2.2546886, 48.86495], [2.2547458, 48.8650026], [2.2547979, 48.865094]]}}, {"type": "Feature", "properties": {"highway": "path", "footway": null, "name": null, "surface": "grass", "lit": "no", "length_m": 51.02, "type_element": "Way", "__fid": 3814}, "geometry": {"type": "LineString", "coordinates": [[2.2546645, 48.86272970000001], [2.2549556, 48.86257280000002], [2.2551346, 48.8624877], [2.2552293, 48.8624688]]}}]}