{"type": "FeatureCollection", "features": [{"type": "Feature", "properties": {"@id": "node/4414970461", "amenity": "drinking_water", "artist_name": "Charles-Auguste Lebourg", "description": "Fontaine Wallace", "fountain": "wallace", "wikimedia_commons": "File:Paris-FR-75-parc & serres d'Auteuil-25.jpg", "type_element": "Fontaines à boire", "__fid": 492}, "geometry": {"type": "Point", "coordinates": [2.2530125, 48.8471769]}, "id": "node/4414970461"}, {"type": "Feature", "properties": {"highway": "footway", "footway": "sidewalk", "name": null, "surface": null, "lit": null, "length_m": 92.16, "type_element": "Way", "__fid": 2753}, "geometry": {"type": "LineString", "coordinates": [[2.2467229, 48.8466275], [2.2455484, 48.8469209]]}}, {"type": "Feature", "properties": {"highway": "footway", "footway": null, "name": null, "surface": "paving_stones", "lit": null, "length_m": 91.51, "type_element": "Way", "__fid": 2756}, "geometry": {"type": "LineString", "coordinates": [[2.2455664, 48.8470431], [2.2460107, 48.84781209999998]]}}, {"type": "Feature", "properties": {"highway": "pedestrian", "footway": null, "name": "Allée Clubs des Loges", "surface": "paving_stones", "lit": null, "length_m": 9.85, "type_element": "Way", "__fid": 2866}, "geometry": {"type": "LineString", "coordinates": [[2.2466742, 48.846545], [2.2467229, 48.8466275]]}}, {"type": "Feature", "properties": {"highway": "pedestrian", "footway": null, "name": "Allée Clubs des Loges", "surface": "paving_stones", "lit": null, "length_m": 67.04, "type_element": "Way", "__fid": 2869}, "geometry": {"type": "LineString", "coordinates": [[2.2467229, 48.8466275], [2.2468442, 48.846720200000014], [2.2471158, 48.8471659]]}}, {"type": "Feature", "properties": {"highway": "footway", "footway": "sidewalk", "name": null, "surface": null, "lit": null, "length_m": 91.75, "type_element": "Way", "__fid": 2870}, "geometry": {"type": "LineString", "coordinates": [[2.2478876, 48.8463277], [2.2467229, 48.8466275]]}}, {"type": "Feature", "properties": {"highway": "footway", "footway": null, "name": null, "surface": null, "lit": null, "length_m": 3.63, "type_element": "Way", "__fid": 2897}, "geometry": {"type": "LineString", "coordinates": [[2.2470694, 48.8471773], [2.2471158, 48.8471659]]}}, {"type": "Feature", "properties": {"highway": "pedestrian", "footway": null, "name": "Allée Clubs des Loges", "surface": "paving_stones", "lit": null, "length_m": 84.86, "type_element": "Way", "__fid": 2903}, "geometry": {"type": "LineString", "coordinates": [[2.2471158, 48.8471659], [2.2473297, 48.84754619999998], [2.2473136, 48.8475868], [2.247484, 48.8478816]]}}, {"type": "Feature", "properties": {"highway": "pedestrian", "footway": null, "name": "Allée Marcel Bernard", "surface": "paving_stones", "lit": null, "length_m": 86.32, "type_element": "Way", "__fid": 2904}, "geometry": {"type": "LineString", "coordinates": [[2.2471158, 48.8471659], [2.2482081, 48.8468779]]}}, {"type": "Feature", "properties": {"highway": "pedestrian", "footway": null, "name": "Allée Suzanne Lenglen", "surface": "asphalt", "lit": null, "length_m": 9.38, "type_element": "Way", "__fid": 2960}, "geometry": {"type": "LineString", "coordinates": [[2.2478415, 48.846249], [2.2478876, 48.8463277]]}}, {"type": "Feature", "properties": {"highway": "pedestrian", "footway": null, "name": "Allée Suzanne Lenglen", "surface": "asphalt", "lit": null, "length_m": 65.54, "type_element": "Way", "__fid": 2965}, "geometry": {"type": "LineString", "coordinates": [[2.2478876, 48.8463277], [2.2482081, 48.8468779]]}}, {"type": "Feature", "properties": {"highway": "pedestrian", "footway": null, "name": "Allée Suzanne Lenglen", "surface": "asphalt", "lit": null, "length_m": 123.18, "type_element": "Way", "__fid": 2996}, "geometry": {"type": "LineString", "coordinates": [[2.2482081, 48.8468779], [2.2487898, 48.847872], [2.2488497, 48.8478573]]}}, {"type": "Feature", "properties": {"highway": "pedestrian", "footway": null, "name": "Allée Marcel Bernard", "surface": "paving_stones", "lit": null, "length_m": 117.49, "type_element": "Way", "__fid": 2997}, "geometry": {"type": "LineString", "coordinates": [[2.2482081, 48.8468779], [2.2496963, 48.84648829999998]]}}, {"type": "Feature", "properties": {"highway": "pedestrian", "footway": null, "name": "Allée des Mousquetaires", "surface": "paving_stones", "lit": null, "length_m": 125.79, "type_element": "Way", "__fid": 3125}, "geometry": {"type": "LineString", "coordinates": [[2.2503397, 48.8475368], [2.2496963, 48.84648829999998]]}}, {"type": "Feature", "properties": {"highway": "pedestrian", "footway": null, "name": "Allée Marcel Bernard", "surface": "paving_stones", "lit": null, "length_m": 124.2, "type_element": "Way", "__fid": 3126}, "geometry": {"type": "LineString", "coordinates": [[2.2496963, 48.84648829999998], [2.2509711, 48.8461531], [2.25129, 48.8461346]]}}, {"type": "Feature", "properties": {"highway": "footway", "footway": "crossing", "name": null, "surface": null, "lit": null, "length_m": 16.46, "type_element": "Way", "__fid": 3184}, "geometry": {"type": "LineString", "coordinates": [[2.2505991, 48.8456404], [2.2507872, 48.8456263], [2.2508143, 48.84561170000001]]}}, {"type": "Feature", "properties": {"highway": "footway", "footway": null, "name": null, "surface": "compacted", "lit": "no", "length_m": 51.35, "type_element": "Way", "__fid": 3186}, "geometry": {"type": "LineString", "coordinates": [[2.2506704, 48.84223580000001], [2.2507454, 48.8422328], [2.2513016, 48.8420893], [2.2513191, 48.8421032]]}}, {"type": "Feature", "properties": {"highway": "footway", "footway": "sidewalk", "name": null, "surface": null, "lit": null, "length_m": 1.95, "type_element": "Way", "__fid": 3198}, "geometry": {"type": "LineString", "coordinates": [[2.2508143, 48.84561170000001], [2.2508111, 48.8455943]]}}, {"type": "Feature", "properties": {"highway": "footway", "footway": "sidewalk", "name": null, "surface": null, "lit": null, "length_m": 137.36, "type_element": "Way", "__fid": 3199}, "geometry": {"type": "LineString", "coordinates": [[2.2508143, 48.84561170000001], [2.2508782, 48.8455984], [2.2526818, 48.845557]]}}, {"type": "Feature", "properties": {"highway": "footway", "footway": "sidewalk", "name": null, "surface": "asphalt", "lit": "yes", "length_m": 5.27, "type_element": "Way", "__fid": 3231}, "geometry": {"type": "LineString", "coordinates": [[2.2512435, 48.842570799999976], [2.2512161, 48.8425529], [2.251224, 48.8425316]]}}, {"type": "Feature", "properties": {"highway": "footway", "footway": "crossing", "name": null, "surface": "asphalt", "lit": "yes", "length_m": 13.5, "type_element": "Way", "__fid": 3232}, "geometry": {"type": "LineString", "coordinates": [[2.2514274, 48.8425714], [2.2512435, 48.842570799999976]]}}, {"type": "Feature", "properties": {"highway": "footway", "footway": "sidewalk", "name": null, "surface": "asphalt", "lit": "yes", "length_m": 229.2, "type_element": "Way", "__fid": 3233}, "geometry": {"type": "LineString", "coordinates": [[2.2520279, 48.8445468], [2.2519836, 48.8443948], [2.2512541, 48.8429063], [2.2512487, 48.84283480000001], [2.2512734, 48.84260109999998], [2.2512435, 48.842570799999976]]}}, {"type": "Feature", "properties": {"highway": "footway", "footway": "sidewalk", "name": null, "surface": "asphalt", "lit": "yes", "length_m": 39.42, "type_element": "Way", "__fid": 3234}, "geometry": {"type": "LineString", "coordinates": [[2.2512527, 48.8424499], [2.2512842, 48.84242250000002], [2.2513191, 48.8421032]]}}, {"type": "Feature", "properties": {"highway": "footway", "footway": "sidewalk", "name": null, "surface": "asphalt", "lit": "yes", "length_m": 193.66, "type_element": "Way", "__fid": 3238}, "geometry": {"type": "LineString", "coordinates": [[2.2513191, 48.8421032], [2.2515147, 48.840366300000014]]}}, {"type": "Feature", "properties": {"highway": "footway", "footway": "crossing", "name": null, "surface": "asphalt", "lit": "yes", "length_m": 15.61, "type_element": "Way", "__fid": 3239}, "geometry": {"type": "LineString", "coordinates": [[2.2513191, 48.8421032], [2.2515314, 48.8421123]]}}, {"type": "Feature", "properties": {"highway": "footway", "footway": null, "name": null, "surface": null, "lit": null, "length_m": 34.04, "type_element": "Way", "__fid": 3241}, "geometry": {"type": "LineString", "coordinates": [[2.2513128, 48.84644040000001], [2.25129, 48.8461346]]}}, {"type": "Feature", "properties": {"highway": "service", "footway": null, "name": "Allée de l'Orangerie", "surface": null, "lit": null, "length_m": 140.53, "type_element": "Way", "__fid": 3242}, "geometry": {"type": "LineString", "coordinates": [[2.2529241, 48.84588619999999], [2.2528504, 48.845857], [2.2527181, 48.845844], [2.2515569, 48.84587730000002], [2.2514462, 48.8458972], [2.2513678, 48.8459365], [2.2513235, 48.8459824], [2.2512887, 48.84604109999999], [2.25129, 48.8461346]]}}, {"type": "Feature", "properties": {"highway": "service", "footway": null, "name": "Allée des Serres", "surface": null, "lit": null, "length_m": 128.43, "type_element": "Way", "__fid": 3243}, "geometry": {"type": "LineString", "coordinates": [[2.25129, 48.8461346], [2.2529942, 48.8461012], [2.2530232, 48.846124]]}}, {"type": "Feature", "properties": {"highway": "footway", "footway": null, "name": null, "surface": null, "lit": null, "length_m": 90.27, "type_element": "Way", "__fid": 3244}, "geometry": {"type": "LineString", "coordinates": [[2.2513128, 48.84644040000001], [2.2513691, 48.8472514]]}}, {"type": "Feature", "properties": {"highway": "steps", "footway": null, "name": null, "surface": null, "lit": null, "length_m": 9.65, "type_element": "Way", "__fid": 3245}, "geometry": {"type": "LineString", "coordinates": [[2.2514442, 48.8464378], [2.2513128, 48.84644040000001]]}}, {"type": "Feature", "properties": {"highway": "footway", "footway": "sidewalk", "name": null, "surface": null, "lit": null, "length_m": 168.49, "type_element": "Way", "__fid": 3252}, "geometry": {"type": "LineString", "coordinates": [[2.2519876, 48.8440227], [2.2518623, 48.8438296], [2.25141, 48.8429011], [2.2514274, 48.8425714]]}}, {"type": "Feature", "properties": {"highway": "footway", "footway": "sidewalk", "name": null, "surface": "asphalt", "lit": "yes", "length_m": 28.46, "type_element": "Way", "__fid": 3253}, "geometry": {"type": "LineString", "coordinates": [[2.2517675, 48.842454], [2.2514681, 48.8425698], [2.2514274, 48.8425714]]}}, {"type": "Feature", "properties": {"highway": "footway", "footway": null, "name": null, "surface": "concrete", "lit": "no", "length_m": 25.2, "type_element": "Way", "__fid": 3254}, "geometry": {"type": "LineString", "coordinates": [[2.2513691, 48.8472514], [2.2517123, 48.8472439]]}}, {"type": "Feature", "properties": {"highway": "footway", "footway": null, "name": null, "surface": null, "lit": null, "length_m": 38.59, "type_element": "Way", "__fid": 3255}, "geometry": {"type": "LineString", "coordinates": [[2.2513691, 48.8472514], [2.2513913, 48.84738650000002], [2.2514281, 48.8474531], [2.2514912, 48.8475162], [2.2515664, 48.8475576]]}}, {"type": "Feature", "properties": {"highway": "footway", "footway": null, "name": null, "surface": null, "lit": null, "length_m": 20.91, "type_element": "Way", "__fid": 3264}, "geometry": {"type": "LineString", "coordinates": [[2.2514548, 48.8466257], [2.2514442, 48.8464378]]}}, {"type": "Feature", "properties": {"highway": "footway", "footway": null, "name": null, "surface": null, "lit": null, "length_m": 150.26, "type_element": "Way", "__fid": 3265}, "geometry": {"type": "LineString", "coordinates": [[2.2529173, 48.8463968], [2.2528987, 48.84620039999999], [2.2514543, 48.846237400000014], [2.2514442, 48.8464378]]}}, {"type": "Feature", "properties": {"highway": "footway", "footway": null, "name": null, "surface": null, "lit": null, "length_m": 32.46, "type_element": "Way", "__fid": 3266}, "geometry": {"type": "LineString", "coordinates": [[2.2518862, 48.8464258], [2.2514442, 48.8464378]]}}, {"type": "Feature", "properties": {"highway": "footway", "footway": null, "name": null, "surface": null, "lit": null, "length_m": 29.78, "type_element": "Way", "__fid": 3269}, "geometry": {"type": "LineString", "coordinates": [[2.2514698, 48.84689330000002], [2.2514548, 48.8466257]]}}, {"type": "Feature", "properties": {"highway": "footway", "footway": null, "name": null, "surface": null, "lit": null, "length_m": 32.45, "type_element": "Way", "__fid": 3270}, "geometry": {"type": "LineString", "coordinates": [[2.2518967, 48.846616], [2.2514548, 48.8466257]]}}, {"type": "Feature", "properties": {"highway": "footway", "footway": "sidewalk", "name": null, "surface": "asphalt", "lit": "yes", "length_m": 30.84, "type_element": "Way", "__fid": 3273}, "geometry": {"type": "LineString", "coordinates": [[2.2515314, 48.8421123], [2.2518136, 48.8423178]]}}, {"type": "Feature", "properties": {"highway": "footway", "footway": "sidewalk", "name": null, "surface": "asphalt", "lit": "yes", "length_m": 83.67, "type_element": "Way", "__fid": 3274}, "geometry": {"type": "LineString", "coordinates": [[2.2515779, 48.8413624], [2.2515115, 48.8420401], [2.2515314, 48.8421123]]}}, {"type": "Feature", "properties": {"highway": "footway", "footway": null, "name": null, "surface": null, "lit": null, "length_m": 46.51, "type_element": "Way", "__fid": 3275}, "geometry": {"type": "LineString", "coordinates": [[2.2517067, 48.8471597], [2.2514851, 48.847165], [2.2514698, 48.84689330000002]]}}, {"type": "Feature", "properties": {"highway": "corridor", "footway": null, "name": null, "surface": null, "lit": null, "length_m": 32.43, "type_element": "Way", "__fid": 3276}, "geometry": {"type": "LineString", "coordinates": [[2.2519114, 48.8468827], [2.2514698, 48.84689330000002]]}}, {"type": "Feature", "properties": {"highway": "service", "footway": null, "name": null, "surface": null, "lit": null, "length_m": 14.24, "type_element": "Way", "__fid": 3283}, "geometry": {"type": "LineString", "coordinates": [[2.2515779, 48.8413624], [2.2516233, 48.8413955], [2.2516285, 48.84147880000001]]}}, {"type": "Feature", "properties": {"highway": "footway", "footway": "sidewalk", "name": null, "surface": "asphalt", "lit": "yes", "length_m": 203.54, "type_element": "Way", "__fid": 3321}, "geometry": {"type": "LineString", "coordinates": [[2.254503, 48.842755], [2.2517675, 48.842454]]}}, {"type": "Feature", "properties": {"highway": "footway", "footway": "crossing", "name": null, "surface": "asphalt", "lit": "yes", "length_m": 15.56, "type_element": "Way", "__fid": 3322}, "geometry": {"type": "LineString", "coordinates": [[2.2518136, 48.8423178], [2.2517852, 48.8424226], [2.2517675, 48.842454]]}}, {"type": "Feature", "properties": {"highway": "footway", "footway": null, "name": null, "surface": null, "lit": null, "length_m": 9.37, "type_element": "Way", "__fid": 3323}, "geometry": {"type": "LineString", "coordinates": [[2.2517123, 48.8472439], [2.2517067, 48.8471597]]}}, {"type": "Feature", "properties": {"highway": "footway", "footway": null, "name": null, "surface": null, "lit": null, "length_m": 46.37, "type_element": "Way", "__fid": 3324}, "geometry": {"type": "LineString", "coordinates": [[2.2519114, 48.8468827], [2.2519264, 48.8471544], [2.2517067, 48.8471597]]}}, {"type": "Feature", "properties": {"highway": "footway", "footway": null, "name": null, "surface": "concrete", "lit": "no", "length_m": 26.49, "type_element": "Way", "__fid": 3327}, "geometry": {"type": "LineString", "coordinates": [[2.2517123, 48.8472439], [2.252073, 48.847234]]}}, {"type": "Feature", "properties": {"highway": "footway", "footway": "sidewalk", "name": null, "surface": "asphalt", "lit": "yes", "length_m": 193.27, "type_element": "Way", "__fid": 3331}, "geometry": {"type": "LineString", "coordinates": [[2.2518136, 48.8423178], [2.2544074, 48.842618]]}}, {"type": "Feature", "properties": {"highway": "footway", "footway": "sidewalk", "name": null, "surface": null, "lit": null, "length_m": 48.61, "type_element": "Way", "__fid": 3335}, "geometry": {"type": "LineString", "coordinates": [[2.2524818, 48.845412], [2.2518872, 48.8454259], [2.2518239, 48.8454107]]}}, {"type": "Feature", "properties": {"highway": "service", "footway": null, "name": "Allée Charles Brennus", "surface": "asphalt", "lit": null, "length_m": 8.15, "type_element": "Way", "__fid": 3336}, "geometry": {"type": "LineString", "coordinates": [[2.2518767, 48.84401960000002], [2.2519876, 48.8440227]]}}, {"type": "Feature", "properties": {"highway": "footway", "footway": null, "name": null, "surface": null, "lit": null, "length_m": 12.87, "type_element": "Way", "__fid": 3348}, "geometry": {"type": "LineString", "coordinates": [[2.2518862, 48.8464258], [2.2518926, 48.8465415]]}}, {"type": "Feature", "properties": {"highway": "footway", "footway": null, "name": null, "surface": null, "lit": null, "length_m": 21.17, "type_element": "Way", "__fid": 3349}, "geometry": {"type": "LineString", "coordinates": [[2.2521744, 48.8464177], [2.2518862, 48.8464258]]}}, {"type": "Feature", "properties": {"highway": "footway", "footway": null, "name": null, "surface": null, "lit": null, "length_m": 8.29, "type_element": "Way", "__fid": 3350}, "geometry": {"type": "LineString", "coordinates": [[2.2518926, 48.8465415], [2.2518967, 48.846616]]}}, {"type": "Feature", "properties": {"highway": "footway", "footway": null, "name": null, "surface": null, "lit": null, "length_m": 19.82, "type_element": "Way", "__fid": 3351}, "geometry": {"type": "LineString", "coordinates": [[2.2521302, 48.846471700000016], [2.2520795, 48.846477], [2.2520257, 48.8464947], [2.2519545, 48.8465376], [2.2518926, 48.8465415]]}}, {"type": "Feature", "properties": {"highway": "footway", "footway": null, "name": null, "surface": null, "lit": null, "length_m": 29.68, "type_element": "Way", "__fid": 3352}, "geometry": {"type": "LineString", "coordinates": [[2.2518967, 48.846616], [2.2519114, 48.8468827]]}}, {"type": "Feature", "properties": {"highway": "service", "footway": null, "name": "Allée Charles Brennus", "surface": "asphalt", "lit": null, "length_m": 148.98, "type_element": "Way", "__fid": 3355}, "geometry": {"type": "LineString", "coordinates": [[2.2519876, 48.8440227], [2.252164, 48.8440276], [2.2524284, 48.8440799], [2.2527546, 48.8440954], [2.2528801, 48.8440894], [2.2532851, 48.8440541], [2.2535695, 48.8439994], [2.2539364, 48.8438649]]}}, {"type": "Feature", "properties": {"highway": "footway", "footway": "sidewalk", "name": null, "surface": null, "lit": null, "length_m": 35.91, "type_element": "Way", "__fid": 3356}, "geometry": {"type": "LineString", "coordinates": [[2.2521187, 48.8443338], [2.2519876, 48.8440227]]}}, {"type": "Feature", "properties": {"highway": "footway", "footway": "crossing", "name": null, "surface": null, "lit": null, "length_m": 14.58, "type_element": "Way", "__fid": 3364}, "geometry": {"type": "LineString", "coordinates": [[2.252225, 48.844563], [2.2520279, 48.8445468]]}}, {"type": "Feature", "properties": {"highway": "footway", "footway": "sidewalk", "name": null, "surface": null, "lit": null, "length_m": 2.54, "type_element": "Way", "__fid": 3365}, "geometry": {"type": "LineString", "coordinates": [[2.2520279, 48.8445468], [2.2520342, 48.84456930000001]]}}, {"type": "Feature", "properties": {"highway": "service", "footway": null, "name": "Accès Parking Jean Bouin", "surface": null, "lit": null, "length_m": 6.85, "type_element": "Way", "__fid": 3366}, "geometry": {"type": "LineString", "coordinates": [[2.2520339, 48.84435960000002], [2.2521187, 48.8443338]]}}, {"type": "Feature", "properties": {"highway": "footway", "footway": null, "name": null, "surface": null, "lit": null, "length_m": 21.77, "type_element": "Way", "__fid": 3375}, "geometry": {"type": "LineString", "coordinates": [[2.252073, 48.847234], [2.2520642, 48.847285800000016], [2.2520076, 48.8473684], [2.2520158, 48.8474053], [2.2520298, 48.847418]]}}, {"type": "Feature", "properties": {"highway": "footway", "footway": null, "name": null, "surface": "concrete", "lit": "no", "length_m": 22.89, "type_element": "Way", "__fid": 3383}, "geometry": {"type": "LineString", "coordinates": [[2.252073, 48.847234], [2.2523847, 48.8472255]]}}, {"type": "Feature", "properties": {"highway": "footway", "footway": "sidewalk", "name": null, "surface": null, "lit": null, "length_m": 26.65, "type_element": "Way", "__fid": 3384}, "geometry": {"type": "LineString", "coordinates": [[2.252225, 48.844563], [2.2521187, 48.8443338]]}}, {"type": "Feature", "properties": {"highway": "service", "footway": null, "name": "Accès Parking Jean Bouin", "surface": null, "lit": null, "length_m": 31.73, "type_element": "Way", "__fid": 3385}, "geometry": {"type": "LineString", "coordinates": [[2.2521187, 48.8443338], [2.2521798, 48.84431520000001], [2.2521986, 48.84428159999999], [2.2522187, 48.8440769]]}}, {"type": "Feature", "properties": {"highway": "footway", "footway": "sidewalk", "name": null, "surface": null, "lit": null, "length_m": 10.7, "type_element": "Way", "__fid": 3386}, "geometry": {"type": "LineString", "coordinates": [[2.252116, 48.8447119], [2.2521736, 48.84480030000001]]}}, {"type": "Feature", "properties": {"highway": "steps", "footway": null, "name": null, "surface": "concrete", "lit": "no", "length_m": 4.49, "type_element": "Way", "__fid": 3387}, "geometry": {"type": "LineString", "coordinates": [[2.2521302, 48.846471700000016], [2.2521448, 48.8465109]]}}, {"type": "Feature", "properties": {"highway": "footway", "footway": null, "name": null, "surface": null, "lit": null, "length_m": 3.8, "type_element": "Way", "__fid": 3388}, "geometry": {"type": "LineString", "coordinates": [[2.2521819, 48.8464696], [2.2521302, 48.846471700000016]]}}, {"type": "Feature", "properties": {"highway": "footway", "footway": "crossing", "name": null, "surface": null, "lit": null, "length_m": 17.54, "type_element": "Way", "__fid": 3389}, "geometry": {"type": "LineString", "coordinates": [[2.2524071, 48.844834], [2.2521736, 48.84480030000001]]}}, {"type": "Feature", "properties": {"highway": "footway", "footway": "sidewalk", "name": null, "surface": null, "lit": null, "length_m": 71.7, "type_element": "Way", "__fid": 3390}, "geometry": {"type": "LineString", "coordinates": [[2.2521736, 48.84480030000001], [2.2522127, 48.84486279999999], [2.2524818, 48.845412]]}}, {"type": "Feature", "properties": {"highway": "footway", "footway": null, "name": null, "surface": null, "lit": null, "length_m": 2.57, "type_element": "Way", "__fid": 3393}, "geometry": {"type": "LineString", "coordinates": [[2.2521725, 48.8463946], [2.2521744, 48.8464177]]}}, {"type": "Feature", "properties": {"highway": "footway", "footway": null, "name": null, "surface": null, "lit": null, "length_m": 5.8, "type_element": "Way", "__fid": 3397}, "geometry": {"type": "LineString", "coordinates": [[2.2521744, 48.8464177], [2.2521819, 48.8464696]]}}, {"type": "Feature", "properties": {"highway": "footway", "footway": null, "name": null, "surface": null, "lit": null, "length_m": 22.18, "type_element": "Way", "__fid": 3398}, "geometry": {"type": "LineString", "coordinates": [[2.2524764, 48.8464092], [2.2521744, 48.8464177]]}}, {"type": "Feature", "properties": {"highway": "footway", "footway": null, "name": null, "surface": null, "lit": null, "length_m": 1.97, "type_element": "Way", "__fid": 3399}, "geometry": {"type": "LineString", "coordinates": [[2.2521819, 48.8464696], [2.2521832, 48.846487299999986]]}}, {"type": "Feature", "properties": {"highway": "footway", "footway": null, "name": null, "surface": null, "lit": null, "length_m": 4.0, "type_element": "Way", "__fid": 3400}, "geometry": {"type": "LineString", "coordinates": [[2.2522363, 48.8464682], [2.2521819, 48.8464696]]}}, {"type": "Feature", "properties": {"highway": "footway", "footway": "sidewalk", "name": null, "surface": null, "lit": null, "length_m": 7.57, "type_element": "Way", "__fid": 3401}, "geometry": {"type": "LineString", "coordinates": [[2.2523124, 48.8445992], [2.252225, 48.844563]]}}, {"type": "Feature", "properties": {"highway": "steps", "footway": null, "name": null, "surface": "concrete", "lit": "no", "length_m": 4.86, "type_element": "Way", "__fid": 3410}, "geometry": {"type": "LineString", "coordinates": [[2.2522363, 48.8464682], [2.2522327, 48.84651179999999]]}}, {"type": "Feature", "properties": {"highway": "footway", "footway": null, "name": null, "surface": null, "lit": null, "length_m": 20.09, "type_element": "Way", "__fid": 3411}, "geometry": {"type": "LineString", "coordinates": [[2.2524826, 48.84653190000002], [2.2524356, 48.846533], [2.2523322, 48.84648520000001], [2.2522724, 48.8464696], [2.2522363, 48.8464682]]}}, {"type": "Feature", "properties": {"highway": "footway", "footway": "sidewalk", "name": null, "surface": null, "lit": null, "length_m": 90.65, "type_element": "Way", "__fid": 3421}, "geometry": {"type": "LineString", "coordinates": [[2.2534846, 48.8448561], [2.2523124, 48.8445992]]}}, {"type": "Feature", "properties": {"highway": "footway", "footway": "crossing", "name": null, "surface": null, "lit": null, "length_m": 27.19, "type_element": "Way", "__fid": 3422}, "geometry": {"type": "LineString", "coordinates": [[2.2524071, 48.844834], [2.2524087, 48.844803], [2.2523124, 48.8445992]]}}, {"type": "Feature", "properties": {"highway": "footway", "footway": "sidewalk", "name": null, "surface": null, "lit": null, "length_m": 67.74, "type_element": "Way", "__fid": 3436}, "geometry": {"type": "LineString", "coordinates": [[2.2524071, 48.844834], [2.2524038, 48.84489180000001], [2.2525971, 48.8453271], [2.2526604, 48.8453689], [2.252679, 48.845405600000014]]}}, {"type": "Feature", "properties": {"highway": "footway", "footway": "sidewalk", "name": null, "surface": null, "lit": null, "length_m": 160.45, "type_element": "Way", "__fid": 3437}, "geometry": {"type": "LineString", "coordinates": [[2.2544933, 48.8452349], [2.2543591, 48.84520920000001], [2.2542733, 48.8451739], [2.2525959, 48.8448299], [2.2524071, 48.844834]]}}, {"type": "Feature", "properties": {"highway": "footway", "footway": null, "name": null, "surface": null, "lit": null, "length_m": 22.89, "type_element": "Way", "__fid": 3439}, "geometry": {"type": "LineString", "coordinates": [[2.2524431, 48.8474095], [2.2524647, 48.8473776], [2.2524629, 48.8473373], [2.2523859, 48.8472781], [2.2523847, 48.8472255]]}}, {"type": "Feature", "properties": {"highway": "footway", "footway": null, "name": null, "surface": "concrete", "lit": "no", "length_m": 52.3, "type_element": "Way", "__fid": 3440}, "geometry": {"type": "LineString", "coordinates": [[2.2523847, 48.8472255], [2.2530967, 48.847206]]}}, {"type": "Feature", "properties": {"highway": "footway", "footway": "crossing", "name": null, "surface": null, "lit": null, "length_m": 14.49, "type_element": "Way", "__fid": 3451}, "geometry": {"type": "LineString", "coordinates": [[2.252679, 48.845405600000014], [2.2524818, 48.845412]]}}, {"type": "Feature", "properties": {"highway": "footway", "footway": null, "name": null, "surface": null, "lit": null, "length_m": 13.65, "type_element": "Way", "__fid": 3452}, "geometry": {"type": "LineString", "coordinates": [[2.2524764, 48.8464092], [2.2524826, 48.84653190000002]]}}, {"type": "Feature", "properties": {"highway": "footway", "footway": null, "name": null, "surface": null, "lit": null, "length_m": 32.39, "type_element": "Way", "__fid": 3453}, "geometry": {"type": "LineString", "coordinates": [[2.2529173, 48.8463968], [2.2524764, 48.8464092]]}}, {"type": "Feature", "properties": {"highway": "footway", "footway": null, "name": null, "surface": null, "lit": null, "length_m": 7.5, "type_element": "Way", "__fid": 3454}, "geometry": {"type": "LineString", "coordinates": [[2.2524826, 48.84653190000002], [2.2524884, 48.8465992]]}}, {"type": "Feature", "properties": {"highway": "footway", "footway": null, "name": null, "surface": null, "lit": null, "length_m": 29.46, "type_element": "Way", "__fid": 3455}, "geometry": {"type": "LineString", "coordinates": [[2.2524884, 48.8465992], [2.2525052, 48.8468639]]}}, {"type": "Feature", "properties": {"highway": "footway", "footway": null, "name": null, "surface": null, "lit": null, "length_m": 32.6, "type_element": "Way", "__fid": 3456}, "geometry": {"type": "LineString", "coordinates": [[2.2529322, 48.84658670000001], [2.2524884, 48.8465992]]}}, {"type": "Feature", "properties": {"highway": "corridor", "footway": null, "name": null, "surface": null, "lit": null, "length_m": 32.89, "type_element": "Way", "__fid": 3459}, "geometry": {"type": "LineString", "coordinates": [[2.2525052, 48.8468639], [2.2529532, 48.8468551]]}}, {"type": "Feature", "properties": {"highway": "footway", "footway": "crossing", "name": null, "surface": null, "lit": null, "length_m": 16.84, "type_element": "Way", "__fid": 3479}, "geometry": {"type": "LineString", "coordinates": [[2.252679, 48.845405600000014], [2.2526818, 48.845557]]}}, {"type": "Feature", "properties": {"highway": "footway", "footway": "sidewalk", "name": null, "surface": null, "lit": null, "length_m": 138.83, "type_element": "Way", "__fid": 3480}, "geometry": {"type": "LineString", "coordinates": [[2.2545446, 48.8453173], [2.2545101, 48.845347300000014], [2.2544515, 48.8453577], [2.252679, 48.845405600000014]]}}, {"type": "Feature", "properties": {"highway": "footway", "footway": "sidewalk", "name": null, "surface": null, "lit": null, "length_m": 16.8, "type_element": "Way", "__fid": 3482}, "geometry": {"type": "LineString", "coordinates": [[2.2526818, 48.845557], [2.2529105, 48.84555090000001]]}}, {"type": "Feature", "properties": {"highway": "footway", "footway": null, "name": null, "surface": "concrete", "lit": "no", "length_m": 5.69, "type_element": "Way", "__fid": 3530}, "geometry": {"type": "LineString", "coordinates": [[2.2529119, 48.8456021], [2.2529105, 48.84555090000001]]}}, {"type": "Feature", "properties": {"highway": "footway", "footway": "sidewalk", "name": null, "surface": null, "lit": null, "length_m": 132.68, "type_element": "Way", "__fid": 3531}, "geometry": {"type": "LineString", "coordinates": [[2.2529105, 48.84555090000001], [2.2547172, 48.8455079]]}}, {"type": "Feature", "properties": {"highway": "footway", "footway": null, "name": null, "surface": "concrete", "lit": "no", "length_m": 31.6, "type_element": "Way", "__fid": 3532}, "geometry": {"type": "LineString", "coordinates": [[2.2529241, 48.84588619999999], [2.2529119, 48.8456021]]}}, {"type": "Feature", "properties": {"highway": "footway", "footway": null, "name": null, "surface": null, "lit": null, "length_m": 241.69, "type_element": "Way", "__fid": 3533}, "geometry": {"type": "LineString", "coordinates": [[2.2529119, 48.8456021], [2.2540078, 48.8455764], [2.2540426, 48.8463645], [2.2530415, 48.84639330000001]]}}, {"type": "Feature", "properties": {"highway": "footway", "footway": null, "name": null, "surface": "concrete", "lit": "no", "length_m": 28.49, "type_element": "Way", "__fid": 3539}, "geometry": {"type": "LineString", "coordinates": [[2.2530232, 48.846124], [2.25301, 48.845965600000014], [2.2529241, 48.84588619999999]]}}, {"type": "Feature", "properties": {"highway": "footway", "footway": null, "name": null, "surface": null, "lit": null, "length_m": 21.14, "type_element": "Way", "__fid": 3540}, "geometry": {"type": "LineString", "coordinates": [[2.2529322, 48.84658670000001], [2.2529173, 48.8463968]]}}, {"type": "Feature", "properties": {"highway": "steps", "footway": null, "name": null, "surface": null, "lit": null, "length_m": 9.12, "type_element": "Way", "__fid": 3541}, "geometry": {"type": "LineString", "coordinates": [[2.2530415, 48.84639330000001], [2.2529173, 48.8463968]]}}, {"type": "Feature", "properties": {"highway": "footway", "footway": null, "name": null, "surface": null, "lit": null, "length_m": 29.88, "type_element": "Way", "__fid": 3546}, "geometry": {"type": "LineString", "coordinates": [[2.2529532, 48.8468551], [2.2529322, 48.84658670000001]]}}, {"type": "Feature", "properties": {"highway": "steps", "footway": null, "name": null, "surface": null, "lit": null, "length_m": 6.44, "type_element": "Way", "__fid": 3549}, "geometry": {"type": "LineString", "coordinates": [[2.2530409, 48.84685420000001], [2.2529532, 48.8468551]]}}, {"type": "Feature", "properties": {"highway": "footway", "footway": null, "name": null, "surface": "concrete", "lit": "no", "length_m": 36.52, "type_element": "Way", "__fid": 3551}, "geometry": {"type": "LineString", "coordinates": [[2.2529555, 48.847508], [2.2530374, 48.8474409], [2.2530791, 48.847386], [2.253097, 48.8473035], [2.2530967, 48.847206]]}}, {"type": "Feature", "properties": {"highway": "footway", "footway": null, "name": null, "surface": null, "lit": null, "length_m": 29.97, "type_element": "Way", "__fid": 3557}, "geometry": {"type": "LineString", "coordinates": [[2.2530232, 48.846124], [2.2530415, 48.84639330000001]]}}, {"type": "Feature", "properties": {"highway": "footway", "footway": null, "name": null, "surface": null, "lit": null, "length_m": 50.74, "type_element": "Way", "__fid": 3563}, "geometry": {"type": "LineString", "coordinates": [[2.2530415, 48.84639330000001], [2.2530725, 48.8468492]]}}, {"type": "Feature", "properties": {"highway": "footway", "footway": null, "name": null, "surface": null, "lit": null, "length_m": 39.71, "type_element": "Way", "__fid": 3567}, "geometry": {"type": "LineString", "coordinates": [[2.2530725, 48.8468492], [2.2530967, 48.847206]]}}, {"type": "Feature", "properties": {"highway": "footway", "footway": null, "name": null, "surface": null, "lit": null, "length_m": 51.36, "type_element": "Way", "__fid": 3568}, "geometry": {"type": "LineString", "coordinates": [[2.2530725, 48.8468492], [2.253772, 48.84683540000001]]}}, {"type": "Feature", "properties": {"highway": "footway", "footway": null, "name": null, "surface": "concrete", "lit": "no", "length_m": 40.5, "type_element": "Way", "__fid": 3572}, "geometry": {"type": "LineString", "coordinates": [[2.2530967, 48.847206], [2.2536483, 48.8471934]]}}, {"type": "Feature", "properties": {"highway": "footway", "footway": "sidewalk", "name": null, "surface": null, "lit": null, "length_m": 87.03, "type_element": "Way", "__fid": 3605}, "geometry": {"type": "LineString", "coordinates": [[2.2546171, 48.8450883], [2.2534846, 48.8448561]]}}, {"type": "Feature", "properties": {"highway": "footway", "footway": null, "name": null, "surface": null, "lit": null, "length_m": 65.62, "type_element": "Way", "__fid": 3606}, "geometry": {"type": "LineString", "coordinates": [[2.2534846, 48.8448561], [2.2537625, 48.84429519999998]]}}, {"type": "Feature", "properties": {"highway": "footway", "footway": null, "name": null, "surface": null, "lit": null, "length_m": 16.99, "type_element": "Way", "__fid": 3610}, "geometry": {"type": "LineString", "coordinates": [[2.2535391, 48.844335200000025], [2.2537625, 48.84429519999998]]}}, {"type": "Feature", "properties": {"highway": "footway", "footway": null, "name": null, "surface": "compacted", "lit": "no", "length_m": 8.64, "type_element": "Way", "__fid": 3622}, "geometry": {"type": "LineString", "coordinates": [[2.2536483, 48.8471934], [2.2536316, 48.8471614], [2.2535889, 48.84712780000001]]}}, {"type": "Feature", "properties": {"highway": "footway", "footway": null, "name": null, "surface": "concrete", "lit": "no", "length_m": 32.28, "type_element": "Way", "__fid": 3631}, "geometry": {"type": "LineString", "coordinates": [[2.2536483, 48.8471934], [2.2537113, 48.8471918], [2.2537972, 48.8472381], [2.2538647, 48.8472894], [2.2539455, 48.8473828]]}}, {"type": "Feature", "properties": {"highway": "footway", "footway": null, "name": null, "surface": null, "lit": null, "length_m": 51.39, "type_element": "Way", "__fid": 3644}, "geometry": {"type": "LineString", "coordinates": [[2.2537625, 48.84429519999998], [2.2538567, 48.84410629999998], [2.2538978, 48.84409010000001], [2.2539568, 48.8438986], [2.2539364, 48.8438649]]}}, {"type": "Feature", "properties": {"highway": "footway", "footway": null, "name": null, "surface": null, "lit": null, "length_m": 46.59, "type_element": "Way", "__fid": 3645}, "geometry": {"type": "LineString", "coordinates": [[2.2537625, 48.84429519999998], [2.2543751, 48.8441854]]}}, {"type": "Feature", "properties": {"highway": "service", "footway": null, "name": "Allée Charles Brennus", "surface": "asphalt", "lit": null, "length_m": 76.45, "type_element": "Way", "__fid": 3664}, "geometry": {"type": "LineString", "coordinates": [[2.2539364, 48.8438649], [2.2541021, 48.8438003], [2.2544362, 48.8437501], [2.2549214, 48.843654]]}}, {"type": "Feature", "properties": {"highway": "path", "footway": null, "name": null, "surface": "woodchips", "lit": null, "length_m": 51.46, "type_element": "Way", "__fid": 3665}, "geometry": {"type": "LineString", "coordinates": [[2.2539455, 48.8473828], [2.2540962, 48.84726860000002], [2.2543285, 48.84728190000001], [2.2545412, 48.847353300000016]]}}, {"type": "Feature", "properties": {"highway": "footway", "footway": null, "name": null, "surface": null, "lit": null, "length_m": 21.66, "type_element": "Way", "__fid": 3692}, "geometry": {"type": "LineString", "coordinates": [[2.2543006, 48.843996900000015], [2.2543751, 48.8441854]]}}, {"type": "Feature", "properties": {"highway": "footway", "footway": null, "name": null, "surface": null, "lit": null, "length_m": 105.72, "type_element": "Way", "__fid": 3697}, "geometry": {"type": "LineString", "coordinates": [[2.2543751, 48.8441854], [2.2547266, 48.84510740000001]]}}, {"type": "Feature", "properties": {"highway": "footway", "footway": "crossing", "name": null, "surface": "asphalt", "lit": "yes", "length_m": 16.97, "type_element": "Way", "__fid": 3700}, "geometry": {"type": "LineString", "coordinates": [[2.254503, 48.842755], [2.2544624, 48.8427168], [2.2544564, 48.8426912], [2.2544074, 48.842618]]}}, {"type": "Feature", "properties": {"highway": "footway", "footway": "sidewalk", "name": null, "surface": "asphalt", "lit": "yes", "length_m": 39.51, "type_element": "Way", "__fid": 3701}, "geometry": {"type": "LineString", "coordinates": [[2.2547779, 48.842481699999986], [2.2547134, 48.8424907], [2.2544758, 48.8424741], [2.2544597, 48.842542], [2.2544309, 48.8426025], [2.2544074, 48.842618]]}}, {"type": "Feature", "properties": {"highway": "footway", "footway": "sidewalk", "name": null, "surface": null, "lit": null, "length_m": 115.95, "type_element": "Way", "__fid": 3706}, "geometry": {"type": "LineString", "coordinates": [[2.2544468, 48.84075629999999], [2.2543363, 48.84074720000001], [2.2543417, 48.8409189], [2.2543672, 48.8409798], [2.2545603, 48.8412137], [2.2545871, 48.8412578], [2.25463, 48.8413558], [2.2546481, 48.84146350000001], [2.2549647, 48.841485300000016]]}}, {"type": "Feature", "properties": {"highway": "footway", "footway": "sidewalk", "name": null, "surface": null, "lit": null, "length_m": 6.92, "type_element": "Way", "__fid": 3716}, "geometry": {"type": "LineString", "coordinates": [[2.2545335, 48.8428139], [2.254503, 48.842755]]}}, {"type": "Feature", "properties": {"highway": "footway", "footway": "sidewalk", "name": null, "surface": null, "lit": null, "length_m": 10.53, "type_element": "Way", "__fid": 3717}, "geometry": {"type": "LineString", "coordinates": [[2.2545446, 48.8453173], [2.2545465, 48.8452866], [2.2545093, 48.845241], [2.2544933, 48.8452349]]}}, {"type": "Feature", "properties": {"highway": "footway", "footway": "crossing", "name": null, "surface": "asphalt", "lit": "yes", "length_m": 18.89, "type_element": "Way", "__fid": 3718}, "geometry": {"type": "LineString", "coordinates": [[2.2544933, 48.8452349], [2.2545737, 48.8451665], [2.2546171, 48.8450883]]}}, {"type": "Feature", "properties": {"highway": "footway", "footway": "sidewalk", "name": null, "surface": null, "lit": null, "length_m": 94.65, "type_element": "Way", "__fid": 3720}, "geometry": {"type": "LineString", "coordinates": [[2.254911, 48.8436137], [2.2548728, 48.843595], [2.2545362, 48.842948], [2.2545496, 48.8428624], [2.2545335, 48.8428139]]}}, {"type": "Feature", "properties": {"highway": "footway", "footway": "crossing", "name": null, "surface": "asphalt", "lit": null, "length_m": 24.89, "type_element": "Way", "__fid": 3721}, "geometry": {"type": "LineString", "coordinates": [[2.2548581, 48.8427491], [2.2545335, 48.8428139]]}}, {"type": "Feature", "properties": {"highway": "footway", "footway": "traffic_island", "name": null, "surface": null, "lit": null, "length_m": 29.32, "type_element": "Way", "__fid": 3728}, "geometry": {"type": "LineString", "coordinates": [[2.2547172, 48.8455079], [2.2547173, 48.8453792], [2.2547052, 48.8453601], [2.2545446, 48.8453173]]}}, {"type": "Feature", "properties": {"highway": "footway", "footway": "sidewalk", "name": null, "surface": null, "lit": null, "length_m": 8.31, "type_element": "Way", "__fid": 3746}, "geometry": {"type": "LineString", "coordinates": [[2.2547266, 48.84510740000001], [2.2546171, 48.8450883]]}}, {"type": "Feature", "properties": {"highway": "footway", "footway": "sidewalk", "name": null, "surface": null, "lit": null, "length_m": 47.44, "type_element": "Way", "__fid": 3773}, "geometry": {"type": "LineString", "coordinates": [[2.2547172, 48.8455079], [2.2553629, 48.8454881]]}}, {"type": "Feature", "properties": {"highway": "footway", "footway": "sidewalk", "name": null, "surface": null, "lit": null, "length_m": 61.6, "type_element": "Way", "__fid": 3776}, "geometry": {"type": "LineString", "coordinates": [[2.2555567, 48.8450451], [2.2553254, 48.8450839], [2.254804, 48.8451116], [2.2547266, 48.84510740000001]]}}]}