{"type": "FeatureCollection", "features": [{"type": "Feature", "properties": {"@id": "node/495992820", "amenity": "drinking_water", "type_element": "Fontaines à boire", "__fid": 82}, "geometry": {"type": "Point", "coordinates": [2.2499063, 48.8503867]}, "id": "node/495992820"}, {"type": "Feature", "properties": {"@id": "node/918204611", "amenity": "drinking_water", "check_date": "2025-03-02", "man_made": "water_tap", "source": "Eau de Paris", "type_element": "Fontaines à boire", "__fid": 187}, "geometry": {"type": "Point", "coordinates": [2.2479003, 48.8528191]}, "id": "node/918204611"}, {"type": "Feature", "properties": {"@id": "node/918204854", "amenity": "drinking_water", "source": "Eau de Paris", "type_element": "Fontaines à boire", "__fid": 199}, "geometry": {"type": "Point", "coordinates": [2.2527583, 48.8518954]}, "id": "node/918204854"}, {"type": "Feature", "properties": {"@id": "node/5745512122", "amenity": "drinking_water", "type_element": "Fontaines à boire", "__fid": 561}, "geometry": {"type": "Point", "coordinates": [2.2538883, 48.8521222]}, "id": "node/5745512122"}, {"type": "Feature", "properties": {"@id": "node/9783920807", "access": "customers", "amenity": "drinking_water", "fee": "no", "fountain": "bottle_refill", "type_element": "Fontaines à boire", "__fid": 814}, "geometry": {"type": "Point", "coordinates": [2.2468545, 48.8475923]}, "id": "node/9783920807"}, {"type": "Feature", "geometry": {"type": "Point", "coordinates": [2.252276, 48.847767]}, "properties": {"id": 1780, "name": "Jardin des Serres d'Auteuil", "categorie": "Parcs, jardins et bois", "photo_url": "https://cdn.paris.fr/eqpts-prod/2023/04/24/5ee5fe2892250b3028bf7e977b7d0f6c.jpg", "photo_credit": "Frédéric Combeau / Ville de Paris", "photo_alt": null, "address_street": "3, avenue de la Porte-d'Auteuil", "address_postcode": "75016", "address_city": "Paris", "phone": null, "accessibility": "{\"handicaps\": [{\"name\": \"Personnes à mobilité réduite\", \"status\": \"accessible\"}, {\"name\": \"Personnes déficientes visuelles\", \"status\": \"undefined\"}, {\"name\": \"Personnes déficientes auditives\", \"status\": \"accessible\"}, {\"name\": \"Personnes déficientes mentales\", \"status\": \"accessible\"}, {\"name\": \"Accueil en langue des signes\", \"status\": \"non_accessible\"}], \"additional_info\": \"<p>Espace vert dont l’accessibilité pour les personnes à mobilité réduite et les mal voyants est limitée à certaines zones (les escaliers, classés, en face de l'entrée principale ne sont pas aux normes actuelles, empruntez les chemins en pente et si vous êtes en fauteuil roulant, soyez accompagné. Sinon, empruntez les nombreuses entrées secondaires. Certains couloirs des serres historiques ne sont pas accessibles aux fauteuils roulants et aux poussettes. \\nUne application mobile propose un audio-guide adapté aux déficients visuels qui indique les distances entre les différents points de visite et des obstacles. <a href=\\\"https://www.paris.fr/pages/le-jardin-botanique-de-paris-3539#l-accessibilite-pour-tous\\\" target=\\\"_blank\\\" rel=\\\"noopener\\\" title=\\\"Ouverture dans un nouvel onglet\\\">Toutes les informations sont ici</a></p>\"}", "latitude": 48.847767, "longitude": 2.252276, "url": "https://www.paris.fr/lieux/jardin-des-serres-d-auteuil-1780", "type_element": "Parcs, Jardins et Bois", "__fid": 1219}}, {"type": "Feature", "properties": {"highway": "path", "footway": null, "name": null, "surface": "dirt", "lit": null, "length_m": 155.71, "type_element": "Way", "__fid": 2512}, "geometry": {"type": "LineString", "coordinates": [[2.2440674, 48.8493258], [2.2459223, 48.85000580000001]]}}, {"type": "Feature", "properties": {"highway": "footway", "footway": "sidewalk", "name": null, "surface": null, "lit": null, "length_m": 138.8, "type_element": "Way", "__fid": 2527}, "geometry": {"type": "LineString", "coordinates": [[2.2441655, 48.8479605], [2.2460567, 48.8479458]]}}, {"type": "Feature", "properties": {"highway": "track", "footway": null, "name": null, "surface": null, "lit": null, "length_m": 144.63, "type_element": "Way", "__fid": 2568}, "geometry": {"type": "LineString", "coordinates": [[2.2443624, 48.8492143], [2.2460852, 48.8498461]]}}, {"type": "Feature", "properties": {"highway": "footway", "footway": null, "name": "Allée des Princes", "surface": null, "lit": null, "length_m": 127.37, "type_element": "Way", "__fid": 2623}, "geometry": {"type": "LineString", "coordinates": [[2.2460107, 48.84781209999998], [2.2456424, 48.8478966], [2.2454625, 48.8475879], [2.2446737, 48.847787]]}}, {"type": "Feature", "properties": {"highway": "service", "footway": null, "name": "Route de la Seine à la Butte Mortemart", "surface": "asphalt", "lit": null, "length_m": 229.56, "type_element": "Way", "__fid": 2648}, "geometry": {"type": "LineString", "coordinates": [[2.2447164, 48.8531326], [2.2451536, 48.8529708], [2.2456989, 48.85280729999999], [2.2465486, 48.8527215], [2.2472696, 48.8527611], [2.2476959, 48.85284570000001]]}}, {"type": "Feature", "properties": {"highway": "path", "footway": null, "name": null, "surface": null, "lit": null, "length_m": 141.42, "type_element": "Way", "__fid": 2660}, "geometry": {"type": "LineString", "coordinates": [[2.2447761, 48.8523975], [2.2450353, 48.85236430000001], [2.2456821, 48.8523463], [2.2466569, 48.8521577]]}}, {"type": "Feature", "properties": {"highway": "path", "footway": null, "name": null, "surface": null, "lit": null, "length_m": 112.41, "type_element": "Way", "__fid": 2727}, "geometry": {"type": "LineString", "coordinates": [[2.2461318, 48.8514785], [2.2456795, 48.85105150000001], [2.2455226, 48.8508353], [2.2452982, 48.8506336]]}}, {"type": "Feature", "properties": {"highway": "service", "footway": null, "name": "Avenue de Saint-Cloud", "surface": "asphalt", "lit": null, "length_m": 142.93, "type_element": "Way", "__fid": 2745}, "geometry": {"type": "LineString", "coordinates": [[2.2454342, 48.8511578], [2.2457223, 48.8514184], [2.2466569, 48.8521577]]}}, {"type": "Feature", "properties": {"highway": "footway", "footway": null, "name": null, "surface": "paving_stones", "lit": null, "length_m": 91.51, "type_element": "Way", "__fid": 2756}, "geometry": {"type": "LineString", "coordinates": [[2.2455664, 48.8470431], [2.2460107, 48.84781209999998]]}}, {"type": "Feature", "properties": {"highway": "path", "footway": null, "name": null, "surface": "wood", "lit": "no", "length_m": 127.39, "type_element": "Way", "__fid": 2771}, "geometry": {"type": "LineString", "coordinates": [[2.2456074, 48.8501932], [2.245779, 48.8502745], [2.2459426, 48.8503712], [2.2464157, 48.8505474], [2.2470058, 48.85086549999998]]}}, {"type": "Feature", "properties": {"highway": "path", "footway": null, "name": null, "surface": null, "lit": null, "length_m": 31.12, "type_element": "Way", "__fid": 2772}, "geometry": {"type": "LineString", "coordinates": [[2.2456074, 48.8501932], [2.2459223, 48.85000580000001]]}}, {"type": "Feature", "properties": {"highway": "service", "footway": null, "name": "Route de Boulogne à Passy", "surface": "asphalt", "lit": null, "length_m": 334.55, "type_element": "Way", "__fid": 2776}, "geometry": {"type": "LineString", "coordinates": [[2.2493113, 48.8508034], [2.2483271, 48.850305599999984], [2.247297, 48.8497375], [2.2466939, 48.84942979999999], [2.2461022, 48.8491724], [2.2456645, 48.84900550000001]]}}, {"type": "Feature", "properties": {"highway": "path", "footway": null, "name": null, "surface": null, "lit": null, "length_m": 114.41, "type_element": "Way", "__fid": 2777}, "geometry": {"type": "LineString", "coordinates": [[2.2470647, 48.848794], [2.2468622, 48.8488221], [2.2466708, 48.8487947], [2.2465103, 48.8487593], [2.2462441, 48.8487535], [2.2461506, 48.8487992], [2.2459539, 48.8489504], [2.2457785, 48.8489749], [2.2456645, 48.84900550000001]]}}, {"type": "Feature", "properties": {"highway": "path", "footway": null, "name": null, "surface": "dirt", "lit": null, "length_m": 121.0, "type_element": "Way", "__fid": 2801}, "geometry": {"type": "LineString", "coordinates": [[2.2459223, 48.85000580000001], [2.2461007, 48.8500569], [2.2467242, 48.850316200000016], [2.2473517, 48.8505458]]}}, {"type": "Feature", "properties": {"highway": "path", "footway": null, "name": null, "surface": null, "lit": null, "length_m": 21.41, "type_element": "Way", "__fid": 2802}, "geometry": {"type": "LineString", "coordinates": [[2.2459223, 48.85000580000001], [2.2460852, 48.8498461]]}}, {"type": "Feature", "properties": {"highway": "footway", "footway": null, "name": null, "surface": "paving_stones", "lit": null, "length_m": 15.25, "type_element": "Way", "__fid": 2811}, "geometry": {"type": "LineString", "coordinates": [[2.2460107, 48.84781209999998], [2.2460567, 48.8479458]]}}, {"type": "Feature", "properties": {"highway": "footway", "footway": null, "name": null, "surface": "paving_stones", "lit": null, "length_m": 4.73, "type_element": "Way", "__fid": 2816}, "geometry": {"type": "LineString", "coordinates": [[2.2460567, 48.8479458], [2.2460599, 48.8479883]]}}, {"type": "Feature", "properties": {"highway": "footway", "footway": "sidewalk", "name": null, "surface": null, "lit": null, "length_m": 208.01, "type_element": "Way", "__fid": 2817}, "geometry": {"type": "LineString", "coordinates": [[2.2460567, 48.8479458], [2.248891, 48.8479265]]}}, {"type": "Feature", "properties": {"highway": "track", "footway": null, "name": null, "surface": null, "lit": null, "length_m": 121.13, "type_element": "Way", "__fid": 2825}, "geometry": {"type": "LineString", "coordinates": [[2.2460852, 48.8498461], [2.2475263, 48.8503774]]}}, {"type": "Feature", "properties": {"highway": "path", "footway": null, "name": null, "surface": null, "lit": null, "length_m": 93.47, "type_element": "Way", "__fid": 2833}, "geometry": {"type": "LineString", "coordinates": [[2.2466569, 48.8521577], [2.2467448, 48.85206560000001], [2.246722, 48.8519722], [2.2465919, 48.8518082], [2.2463594, 48.8516843], [2.2461318, 48.8514785]]}}, {"type": "Feature", "properties": {"highway": "path", "footway": null, "name": null, "surface": null, "lit": null, "length_m": 95.77, "type_element": "Way", "__fid": 2834}, "geometry": {"type": "LineString", "coordinates": [[2.2461318, 48.8514785], [2.2466948, 48.8511496], [2.2468046, 48.85110960000002], [2.2468831, 48.85104769999999], [2.2469242, 48.8509806], [2.2469458, 48.8509226], [2.2470058, 48.85086549999998]]}}, {"type": "Feature", "properties": {"highway": "track", "footway": null, "name": "Route d'Auteuil à Suresnes", "surface": "compacted", "lit": null, "length_m": 205.52, "type_element": "Way", "__fid": 2836}, "geometry": {"type": "LineString", "coordinates": [[2.2476959, 48.85284570000001], [2.246125, 48.8543759]]}}, {"type": "Feature", "properties": {"highway": "service", "footway": null, "name": "Avenue de Saint-Cloud", "surface": "asphalt", "lit": null, "length_m": 108.15, "type_element": "Way", "__fid": 2871}, "geometry": {"type": "LineString", "coordinates": [[2.2466569, 48.8521577], [2.2470892, 48.85247950000002], [2.2476959, 48.85284570000001]]}}, {"type": "Feature", "properties": {"highway": "path", "footway": null, "name": null, "surface": "wood", "lit": "no", "length_m": 125.44, "type_element": "Way", "__fid": 2893}, "geometry": {"type": "LineString", "coordinates": [[2.2470058, 48.85086549999998], [2.2473981, 48.8511626], [2.2478393, 48.8513371], [2.248023, 48.8514466], [2.2482074, 48.8516432]]}}, {"type": "Feature", "properties": {"highway": "path", "footway": null, "name": null, "surface": null, "lit": null, "length_m": 43.68, "type_element": "Way", "__fid": 2894}, "geometry": {"type": "LineString", "coordinates": [[2.2470058, 48.85086549999998], [2.2473517, 48.8505458]]}}, {"type": "Feature", "properties": {"highway": "path", "footway": null, "name": null, "surface": null, "lit": null, "length_m": 225.29, "type_element": "Way", "__fid": 2899}, "geometry": {"type": "LineString", "coordinates": [[2.2496734, 48.8498315], [2.249287, 48.84962929999998], [2.247865, 48.8490009], [2.2475388, 48.8488936], [2.2472298, 48.84884839999998], [2.2470647, 48.848794]]}}, {"type": "Feature", "properties": {"highway": "footway", "footway": null, "name": null, "surface": null, "lit": null, "length_m": 143.67, "type_element": "Way", "__fid": 2900}, "geometry": {"type": "LineString", "coordinates": [[2.248979, 48.84866719999999], [2.2488488, 48.8486614], [2.2486427, 48.8486751], [2.2482473, 48.848676], [2.2480918, 48.8486715], [2.2479041, 48.84865210000002], [2.2476672, 48.8486855], [2.2475319, 48.8486767], [2.2473419, 48.848713400000015], [2.2470647, 48.848794]]}}, {"type": "Feature", "properties": {"highway": "pedestrian", "footway": null, "name": "Allée Clubs des Loges", "surface": "paving_stones", "lit": null, "length_m": 84.86, "type_element": "Way", "__fid": 2903}, "geometry": {"type": "LineString", "coordinates": [[2.2471158, 48.8471659], [2.2473297, 48.84754619999998], [2.2473136, 48.8475868], [2.247484, 48.8478816]]}}, {"type": "Feature", "properties": {"highway": "path", "footway": null, "name": null, "surface": "dirt", "lit": null, "length_m": 144.24, "type_element": "Way", "__fid": 2932}, "geometry": {"type": "LineString", "coordinates": [[2.2473517, 48.8505458], [2.2477266, 48.8507092], [2.2482791, 48.8510031], [2.24862, 48.8511413], [2.2490178, 48.851197]]}}, {"type": "Feature", "properties": {"highway": "path", "footway": null, "name": null, "surface": null, "lit": null, "length_m": 22.69, "type_element": "Way", "__fid": 2933}, "geometry": {"type": "LineString", "coordinates": [[2.2473517, 48.8505458], [2.2475263, 48.8503774]]}}, {"type": "Feature", "properties": {"highway": "track", "footway": null, "name": null, "surface": null, "lit": null, "length_m": 152.48, "type_element": "Way", "__fid": 2943}, "geometry": {"type": "LineString", "coordinates": [[2.2475263, 48.8503774], [2.2479225, 48.85052359999999], [2.2492685, 48.85112329999998]]}}, {"type": "Feature", "properties": {"highway": "service", "footway": null, "name": null, "surface": null, "lit": null, "length_m": 102.71, "type_element": "Way", "__fid": 2950}, "geometry": {"type": "LineString", "coordinates": [[2.248979, 48.84866719999999], [2.2488895, 48.8486162], [2.2487885, 48.8485779], [2.2485475, 48.8485249], [2.2483711, 48.8485018], [2.248207, 48.8484998], [2.2479782, 48.84848550000002], [2.2478778, 48.84845519999999], [2.247701, 48.8483616]]}}, {"type": "Feature", "properties": {"highway": "service", "footway": null, "name": "Route de la Seine à la Butte Mortemart", "surface": "asphalt", "lit": null, "length_m": 17.89, "type_element": "Way", "__fid": 2954}, "geometry": {"type": "LineString", "coordinates": [[2.2476959, 48.85284570000001], [2.2479376, 48.852867]]}}, {"type": "Feature", "properties": {"highway": "service", "footway": null, "name": "Avenue de Saint-Cloud", "surface": "asphalt", "lit": null, "length_m": 41.73, "type_element": "Way", "__fid": 2955}, "geometry": {"type": "LineString", "coordinates": [[2.2476959, 48.85284570000001], [2.2481492, 48.8530723]]}}, {"type": "Feature", "properties": {"highway": "track", "footway": null, "name": "Route du Point du Jour à Bagatelle", "surface": "asphalt", "lit": "no", "length_m": 230.58, "type_element": "Way", "__fid": 2956}, "geometry": {"type": "LineString", "coordinates": [[2.2476959, 48.85284570000001], [2.2476796, 48.853042], [2.2476958, 48.8532529], [2.247777, 48.8536503], [2.2478309, 48.8538424], [2.2478935, 48.8539978], [2.2480361, 48.854148], [2.2483306, 48.8544064], [2.2487599, 48.8547002]]}}, {"type": "Feature", "properties": {"highway": "track", "footway": null, "name": "Route du Point du Jour à Bagatelle", "surface": "asphalt", "lit": null, "length_m": 139.24, "type_element": "Way", "__fid": 2957}, "geometry": {"type": "LineString", "coordinates": [[2.2482074, 48.8516432], [2.2479835, 48.8520152], [2.2476959, 48.85284570000001]]}}, {"type": "Feature", "properties": {"highway": "track", "footway": null, "name": "Route d'Auteuil à Suresnes", "surface": "compacted", "lit": null, "length_m": 108.69, "type_element": "Way", "__fid": 2958}, "geometry": {"type": "LineString", "coordinates": [[2.2484643, 48.85201], [2.2476959, 48.85284570000001]]}}, {"type": "Feature", "properties": {"highway": "service", "footway": null, "name": "Route de la Seine à la Butte Mortemart", "surface": "asphalt", "lit": null, "length_m": 164.34, "type_element": "Way", "__fid": 2970}, "geometry": {"type": "LineString", "coordinates": [[2.2479376, 48.852867], [2.2484317, 48.852957], [2.249012, 48.8530789], [2.2498569, 48.8532383], [2.2500926, 48.85326540000001]]}}, {"type": "Feature", "properties": {"highway": "path", "footway": null, "name": null, "surface": null, "lit": null, "length_m": 127.99, "type_element": "Way", "__fid": 2971}, "geometry": {"type": "LineString", "coordinates": [[2.2495442, 48.85247870000001], [2.2489156, 48.85253789999998], [2.2486576, 48.8525993], [2.248432, 48.8526618], [2.2480724, 48.8527801], [2.2479376, 48.852867]]}}, {"type": "Feature", "properties": {"highway": "pedestrian", "footway": null, "name": "Allée Suzanne Lenglen", "surface": "asphalt", "lit": null, "length_m": 123.18, "type_element": "Way", "__fid": 2996}, "geometry": {"type": "LineString", "coordinates": [[2.2482081, 48.8468779], [2.2487898, 48.847872], [2.2488497, 48.8478573]]}}, {"type": "Feature", "properties": {"highway": "service", "footway": null, "name": "Avenue de Saint-Cloud", "surface": "asphalt", "lit": null, "length_m": 177.41, "type_element": "Way", "__fid": 3006}, "geometry": {"type": "LineString", "coordinates": [[2.2481492, 48.8530723], [2.248854, 48.8534316], [2.2495352, 48.85383259999998], [2.2497804, 48.8539939], [2.2499562, 48.8541275]]}}, {"type": "Feature", "properties": {"highway": "path", "footway": null, "name": null, "surface": "wood", "lit": null, "length_m": 182.89, "type_element": "Way", "__fid": 3007}, "geometry": {"type": "LineString", "coordinates": [[2.2481492, 48.8530723], [2.2481377, 48.853209], [2.2486948, 48.8537714], [2.2489189, 48.854032], [2.2495975, 48.8543272]]}}, {"type": "Feature", "properties": {"highway": "path", "footway": null, "name": null, "surface": "wood", "lit": "no", "length_m": 44.93, "type_element": "Way", "__fid": 3011}, "geometry": {"type": "LineString", "coordinates": [[2.2482074, 48.8516432], [2.2484643, 48.85201]]}}, {"type": "Feature", "properties": {"highway": "track", "footway": null, "name": "Route du Point du Jour à Bagatelle", "surface": "asphalt", "lit": null, "length_m": 79.15, "type_element": "Way", "__fid": 3012}, "geometry": {"type": "LineString", "coordinates": [[2.2490178, 48.851197], [2.2486144, 48.8513462], [2.2482797, 48.8515439], [2.2482074, 48.8516432]]}}, {"type": "Feature", "properties": {"highway": "path", "footway": null, "name": null, "surface": "wood", "lit": "no", "length_m": 97.26, "type_element": "Way", "__fid": 3030}, "geometry": {"type": "LineString", "coordinates": [[2.2484643, 48.85201], [2.248723, 48.8522181], [2.2491185, 48.852383], [2.2495442, 48.85247870000001]]}}, {"type": "Feature", "properties": {"highway": "track", "footway": null, "name": "Route d'Auteuil à Suresnes", "surface": "compacted", "lit": null, "length_m": 93.35, "type_element": "Way", "__fid": 3031}, "geometry": {"type": "LineString", "coordinates": [[2.2491316, 48.8512952], [2.2484643, 48.85201]]}}, {"type": "Feature", "properties": {"highway": "service", "footway": null, "name": null, "surface": null, "lit": null, "length_m": 8.27, "type_element": "Way", "__fid": 3051}, "geometry": {"type": "LineString", "coordinates": [[2.2488497, 48.8478573], [2.248891, 48.8479265]]}}, {"type": "Feature", "properties": {"highway": "pedestrian", "footway": null, "name": "Allée Nord Chatrier", "surface": null, "lit": null, "length_m": 115.01, "type_element": "Way", "__fid": 3052}, "geometry": {"type": "LineString", "coordinates": [[2.2503397, 48.8475368], [2.2488497, 48.8478573]]}}, {"type": "Feature", "properties": {"highway": "service", "footway": null, "name": null, "surface": null, "lit": null, "length_m": 20.25, "type_element": "Way", "__fid": 3058}, "geometry": {"type": "LineString", "coordinates": [[2.248891, 48.8479265], [2.2489449, 48.84801239999998], [2.2489724, 48.84807150000001], [2.2489727, 48.84809880000001]]}}, {"type": "Feature", "properties": {"highway": "footway", "footway": "sidewalk", "name": null, "surface": null, "lit": null, "length_m": 20.54, "type_element": "Way", "__fid": 3059}, "geometry": {"type": "LineString", "coordinates": [[2.2491709, 48.8479243], [2.248891, 48.8479265]]}}, {"type": "Feature", "properties": {"highway": "service", "footway": null, "name": "Route du Point du Jour à Bagatelle", "surface": "asphalt", "lit": null, "length_m": 63.2, "type_element": "Way", "__fid": 3060}, "geometry": {"type": "LineString", "coordinates": [[2.2489727, 48.84809880000001], [2.248979, 48.84866719999999]]}}, {"type": "Feature", "properties": {"highway": "footway", "footway": "sidewalk", "name": null, "surface": null, "lit": null, "length_m": 14.52, "type_element": "Way", "__fid": 3061}, "geometry": {"type": "LineString", "coordinates": [[2.2489727, 48.84809880000001], [2.2491705, 48.8480974]]}}, {"type": "Feature", "properties": {"highway": "service", "footway": null, "name": "Route du Point du Jour à Bagatelle", "surface": "asphalt", "lit": null, "length_m": 15.05, "type_element": "Way", "__fid": 3064}, "geometry": {"type": "LineString", "coordinates": [[2.248979, 48.84866719999999], [2.2490715, 48.848788]]}}, {"type": "Feature", "properties": {"highway": "path", "footway": null, "name": null, "surface": "dirt", "lit": null, "length_m": 14.12, "type_element": "Way", "__fid": 3067}, "geometry": {"type": "LineString", "coordinates": [[2.2490178, 48.851197], [2.2490758, 48.85122409999999], [2.2491316, 48.8512952]]}}, {"type": "Feature", "properties": {"highway": "track", "footway": null, "name": "Route du Point du Jour à Bagatelle", "surface": "asphalt", "lit": null, "length_m": 20.63, "type_element": "Way", "__fid": 3068}, "geometry": {"type": "LineString", "coordinates": [[2.2492685, 48.85112329999998], [2.24921, 48.8511261], [2.2491449, 48.8511389], [2.2490178, 48.851197]]}}, {"type": "Feature", "properties": {"highway": "footway", "footway": null, "name": null, "surface": null, "lit": null, "length_m": 177.13, "type_element": "Way", "__fid": 3070}, "geometry": {"type": "LineString", "coordinates": [[2.2510273, 48.8494619], [2.2509344, 48.8494357], [2.2508437, 48.84939639999999], [2.2507331, 48.849364399999985], [2.2506203, 48.849344], [2.2502753, 48.8493309], [2.250178, 48.8493207], [2.2501161, 48.8493032], [2.250052, 48.8492756], [2.2500099, 48.8492465], [2.2499303, 48.84913009999999], [2.2496579, 48.8490732], [2.249555, 48.8490035], [2.2494767, 48.8488474], [2.2493904, 48.84879029999998], [2.2491826, 48.8487947], [2.2490715, 48.848788]]}}, {"type": "Feature", "properties": {"highway": "service", "footway": null, "name": "Route du Point du Jour à Bagatelle", "surface": "asphalt", "lit": null, "length_m": 124.45, "type_element": "Way", "__fid": 3071}, "geometry": {"type": "LineString", "coordinates": [[2.2490715, 48.848788], [2.2493061, 48.8490944], [2.2496734, 48.8498315]]}}, {"type": "Feature", "properties": {"highway": "footway", "footway": "crossing", "name": null, "surface": null, "lit": null, "length_m": 19.25, "type_element": "Way", "__fid": 3084}, "geometry": {"type": "LineString", "coordinates": [[2.2491709, 48.8479243], [2.2491705, 48.8480974]]}}, {"type": "Feature", "properties": {"highway": "footway", "footway": "sidewalk", "name": null, "surface": null, "lit": null, "length_m": 135.38, "type_element": "Way", "__fid": 3085}, "geometry": {"type": "LineString", "coordinates": [[2.2510156, 48.8479098], [2.2491709, 48.8479243]]}}, {"type": "Feature", "properties": {"highway": "footway", "footway": "sidewalk", "name": null, "surface": null, "lit": null, "length_m": 135.29, "type_element": "Way", "__fid": 3086}, "geometry": {"type": "LineString", "coordinates": [[2.2491705, 48.8480974], [2.251014, 48.848084]]}}, {"type": "Feature", "properties": {"highway": "path", "footway": null, "name": null, "surface": null, "lit": null, "length_m": 147.2, "type_element": "Way", "__fid": 3087}, "geometry": {"type": "LineString", "coordinates": [[2.2506313, 48.85210830000001], [2.2501449, 48.8519545], [2.2497313, 48.8517731], [2.2493292, 48.851574], [2.2491744, 48.8513754], [2.2491316, 48.8512952]]}}, {"type": "Feature", "properties": {"highway": "track", "footway": null, "name": "Route d'Auteuil à Suresnes", "surface": "dirt", "lit": null, "length_m": 21.59, "type_element": "Way", "__fid": 3088}, "geometry": {"type": "LineString", "coordinates": [[2.2492685, 48.85112329999998], [2.2491316, 48.8512952]]}}, {"type": "Feature", "properties": {"highway": "track", "footway": null, "name": null, "surface": "asphalt", "lit": null, "length_m": 236.03, "type_element": "Way", "__fid": 3098}, "geometry": {"type": "LineString", "coordinates": [[2.2492685, 48.85112329999998], [2.2497966, 48.8513591], [2.250085, 48.8514694], [2.2503512, 48.8515616], [2.2508725, 48.85170939999998], [2.2511747, 48.85183889999998], [2.2514315, 48.8519909], [2.2516849, 48.852275], [2.2517583, 48.8523782]]}}, {"type": "Feature", "properties": {"highway": "track", "footway": null, "name": "Route du Point du Jour à Bagatelle", "surface": "dirt", "lit": null, "length_m": 31.17, "type_element": "Way", "__fid": 3099}, "geometry": {"type": "LineString", "coordinates": [[2.2495701, 48.8509259], [2.2492685, 48.85112329999998]]}}, {"type": "Feature", "properties": {"highway": "path", "footway": null, "name": null, "surface": "wood", "lit": "no", "length_m": 86.48, "type_element": "Way", "__fid": 3123}, "geometry": {"type": "LineString", "coordinates": [[2.2495442, 48.85247870000001], [2.2498513, 48.8525477], [2.250053, 48.8526425], [2.2502445, 48.85283660000001], [2.2504504, 48.8529364]]}}, {"type": "Feature", "properties": {"highway": "path", "footway": null, "name": null, "surface": null, "lit": null, "length_m": 59.85, "type_element": "Way", "__fid": 3124}, "geometry": {"type": "LineString", "coordinates": [[2.250304, 48.8523429], [2.2502323, 48.852397500000016], [2.2500633, 48.85244689999998], [2.2495442, 48.85247870000001]]}}, {"type": "Feature", "properties": {"highway": "pedestrian", "footway": null, "name": "Allée des Mousquetaires", "surface": "paving_stones", "lit": null, "length_m": 125.79, "type_element": "Way", "__fid": 3125}, "geometry": {"type": "LineString", "coordinates": [[2.2503397, 48.8475368], [2.2496963, 48.84648829999998]]}}, {"type": "Feature", "properties": {"highway": "path", "footway": null, "name": null, "surface": null, "lit": null, "length_m": 209.15, "type_element": "Way", "__fid": 3132}, "geometry": {"type": "LineString", "coordinates": [[2.2514137, 48.8512275], [2.2511379, 48.8511141], [2.251107, 48.8510739], [2.2509551, 48.8509633], [2.2508975, 48.8508589], [2.2507778, 48.8507396], [2.2507358, 48.850649], [2.2507025, 48.85049870000001], [2.250631, 48.8503891], [2.2505081, 48.85025790000001], [2.2502994, 48.8501312], [2.2501043, 48.8500287], [2.2496734, 48.8498315]]}}, {"type": "Feature", "properties": {"highway": "service", "footway": null, "name": "Route du Point du Jour à Bagatelle", "surface": "asphalt", "lit": null, "length_m": 143.09, "type_element": "Way", "__fid": 3133}, "geometry": {"type": "LineString", "coordinates": [[2.2496734, 48.8498315], [2.249787, 48.8502686], [2.249786, 48.8504523], [2.2497694, 48.8506336], [2.2497476, 48.850716300000016], [2.250262, 48.8509165]]}}, {"type": "Feature", "properties": {"highway": "service", "footway": null, "name": null, "surface": null, "lit": null, "length_m": 29.19, "type_element": "Way", "__fid": 3155}, "geometry": {"type": "LineString", "coordinates": [[2.2500918, 48.8511538], [2.250262, 48.8509165]]}}, {"type": "Feature", "properties": {"highway": "track", "footway": null, "name": "Chemin des Vieux Chênes", "surface": "asphalt", "lit": null, "length_m": 49.08, "type_element": "Way", "__fid": 3157}, "geometry": {"type": "LineString", "coordinates": [[2.2506608, 48.8530373], [2.2503432, 48.8531919], [2.2500926, 48.85326540000001]]}}, {"type": "Feature", "properties": {"highway": "service", "footway": null, "name": null, "surface": null, "lit": null, "length_m": 40.07, "type_element": "Way", "__fid": 3166}, "geometry": {"type": "LineString", "coordinates": [[2.2507428, 48.8510873], [2.250262, 48.8509165]]}}, {"type": "Feature", "properties": {"highway": "pedestrian", "footway": null, "name": "Allée Nord Chatrier", "surface": null, "lit": null, "length_m": 55.26, "type_element": "Way", "__fid": 3167}, "geometry": {"type": "LineString", "coordinates": [[2.2510592, 48.84742330000001], [2.2509185, 48.8474086], [2.2503397, 48.8475368]]}}, {"type": "Feature", "properties": {"highway": "path", "footway": null, "name": null, "surface": null, "lit": null, "length_m": 67.72, "type_element": "Way", "__fid": 3170}, "geometry": {"type": "LineString", "coordinates": [[2.2504504, 48.8529364], [2.2504454, 48.8528446], [2.2503983, 48.8527151], [2.2503985, 48.85260730000001], [2.2503817, 48.8524524], [2.250304, 48.8523429]]}}, {"type": "Feature", "properties": {"highway": "path", "footway": null, "name": null, "surface": null, "lit": null, "length_m": 38.92, "type_element": "Way", "__fid": 3171}, "geometry": {"type": "LineString", "coordinates": [[2.250304, 48.8523429], [2.2503179, 48.8522462], [2.2503789, 48.85219510000002], [2.2506313, 48.85210830000001]]}}, {"type": "Feature", "properties": {"highway": "path", "footway": null, "name": null, "surface": "wood", "lit": "no", "length_m": 19.09, "type_element": "Way", "__fid": 3183}, "geometry": {"type": "LineString", "coordinates": [[2.2504504, 48.8529364], [2.2506608, 48.8530373]]}}, {"type": "Feature", "properties": {"highway": "path", "footway": null, "name": null, "surface": null, "lit": null, "length_m": 85.52, "type_element": "Way", "__fid": 3190}, "geometry": {"type": "LineString", "coordinates": [[2.2516837, 48.8524277], [2.2515429, 48.852360300000015], [2.2512518, 48.8522544], [2.251022, 48.85219390000001], [2.2506313, 48.85210830000001]]}}, {"type": "Feature", "properties": {"highway": "path", "footway": null, "name": null, "surface": "wood", "lit": "no", "length_m": 40.88, "type_element": "Way", "__fid": 3191}, "geometry": {"type": "LineString", "coordinates": [[2.2506608, 48.8530373], [2.2510437, 48.8533044]]}}, {"type": "Feature", "properties": {"highway": "track", "footway": null, "name": "Chemin des Vieux Chênes", "surface": "asphalt", "lit": null, "length_m": 101.26, "type_element": "Way", "__fid": 3192}, "geometry": {"type": "LineString", "coordinates": [[2.2516837, 48.8524277], [2.2511756, 48.8527], [2.2506608, 48.8530373]]}}, {"type": "Feature", "properties": {"highway": "service", "footway": null, "name": null, "surface": null, "lit": null, "length_m": 32.46, "type_element": "Way", "__fid": 3201}, "geometry": {"type": "LineString", "coordinates": [[2.2507529, 48.8499361], [2.2509058, 48.8499537], [2.2509313, 48.8500067], [2.2509593, 48.8501393]]}}, {"type": "Feature", "properties": {"highway": "service", "footway": null, "name": null, "surface": null, "lit": null, "length_m": 38.52, "type_element": "Way", "__fid": 3209}, "geometry": {"type": "LineString", "coordinates": [[2.2509593, 48.8501393], [2.2510402, 48.8504092], [2.2510235, 48.85044829999999], [2.2509936, 48.8504718]]}}, {"type": "Feature", "properties": {"highway": "footway", "footway": null, "name": null, "surface": "concrete", "lit": "no", "length_m": 76.6, "type_element": "Way", "__fid": 3210}, "geometry": {"type": "LineString", "coordinates": [[2.2510273, 48.8494619], [2.2509842, 48.8495311], [2.2509929, 48.8498285], [2.2510157, 48.8499904], [2.2509967, 48.8500673], [2.2509593, 48.8501393]]}}, {"type": "Feature", "properties": {"highway": "footway", "footway": "crossing", "name": null, "surface": null, "lit": null, "length_m": 19.37, "type_element": "Way", "__fid": 3214}, "geometry": {"type": "LineString", "coordinates": [[2.2510156, 48.8479098], [2.251014, 48.848084]]}}, {"type": "Feature", "properties": {"highway": "footway", "footway": "sidewalk", "name": null, "surface": "concrete:plates", "lit": "no", "length_m": 91.73, "type_element": "Way", "__fid": 3215}, "geometry": {"type": "LineString", "coordinates": [[2.2522647, 48.8478944], [2.2511472, 48.8478997], [2.2510156, 48.8479098]]}}, {"type": "Feature", "properties": {"highway": "footway", "footway": "sidewalk", "name": null, "surface": null, "lit": null, "length_m": 71.85, "type_element": "Way", "__fid": 3216}, "geometry": {"type": "LineString", "coordinates": [[2.251014, 48.848084], [2.251993, 48.8480771]]}}, {"type": "Feature", "properties": {"highway": "footway", "footway": null, "name": null, "surface": null, "lit": null, "length_m": 95.23, "type_element": "Way", "__fid": 3217}, "geometry": {"type": "LineString", "coordinates": [[2.2514137, 48.8512275], [2.2513389, 48.8511424], [2.2511619, 48.8509951], [2.2509634, 48.8507912], [2.2509245, 48.8506924], [2.2509393, 48.85061560000001], [2.2509936, 48.8504718]]}}, {"type": "Feature", "properties": {"highway": "service", "footway": null, "name": null, "surface": null, "lit": null, "length_m": 7.0, "type_element": "Way", "__fid": 3218}, "geometry": {"type": "LineString", "coordinates": [[2.2510875, 48.8504607], [2.2509936, 48.8504718]]}}, {"type": "Feature", "properties": {"highway": "footway", "footway": null, "name": null, "surface": null, "lit": null, "length_m": 186.8, "type_element": "Way", "__fid": 3220}, "geometry": {"type": "LineString", "coordinates": [[2.2520012, 48.8482355], [2.252044, 48.8483682], [2.2521793, 48.84859009999999], [2.2521895, 48.84863880000001], [2.2521742, 48.84867240000001], [2.2521487, 48.8487026], [2.2519112, 48.8488203], [2.2516443, 48.8489147], [2.2515271, 48.8489685], [2.2514983, 48.8489991], [2.2514917, 48.8490384], [2.2515072, 48.8492741], [2.2514585, 48.8493353], [2.251401, 48.8493702], [2.2511998, 48.8494313], [2.2510273, 48.8494619]]}}, {"type": "Feature", "properties": {"highway": "service", "footway": null, "name": "Route de la Seine à la Butte Mortemart", "surface": "asphalt", "lit": null, "length_m": 91.12, "type_element": "Way", "__fid": 3227}, "geometry": {"type": "LineString", "coordinates": [[2.2510437, 48.8533044], [2.2514215, 48.8532647], [2.2522495, 48.8531133]]}}, {"type": "Feature", "properties": {"highway": "service", "footway": null, "name": null, "surface": null, "lit": null, "length_m": 59.14, "type_element": "Way", "__fid": 3228}, "geometry": {"type": "LineString", "coordinates": [[2.2510875, 48.8504607], [2.2511257, 48.85055430000001], [2.2511351, 48.8506341], [2.2511224, 48.8507299], [2.2513101, 48.8507978], [2.2513926, 48.8506937]]}}, {"type": "Feature", "properties": {"highway": "service", "footway": null, "name": null, "surface": null, "lit": null, "length_m": 45.76, "type_element": "Way", "__fid": 3229}, "geometry": {"type": "LineString", "coordinates": [[2.251296, 48.8501029], [2.2512779, 48.850305], [2.2512471, 48.8503645], [2.2512089, 48.8504082], [2.2510875, 48.8504607]]}}, {"type": "Feature", "properties": {"highway": "footway", "footway": null, "name": null, "surface": "concrete", "lit": "no", "length_m": 32.92, "type_element": "Way", "__fid": 3235}, "geometry": {"type": "LineString", "coordinates": [[2.2515664, 48.8475576], [2.2514462, 48.84766580000002], [2.2514201, 48.8476777], [2.2512846, 48.84764460000001], [2.2512159, 48.8476394]]}}, {"type": "Feature", "properties": {"highway": "footway", "footway": null, "name": null, "surface": null, "lit": null, "length_m": 38.59, "type_element": "Way", "__fid": 3255}, "geometry": {"type": "LineString", "coordinates": [[2.2513691, 48.8472514], [2.2513913, 48.84738650000002], [2.2514281, 48.8474531], [2.2514912, 48.8475162], [2.2515664, 48.8475576]]}}, {"type": "Feature", "properties": {"highway": "footway", "footway": null, "name": null, "surface": null, "lit": null, "length_m": 197.86, "type_element": "Way", "__fid": 3279}, "geometry": {"type": "LineString", "coordinates": [[2.2528289, 48.850436400000014], [2.2528202, 48.850643], [2.252906, 48.85107620000003], [2.2528488, 48.85121690000001], [2.2526478, 48.8512622], [2.2517239, 48.8513353], [2.2516279, 48.8513251], [2.2514137, 48.8512275]]}}, {"type": "Feature", "properties": {"highway": "path", "footway": null, "name": null, "surface": null, "lit": null, "length_m": 42.07, "type_element": "Way", "__fid": 3280}, "geometry": {"type": "LineString", "coordinates": [[2.2518544, 48.8514565], [2.2516541, 48.8513957], [2.2515481, 48.851341], [2.2514137, 48.8512275]]}}, {"type": "Feature", "properties": {"highway": "footway", "footway": null, "name": null, "surface": null, "lit": null, "length_m": 51.76, "type_element": "Way", "__fid": 3300}, "geometry": {"type": "LineString", "coordinates": [[2.2515664, 48.8475576], [2.2516749, 48.847597], [2.2517634, 48.8476151], [2.2518955, 48.8476217], [2.2522518, 48.84761940000001]]}}, {"type": "Feature", "properties": {"highway": "track", "footway": null, "name": "Chemin des Vieux Chênes", "surface": "asphalt", "lit": null, "length_m": 7.76, "type_element": "Way", "__fid": 3334}, "geometry": {"type": "LineString", "coordinates": [[2.2517583, 48.8523782], [2.2516837, 48.8524277]]}}, {"type": "Feature", "properties": {"highway": "track", "footway": null, "name": null, "surface": "compacted", "lit": null, "length_m": 89.43, "type_element": "Way", "__fid": 3337}, "geometry": {"type": "LineString", "coordinates": [[2.2517583, 48.8523782], [2.2519206, 48.8526655], [2.2522495, 48.8531133]]}}, {"type": "Feature", "properties": {"highway": "track", "footway": null, "name": "Chemin des Vieux Chênes", "surface": "asphalt", "lit": null, "length_m": 64.78, "type_element": "Way", "__fid": 3338}, "geometry": {"type": "LineString", "coordinates": [[2.2518839, 48.8518191], [2.2518814, 48.8519204], [2.2519204, 48.8520796], [2.2518957, 48.852182], [2.2518374, 48.8522768], [2.2517583, 48.8523782]]}}, {"type": "Feature", "properties": {"highway": "path", "footway": null, "name": null, "surface": "compacted", "lit": null, "length_m": 41.57, "type_element": "Way", "__fid": 3353}, "geometry": {"type": "LineString", "coordinates": [[2.2518544, 48.8514565], [2.2519284, 48.8517072], [2.2518852, 48.8517662], [2.2518839, 48.8518191]]}}, {"type": "Feature", "properties": {"highway": "path", "footway": null, "name": null, "surface": null, "lit": null, "length_m": 87.43, "type_element": "Way", "__fid": 3354}, "geometry": {"type": "LineString", "coordinates": [[2.252963, 48.85119980000002], [2.2525763, 48.85130190000002], [2.2523249, 48.8514073], [2.2519924, 48.851434], [2.2518544, 48.8514565]]}}, {"type": "Feature", "properties": {"highway": "footway", "footway": "sidewalk", "name": null, "surface": "unpaved", "lit": null, "length_m": 136.62, "type_element": "Way", "__fid": 3357}, "geometry": {"type": "LineString", "coordinates": [[2.253647, 48.8522133], [2.2528419, 48.8520227], [2.2518839, 48.8518191]]}}, {"type": "Feature", "properties": {"highway": "footway", "footway": null, "name": null, "surface": null, "lit": null, "length_m": 10.55, "type_element": "Way", "__fid": 3369}, "geometry": {"type": "LineString", "coordinates": [[2.2519935, 48.8479822], [2.251993, 48.8480771]]}}, {"type": "Feature", "properties": {"highway": "footway", "footway": null, "name": null, "surface": null, "lit": null, "length_m": 17.62, "type_element": "Way", "__fid": 3370}, "geometry": {"type": "LineString", "coordinates": [[2.251993, 48.8480771], [2.2520012, 48.8482355]]}}, {"type": "Feature", "properties": {"highway": "footway", "footway": null, "name": null, "surface": null, "lit": null, "length_m": 77.84, "type_element": "Way", "__fid": 3371}, "geometry": {"type": "LineString", "coordinates": [[2.2520012, 48.8482355], [2.2521527, 48.8482209], [2.2523141, 48.8481933], [2.2524424, 48.8481627], [2.2527033, 48.848081], [2.2527932, 48.8480056], [2.25279804338096, 48.847893279763696]]}}, {"type": "Feature", "properties": {"highway": "steps", "footway": null, "name": null, "surface": "concrete", "lit": "no", "length_m": 11.13, "type_element": "Way", "__fid": 3374}, "geometry": {"type": "LineString", "coordinates": [[2.2521414, 48.8474858], [2.2520298, 48.847418]]}}, {"type": "Feature", "properties": {"highway": "footway", "footway": null, "name": null, "surface": null, "lit": null, "length_m": 21.77, "type_element": "Way", "__fid": 3375}, "geometry": {"type": "LineString", "coordinates": [[2.252073, 48.847234], [2.2520642, 48.847285800000016], [2.2520076, 48.8473684], [2.2520158, 48.8474053], [2.2520298, 48.847418]]}}, {"type": "Feature", "properties": {"highway": "footway", "footway": null, "name": null, "surface": null, "lit": null, "length_m": 15.51, "type_element": "Way", "__fid": 3376}, "geometry": {"type": "LineString", "coordinates": [[2.2520298, 48.847418], [2.2522411, 48.8474168]]}}, {"type": "Feature", "properties": {"highway": "steps", "footway": null, "name": null, "surface": "sett", "lit": "no", "length_m": 22.54, "type_element": "Way", "__fid": 3413}, "geometry": {"type": "LineString", "coordinates": [[2.2522518, 48.84761940000001], [2.2522411, 48.8474168]]}}, {"type": "Feature", "properties": {"highway": "footway", "footway": null, "name": null, "surface": null, "lit": null, "length_m": 14.85, "type_element": "Way", "__fid": 3414}, "geometry": {"type": "LineString", "coordinates": [[2.2522411, 48.8474168], [2.2524431, 48.8474095]]}}, {"type": "Feature", "properties": {"highway": "footway", "footway": null, "name": null, "surface": null, "lit": null, "length_m": 30.59, "type_element": "Way", "__fid": 3416}, "geometry": {"type": "LineString", "coordinates": [[2.2522647, 48.8478944], [2.2522518, 48.84761940000001]]}}, {"type": "Feature", "properties": {"highway": "footway", "footway": null, "name": null, "surface": null, "lit": null, "length_m": 54.51, "type_element": "Way", "__fid": 3417}, "geometry": {"type": "LineString", "coordinates": [[2.2522518, 48.84761940000001], [2.2526291, 48.84760579999998], [2.2527651, 48.8475855], [2.2528679, 48.84755480000002], [2.2529555, 48.847508]]}}, {"type": "Feature", "properties": {"highway": "footway", "footway": null, "name": null, "surface": "fine_gravel", "lit": "no", "length_m": 9.37, "type_element": "Way", "__fid": 3419}, "geometry": {"type": "LineString", "coordinates": [[2.2522681, 48.8479786], [2.2522647, 48.8478944]]}}, {"type": "Feature", "properties": {"highway": "footway", "footway": "sidewalk", "name": null, "surface": "concrete:plates", "lit": "no", "length_m": 27.66, "type_element": "Way", "__fid": 3420}, "geometry": {"type": "LineString", "coordinates": [[2.2526416, 48.8478936], [2.2522647, 48.8478944]]}}, {"type": "Feature", "properties": {"highway": "path", "footway": null, "name": null, "surface": "compacted", "lit": null, "length_m": 31.84, "type_element": "Way", "__fid": 3431}, "geometry": {"type": "LineString", "coordinates": [[2.2522495, 48.8531133], [2.2524946, 48.8533496]]}}, {"type": "Feature", "properties": {"highway": "service", "footway": null, "name": "Route de la Seine à la Butte Mortemart", "surface": "asphalt", "lit": null, "length_m": 105.8, "type_element": "Way", "__fid": 3432}, "geometry": {"type": "LineString", "coordinates": [[2.2522495, 48.8531133], [2.252841, 48.8529735], [2.2530338, 48.8529436], [2.2536409, 48.8528766]]}}, {"type": "Feature", "properties": {"highway": "steps", "footway": null, "name": null, "surface": "concrete", "lit": "no", "length_m": 10.49, "type_element": "Way", "__fid": 3434}, "geometry": {"type": "LineString", "coordinates": [[2.2523437, 48.8474773], [2.2524431, 48.8474095]]}}, {"type": "Feature", "properties": {"highway": "footway", "footway": null, "name": null, "surface": null, "lit": null, "length_m": 22.89, "type_element": "Way", "__fid": 3439}, "geometry": {"type": "LineString", "coordinates": [[2.2524431, 48.8474095], [2.2524647, 48.8473776], [2.2524629, 48.8473373], [2.2523859, 48.8472781], [2.2523847, 48.8472255]]}}, {"type": "Feature", "properties": {"highway": "path", "footway": null, "name": null, "surface": null, "lit": null, "length_m": 67.54, "type_element": "Way", "__fid": 3466}, "geometry": {"type": "LineString", "coordinates": [[2.2528367, 48.851332700000015], [2.2525955, 48.8516172], [2.2524718, 48.8518865]]}}, {"type": "Feature", "properties": {"highway": "service", "footway": null, "name": null, "surface": null, "lit": null, "length_m": 27.3, "type_element": "Way", "__fid": 3467}, "geometry": {"type": "LineString", "coordinates": [[2.2528367, 48.851332700000015], [2.2524971, 48.8514329]]}}, {"type": "Feature", "properties": {"highway": "steps", "footway": null, "name": null, "surface": null, "lit": null, "length_m": 15.4, "type_element": "Way", "__fid": 3477}, "geometry": {"type": "LineString", "coordinates": [[2.2527995, 48.8478595], [2.2526407, 48.8478599], [2.2526416, 48.8478936]]}}, {"type": "Feature", "properties": {"highway": "footway", "footway": "sidewalk", "name": null, "surface": "concrete:plates", "lit": "no", "length_m": 11.48, "type_element": "Way", "__fid": 3478}, "geometry": {"type": "LineString", "coordinates": [[2.25279804338096, 48.847893279763696], [2.2526416, 48.8478936]]}}, {"type": "Feature", "properties": {"highway": "steps", "footway": null, "name": null, "surface": null, "lit": null, "length_m": 17.02, "type_element": "Way", "__fid": 3500}, "geometry": {"type": "LineString", "coordinates": [[2.2527894, 48.8498574], [2.2527386, 48.8498528], [2.2527265, 48.84990850000001], [2.252746, 48.8499104], [2.2527564, 48.8498609]]}}, {"type": "Feature", "properties": {"highway": "footway", "footway": null, "name": null, "surface": null, "lit": null, "length_m": 3.76, "type_element": "Way", "__fid": 3502}, "geometry": {"type": "LineString", "coordinates": [[2.25279804338096, 48.847893279763696], [2.2527995, 48.8478595]]}}, {"type": "Feature", "properties": {"highway": "footway", "footway": "sidewalk", "name": null, "surface": "concrete:plates", "lit": "no", "length_m": 38.66, "type_element": "Way", "__fid": 3503}, "geometry": {"type": "LineString", "coordinates": [[2.2533248, 48.84789220000001], [2.25279804338096, 48.847893279763696]]}}, {"type": "Feature", "properties": {"highway": "footway", "footway": "sidewalk", "name": null, "surface": null, "lit": null, "length_m": 42.25, "type_element": "Way", "__fid": 3504}, "geometry": {"type": "LineString", "coordinates": [[2.2527995, 48.8478595], [2.2533239, 48.8478583], [2.2533248, 48.84789220000001]]}}, {"type": "Feature", "properties": {"highway": "footway", "footway": "sidewalk", "name": null, "surface": null, "lit": null, "length_m": 24.36, "type_element": "Way", "__fid": 3505}, "geometry": {"type": "LineString", "coordinates": [[2.2527673, 48.8501196], [2.2527726, 48.85022379999999], [2.2528026, 48.8503369]]}}, {"type": "Feature", "properties": {"highway": "footway", "footway": "sidewalk", "name": null, "surface": null, "lit": null, "length_m": 29.23, "type_element": "Way", "__fid": 3506}, "geometry": {"type": "LineString", "coordinates": [[2.2527894, 48.8498574], [2.2527682, 48.8500028], [2.2527673, 48.8501196]]}}, {"type": "Feature", "properties": {"highway": "footway", "footway": "crossing", "name": null, "surface": null, "lit": null, "length_m": 16.96, "type_element": "Way", "__fid": 3507}, "geometry": {"type": "LineString", "coordinates": [[2.2529771, 48.8500556], [2.2527673, 48.8501196]]}}, {"type": "Feature", "properties": {"highway": "footway", "footway": "sidewalk", "name": null, "surface": null, "lit": null, "length_m": 397.12, "type_element": "Way", "__fid": 3511}, "geometry": {"type": "LineString", "coordinates": [[2.2570144, 48.84815840000002], [2.2562694, 48.8481882], [2.2559478, 48.8482126], [2.2556718, 48.8482421], [2.2553796, 48.8482865], [2.2547421, 48.84841130000002], [2.254464, 48.8484822], [2.2542069, 48.848562700000016], [2.2540814, 48.84861349999998], [2.2537035, 48.848792199999984], [2.2535471, 48.848875100000015], [2.2532535, 48.8490895], [2.2531528, 48.8491894], [2.2530119, 48.8493653], [2.2529402, 48.8494863], [2.252844, 48.8496822], [2.2528086, 48.8497676], [2.2527894, 48.8498574]]}}, {"type": "Feature", "properties": {"highway": "footway", "footway": "sidewalk", "name": null, "surface": null, "lit": null, "length_m": 11.23, "type_element": "Way", "__fid": 3522}, "geometry": {"type": "LineString", "coordinates": [[2.2528026, 48.8503369], [2.2528289, 48.850436400000014]]}}, {"type": "Feature", "properties": {"highway": "footway", "footway": "crossing", "name": null, "surface": null, "lit": null, "length_m": 28.96, "type_element": "Way", "__fid": 3523}, "geometry": {"type": "LineString", "coordinates": [[2.2528026, 48.8503369], [2.2530261, 48.8501223]]}}, {"type": "Feature", "properties": {"highway": "footway", "footway": "sidewalk", "name": null, "surface": "unpaved", "lit": null, "length_m": 33.87, "type_element": "Way", "__fid": 3529}, "geometry": {"type": "LineString", "coordinates": [[2.2528289, 48.850436400000014], [2.2529241, 48.8506827], [2.2529295, 48.850733]]}}, {"type": "Feature", "properties": {"highway": "path", "footway": null, "name": null, "surface": null, "lit": null, "length_m": 17.67, "type_element": "Way", "__fid": 3536}, "geometry": {"type": "LineString", "coordinates": [[2.252963, 48.85119980000002], [2.252894, 48.8512951], [2.2528367, 48.851332700000015]]}}, {"type": "Feature", "properties": {"highway": "service", "footway": null, "name": null, "surface": null, "lit": null, "length_m": 31.89, "type_element": "Way", "__fid": 3537}, "geometry": {"type": "LineString", "coordinates": [[2.2532217, 48.8511997], [2.2528367, 48.851332700000015]]}}, {"type": "Feature", "properties": {"highway": "service", "footway": null, "name": null, "surface": null, "lit": null, "length_m": 6.15, "type_element": "Way", "__fid": 3548}, "geometry": {"type": "LineString", "coordinates": [[2.2529762, 48.8502655], [2.2528931, 48.8502725]]}}, {"type": "Feature", "properties": {"highway": "footway", "footway": null, "name": null, "surface": "concrete:plates", "lit": "no", "length_m": 74.33, "type_element": "Way", "__fid": 3550}, "geometry": {"type": "LineString", "coordinates": [[2.2529555, 48.847508], [2.253122, 48.8476411], [2.2531883, 48.84768], [2.2533157, 48.8477378], [2.2535326, 48.84781], [2.2536364, 48.847825], [2.2537952, 48.8478257]]}}, {"type": "Feature", "properties": {"highway": "footway", "footway": null, "name": null, "surface": "concrete", "lit": "no", "length_m": 36.52, "type_element": "Way", "__fid": 3551}, "geometry": {"type": "LineString", "coordinates": [[2.2529555, 48.847508], [2.2530374, 48.8474409], [2.2530791, 48.847386], [2.253097, 48.8473035], [2.2530967, 48.847206]]}}, {"type": "Feature", "properties": {"highway": "footway", "footway": "sidewalk", "name": null, "surface": "unpaved", "lit": null, "length_m": 56.15, "type_element": "Way", "__fid": 3555}, "geometry": {"type": "LineString", "coordinates": [[2.2529295, 48.850733], [2.2532217, 48.8511997]]}}, {"type": "Feature", "properties": {"highway": "path", "footway": null, "name": null, "surface": null, "lit": null, "length_m": 52.23, "type_element": "Way", "__fid": 3556}, "geometry": {"type": "LineString", "coordinates": [[2.2529295, 48.850733], [2.2529791, 48.85116630000001], [2.252963, 48.85119980000002]]}}, {"type": "Feature", "properties": {"highway": "footway", "footway": "sidewalk", "name": null, "surface": null, "lit": null, "length_m": 5.69, "type_element": "Way", "__fid": 3558}, "geometry": {"type": "LineString", "coordinates": [[2.2529771, 48.8500556], [2.2530355, 48.8500892]]}}, {"type": "Feature", "properties": {"highway": "footway", "footway": "sidewalk", "name": null, "surface": null, "lit": null, "length_m": 275.09, "type_element": "Way", "__fid": 3559}, "geometry": {"type": "LineString", "coordinates": [[2.2554119, 48.848436699999986], [2.2553629, 48.8484266], [2.2552932, 48.848430499999985], [2.2551946, 48.84845220000002], [2.2549264, 48.8485201], [2.2546817, 48.8485903], [2.2543055, 48.8487116], [2.254276, 48.8487121], [2.254227, 48.8487293], [2.253938, 48.8488691], [2.2537402, 48.8489742], [2.2534968, 48.8491533], [2.2533754, 48.8492544], [2.2532373, 48.8493982], [2.2531421, 48.8495482], [2.253008, 48.8499184], [2.2529718, 48.8500464], [2.2529771, 48.8500556]]}}, {"type": "Feature", "properties": {"highway": "footway", "footway": "sidewalk", "name": null, "surface": "unpaved", "lit": null, "length_m": 462.25, "type_element": "Way", "__fid": 3560}, "geometry": {"type": "LineString", "coordinates": [[2.2537401, 48.854104], [2.25363, 48.85392430000001], [2.2535979, 48.85378690000001], [2.2536024, 48.8536643], [2.253667, 48.8534681], [2.2537627, 48.8532622], [2.253867, 48.8531097], [2.2541687, 48.8527236], [2.254274, 48.8525623], [2.2543173, 48.8524107], [2.2543098, 48.852295599999984], [2.2542471, 48.8521554], [2.254089, 48.8519948], [2.253528, 48.85134340000001], [2.2533123, 48.851076099999986], [2.2531985, 48.8509064], [2.253064, 48.8506482], [2.2529623, 48.8503105], [2.2529762, 48.8502655]]}}, {"type": "Feature", "properties": {"highway": "footway", "footway": "sidewalk", "name": null, "surface": "unpaved", "lit": null, "length_m": 16.34, "type_element": "Way", "__fid": 3561}, "geometry": {"type": "LineString", "coordinates": [[2.2529762, 48.8502655], [2.2530261, 48.8501223]]}}, {"type": "Feature", "properties": {"highway": "service", "footway": null, "name": null, "surface": null, "lit": null, "length_m": 29.03, "type_element": "Way", "__fid": 3562}, "geometry": {"type": "LineString", "coordinates": [[2.2533638, 48.8502131], [2.2529762, 48.8502655]]}}, {"type": "Feature", "properties": {"highway": "footway", "footway": "sidewalk", "name": null, "surface": "unpaved", "lit": null, "length_m": 3.74, "type_element": "Way", "__fid": 3569}, "geometry": {"type": "LineString", "coordinates": [[2.2530261, 48.8501223], [2.2530355, 48.8500892]]}}, {"type": "Feature", "properties": {"highway": "footway", "footway": "sidewalk", "name": null, "surface": "unpaved", "lit": null, "length_m": 269.58, "type_element": "Way", "__fid": 3571}, "geometry": {"type": "LineString", "coordinates": [[2.2530355, 48.8500892], [2.2531387, 48.8497269], [2.2532313, 48.8495451], [2.2533412, 48.8494225], [2.2538817, 48.8489874], [2.2539977, 48.848912], [2.2541352, 48.8488427], [2.2544798, 48.84870320000001], [2.2554119, 48.848436699999986]]}}, {"type": "Feature", "properties": {"highway": "footway", "footway": "sidewalk", "name": null, "surface": "unpaved", "lit": null, "length_m": 141.1, "type_element": "Way", "__fid": 3585}, "geometry": {"type": "LineString", "coordinates": [[2.2532217, 48.8511997], [2.2535022, 48.8515523], [2.2539139, 48.8520033], [2.2539233, 48.8520505], [2.2539052, 48.852094600000015], [2.2538381, 48.8521376], [2.253803, 48.852135799999985], [2.2537276, 48.8521172], [2.2537079, 48.8521236], [2.253647, 48.8522133]]}}, {"type": "Feature", "properties": {"highway": "service", "footway": null, "name": null, "surface": null, "lit": null, "length_m": 5.7, "type_element": "Way", "__fid": 3586}, "geometry": {"type": "LineString", "coordinates": [[2.2532917, 48.8511774], [2.2532217, 48.8511997]]}}, {"type": "Feature", "properties": {"highway": "footway", "footway": "sidewalk", "name": null, "surface": "concrete:plates", "lit": "no", "length_m": 64.63, "type_element": "Way", "__fid": 3594}, "geometry": {"type": "LineString", "coordinates": [[2.2542052, 48.8478784], [2.2533248, 48.84789220000001]]}}, {"type": "Feature", "properties": {"highway": "service", "footway": null, "name": null, "surface": null, "lit": null, "length_m": 42.79, "type_element": "Way", "__fid": 3595}, "geometry": {"type": "LineString", "coordinates": [[2.2534673, 48.8501988], [2.2533365, 48.8498238]]}}, {"type": "Feature", "properties": {"highway": "service", "footway": null, "name": null, "surface": null, "lit": null, "length_m": 11.75, "type_element": "Way", "__fid": 3596}, "geometry": {"type": "LineString", "coordinates": [[2.2533638, 48.8502131], [2.253394, 48.85031690000002]]}}, {"type": "Feature", "properties": {"highway": "service", "footway": null, "name": null, "surface": null, "lit": null, "length_m": 7.76, "type_element": "Way", "__fid": 3597}, "geometry": {"type": "LineString", "coordinates": [[2.2534673, 48.8501988], [2.2533638, 48.8502131]]}}, {"type": "Feature", "properties": {"highway": "service", "footway": null, "name": null, "surface": null, "lit": null, "length_m": 74.69, "type_element": "Way", "__fid": 3601}, "geometry": {"type": "LineString", "coordinates": [[2.253394, 48.85031690000002], [2.2535082, 48.85070970000001], [2.2536007, 48.8509745]]}}, {"type": "Feature", "properties": {"highway": "service", "footway": null, "name": null, "surface": null, "lit": null, "length_m": 92.75, "type_element": "Way", "__fid": 3602}, "geometry": {"type": "LineString", "coordinates": [[2.254039, 48.8508438], [2.2538091, 48.8505322], [2.2537236, 48.8502727], [2.253394, 48.85031690000002]]}}, {"type": "Feature", "properties": {"highway": "track", "footway": null, "name": null, "surface": null, "lit": null, "length_m": 75.26, "type_element": "Way", "__fid": 3611}, "geometry": {"type": "LineString", "coordinates": [[2.2544354, 48.84998310000001], [2.2538123, 48.8501512], [2.2534673, 48.8501988]]}}, {"type": "Feature", "properties": {"highway": "footway", "footway": "sidewalk", "name": null, "surface": "unpaved", "lit": null, "length_m": 146.83, "type_element": "Way", "__fid": 3629}, "geometry": {"type": "LineString", "coordinates": [[2.2536409, 48.8528766], [2.253749, 48.8529522], [2.2537573, 48.8529917], [2.2536613, 48.8531435], [2.2535227, 48.8534244], [2.2534703, 48.853559], [2.2534289, 48.85371719999998], [2.253433, 48.8538948], [2.2534643, 48.853988], [2.2535421, 48.8541227]]}}, {"type": "Feature", "properties": {"highway": "footway", "footway": null, "name": null, "surface": "concrete", "lit": "no", "length_m": 32.28, "type_element": "Way", "__fid": 3631}, "geometry": {"type": "LineString", "coordinates": [[2.2536483, 48.8471934], [2.2537113, 48.8471918], [2.2537972, 48.8472381], [2.2538647, 48.8472894], [2.2539455, 48.8473828]]}}, {"type": "Feature", "properties": {"highway": "service", "footway": null, "name": null, "surface": null, "lit": null, "length_m": 142.65, "type_element": "Way", "__fid": 3634}, "geometry": {"type": "LineString", "coordinates": [[2.2536007, 48.8509745], [2.2536566, 48.8510963], [2.2539351, 48.8514755], [2.253993, 48.8516092], [2.2540388, 48.8516855], [2.254423, 48.8521316]]}}, {"type": "Feature", "properties": {"highway": "service", "footway": null, "name": null, "surface": null, "lit": null, "length_m": 35.29, "type_element": "Way", "__fid": 3635}, "geometry": {"type": "LineString", "coordinates": [[2.2536007, 48.8509745], [2.254039, 48.8508438]]}}, {"type": "Feature", "properties": {"highway": "service", "footway": null, "name": "Route d'Auteuil aux Lacs", "surface": "asphalt", "lit": null, "length_m": 120.27, "type_element": "Way", "__fid": 3637}, "geometry": {"type": "LineString", "coordinates": [[2.253597, 48.854058], [2.2535397, 48.85394860000001], [2.2535196, 48.8538807], [2.2535083, 48.853742], [2.2535196, 48.8536627], [2.2536039, 48.8534461], [2.253818, 48.85301410000001]]}}, {"type": "Feature", "properties": {"highway": "footway", "footway": "sidewalk", "name": null, "surface": "unpaved", "lit": null, "length_m": 79.34, "type_element": "Way", "__fid": 3641}, "geometry": {"type": "LineString", "coordinates": [[2.253647, 48.8522133], [2.2536398, 48.8522423], [2.2534873, 48.8524452], [2.253464, 48.8525266], [2.2534748, 48.8526222], [2.2535976, 48.8528408], [2.2536409, 48.8528766]]}}, {"type": "Feature", "properties": {"highway": "service", "footway": null, "name": "Route de la Seine à la Butte Mortemart", "surface": "asphalt", "lit": null, "length_m": 16.71, "type_element": "Way", "__fid": 3646}, "geometry": {"type": "LineString", "coordinates": [[2.2536409, 48.8528766], [2.2538645, 48.852848]]}}, {"type": "Feature", "properties": {"highway": "footway", "footway": null, "name": null, "surface": "concrete", "lit": "no", "length_m": 53.81, "type_element": "Way", "__fid": 3651}, "geometry": {"type": "LineString", "coordinates": [[2.2539455, 48.8473828], [2.2539992, 48.8474998], [2.2539885, 48.847609], [2.2539288, 48.8476954], [2.2537952, 48.8478257]]}}, {"type": "Feature", "properties": {"highway": "footway", "footway": null, "name": null, "surface": "concrete:plates", "lit": "no", "length_m": 29.57, "type_element": "Way", "__fid": 3652}, "geometry": {"type": "LineString", "coordinates": [[2.2537952, 48.8478257], [2.2541979, 48.8478164]]}}, {"type": "Feature", "properties": {"highway": "path", "footway": null, "name": null, "surface": "woodchips", "lit": null, "length_m": 51.46, "type_element": "Way", "__fid": 3665}, "geometry": {"type": "LineString", "coordinates": [[2.2539455, 48.8473828], [2.2540962, 48.84726860000002], [2.2543285, 48.84728190000001], [2.2545412, 48.847353300000016]]}}, {"type": "Feature", "properties": {"highway": "service", "footway": null, "name": null, "surface": null, "lit": null, "length_m": 293.49, "type_element": "Way", "__fid": 3674}, "geometry": {"type": "LineString", "coordinates": [[2.254039, 48.8508438], [2.254185, 48.8508003], [2.2542331, 48.8508089], [2.2542854, 48.8508424], [2.2544275, 48.851011], [2.2548325, 48.851574], [2.2548634, 48.8517575], [2.2558383, 48.8530591]]}}, {"type": "Feature", "properties": {"highway": "footway", "footway": null, "name": null, "surface": "concrete", "lit": null, "length_m": 6.91, "type_element": "Way", "__fid": 3684}, "geometry": {"type": "LineString", "coordinates": [[2.2541979, 48.8478164], [2.2542052, 48.8478784]]}}, {"type": "Feature", "properties": {"highway": "footway", "footway": null, "name": null, "surface": "concrete:plates", "lit": "no", "length_m": 32.38, "type_element": "Way", "__fid": 3685}, "geometry": {"type": "LineString", "coordinates": [[2.2541979, 48.8478164], [2.2546387, 48.8478041]]}}, {"type": "Feature", "properties": {"highway": "footway", "footway": "sidewalk", "name": null, "surface": "concrete:plates", "lit": "no", "length_m": 177.01, "type_element": "Way", "__fid": 3686}, "geometry": {"type": "LineString", "coordinates": [[2.2566171, 48.8478576], [2.2542052, 48.8478784]]}}, {"type": "Feature", "properties": {"highway": "track", "footway": null, "name": null, "surface": null, "lit": null, "length_m": 480.76, "type_element": "Way", "__fid": 3722}, "geometry": {"type": "LineString", "coordinates": [[2.2576138, 48.8520827], [2.2575, 48.85253609999999], [2.2574128, 48.8527461], [2.2573525, 48.85279460000002], [2.2572653, 48.8528361], [2.2571419, 48.8528538], [2.2570239, 48.8528396], [2.2569287, 48.8527796], [2.2568469, 48.8526887], [2.2566108, 48.8523675], [2.2563828, 48.852079], [2.2552496, 48.8510641], [2.2547279, 48.8504994], [2.2545777, 48.8502982], [2.2544354, 48.84998310000001]]}}, {"type": "Feature", "properties": {"highway": "track", "footway": null, "name": null, "surface": null, "lit": null, "length_m": 245.89, "type_element": "Way", "__fid": 3723}, "geometry": {"type": "LineString", "coordinates": [[2.2544354, 48.84998310000001], [2.2543926, 48.849871], [2.2544087, 48.8496557], [2.2544624, 48.8495074], [2.2546354, 48.849323], [2.2547614, 48.8492497], [2.2549143, 48.8491774], [2.2551504, 48.8491147], [2.2554494, 48.8490847], [2.2556814, 48.8490997], [2.2559027, 48.8491606], [2.2561508, 48.8492709], [2.2563426, 48.84938919999998], [2.256558982729837, 48.84956371304398]]}}, {"type": "Feature", "properties": {"highway": "footway", "footway": null, "name": null, "surface": "concrete", "lit": "no", "length_m": 25.78, "type_element": "Way", "__fid": 3737}, "geometry": {"type": "LineString", "coordinates": [[2.2548218, 48.8474569], [2.2547801, 48.84740519999998], [2.2547245, 48.8473701], [2.2546433, 48.8473579], [2.2545412, 48.847353300000016]]}}, {"type": "Feature", "properties": {"highway": "footway", "footway": null, "name": null, "surface": "concrete", "lit": "no", "length_m": 68.85, "type_element": "Way", "__fid": 3738}, "geometry": {"type": "LineString", "coordinates": [[2.2545412, 48.847353300000016], [2.2544345, 48.84738079999999], [2.2543694, 48.84741790000002], [2.254323, 48.8474713], [2.2543137, 48.8475323], [2.2543276, 48.8476026], [2.2543863, 48.8476698], [2.2544392, 48.847712], [2.2546387, 48.8478041]]}}, {"type": "Feature", "properties": {"highway": "footway", "footway": null, "name": null, "surface": "concrete:plates", "lit": "no", "length_m": 31.23, "type_element": "Way", "__fid": 3763}, "geometry": {"type": "LineString", "coordinates": [[2.2546387, 48.8478041], [2.2550634, 48.847787]]}}]}