{"type": "FeatureCollection", "features": [{"type": "Feature", "properties": {"@id": "node/1745776058", "amenity": "drinking_water", "man_made": "water_tap", "type_element": "Fontaines à boire", "__fid": 302}, "geometry": {"type": "Point", "coordinates": [2.2490071, 48.8725076]}, "id": "node/1745776058"}, {"type": "Feature", "properties": {"@id": "node/1745776079", "amenity": "drinking_water", "artist_name": "Charles-Auguste Lebourg", "man_made": "water_tap", "wikimedia_commons": "File:Bench, Parc de Bagatelle 2008.jpg", "type_element": "Fontaines à boire", "__fid": 304}, "geometry": {"type": "Point", "coordinates": [2.2502871, 48.8735492]}, "id": "node/1745776079"}, {"type": "Feature", "properties": {"@id": "node/1745776097", "amenity": "drinking_water", "type_element": "Fontaines à boire", "__fid": 307}, "geometry": {"type": "Point", "coordinates": [2.2477712, 48.8729282]}, "id": "node/1745776097"}, {"type": "Feature", "properties": {"@id": "node/1745781759", "amenity": "drinking_water", "type_element": "Fontaines à boire", "__fid": 308}, "geometry": {"type": "Point", "coordinates": [2.2509255, 48.8734222]}, "id": "node/1745781759"}, {"type": "Feature", "properties": {"@id": "node/8145701604", "amenity": "drinking_water", "man_made": "water_tap", "type_element": "Fontaines à boire", "__fid": 740}, "geometry": {"type": "Point", "coordinates": [2.2512, 48.8735242]}, "id": "node/8145701604"}, {"type": "Feature", "properties": {"@id": "node/8145701605", "amenity": "drinking_water", "bottle": "yes", "fee": "no", "wheelchair": "limited", "type_element": "Fontaines à boire", "__fid": 741}, "geometry": {"type": "Point", "coordinates": [2.2478, 48.8736928]}, "id": "node/8145701605"}, {"type": "Feature", "properties": {"highway": "path", "footway": null, "name": null, "surface": "compacted", "lit": null, "length_m": 449.7, "type_element": "Way", "__fid": 2401}, "geometry": {"type": "LineString", "coordinates": [[2.2429307, 48.87274810000001], [2.2429578, 48.872816700000016], [2.2430624, 48.872941900000015], [2.2432475, 48.87313420000001], [2.2435908, 48.8735258], [2.2448246, 48.8746655], [2.245361, 48.8752723], [2.2455021, 48.87532560000001], [2.2455356, 48.8753564], [2.2460671, 48.8760602], [2.2460849, 48.8761046], [2.2460822, 48.8761745]]}}, {"type": "Feature", "properties": {"highway": "footway", "footway": "sidewalk", "name": null, "surface": null, "lit": "yes", "length_m": 179.3, "type_element": "Way", "__fid": 2730}, "geometry": {"type": "LineString", "coordinates": [[2.2449563, 48.8742545], [2.2451038, 48.8743789], [2.2451156, 48.8744237], [2.2453647, 48.8746944], [2.246163, 48.87565150000001]]}}, {"type": "Feature", "properties": {"highway": "footway", "footway": null, "name": null, "surface": "compacted", "lit": "no", "length_m": 163.12, "type_element": "Way", "__fid": 2765}, "geometry": {"type": "LineString", "coordinates": [[2.2452088, 48.8741859], [2.2453462, 48.8744013], [2.2458143, 48.8750032], [2.246243, 48.8754828]]}}, {"type": "Feature", "properties": {"highway": "footway", "footway": "sidewalk", "name": null, "surface": "dirt", "lit": null, "length_m": 184.76, "type_element": "Way", "__fid": 2819}, "geometry": {"type": "LineString", "coordinates": [[2.2457424, 48.8713032], [2.2469484, 48.8727619]]}}, {"type": "Feature", "properties": {"highway": "service", "footway": null, "name": null, "surface": "sett", "lit": "yes", "length_m": 75.17, "type_element": "Way", "__fid": 2820}, "geometry": {"type": "LineString", "coordinates": [[2.2457424, 48.8713032], [2.245925, 48.8712444], [2.2459484, 48.871219], [2.2459722, 48.871121299999984], [2.2459834, 48.8708601], [2.2460684, 48.8707188]]}}, {"type": "Feature", "properties": {"highway": "footway", "footway": null, "name": null, "surface": "compacted", "lit": null, "length_m": 438.38, "type_element": "Way", "__fid": 2847}, "geometry": {"type": "LineString", "coordinates": [[2.2487337, 48.8742371], [2.2479697, 48.8733546], [2.2476574, 48.8730193], [2.247409, 48.872695], [2.2473206, 48.872500500000015], [2.2470857, 48.8721868], [2.2468602, 48.8718281], [2.2464252, 48.8712772], [2.2461221, 48.87077710000002], [2.2460684, 48.8707188]]}}, {"type": "Feature", "properties": {"highway": "footway", "footway": "sidewalk", "name": null, "surface": null, "lit": "yes", "length_m": 56.22, "type_element": "Way", "__fid": 2858}, "geometry": {"type": "LineString", "coordinates": [[2.246163, 48.87565150000001], [2.2464533, 48.8759918], [2.2465123, 48.87602469999999], [2.2466065, 48.8760406]]}}, {"type": "Feature", "properties": {"highway": "footway", "footway": null, "name": null, "surface": "dirt", "lit": "no", "length_m": 19.7, "type_element": "Way", "__fid": 2859}, "geometry": {"type": "LineString", "coordinates": [[2.246243, 48.8754828], [2.246224, 48.8755412], [2.246163, 48.87565150000001]]}}, {"type": "Feature", "properties": {"highway": "footway", "footway": null, "name": null, "surface": "compacted", "lit": "no", "length_m": 43.14, "type_element": "Way", "__fid": 2863}, "geometry": {"type": "LineString", "coordinates": [[2.246243, 48.8754828], [2.2462977, 48.8755294], [2.2465337, 48.8756847], [2.2466709, 48.8757457]]}}, {"type": "Feature", "properties": {"highway": "footway", "footway": null, "name": null, "surface": "dirt", "lit": "no", "length_m": 173.84, "type_element": "Way", "__fid": 2864}, "geometry": {"type": "LineString", "coordinates": [[2.2463408, 48.87400070000001], [2.2460879, 48.8742103], [2.2460901, 48.8742818], [2.2460693, 48.8743328], [2.2461384, 48.8744571], [2.2461963, 48.8748955], [2.2462624, 48.8751161], [2.2462939, 48.8753969], [2.246243, 48.8754828]]}}, {"type": "Feature", "properties": {"highway": "footway", "footway": null, "name": null, "surface": "fine_gravel", "lit": "no", "length_m": 58.77, "type_element": "Way", "__fid": 2875}, "geometry": {"type": "LineString", "coordinates": [[2.246503, 48.8705862], [2.2468216, 48.8710711]]}}, {"type": "Feature", "properties": {"highway": "footway", "footway": null, "name": null, "surface": null, "lit": null, "length_m": 37.37, "type_element": "Way", "__fid": 2881}, "geometry": {"type": "LineString", "coordinates": [[2.2465427, 48.8710749], [2.2467488, 48.8713822]]}}, {"type": "Feature", "properties": {"highway": "footway", "footway": null, "name": null, "surface": "dirt", "lit": "no", "length_m": 25.83, "type_element": "Way", "__fid": 2885}, "geometry": {"type": "LineString", "coordinates": [[2.2465366, 48.8738812], [2.2468553, 48.8739801]]}}, {"type": "Feature", "properties": {"highway": "footway", "footway": "crossing", "name": null, "surface": "asphalt", "lit": "yes", "length_m": 10.39, "type_element": "Way", "__fid": 2888}, "geometry": {"type": "LineString", "coordinates": [[2.2466065, 48.8760406], [2.2466447, 48.8761306]]}}, {"type": "Feature", "properties": {"highway": "track", "footway": null, "name": "Chemin de la Seine à Bagatelle", "surface": "gravel", "lit": "no", "length_m": 33.55, "type_element": "Way", "__fid": 2889}, "geometry": {"type": "LineString", "coordinates": [[2.2466065, 48.8760406], [2.2465927, 48.8759927], [2.2466176, 48.8759483], [2.2466709, 48.8757457]]}}, {"type": "Feature", "properties": {"highway": "footway", "footway": "sidewalk", "name": null, "surface": null, "lit": null, "length_m": 106.4, "type_element": "Way", "__fid": 2890}, "geometry": {"type": "LineString", "coordinates": [[2.2466065, 48.8760406], [2.2469293, 48.8760083], [2.2470118, 48.8759442], [2.2473252, 48.8758835], [2.2479532, 48.8757295]]}}, {"type": "Feature", "properties": {"highway": "track", "footway": null, "name": "Chemin de la Seine à Bagatelle", "surface": "gravel", "lit": "no", "length_m": 104.84, "type_element": "Way", "__fid": 2898}, "geometry": {"type": "LineString", "coordinates": [[2.2466709, 48.8757457], [2.2467194, 48.8756783], [2.2468784, 48.875538], [2.2469748, 48.8754661], [2.2471201, 48.87539430000001], [2.247369, 48.8752908], [2.2477453, 48.875154400000014]]}}, {"type": "Feature", "properties": {"highway": "footway", "footway": null, "name": null, "surface": null, "lit": null, "length_m": 40.72, "type_element": "Way", "__fid": 2901}, "geometry": {"type": "LineString", "coordinates": [[2.2467488, 48.8713822], [2.2469733, 48.8717171]]}}, {"type": "Feature", "properties": {"highway": "steps", "footway": null, "name": null, "surface": "sett", "lit": null, "length_m": 10.69, "type_element": "Way", "__fid": 2902}, "geometry": {"type": "LineString", "coordinates": [[2.2467488, 48.8713822], [2.246881, 48.8713418]]}}, {"type": "Feature", "properties": {"highway": "footway", "footway": null, "name": null, "surface": "fine_gravel", "lit": "no", "length_m": 37.1, "type_element": "Way", "__fid": 2907}, "geometry": {"type": "LineString", "coordinates": [[2.2468216, 48.8710711], [2.2467254, 48.8710977], [2.246881, 48.8713418]]}}, {"type": "Feature", "properties": {"highway": "footway", "footway": null, "name": null, "surface": "fine_gravel", "lit": "no", "length_m": 38.16, "type_element": "Way", "__fid": 2908}, "geometry": {"type": "LineString", "coordinates": [[2.2470903, 48.8712804], [2.2469355, 48.8710395], [2.2468216, 48.8710711]]}}, {"type": "Feature", "properties": {"highway": "footway", "footway": null, "name": null, "surface": "fine_gravel", "lit": "no", "length_m": 39.95, "type_element": "Way", "__fid": 2909}, "geometry": {"type": "LineString", "coordinates": [[2.246881, 48.8713418], [2.2470486, 48.871604099999985], [2.2471529, 48.87157530000001]]}}, {"type": "Feature", "properties": {"highway": "footway", "footway": null, "name": null, "surface": "fine_gravel", "lit": "no", "length_m": 16.8, "type_element": "Way", "__fid": 2910}, "geometry": {"type": "LineString", "coordinates": [[2.246881, 48.8713418], [2.2470903, 48.8712804]]}}, {"type": "Feature", "properties": {"highway": "path", "footway": null, "name": null, "surface": null, "lit": "no", "length_m": 97.13, "type_element": "Way", "__fid": 2911}, "geometry": {"type": "LineString", "coordinates": [[2.2468553, 48.8739801], [2.2474363, 48.87402059999998], [2.2477904, 48.87409550000001], [2.247903, 48.8741096], [2.2481364, 48.874174900000014]]}}, {"type": "Feature", "properties": {"highway": "footway", "footway": null, "name": null, "surface": "dirt", "lit": "no", "length_m": 29.75, "type_element": "Way", "__fid": 2912}, "geometry": {"type": "LineString", "coordinates": [[2.2468553, 48.8739801], [2.2470939, 48.8741965]]}}, {"type": "Feature", "properties": {"highway": "footway", "footway": null, "name": null, "surface": null, "lit": null, "length_m": 100.34, "type_element": "Way", "__fid": 2914}, "geometry": {"type": "LineString", "coordinates": [[2.2469354, 48.8704531], [2.246964, 48.8705043], [2.2469746, 48.8705882], [2.2472602, 48.8709364], [2.24751, 48.87126509999999]]}}, {"type": "Feature", "properties": {"highway": "footway", "footway": "sidewalk", "name": null, "surface": "dirt", "lit": null, "length_m": 193.89, "type_element": "Way", "__fid": 2920}, "geometry": {"type": "LineString", "coordinates": [[2.2469484, 48.8727619], [2.2473437, 48.8731827], [2.2483835, 48.8742261]]}}, {"type": "Feature", "properties": {"highway": "footway", "footway": null, "name": null, "surface": "dirt", "lit": null, "length_m": 132.7, "type_element": "Way", "__fid": 2921}, "geometry": {"type": "LineString", "coordinates": [[2.2469484, 48.8727619], [2.2469306, 48.87280890000001], [2.2472793, 48.8732819], [2.2478159, 48.8737897]]}}, {"type": "Feature", "properties": {"highway": "footway", "footway": null, "name": null, "surface": null, "lit": null, "length_m": 23.68, "type_element": "Way", "__fid": 2922}, "geometry": {"type": "LineString", "coordinates": [[2.2469733, 48.8717171], [2.2471082, 48.8719106]]}}, {"type": "Feature", "properties": {"highway": "footway", "footway": null, "name": null, "surface": "fine_gravel", "lit": null, "length_m": 18.36, "type_element": "Way", "__fid": 2923}, "geometry": {"type": "LineString", "coordinates": [[2.2472026, 48.87165090000001], [2.2469733, 48.8717171]]}}, {"type": "Feature", "properties": {"highway": "footway", "footway": null, "name": null, "surface": "dirt", "lit": null, "length_m": 81.73, "type_element": "Way", "__fid": 2931}, "geometry": {"type": "LineString", "coordinates": [[2.2478159, 48.8737897], [2.2477641, 48.8737725], [2.2472313, 48.8733949], [2.2470561, 48.8733274], [2.246989, 48.87331129999998]]}}, {"type": "Feature", "properties": {"highway": "service", "footway": null, "name": null, "surface": "asphalt", "lit": null, "length_m": 65.45, "type_element": "Way", "__fid": 2934}, "geometry": {"type": "LineString", "coordinates": [[2.2470123, 48.8760672], [2.2469974, 48.87599480000002], [2.2470677, 48.8759562], [2.2473329, 48.875907599999984], [2.2477221, 48.8758129]]}}, {"type": "Feature", "properties": {"highway": "footway", "footway": null, "name": null, "surface": "fine_gravel", "lit": "no", "length_m": 40.7, "type_element": "Way", "__fid": 2935}, "geometry": {"type": "LineString", "coordinates": [[2.2471529, 48.87157530000001], [2.2472624, 48.8715445], [2.2470903, 48.8712804]]}}, {"type": "Feature", "properties": {"highway": "footway", "footway": null, "name": null, "surface": "fine_gravel", "lit": null, "length_m": 38.62, "type_element": "Way", "__fid": 2936}, "geometry": {"type": "LineString", "coordinates": [[2.2470903, 48.8712804], [2.2471971, 48.871249099999986], [2.2473566, 48.871498]]}}, {"type": "Feature", "properties": {"highway": "footway", "footway": null, "name": null, "surface": null, "lit": null, "length_m": 95.8, "type_element": "Way", "__fid": 2937}, "geometry": {"type": "LineString", "coordinates": [[2.2471082, 48.8719106], [2.2475003, 48.8725181], [2.2475351, 48.87250920000001], [2.2475485, 48.87252689999998], [2.2476022, 48.8725145], [2.2476284, 48.8725271], [2.2477085, 48.87254520000001], [2.2477714, 48.8725384]]}}, {"type": "Feature", "properties": {"highway": "footway", "footway": null, "name": null, "surface": "fine_gravel", "lit": null, "length_m": 17.49, "type_element": "Way", "__fid": 2938}, "geometry": {"type": "LineString", "coordinates": [[2.2471082, 48.8719106], [2.247326, 48.87184659999998]]}}, {"type": "Feature", "properties": {"highway": "footway", "footway": null, "name": null, "surface": null, "lit": null, "length_m": 9.16, "type_element": "Way", "__fid": 2941}, "geometry": {"type": "LineString", "coordinates": [[2.2471529, 48.87157530000001], [2.2472026, 48.87165090000001]]}}, {"type": "Feature", "properties": {"highway": "footway", "footway": null, "name": null, "surface": "fine_gravel", "lit": null, "length_m": 17.03, "type_element": "Way", "__fid": 2942}, "geometry": {"type": "LineString", "coordinates": [[2.2472026, 48.87165090000001], [2.247418, 48.871593799999985]]}}, {"type": "Feature", "properties": {"highway": "footway", "footway": null, "name": null, "surface": "fine_gravel", "lit": null, "length_m": 8.0, "type_element": "Way", "__fid": 2945}, "geometry": {"type": "LineString", "coordinates": [[2.247326, 48.87184659999998], [2.2473685, 48.8719129]]}}, {"type": "Feature", "properties": {"highway": "footway", "footway": null, "name": null, "surface": "fine_gravel", "lit": null, "length_m": 17.28, "type_element": "Way", "__fid": 2946}, "geometry": {"type": "LineString", "coordinates": [[2.2475385, 48.8717795], [2.247326, 48.87184659999998]]}}, {"type": "Feature", "properties": {"highway": "footway", "footway": null, "name": null, "surface": "fine_gravel", "lit": null, "length_m": 11.57, "type_element": "Way", "__fid": 2947}, "geometry": {"type": "LineString", "coordinates": [[2.247418, 48.871593799999985], [2.2473566, 48.871498]]}}, {"type": "Feature", "properties": {"highway": "footway", "footway": null, "name": null, "surface": null, "lit": null, "length_m": 21.53, "type_element": "Way", "__fid": 2948}, "geometry": {"type": "LineString", "coordinates": [[2.2473566, 48.871498], [2.2474593, 48.8714666], [2.2474829, 48.8714656], [2.2475532, 48.871558]]}}, {"type": "Feature", "properties": {"highway": "footway", "footway": null, "name": "Jardin Francais", "surface": "fine_gravel", "lit": null, "length_m": 90.69, "type_element": "Way", "__fid": 2951}, "geometry": {"type": "LineString", "coordinates": [[2.2473685, 48.8719129], [2.2475211, 48.871871], [2.2478396, 48.872373799999984], [2.2478047, 48.872385], [2.247806, 48.8723969], [2.2477698, 48.8724043], [2.2477849, 48.8724455], [2.2477588, 48.8724812], [2.247738, 48.8724914]]}}, {"type": "Feature", "properties": {"highway": "footway", "footway": null, "name": null, "surface": "fine_gravel", "lit": null, "length_m": 15.07, "type_element": "Way", "__fid": 2952}, "geometry": {"type": "LineString", "coordinates": [[2.247502, 48.87171750000001], [2.247418, 48.871593799999985]]}}, {"type": "Feature", "properties": {"highway": "footway", "footway": null, "name": null, "surface": "fine_gravel", "lit": null, "length_m": 10.69, "type_element": "Way", "__fid": 2953}, "geometry": {"type": "LineString", "coordinates": [[2.247418, 48.871593799999985], [2.2475532, 48.871558]]}}, {"type": "Feature", "properties": {"highway": "footway", "footway": null, "name": null, "surface": "asphalt", "lit": "no", "length_m": 7.4, "type_element": "Way", "__fid": 2961}, "geometry": {"type": "LineString", "coordinates": [[2.2475385, 48.8717795], [2.247502, 48.87171750000001]]}}, {"type": "Feature", "properties": {"highway": "footway", "footway": null, "name": null, "surface": "asphalt", "lit": "no", "length_m": 18.27, "type_element": "Way", "__fid": 2962}, "geometry": {"type": "LineString", "coordinates": [[2.247502, 48.87171750000001], [2.2475101, 48.8716442], [2.2475532, 48.871558]]}}, {"type": "Feature", "properties": {"highway": "footway", "footway": null, "name": null, "surface": null, "lit": null, "length_m": 16.93, "type_element": "Way", "__fid": 2963}, "geometry": {"type": "LineString", "coordinates": [[2.24751, 48.87126509999999], [2.2476333, 48.8712882], [2.2477351, 48.8712969]]}}, {"type": "Feature", "properties": {"highway": "footway", "footway": null, "name": null, "surface": null, "lit": null, "length_m": 22.23, "type_element": "Way", "__fid": 2964}, "geometry": {"type": "LineString", "coordinates": [[2.24751, 48.87126509999999], [2.2476187, 48.8714517]]}}, {"type": "Feature", "properties": {"highway": "footway", "footway": null, "name": null, "surface": "asphalt", "lit": "no", "length_m": 56.64, "type_element": "Way", "__fid": 2966}, "geometry": {"type": "LineString", "coordinates": [[2.2478334, 48.8722503], [2.2475385, 48.8717795]]}}, {"type": "Feature", "properties": {"highway": "footway", "footway": null, "name": null, "surface": "asphalt", "lit": "no", "length_m": 12.76, "type_element": "Way", "__fid": 2967}, "geometry": {"type": "LineString", "coordinates": [[2.2475532, 48.871558], [2.2476187, 48.8714517]]}}, {"type": "Feature", "properties": {"highway": "footway", "footway": null, "name": null, "surface": "asphalt", "lit": "no", "length_m": 19.21, "type_element": "Way", "__fid": 2969}, "geometry": {"type": "LineString", "coordinates": [[2.2476187, 48.8714517], [2.2477351, 48.8712969]]}}, {"type": "Feature", "properties": {"highway": "footway", "footway": null, "name": null, "surface": "compacted", "lit": null, "length_m": 41.06, "type_element": "Way", "__fid": 2975}, "geometry": {"type": "LineString", "coordinates": [[2.2477252, 48.8711153], [2.2477012, 48.8710464], [2.2477088, 48.8707479]]}}, {"type": "Feature", "properties": {"highway": "footway", "footway": null, "name": null, "surface": "asphalt", "lit": "no", "length_m": 20.58, "type_element": "Way", "__fid": 2977}, "geometry": {"type": "LineString", "coordinates": [[2.2477351, 48.8712969], [2.247752, 48.8712732], [2.2477252, 48.8711153]]}}, {"type": "Feature", "properties": {"highway": "steps", "footway": null, "name": null, "surface": null, "lit": null, "length_m": 11.92, "type_element": "Way", "__fid": 2978}, "geometry": {"type": "LineString", "coordinates": [[2.2477252, 48.8711153], [2.2477545, 48.871107], [2.2478045, 48.8710772], [2.2478677, 48.871075300000015]]}}, {"type": "Feature", "properties": {"highway": "footway", "footway": null, "name": null, "surface": null, "lit": null, "length_m": 25.39, "type_element": "Way", "__fid": 2979}, "geometry": {"type": "LineString", "coordinates": [[2.2477351, 48.8712969], [2.2480754, 48.8713386]]}}, {"type": "Feature", "properties": {"highway": "footway", "footway": null, "name": null, "surface": null, "lit": null, "length_m": 5.77, "type_element": "Way", "__fid": 2980}, "geometry": {"type": "LineString", "coordinates": [[2.247738, 48.8724914], [2.2477714, 48.8725384]]}}, {"type": "Feature", "properties": {"highway": "service", "footway": null, "name": null, "surface": "asphalt", "lit": "yes", "length_m": 13.31, "type_element": "Way", "__fid": 2982}, "geometry": {"type": "LineString", "coordinates": [[2.2477221, 48.8758129], [2.2478086, 48.8758417], [2.247867, 48.8758821]]}}, {"type": "Feature", "properties": {"highway": "service", "footway": null, "name": null, "surface": "asphalt", "lit": null, "length_m": 19.15, "type_element": "Way", "__fid": 2983}, "geometry": {"type": "LineString", "coordinates": [[2.2477221, 48.8758129], [2.2479683, 48.8757555]]}}, {"type": "Feature", "properties": {"highway": "footway", "footway": null, "name": null, "surface": "asphalt", "lit": "no", "length_m": 44.33, "type_element": "Way", "__fid": 2986}, "geometry": {"type": "LineString", "coordinates": [[2.2478545, 48.8729243], [2.2478013, 48.8728376], [2.2477427, 48.8726801], [2.2477714, 48.8725384]]}}, {"type": "Feature", "properties": {"highway": "footway", "footway": null, "name": null, "surface": "asphalt", "lit": "no", "length_m": 36.5, "type_element": "Way", "__fid": 2987}, "geometry": {"type": "LineString", "coordinates": [[2.2477714, 48.8725384], [2.2478474, 48.8724796], [2.2479173, 48.872388], [2.2478334, 48.8722503]]}}, {"type": "Feature", "properties": {"highway": "path", "footway": null, "name": null, "surface": "dirt", "lit": null, "length_m": 65.92, "type_element": "Way", "__fid": 2989}, "geometry": {"type": "LineString", "coordinates": [[2.2479532, 48.8757295], [2.2478434, 48.8755046], [2.2477823, 48.8753326], [2.2477453, 48.875154400000014]]}}, {"type": "Feature", "properties": {"highway": "track", "footway": null, "name": "Chemin de la Seine à Bagatelle", "surface": "gravel", "lit": "no", "length_m": 60.16, "type_element": "Way", "__fid": 2990}, "geometry": {"type": "LineString", "coordinates": [[2.2477453, 48.875154400000014], [2.2478475, 48.8751144], [2.248075, 48.8749877], [2.2483204, 48.8747763]]}}, {"type": "Feature", "properties": {"highway": "footway", "footway": null, "name": null, "surface": null, "lit": null, "length_m": 73.4, "type_element": "Way", "__fid": 2993}, "geometry": {"type": "LineString", "coordinates": [[2.2487583, 48.8724825], [2.2485244, 48.8724657], [2.2482625, 48.8723954], [2.2479895, 48.87231], [2.2478334, 48.8722503]]}}, {"type": "Feature", "properties": {"highway": "footway", "footway": null, "name": null, "surface": "dirt", "lit": null, "length_m": 48.89, "type_element": "Way", "__fid": 2995}, "geometry": {"type": "LineString", "coordinates": [[2.2481364, 48.874174900000014], [2.2479215, 48.8739026], [2.2478159, 48.8737897]]}}, {"type": "Feature", "properties": {"highway": "footway", "footway": null, "name": null, "surface": null, "lit": null, "length_m": 33.82, "type_element": "Way", "__fid": 2998}, "geometry": {"type": "LineString", "coordinates": [[2.2478677, 48.871075300000015], [2.2479019, 48.8711181], [2.2479803, 48.8711741], [2.2480521, 48.8712487], [2.2480754, 48.8713386]]}}, {"type": "Feature", "properties": {"highway": "footway", "footway": null, "name": null, "surface": null, "lit": null, "length_m": 53.86, "type_element": "Way", "__fid": 2999}, "geometry": {"type": "LineString", "coordinates": [[2.2478677, 48.871075300000015], [2.2478918, 48.8710621], [2.2479012, 48.871010100000014], [2.2479723, 48.8709686], [2.2483203, 48.8708897], [2.2484796, 48.8708758]]}}, {"type": "Feature", "properties": {"highway": "footway", "footway": null, "name": null, "surface": null, "lit": null, "length_m": 45.05, "type_element": "Way", "__fid": 3002}, "geometry": {"type": "LineString", "coordinates": [[2.2478545, 48.8729243], [2.2480438, 48.8729792], [2.2482331, 48.873016100000015], [2.2484402, 48.8730392]]}}, {"type": "Feature", "properties": {"highway": "footway", "footway": null, "name": null, "surface": "asphalt", "lit": "no", "length_m": 45.3, "type_element": "Way", "__fid": 3003}, "geometry": {"type": "LineString", "coordinates": [[2.2481546, 48.8732797], [2.2479437, 48.873051], [2.2478545, 48.8729243]]}}, {"type": "Feature", "properties": {"highway": "path", "footway": null, "name": null, "surface": "dirt", "lit": null, "length_m": 3.1, "type_element": "Way", "__fid": 3017}, "geometry": {"type": "LineString", "coordinates": [[2.2479683, 48.8757555], [2.2479532, 48.8757295]]}}, {"type": "Feature", "properties": {"highway": "footway", "footway": "sidewalk", "name": null, "surface": null, "lit": null, "length_m": 219.04, "type_element": "Way", "__fid": 3018}, "geometry": {"type": "LineString", "coordinates": [[2.2479532, 48.8757295], [2.2490774, 48.8754483], [2.2490845, 48.8754599], [2.2491252, 48.87547090000001], [2.2491792, 48.8754757], [2.2492666, 48.8754686], [2.2494548, 48.8754204], [2.2494533, 48.8753945], [2.2494139, 48.875324200000016], [2.2487842, 48.8746321]]}}, {"type": "Feature", "properties": {"highway": "footway", "footway": "sidewalk", "name": null, "surface": null, "lit": null, "length_m": 4.67, "type_element": "Way", "__fid": 3019}, "geometry": {"type": "LineString", "coordinates": [[2.2479683, 48.8757555], [2.2479889, 48.8757952]]}}, {"type": "Feature", "properties": {"highway": "service", "footway": null, "name": null, "surface": "asphalt", "lit": null, "length_m": 101.46, "type_element": "Way", "__fid": 3020}, "geometry": {"type": "LineString", "coordinates": [[2.2479683, 48.8757555], [2.2490606, 48.8754817], [2.2491859, 48.8755007], [2.2492496, 48.875539]]}}, {"type": "Feature", "properties": {"highway": "footway", "footway": null, "name": null, "surface": null, "lit": null, "length_m": 54.78, "type_element": "Way", "__fid": 3022}, "geometry": {"type": "LineString", "coordinates": [[2.2480754, 48.8713386], [2.2483454, 48.8714177], [2.2484775, 48.8714419], [2.2486381, 48.871452300000016], [2.2487897, 48.8714393]]}}, {"type": "Feature", "properties": {"highway": "path", "footway": null, "name": null, "surface": null, "lit": "no", "length_m": 19.59, "type_element": "Way", "__fid": 3027}, "geometry": {"type": "LineString", "coordinates": [[2.2481364, 48.874174900000014], [2.2482853, 48.8742111], [2.2483379, 48.8742325], [2.2483835, 48.8742261]]}}, {"type": "Feature", "properties": {"highway": "footway", "footway": null, "name": null, "surface": "asphalt", "lit": "no", "length_m": 10.0, "type_element": "Way", "__fid": 3028}, "geometry": {"type": "LineString", "coordinates": [[2.2482254, 48.8733566], [2.2481546, 48.8732797]]}}, {"type": "Feature", "properties": {"highway": "footway", "footway": null, "name": null, "surface": null, "lit": null, "length_m": 37.93, "type_element": "Way", "__fid": 3029}, "geometry": {"type": "LineString", "coordinates": [[2.2481546, 48.8732797], [2.2481944, 48.87324790000001], [2.248199, 48.8732039], [2.2481897, 48.8731559], [2.2482043, 48.8731218], [2.2482332, 48.873092100000015], [2.2482888, 48.8730622], [2.2483513, 48.8730554], [2.2484223, 48.8730635]]}}, {"type": "Feature", "properties": {"highway": "footway", "footway": null, "name": null, "surface": "asphalt", "lit": "no", "length_m": 40.09, "type_element": "Way", "__fid": 3036}, "geometry": {"type": "LineString", "coordinates": [[2.2485002, 48.8736682], [2.2482254, 48.8733566]]}}, {"type": "Feature", "properties": {"highway": "footway", "footway": null, "name": null, "surface": null, "lit": null, "length_m": 52.09, "type_element": "Way", "__fid": 3037}, "geometry": {"type": "LineString", "coordinates": [[2.2482254, 48.8733566], [2.248303, 48.8733544], [2.2483821, 48.8733616], [2.2484028, 48.8733704], [2.2484407, 48.8734554], [2.2484992, 48.873505], [2.248583, 48.8735472], [2.2486534, 48.8735619], [2.2487723, 48.8735664]]}}, {"type": "Feature", "properties": {"highway": "track", "footway": null, "name": "Chemin de la Seine à Bagatelle", "surface": "gravel", "lit": "no", "length_m": 41.95, "type_element": "Way", "__fid": 3041}, "geometry": {"type": "LineString", "coordinates": [[2.2483204, 48.8747763], [2.2484649, 48.874617600000015], [2.2485987, 48.8744469]]}}, {"type": "Feature", "properties": {"highway": "path", "footway": null, "name": null, "surface": null, "lit": null, "length_m": 37.63, "type_element": "Way", "__fid": 3042}, "geometry": {"type": "LineString", "coordinates": [[2.2487842, 48.8746321], [2.2485662, 48.874693], [2.2483204, 48.8747763]]}}, {"type": "Feature", "properties": {"highway": "footway", "footway": "sidewalk", "name": null, "surface": "dirt", "lit": null, "length_m": 2.43, "type_element": "Way", "__fid": 3043}, "geometry": {"type": "LineString", "coordinates": [[2.2483994, 48.8742453], [2.2483835, 48.8742261]]}}, {"type": "Feature", "properties": {"highway": "footway", "footway": "crossing", "name": null, "surface": null, "lit": "yes", "length_m": 25.01, "type_element": "Way", "__fid": 3044}, "geometry": {"type": "LineString", "coordinates": [[2.2487337, 48.8742371], [2.2486946, 48.8742526], [2.2483994, 48.8742453]]}}, {"type": "Feature", "properties": {"highway": "footway", "footway": "crossing", "name": null, "surface": null, "lit": null, "length_m": 26.81, "type_element": "Way", "__fid": 3045}, "geometry": {"type": "LineString", "coordinates": [[2.2485987, 48.8744469], [2.2484566, 48.8743154], [2.2483994, 48.8742453]]}}, {"type": "Feature", "properties": {"highway": "footway", "footway": null, "name": null, "surface": null, "lit": null, "length_m": 42.45, "type_element": "Way", "__fid": 3046}, "geometry": {"type": "LineString", "coordinates": [[2.2484223, 48.8730635], [2.2485127, 48.8730882], [2.2487604, 48.8731987], [2.248935, 48.8732323]]}}, {"type": "Feature", "properties": {"highway": "steps", "footway": null, "name": null, "surface": null, "lit": null, "length_m": 3.0, "type_element": "Way", "__fid": 3047}, "geometry": {"type": "LineString", "coordinates": [[2.2484223, 48.8730635], [2.2484402, 48.8730392]]}}, {"type": "Feature", "properties": {"highway": "footway", "footway": null, "name": null, "surface": null, "lit": null, "length_m": 33.75, "type_element": "Way", "__fid": 3048}, "geometry": {"type": "LineString", "coordinates": [[2.2484402, 48.8730392], [2.2487651, 48.8730687], [2.248893, 48.8730908]]}}, {"type": "Feature", "properties": {"highway": "footway", "footway": null, "name": null, "surface": "asphalt", "lit": "no", "length_m": 70.03, "type_element": "Way", "__fid": 3056}, "geometry": {"type": "LineString", "coordinates": [[2.2493009, 48.87394049999999], [2.2491723, 48.873947700000016], [2.2490527, 48.8739412], [2.2488767, 48.8739015], [2.2488116, 48.8738781], [2.2487572, 48.87384769999998], [2.2485002, 48.8736682]]}}, {"type": "Feature", "properties": {"highway": "footway", "footway": null, "name": null, "surface": null, "lit": null, "length_m": 23.54, "type_element": "Way", "__fid": 3057}, "geometry": {"type": "LineString", "coordinates": [[2.2485002, 48.8736682], [2.2486786, 48.8736281], [2.2487723, 48.8735664]]}}, {"type": "Feature", "properties": {"highway": "footway", "footway": "sidewalk", "name": null, "surface": null, "lit": null, "length_m": 24.74, "type_element": "Way", "__fid": 3062}, "geometry": {"type": "LineString", "coordinates": [[2.2487842, 48.8746321], [2.2486557, 48.87449130000001], [2.2485987, 48.8744469]]}}, {"type": "Feature", "properties": {"highway": "track", "footway": null, "name": "Chemin de la Seine à Bagatelle", "surface": "gravel", "lit": "no", "length_m": 8.64, "type_element": "Way", "__fid": 3063}, "geometry": {"type": "LineString", "coordinates": [[2.2485987, 48.8744469], [2.2486996, 48.87440680000001]]}}, {"type": "Feature", "properties": {"highway": "footway", "footway": null, "name": null, "surface": null, "lit": null, "length_m": 58.86, "type_element": "Way", "__fid": 3075}, "geometry": {"type": "LineString", "coordinates": [[2.249471, 48.8727168], [2.2489475, 48.87251339999999], [2.2487583, 48.8724825]]}}, {"type": "Feature", "properties": {"highway": "footway", "footway": null, "name": null, "surface": "fine_gravel", "lit": "no", "length_m": 124.43, "type_element": "Way", "__fid": 3076}, "geometry": {"type": "LineString", "coordinates": [[2.2494422, 48.8715443], [2.249467, 48.8716613], [2.2494554, 48.8718406], [2.2494088, 48.871990400000016], [2.2493213, 48.8721127], [2.249234, 48.8722174], [2.2491054, 48.872318], [2.2489564, 48.872395], [2.2487583, 48.8724825]]}}, {"type": "Feature", "properties": {"highway": "footway", "footway": null, "name": null, "surface": "compacted", "lit": null, "length_m": 14.86, "type_element": "Way", "__fid": 3077}, "geometry": {"type": "LineString", "coordinates": [[2.2488485, 48.8743472], [2.2487337, 48.8742371]]}}, {"type": "Feature", "properties": {"highway": "footway", "footway": null, "name": null, "surface": null, "lit": null, "length_m": 72.07, "type_element": "Way", "__fid": 3078}, "geometry": {"type": "LineString", "coordinates": [[2.2487897, 48.8714393], [2.2488819, 48.8711171], [2.2490049, 48.8708073]]}}, {"type": "Feature", "properties": {"highway": "footway", "footway": null, "name": null, "surface": null, "lit": null, "length_m": 27.06, "type_element": "Way", "__fid": 3079}, "geometry": {"type": "LineString", "coordinates": [[2.2487897, 48.8714393], [2.2491507, 48.8713892]]}}, {"type": "Feature", "properties": {"highway": "footway", "footway": null, "name": null, "surface": null, "lit": null, "length_m": 44.74, "type_element": "Way", "__fid": 3080}, "geometry": {"type": "LineString", "coordinates": [[2.2487723, 48.8735664], [2.2488728, 48.8735158], [2.2489575, 48.8734529], [2.2489893, 48.8733912], [2.2490028, 48.8733334], [2.2489846, 48.87329230000002], [2.248935, 48.8732323]]}}, {"type": "Feature", "properties": {"highway": "footway", "footway": "crossing", "name": null, "surface": "asphalt", "lit": "yes", "length_m": 18.36, "type_element": "Way", "__fid": 3083}, "geometry": {"type": "LineString", "coordinates": [[2.2487842, 48.8746321], [2.2490248, 48.8745867]]}}, {"type": "Feature", "properties": {"highway": "footway", "footway": "traffic_island", "name": null, "surface": "compacted", "lit": null, "length_m": 29.7, "type_element": "Way", "__fid": 3089}, "geometry": {"type": "LineString", "coordinates": [[2.2490248, 48.8745867], [2.2488634, 48.8743849], [2.2488485, 48.8743472]]}}, {"type": "Feature", "properties": {"highway": "footway", "footway": null, "name": null, "surface": "compacted", "lit": "no", "length_m": 79.61, "type_element": "Way", "__fid": 3090}, "geometry": {"type": "LineString", "coordinates": [[2.2488485, 48.8743472], [2.2490532, 48.8742205], [2.2491787, 48.8741555], [2.2494217, 48.8740624], [2.2497267, 48.8739313]]}}, {"type": "Feature", "properties": {"highway": "footway", "footway": null, "name": null, "surface": null, "lit": null, "length_m": 107.19, "type_element": "Way", "__fid": 3091}, "geometry": {"type": "LineString", "coordinates": [[2.248893, 48.8730908], [2.2492272, 48.87316160000001], [2.2495449, 48.873291], [2.2498648, 48.87340660000001], [2.2501229, 48.873481], [2.2502013, 48.8735108]]}}, {"type": "Feature", "properties": {"highway": "footway", "footway": null, "name": null, "surface": null, "lit": null, "length_m": 16.39, "type_element": "Way", "__fid": 3092}, "geometry": {"type": "LineString", "coordinates": [[2.248935, 48.8732323], [2.2488866, 48.8731464], [2.248893, 48.8730908]]}}, {"type": "Feature", "properties": {"highway": "footway", "footway": null, "name": null, "surface": null, "lit": null, "length_m": 36.55, "type_element": "Way", "__fid": 3097}, "geometry": {"type": "LineString", "coordinates": [[2.2493009, 48.87394049999999], [2.2491302, 48.87408629999999], [2.2490644, 48.87411980000001], [2.2489987, 48.8741321], [2.2489323, 48.8741238]]}}, {"type": "Feature", "properties": {"highway": "footway", "footway": "sidewalk", "name": null, "surface": null, "lit": null, "length_m": 120.4, "type_element": "Way", "__fid": 3109}, "geometry": {"type": "LineString", "coordinates": [[2.2490248, 48.8745867], [2.2490877, 48.87467760000001], [2.2496544, 48.8753009], [2.2497153, 48.87535290000001], [2.249756, 48.875345400000015], [2.2497908, 48.8753222], [2.2498482, 48.8752993], [2.2498803, 48.87527460000001], [2.2499333, 48.875259], [2.2499547, 48.8752633]]}}, {"type": "Feature", "properties": {"highway": "footway", "footway": null, "name": null, "surface": null, "lit": null, "length_m": 27.54, "type_element": "Way", "__fid": 3119}, "geometry": {"type": "LineString", "coordinates": [[2.2494422, 48.8715443], [2.2492865, 48.8714729], [2.2491507, 48.8713892]]}}, {"type": "Feature", "properties": {"highway": "footway", "footway": null, "name": null, "surface": null, "lit": null, "length_m": 105.53, "type_element": "Way", "__fid": 3120}, "geometry": {"type": "LineString", "coordinates": [[2.2491507, 48.8713892], [2.2497075, 48.8712816], [2.2501644, 48.8711195], [2.2504524, 48.8710007]]}}, {"type": "Feature", "properties": {"highway": "footway", "footway": null, "name": null, "surface": "asphalt", "lit": "no", "length_m": 27.7, "type_element": "Way", "__fid": 3127}, "geometry": {"type": "LineString", "coordinates": [[2.2496543, 48.873854], [2.2494276, 48.8739175], [2.2493009, 48.87394049999999]]}}, {"type": "Feature", "properties": {"highway": "footway", "footway": null, "name": null, "surface": null, "lit": null, "length_m": 120.12, "type_element": "Way", "__fid": 3134}, "geometry": {"type": "LineString", "coordinates": [[2.2510236, 48.8716916], [2.2508972, 48.8716467], [2.2505561, 48.87156509999998], [2.2504227, 48.8715489], [2.2502349, 48.8715371], [2.2501584, 48.8715446], [2.2500417, 48.8715695], [2.2498435, 48.8715858], [2.2496456, 48.8715747], [2.2494422, 48.8715443]]}}, {"type": "Feature", "properties": {"highway": "footway", "footway": null, "name": null, "surface": null, "lit": null, "length_m": 104.76, "type_element": "Way", "__fid": 3136}, "geometry": {"type": "LineString", "coordinates": [[2.2502013, 48.8735108], [2.2501385, 48.8734471], [2.2500817, 48.8733232], [2.2499122, 48.8731486], [2.2496669, 48.8729823], [2.2495476, 48.8728605], [2.249471, 48.8727168]]}}, {"type": "Feature", "properties": {"highway": "footway", "footway": null, "name": null, "surface": null, "lit": null, "length_m": 61.23, "type_element": "Way", "__fid": 3137}, "geometry": {"type": "LineString", "coordinates": [[2.249471, 48.8727168], [2.2500223, 48.872696199999986], [2.2503049, 48.87269460000002]]}}, {"type": "Feature", "properties": {"highway": "footway", "footway": null, "name": null, "surface": null, "lit": null, "length_m": 10.1, "type_element": "Way", "__fid": 3147}, "geometry": {"type": "LineString", "coordinates": [[2.2496543, 48.873854], [2.2497267, 48.8739313]]}}, {"type": "Feature", "properties": {"highway": "footway", "footway": null, "name": null, "surface": "asphalt", "lit": "no", "length_m": 55.89, "type_element": "Way", "__fid": 3148}, "geometry": {"type": "LineString", "coordinates": [[2.2502013, 48.8735108], [2.2499945, 48.87368350000001], [2.2497141, 48.8738332], [2.2496543, 48.873854]]}}, {"type": "Feature", "properties": {"highway": "footway", "footway": null, "name": null, "surface": "compacted", "lit": "no", "length_m": 91.3, "type_element": "Way", "__fid": 3152}, "geometry": {"type": "LineString", "coordinates": [[2.2497267, 48.8739313], [2.2498957, 48.87388940000001], [2.2502348, 48.87384370000002], [2.2502979, 48.873842], [2.2505446, 48.8738632], [2.2509498, 48.8738455]]}}, {"type": "Feature", "properties": {"highway": "service", "footway": null, "name": "Boulevard Richard Wallace", "surface": null, "lit": null, "length_m": 18.08, "type_element": "Way", "__fid": 3160}, "geometry": {"type": "LineString", "coordinates": [[2.2498471, 48.8754096], [2.2499547, 48.8752633]]}}, {"type": "Feature", "properties": {"highway": "footway", "footway": null, "name": null, "surface": "compacted", "lit": null, "length_m": 184.1, "type_element": "Way", "__fid": 3168}, "geometry": {"type": "LineString", "coordinates": [[2.2499547, 48.8752633], [2.2506925, 48.87460569999999], [2.2507917, 48.8744963], [2.2508695, 48.8743093], [2.2510251, 48.8739864], [2.2510443, 48.8738821], [2.2509498, 48.8738455]]}}, {"type": "Feature", "properties": {"highway": "service", "footway": null, "name": "Boulevard Richard Wallace", "surface": null, "lit": null, "length_m": 85.77, "type_element": "Way", "__fid": 3169}, "geometry": {"type": "LineString", "coordinates": [[2.2499547, 48.8752633], [2.2510528, 48.8749981]]}}, {"type": "Feature", "properties": {"highway": "footway", "footway": null, "name": null, "surface": "asphalt", "lit": "no", "length_m": 76.05, "type_element": "Way", "__fid": 3172}, "geometry": {"type": "LineString", "coordinates": [[2.2500571, 48.870382], [2.2502889, 48.8706198], [2.2504072, 48.8707765], [2.2504524, 48.8710007]]}}, {"type": "Feature", "properties": {"highway": "footway", "footway": null, "name": null, "surface": "asphalt", "lit": "no", "length_m": 49.82, "type_element": "Way", "__fid": 3185}, "geometry": {"type": "LineString", "coordinates": [[2.2506859, 48.8732012], [2.2504764, 48.8733], [2.2502013, 48.8735108]]}}, {"type": "Feature", "properties": {"highway": "footway", "footway": null, "name": null, "surface": null, "lit": null, "length_m": 97.78, "type_element": "Way", "__fid": 3187}, "geometry": {"type": "LineString", "coordinates": [[2.2503049, 48.87269460000002], [2.2507364, 48.872726], [2.2511679, 48.872782], [2.2515909, 48.8728997]]}}, {"type": "Feature", "properties": {"highway": "footway", "footway": null, "name": null, "surface": null, "lit": null, "length_m": 68.2, "type_element": "Way", "__fid": 3188}, "geometry": {"type": "LineString", "coordinates": [[2.2503049, 48.87269460000002], [2.2503399, 48.8727702], [2.2504874, 48.8728097], [2.2505101, 48.8728229], [2.2505622, 48.87290409999998], [2.2506442, 48.87296809999998], [2.2506476, 48.873114], [2.2506668, 48.87317509999998], [2.2506859, 48.8732012]]}}, {"type": "Feature", "properties": {"highway": "footway", "footway": null, "name": null, "surface": "sett", "lit": null, "length_m": 96.54, "type_element": "Way", "__fid": 3189}, "geometry": {"type": "LineString", "coordinates": [[2.2509698, 48.87212690000002], [2.2509874, 48.8721585], [2.2509805, 48.872217599999985], [2.2509574, 48.8722311], [2.2509128, 48.8722371], [2.250709, 48.8722178], [2.2506505, 48.872229], [2.2505942, 48.872258], [2.2505572, 48.8723126], [2.2505339, 48.8724495], [2.250514, 48.87248750000002], [2.2503687, 48.87256860000002], [2.2503283, 48.8725993], [2.2503145, 48.8726173], [2.2503049, 48.87269460000002]]}}, {"type": "Feature", "properties": {"highway": "footway", "footway": null, "name": null, "surface": "asphalt", "lit": "no", "length_m": 32.97, "type_element": "Way", "__fid": 3202}, "geometry": {"type": "LineString", "coordinates": [[2.2504524, 48.8710007], [2.2505793, 48.8710153], [2.250747, 48.871063], [2.2508802, 48.8710869]]}}, {"type": "Feature", "properties": {"highway": "footway", "footway": null, "name": null, "surface": "asphalt", "lit": "no", "length_m": 74.48, "type_element": "Way", "__fid": 3219}, "geometry": {"type": "LineString", "coordinates": [[2.2515909, 48.8728997], [2.2514479, 48.87295910000001], [2.2512953, 48.8730108], [2.2508962, 48.8731264], [2.2506859, 48.8732012]]}}, {"type": "Feature", "properties": {"highway": "footway", "footway": "sidewalk", "name": null, "surface": null, "lit": null, "length_m": 400.79, "type_element": "Way", "__fid": 3222}, "geometry": {"type": "LineString", "coordinates": [[2.25297, 48.871031500000015], [2.2521669, 48.8697985], [2.2509391, 48.8679437], [2.2508764, 48.8678678], [2.2508065, 48.867723]]}}, {"type": "Feature", "properties": {"highway": "footway", "footway": null, "name": null, "surface": null, "lit": null, "length_m": 35.83, "type_element": "Way", "__fid": 3225}, "geometry": {"type": "LineString", "coordinates": [[2.2507898, 48.8708106], [2.2507006, 48.870849], [2.2509058, 48.8710615]]}}, {"type": "Feature", "properties": {"highway": "footway", "footway": null, "name": null, "surface": "asphalt", "lit": "no", "length_m": 100.79, "type_element": "Way", "__fid": 3236}, "geometry": {"type": "LineString", "coordinates": [[2.2508802, 48.8710869], [2.2510649, 48.8712238], [2.251306, 48.8715657], [2.2514848, 48.871891]]}}, {"type": "Feature", "properties": {"highway": "footway", "footway": null, "name": null, "surface": "asphalt", "lit": "no", "length_m": 3.39, "type_element": "Way", "__fid": 3237}, "geometry": {"type": "LineString", "coordinates": [[2.2508802, 48.8710869], [2.2509058, 48.8710615]]}}, {"type": "Feature", "properties": {"highway": "footway", "footway": null, "name": null, "surface": "asphalt", "lit": "no", "length_m": 9.23, "type_element": "Way", "__fid": 3240}, "geometry": {"type": "LineString", "coordinates": [[2.2509058, 48.8710615], [2.2510116, 48.8710166]]}}, {"type": "Feature", "properties": {"highway": "footway", "footway": null, "name": null, "surface": "sett", "lit": null, "length_m": 50.46, "type_element": "Way", "__fid": 3249}, "geometry": {"type": "LineString", "coordinates": [[2.2514848, 48.871891], [2.2513131, 48.8720722], [2.2512527, 48.8721026], [2.2511562, 48.8721235], [2.2509698, 48.87212690000002]]}}, {"type": "Feature", "properties": {"highway": "footway", "footway": null, "name": null, "surface": null, "lit": null, "length_m": 113.83, "type_element": "Way", "__fid": 3250}, "geometry": {"type": "LineString", "coordinates": [[2.2510236, 48.8716916], [2.2509683, 48.8717442], [2.2508676, 48.87178440000001], [2.2507846, 48.8718004], [2.2507518, 48.8718268], [2.2507485, 48.871852], [2.2508129, 48.871905], [2.2509201, 48.8719085], [2.2511021, 48.8719005], [2.2511508, 48.8719191], [2.2511757, 48.871972], [2.2511454, 48.8720108], [2.2511021, 48.8720164], [2.2509778, 48.8719813], [2.2509166, 48.8719769], [2.2508699, 48.8719892], [2.2508531, 48.87203], [2.2508659, 48.8720764], [2.2508798, 48.872094599999976], [2.2509255, 48.87211710000001], [2.2509698, 48.87212690000002]]}}, {"type": "Feature", "properties": {"highway": "footway", "footway": "sidewalk", "name": null, "surface": "compacted", "lit": null, "length_m": 182.21, "type_element": "Way", "__fid": 3251}, "geometry": {"type": "LineString", "coordinates": [[2.2509498, 48.8738455], [2.2512698, 48.8737295], [2.2517178, 48.8736183], [2.2520739, 48.87355179999999], [2.2523176, 48.8735336], [2.2529741, 48.873506], [2.2533407, 48.873519]]}}, {"type": "Feature", "properties": {"highway": "footway", "footway": null, "name": null, "surface": null, "lit": null, "length_m": 40.64, "type_element": "Way", "__fid": 3256}, "geometry": {"type": "LineString", "coordinates": [[2.2514848, 48.871891], [2.2514402, 48.8718833], [2.2513882, 48.871861], [2.2510236, 48.8716916]]}}, {"type": "Feature", "properties": {"highway": "footway", "footway": null, "name": null, "surface": null, "lit": null, "length_m": 91.93, "type_element": "Way", "__fid": 3262}, "geometry": {"type": "LineString", "coordinates": [[2.251112, 48.8736473], [2.2509952, 48.8737044], [2.2508611, 48.8737432], [2.2507944, 48.873750700000016], [2.2507268, 48.8737519], [2.2506502, 48.87373990000001], [2.2506135, 48.8737124], [2.2506026, 48.8736788], [2.2506556, 48.87358], [2.2507411, 48.8735196], [2.2509014, 48.8734442], [2.2510449, 48.87339930000001]]}}, {"type": "Feature", "properties": {"highway": "footway", "footway": null, "name": null, "surface": null, "lit": null, "length_m": 4.8, "type_element": "Way", "__fid": 3263}, "geometry": {"type": "LineString", "coordinates": [[2.2510918, 48.8733692], [2.2510449, 48.87339930000001]]}}, {"type": "Feature", "properties": {"highway": "service", "footway": null, "name": null, "surface": null, "lit": null, "length_m": 11.91, "type_element": "Way", "__fid": 3271}, "geometry": {"type": "LineString", "coordinates": [[2.2510528, 48.8749981], [2.251138, 48.87508930000002]]}}, {"type": "Feature", "properties": {"highway": "service", "footway": null, "name": "Boulevard Richard Wallace", "surface": null, "lit": null, "length_m": 14.25, "type_element": "Way", "__fid": 3272}, "geometry": {"type": "LineString", "coordinates": [[2.2510528, 48.8749981], [2.2512372, 48.8749578]]}}, {"type": "Feature", "properties": {"highway": "footway", "footway": null, "name": null, "surface": null, "lit": null, "length_m": 29.79, "type_element": "Way", "__fid": 3277}, "geometry": {"type": "LineString", "coordinates": [[2.2510918, 48.8733692], [2.2511532, 48.8734596], [2.2511948, 48.8735019], [2.2512484, 48.8735182], [2.2513665, 48.8735341]]}}, {"type": "Feature", "properties": {"highway": "footway", "footway": null, "name": null, "surface": null, "lit": null, "length_m": 68.89, "type_element": "Way", "__fid": 3278}, "geometry": {"type": "LineString", "coordinates": [[2.2518951, 48.8730529], [2.2518453, 48.8730764], [2.2514898, 48.8731888], [2.251234, 48.873293400000016], [2.2510918, 48.8733692]]}}, {"type": "Feature", "properties": {"highway": "service", "footway": null, "name": null, "surface": null, "lit": null, "length_m": 252.81, "type_element": "Way", "__fid": 3281}, "geometry": {"type": "LineString", "coordinates": [[2.2511009, 48.8738544], [2.251185, 48.8739138], [2.2512904, 48.874049], [2.2514373, 48.8742045], [2.2515548, 48.8742501], [2.2518766, 48.8743055], [2.2520261, 48.8743485], [2.252181, 48.8744126], [2.2522678, 48.8744363], [2.2524093, 48.8744284], [2.2525308, 48.8743827], [2.2527337, 48.8742624], [2.2528085, 48.8742018], [2.2529006, 48.874031500000015], [2.2530008, 48.873927], [2.2533456, 48.8736963], [2.2533361, 48.8736514], [2.2533723, 48.8735836], [2.2533407, 48.873519]]}}, {"type": "Feature", "properties": {"highway": "footway", "footway": null, "name": null, "surface": null, "lit": null, "length_m": 48.68, "type_element": "Way", "__fid": 3282}, "geometry": {"type": "LineString", "coordinates": [[2.251112, 48.8736473], [2.2512966, 48.8736282], [2.2514941, 48.8735656], [2.2515583, 48.8735276], [2.2516608, 48.873437]]}}, {"type": "Feature", "properties": {"highway": "footway", "footway": "crossing", "name": null, "surface": null, "lit": null, "length_m": 20.35, "type_element": "Way", "__fid": 3307}, "geometry": {"type": "LineString", "coordinates": [[2.2513302, 48.87513019999999], [2.2512372, 48.8749578]]}}, {"type": "Feature", "properties": {"highway": "service", "footway": null, "name": "Boulevard Richard Wallace", "surface": null, "lit": null, "length_m": 259.84, "type_element": "Way", "__fid": 3308}, "geometry": {"type": "LineString", "coordinates": [[2.2512372, 48.8749578], [2.2517207, 48.8748521], [2.25218, 48.8747374], [2.2545486, 48.8741285]]}}, {"type": "Feature", "properties": {"highway": "footway", "footway": null, "name": null, "surface": "asphalt", "lit": "no", "length_m": 72.59, "type_element": "Way", "__fid": 3339}, "geometry": {"type": "LineString", "coordinates": [[2.2514848, 48.871891], [2.2519875, 48.8723861], [2.2520152, 48.87244]]}}, {"type": "Feature", "properties": {"highway": "footway", "footway": null, "name": null, "surface": null, "lit": null, "length_m": 22.82, "type_element": "Way", "__fid": 3362}, "geometry": {"type": "LineString", "coordinates": [[2.2515909, 48.8728997], [2.2516782, 48.8729222], [2.2518361, 48.8730207]]}}, {"type": "Feature", "properties": {"highway": "footway", "footway": null, "name": null, "surface": "asphalt", "lit": "no", "length_m": 64.69, "type_element": "Way", "__fid": 3363}, "geometry": {"type": "LineString", "coordinates": [[2.2520152, 48.87244], [2.2520314, 48.8724842], [2.2520221, 48.872553], [2.252008, 48.8726058], [2.2519608, 48.8726748], [2.2518716, 48.8727637], [2.2517813, 48.8728235], [2.2515909, 48.8728997]]}}, {"type": "Feature", "properties": {"highway": "footway", "footway": null, "name": null, "surface": null, "lit": null, "length_m": 60.38, "type_element": "Way", "__fid": 3377}, "geometry": {"type": "LineString", "coordinates": [[2.2522129, 48.87323450000002], [2.2522419, 48.8732761], [2.2522401, 48.8733409], [2.2522033, 48.8733988], [2.2521651, 48.8734187], [2.2520575, 48.873445], [2.2516608, 48.873437]]}}, {"type": "Feature", "properties": {"highway": "footway", "footway": null, "name": null, "surface": null, "lit": null, "length_m": 46.43, "type_element": "Way", "__fid": 3378}, "geometry": {"type": "LineString", "coordinates": [[2.2516608, 48.873437], [2.2518612, 48.873175], [2.2518951, 48.8730529]]}}, {"type": "Feature", "properties": {"highway": "footway", "footway": null, "name": null, "surface": null, "lit": null, "length_m": 5.62, "type_element": "Way", "__fid": 3406}, "geometry": {"type": "LineString", "coordinates": [[2.2518361, 48.8730207], [2.2518951, 48.8730529]]}}, {"type": "Feature", "properties": {"highway": "path", "footway": null, "name": null, "surface": null, "lit": null, "length_m": 31.38, "type_element": "Way", "__fid": 3407}, "geometry": {"type": "LineString", "coordinates": [[2.2518361, 48.8730207], [2.2522409, 48.8729294]]}}, {"type": "Feature", "properties": {"highway": "footway", "footway": null, "name": null, "surface": null, "lit": null, "length_m": 31.68, "type_element": "Way", "__fid": 3418}, "geometry": {"type": "LineString", "coordinates": [[2.2518951, 48.8730529], [2.2519777, 48.8730718], [2.2520283, 48.8730937], [2.2521593, 48.87317860000001], [2.2522129, 48.87323450000002]]}}, {"type": "Feature", "properties": {"highway": "path", "footway": null, "name": null, "surface": "dirt", "lit": "yes", "length_m": 336.73, "type_element": "Way", "__fid": 3429}, "geometry": {"type": "LineString", "coordinates": [[2.2520073, 48.8691142], [2.2538322, 48.8718929]]}}, {"type": "Feature", "properties": {"highway": "footway", "footway": null, "name": null, "surface": "compacted", "lit": null, "length_m": 22.01, "type_element": "Way", "__fid": 3438}, "geometry": {"type": "LineString", "coordinates": [[2.2520152, 48.87244], [2.2521336, 48.872409], [2.2522862, 48.8723557]]}}, {"type": "Feature", "properties": {"highway": "footway", "footway": null, "name": null, "surface": null, "lit": null, "length_m": 88.89, "type_element": "Way", "__fid": 3441}, "geometry": {"type": "LineString", "coordinates": [[2.2520383, 48.871538100000016], [2.2525213, 48.871271599999986], [2.2526602, 48.8711759], [2.2528404, 48.87107669999999], [2.25297, 48.871031500000015]]}}, {"type": "Feature", "properties": {"highway": "footway", "footway": null, "name": null, "surface": null, "lit": null, "length_m": 8.73, "type_element": "Way", "__fid": 3460}, "geometry": {"type": "LineString", "coordinates": [[2.2521286, 48.87328990000001], [2.2522129, 48.87323450000002]]}}, {"type": "Feature", "properties": {"highway": "footway", "footway": null, "name": null, "surface": null, "lit": null, "length_m": 102.47, "type_element": "Way", "__fid": 3488}, "geometry": {"type": "LineString", "coordinates": [[2.2523419, 48.87233169999999], [2.2524714, 48.8722843], [2.2527296, 48.87216260000001], [2.2529125, 48.8721363], [2.2532356, 48.8721257], [2.2533758, 48.872108200000014], [2.2535186, 48.8720722], [2.2536223, 48.8720258]]}}, {"type": "Feature", "properties": {"highway": "service", "footway": null, "name": null, "surface": null, "lit": null, "length_m": 103.69, "type_element": "Way", "__fid": 3565}, "geometry": {"type": "LineString", "coordinates": [[2.2526831, 48.8727125], [2.2528198, 48.8728978], [2.2528574, 48.8730301], [2.2529298, 48.87311480000003], [2.2530164, 48.873154], [2.2533053, 48.87344640000002], [2.2533407, 48.873519]]}}, {"type": "Feature", "properties": {"highway": "footway", "footway": "sidewalk", "name": null, "surface": null, "lit": null, "length_m": 120.47, "type_element": "Way", "__fid": 3588}, "geometry": {"type": "LineString", "coordinates": [[2.2536223, 48.8720258], [2.25297, 48.871031500000015]]}}, {"type": "Feature", "properties": {"highway": "footway", "footway": null, "name": null, "surface": null, "lit": null, "length_m": 10.27, "type_element": "Way", "__fid": 3589}, "geometry": {"type": "LineString", "coordinates": [[2.25297, 48.871031500000015], [2.2530944, 48.8709892]]}}, {"type": "Feature", "properties": {"highway": "footway", "footway": "sidewalk", "name": null, "surface": "compacted", "lit": null, "length_m": 107.64, "type_element": "Way", "__fid": 3640}, "geometry": {"type": "LineString", "coordinates": [[2.2533407, 48.873519], [2.2537786, 48.873563], [2.2540769, 48.87360110000002], [2.2547663, 48.8737398]]}}, {"type": "Feature", "properties": {"highway": "footway", "footway": "sidewalk", "name": null, "surface": null, "lit": null, "length_m": 208.25, "type_element": "Way", "__fid": 3667}, "geometry": {"type": "LineString", "coordinates": [[2.2547663, 48.8737398], [2.2536223, 48.8720258]]}}, {"type": "Feature", "properties": {"highway": "footway", "footway": null, "name": null, "surface": null, "lit": null, "length_m": 10.53, "type_element": "Way", "__fid": 3668}, "geometry": {"type": "LineString", "coordinates": [[2.2536223, 48.8720258], [2.2537506, 48.8719834]]}}, {"type": "Feature", "properties": {"highway": "track", "footway": null, "name": null, "surface": null, "lit": null, "length_m": 9.41, "type_element": "Way", "__fid": 3672}, "geometry": {"type": "LineString", "coordinates": [[2.2537095, 48.8719176], [2.2538322, 48.8718929]]}}, {"type": "Feature", "properties": {"highway": "path", "footway": null, "name": null, "surface": "dirt", "lit": "yes", "length_m": 229.16, "type_element": "Way", "__fid": 3679}, "geometry": {"type": "LineString", "coordinates": [[2.2538322, 48.8718929], [2.2549609, 48.87360670000001], [2.255103, 48.8737047], [2.2551159, 48.8737608]]}}, {"type": "Feature", "properties": {"highway": "track", "footway": null, "name": null, "surface": null, "lit": null, "length_m": 31.3, "type_element": "Way", "__fid": 3680}, "geometry": {"type": "LineString", "coordinates": [[2.2538322, 48.8718929], [2.2541213, 48.8718237], [2.254225, 48.8717849]]}}, {"type": "Feature", "properties": {"highway": "footway", "footway": null, "name": null, "surface": "dirt", "lit": null, "length_m": 112.03, "type_element": "Way", "__fid": 3744}, "geometry": {"type": "LineString", "coordinates": [[2.254225, 48.8717849], [2.2542787, 48.8718162], [2.254502, 48.8720231], [2.2546193, 48.8720967], [2.2549559, 48.87235920000001], [2.2550505, 48.8724068], [2.2553071, 48.8724591]]}}, {"type": "Feature", "properties": {"highway": "track", "footway": null, "name": null, "surface": null, "lit": null, "length_m": 162.91, "type_element": "Way", "__fid": 3745}, "geometry": {"type": "LineString", "coordinates": [[2.254225, 48.8717849], [2.2543817, 48.8716208], [2.2544311, 48.8714733], [2.2544338, 48.871345], [2.2545726, 48.8712757], [2.2546687, 48.87126780000001], [2.254885, 48.87126689999999], [2.2549665, 48.8712748], [2.2554017, 48.871288], [2.2557045, 48.87127250000001], [2.2558854, 48.8712256]]}}, {"type": "Feature", "properties": {"highway": "service", "footway": null, "name": "Boulevard Richard Wallace", "surface": null, "lit": null, "length_m": 13.76, "type_element": "Way", "__fid": 3818}, "geometry": {"type": "LineString", "coordinates": [[2.2545486, 48.8741285], [2.254706, 48.8741958]]}}, {"type": "Feature", "properties": {"highway": "footway", "footway": "sidewalk", "name": null, "surface": "unpaved", "lit": null, "length_m": 22.94, "type_element": "Way", "__fid": 3819}, "geometry": {"type": "LineString", "coordinates": [[2.2545486, 48.8741285], [2.2546244, 48.8741152], [2.2547536, 48.8741058], [2.2548521, 48.874083]]}}, {"type": "Feature", "properties": {"highway": "footway", "footway": "sidewalk", "name": null, "surface": "unpaved", "lit": null, "length_m": 41.54, "type_element": "Way", "__fid": 3856}, "geometry": {"type": "LineString", "coordinates": [[2.2548521, 48.874083], [2.2548886, 48.8740461], [2.2549101, 48.87400559999998], [2.2549086, 48.8739775], [2.254891, 48.8739431], [2.2548396, 48.8738998], [2.2547663, 48.8737398]]}}, {"type": "Feature", "properties": {"highway": "footway", "footway": "crossing", "name": null, "surface": null, "lit": "yes", "length_m": 25.83, "type_element": "Way", "__fid": 3857}, "geometry": {"type": "LineString", "coordinates": [[2.2547663, 48.8737398], [2.2548138, 48.8737387], [2.2550197, 48.8737598], [2.2551159, 48.8737608]]}}]}