{"type": "FeatureCollection", "features": [{"type": "Feature", "properties": {"@id": "node/918204683", "FIXME": "verifier la position", "amenity": "drinking_water", "source": "Eau de Paris", "type_element": "Fontaines à boire", "__fid": 191}, "geometry": {"type": "Point", "coordinates": [2.247541, 48.858177]}, "id": "node/918204683"}, {"type": "Feature", "geometry": {"type": "Point", "coordinates": [2.253901, 48.854351]}, "properties": {"id": 16592, "name": "Pelouses de l’hippodrome d’Auteuil", "categorie": "Parcs, jardins et bois", "photo_url": "https://cdn.paris.fr/eqpts-prod/2022/05/10/ecd7c58588e7a74363e0391e545a9f75.jpg", "photo_credit": "Jean-Pierre Viguié/Ville de Paris", "photo_alt": null, "address_street": "Route d’Auteuil-aux-Lacs", "address_postcode": "75016", "address_city": "Paris", "phone": null, "accessibility": "{\"handicaps\": [{\"name\": \"Personnes à mobilité réduite\", \"status\": \"accessible\"}, {\"name\": \"Personnes déficientes visuelles\", \"status\": \"undefined\"}, {\"name\": \"Personnes déficientes auditives\", \"status\": \"undefined\"}, {\"name\": \"Personnes déficientes mentales\", \"status\": \"undefined\"}, {\"name\": \"Accueil en langue des signes\", \"status\": \"undefined\"}]}", "latitude": 48.854351, "longitude": 2.253901, "url": "https://www.paris.fr/lieux/pelouses-de-l-hippodrome-d-auteuil-16592", "type_element": "Parcs, Jardins et Bois", "__fid": 1498}}, {"type": "Feature", "properties": {"highway": "path", "footway": null, "name": null, "surface": null, "lit": null, "length_m": 122.41, "type_element": "Way", "__fid": 2635}, "geometry": {"type": "LineString", "coordinates": [[2.2446533, 48.8539268], [2.2447912, 48.8539855], [2.2449712, 48.8541141], [2.2451662, 48.85421070000001], [2.2455364, 48.8542463], [2.2459036, 48.8543193], [2.246125, 48.8543759]]}}, {"type": "Feature", "properties": {"highway": "path", "footway": null, "name": null, "surface": "compacted", "lit": "yes", "length_m": 208.67, "type_element": "Way", "__fid": 2680}, "geometry": {"type": "LineString", "coordinates": [[2.2448123, 48.8586978], [2.2448431, 48.8587263], [2.2450248, 48.8589969], [2.2459573, 48.8604148]]}}, {"type": "Feature", "properties": {"highway": "path", "footway": null, "name": "Avenue de l'Hippodrome", "surface": "concrete", "lit": "yes", "length_m": 141.03, "type_element": "Way", "__fid": 2707}, "geometry": {"type": "LineString", "coordinates": [[2.2449949, 48.8584464], [2.2456729, 48.8582584], [2.2462421, 48.8581307], [2.2468019, 48.8580174]]}}, {"type": "Feature", "properties": {"highway": "path", "footway": null, "name": "Avenue de l'Hippodrome", "surface": "concrete", "lit": "yes", "length_m": 142.32, "type_element": "Way", "__fid": 2719}, "geometry": {"type": "LineString", "coordinates": [[2.2469099, 48.858158], [2.246685, 48.8581971], [2.2460845, 48.858323], [2.2450838, 48.8585859]]}}, {"type": "Feature", "properties": {"highway": "path", "footway": null, "name": null, "surface": "compacted", "lit": "no", "length_m": 207.47, "type_element": "Way", "__fid": 2722}, "geometry": {"type": "LineString", "coordinates": [[2.2450975, 48.8586115], [2.2452254, 48.858686700000014], [2.2460826, 48.86004610000001], [2.2462193, 48.8601838], [2.2462891, 48.86029]]}}, {"type": "Feature", "properties": {"highway": "path", "footway": "sidewalk", "name": null, "surface": "compacted", "lit": "yes", "length_m": 206.49, "type_element": "Way", "__fid": 2723}, "geometry": {"type": "LineString", "coordinates": [[2.2450975, 48.8586115], [2.2450934, 48.85863769999999], [2.2461798, 48.86032220000001]]}}, {"type": "Feature", "properties": {"highway": "path", "footway": null, "name": null, "surface": "unpaved", "lit": null, "length_m": 107.64, "type_element": "Way", "__fid": 2731}, "geometry": {"type": "LineString", "coordinates": [[2.2452452, 48.855512], [2.2453248, 48.8556123], [2.2455134, 48.855806], [2.2457162, 48.855977400000015], [2.2459808, 48.8563452]]}}, {"type": "Feature", "properties": {"highway": "path", "footway": null, "name": null, "surface": null, "lit": null, "length_m": 166.62, "type_element": "Way", "__fid": 2748}, "geometry": {"type": "LineString", "coordinates": [[2.2467573, 48.8561568], [2.2465202, 48.856085], [2.2460811, 48.8557332], [2.245577, 48.8554122], [2.2453964, 48.8550217]]}}, {"type": "Feature", "properties": {"highway": "track", "footway": null, "name": "Route d'Auteuil à Suresnes", "surface": "compacted", "lit": null, "length_m": 89.53, "type_element": "Way", "__fid": 2749}, "geometry": {"type": "LineString", "coordinates": [[2.246125, 48.8543759], [2.2453964, 48.8550217]]}}, {"type": "Feature", "properties": {"highway": "track", "footway": null, "name": "Allée Saint-Denis", "surface": "compacted", "lit": "no", "length_m": 195.19, "type_element": "Way", "__fid": 2762}, "geometry": {"type": "LineString", "coordinates": [[2.2468019, 48.8580174], [2.245438, 48.85651030000001]]}}, {"type": "Feature", "properties": {"highway": "path", "footway": null, "name": null, "surface": null, "lit": null, "length_m": 43.87, "type_element": "Way", "__fid": 2763}, "geometry": {"type": "LineString", "coordinates": [[2.2459808, 48.8563452], [2.2455873, 48.8564597], [2.245438, 48.85651030000001]]}}, {"type": "Feature", "properties": {"highway": "path", "footway": null, "name": null, "surface": null, "lit": null, "length_m": 173.2, "type_element": "Way", "__fid": 2823}, "geometry": {"type": "LineString", "coordinates": [[2.2471965, 48.8576742], [2.2470544, 48.857585600000014], [2.2468785, 48.857386200000015], [2.2464783, 48.8569014], [2.2459808, 48.8563452]]}}, {"type": "Feature", "properties": {"highway": "path", "footway": null, "name": null, "surface": null, "lit": null, "length_m": 60.7, "type_element": "Way", "__fid": 2824}, "geometry": {"type": "LineString", "coordinates": [[2.2459808, 48.8563452], [2.2467573, 48.8561568]]}}, {"type": "Feature", "properties": {"highway": "path", "footway": null, "name": null, "surface": null, "lit": null, "length_m": 196.73, "type_element": "Way", "__fid": 2835}, "geometry": {"type": "LineString", "coordinates": [[2.246125, 48.8543759], [2.2463252, 48.85447519999999], [2.2480182, 48.8550369], [2.2482021, 48.85511309999998], [2.2483339, 48.8553045]]}}, {"type": "Feature", "properties": {"highway": "track", "footway": null, "name": "Route d'Auteuil à Suresnes", "surface": "compacted", "lit": null, "length_m": 205.52, "type_element": "Way", "__fid": 2836}, "geometry": {"type": "LineString", "coordinates": [[2.2476959, 48.85284570000001], [2.246125, 48.8543759]]}}, {"type": "Feature", "properties": {"highway": "path", "footway": null, "name": null, "surface": null, "lit": null, "length_m": 128.68, "type_element": "Way", "__fid": 2879}, "geometry": {"type": "LineString", "coordinates": [[2.2483346, 48.8564441], [2.2482723, 48.85647689999998], [2.2481565, 48.8565129], [2.2480363, 48.8565228], [2.2477357, 48.8565081], [2.2476058, 48.8564738], [2.247178, 48.8562651], [2.2467573, 48.8561568]]}}, {"type": "Feature", "properties": {"highway": "path", "footway": null, "name": null, "surface": null, "lit": null, "length_m": 124.3, "type_element": "Way", "__fid": 2880}, "geometry": {"type": "LineString", "coordinates": [[2.2467573, 48.8561568], [2.2471777, 48.8560601], [2.2479437, 48.8556771], [2.2481124, 48.855523200000015]]}}, {"type": "Feature", "properties": {"highway": "track", "footway": null, "name": "Allée Saint-Denis", "surface": "compacted", "lit": "no", "length_m": 17.62, "type_element": "Way", "__fid": 2886}, "geometry": {"type": "LineString", "coordinates": [[2.2469099, 48.858158], [2.24687, 48.8580877], [2.2468019, 48.8580174]]}}, {"type": "Feature", "properties": {"highway": "path", "footway": null, "name": "Avenue de l'Hippodrome", "surface": "concrete", "lit": "yes", "length_m": 28.69, "type_element": "Way", "__fid": 2887}, "geometry": {"type": "LineString", "coordinates": [[2.2468019, 48.8580174], [2.247181, 48.8579543]]}}, {"type": "Feature", "properties": {"highway": "track", "footway": null, "name": "Allée Saint-Denis", "surface": "compacted", "lit": "no", "length_m": 255.02, "type_element": "Way", "__fid": 2895}, "geometry": {"type": "LineString", "coordinates": [[2.2488322, 48.8600531], [2.2481667, 48.8595348], [2.247556, 48.8590078], [2.2469099, 48.858158]]}}, {"type": "Feature", "properties": {"highway": "path", "footway": null, "name": "Avenue de l'Hippodrome", "surface": "concrete", "lit": "yes", "length_m": 250.24, "type_element": "Way", "__fid": 2896}, "geometry": {"type": "LineString", "coordinates": [[2.2502869, 48.8579133], [2.2496793, 48.8579036], [2.24883, 48.8579304], [2.2479031, 48.858015600000016], [2.2470738, 48.858128], [2.2469099, 48.858158]]}}, {"type": "Feature", "properties": {"highway": "path", "footway": null, "name": null, "surface": null, "lit": null, "length_m": 32.58, "type_element": "Way", "__fid": 2924}, "geometry": {"type": "LineString", "coordinates": [[2.247181, 48.8579543], [2.2471554, 48.85792690000002], [2.2471286, 48.8578748], [2.2471703, 48.8577751], [2.2471965, 48.8576742]]}}, {"type": "Feature", "properties": {"highway": "path", "footway": null, "name": "Avenue de l'Hippodrome", "surface": "concrete", "lit": "yes", "length_m": 219.2, "type_element": "Way", "__fid": 2925}, "geometry": {"type": "LineString", "coordinates": [[2.247181, 48.8579543], [2.2475144, 48.85790549999999], [2.2483577, 48.8578117], [2.2488348, 48.857781400000015], [2.2496099, 48.8577626], [2.2501458, 48.85776650000001]]}}, {"type": "Feature", "properties": {"highway": "path", "footway": null, "name": null, "surface": null, "lit": null, "length_m": 157.78, "type_element": "Way", "__fid": 2928}, "geometry": {"type": "LineString", "coordinates": [[2.2471965, 48.8576742], [2.2481562, 48.8575349], [2.2487547, 48.85742789999998], [2.2492932, 48.857362]]}}, {"type": "Feature", "properties": {"highway": "path", "footway": null, "name": null, "surface": null, "lit": null, "length_m": 194.36, "type_element": "Way", "__fid": 2949}, "geometry": {"type": "LineString", "coordinates": [[2.2501197, 48.85913819999998], [2.2497572, 48.8591318], [2.2491793, 48.8590428], [2.2484872, 48.858986700000024], [2.2481387, 48.8589312], [2.2479037, 48.8588544], [2.2477079, 48.8588108], [2.2475419, 48.8587924]]}}, {"type": "Feature", "properties": {"highway": "track", "footway": null, "name": "Route du Point du Jour à Bagatelle", "surface": "asphalt", "lit": "no", "length_m": 230.58, "type_element": "Way", "__fid": 2956}, "geometry": {"type": "LineString", "coordinates": [[2.2476959, 48.85284570000001], [2.2476796, 48.853042], [2.2476958, 48.8532529], [2.247777, 48.8536503], [2.2478309, 48.8538424], [2.2478935, 48.8539978], [2.2480361, 48.854148], [2.2483306, 48.8544064], [2.2487599, 48.8547002]]}}, {"type": "Feature", "properties": {"highway": "service", "footway": null, "name": "Route de la Seine à la Butte Mortemart", "surface": "asphalt", "lit": null, "length_m": 164.34, "type_element": "Way", "__fid": 2970}, "geometry": {"type": "LineString", "coordinates": [[2.2479376, 48.852867], [2.2484317, 48.852957], [2.249012, 48.8530789], [2.2498569, 48.8532383], [2.2500926, 48.85326540000001]]}}, {"type": "Feature", "properties": {"highway": "path", "footway": null, "name": "Parcours de Santé", "surface": null, "lit": null, "length_m": 115.91, "type_element": "Way", "__fid": 3004}, "geometry": {"type": "LineString", "coordinates": [[2.2481124, 48.855523200000015], [2.248162, 48.8556217], [2.248231, 48.8557124], [2.2482156, 48.8558888], [2.2483957, 48.8560324], [2.2485191, 48.856208600000016], [2.2484608, 48.8563777], [2.2483346, 48.8564441]]}}, {"type": "Feature", "properties": {"highway": "path", "footway": null, "name": null, "surface": null, "lit": null, "length_m": 31.73, "type_element": "Way", "__fid": 3005}, "geometry": {"type": "LineString", "coordinates": [[2.2481124, 48.855523200000015], [2.2481544, 48.8553823], [2.2483339, 48.8553045]]}}, {"type": "Feature", "properties": {"highway": "service", "footway": null, "name": "Avenue de Saint-Cloud", "surface": "asphalt", "lit": null, "length_m": 177.41, "type_element": "Way", "__fid": 3006}, "geometry": {"type": "LineString", "coordinates": [[2.2481492, 48.8530723], [2.248854, 48.8534316], [2.2495352, 48.85383259999998], [2.2497804, 48.8539939], [2.2499562, 48.8541275]]}}, {"type": "Feature", "properties": {"highway": "path", "footway": null, "name": null, "surface": "wood", "lit": null, "length_m": 182.89, "type_element": "Way", "__fid": 3007}, "geometry": {"type": "LineString", "coordinates": [[2.2481492, 48.8530723], [2.2481377, 48.853209], [2.2486948, 48.8537714], [2.2489189, 48.854032], [2.2495975, 48.8543272]]}}, {"type": "Feature", "properties": {"highway": "path", "footway": null, "name": null, "surface": null, "lit": null, "length_m": 176.11, "type_element": "Way", "__fid": 3023}, "geometry": {"type": "LineString", "coordinates": [[2.2493123, 48.8567286], [2.2493178, 48.8565452], [2.2487575, 48.8558244], [2.2483339, 48.8553045]]}}, {"type": "Feature", "properties": {"highway": "path", "footway": null, "name": null, "surface": null, "lit": null, "length_m": 47.37, "type_element": "Way", "__fid": 3024}, "geometry": {"type": "LineString", "coordinates": [[2.2483339, 48.8553045], [2.2485063, 48.8552914], [2.2489783, 48.8552921]]}}, {"type": "Feature", "properties": {"highway": "path", "footway": null, "name": null, "surface": null, "lit": null, "length_m": 85.94, "type_element": "Way", "__fid": 3025}, "geometry": {"type": "LineString", "coordinates": [[2.2493123, 48.8567286], [2.2488546, 48.856598], [2.2488029, 48.8565949], [2.2486239, 48.8566249], [2.2485454, 48.8566311], [2.2485086, 48.856605499999986], [2.2484227, 48.856501], [2.2483346, 48.8564441]]}}, {"type": "Feature", "properties": {"highway": "track", "footway": null, "name": "Route du Point du Jour à Bagatelle", "surface": "asphalt", "lit": "no", "length_m": 68.07, "type_element": "Way", "__fid": 3054}, "geometry": {"type": "LineString", "coordinates": [[2.2487599, 48.8547002], [2.2488704, 48.8548806], [2.2489783, 48.8552921]]}}, {"type": "Feature", "properties": {"highway": "path", "footway": null, "name": null, "surface": null, "lit": null, "length_m": 74.59, "type_element": "Way", "__fid": 3055}, "geometry": {"type": "LineString", "coordinates": [[2.2487599, 48.8547002], [2.2491342, 48.8545769], [2.2495975, 48.8543272]]}}, {"type": "Feature", "properties": {"highway": "service", "footway": null, "name": "Route de la Vierge aux Berceaux", "surface": "asphalt", "lit": null, "length_m": 142.25, "type_element": "Way", "__fid": 3066}, "geometry": {"type": "LineString", "coordinates": [[2.2488322, 48.8600531], [2.2490725, 48.8599682], [2.249323, 48.8598577], [2.249599, 48.85970120000001], [2.2496706, 48.8596417], [2.2498839, 48.8594211], [2.2501197, 48.85913819999998]]}}, {"type": "Feature", "properties": {"highway": "path", "footway": null, "name": null, "surface": null, "lit": null, "length_m": 312.45, "type_element": "Way", "__fid": 3072}, "geometry": {"type": "LineString", "coordinates": [[2.2518861, 48.8573264], [2.2512075, 48.85696990000002], [2.2506469, 48.8565671], [2.2496022, 48.8557549], [2.2495037, 48.855675], [2.249224, 48.8554147], [2.2489783, 48.8552921]]}}, {"type": "Feature", "properties": {"highway": "track", "footway": null, "name": "Route du Point du Jour à Bagatelle", "surface": "asphalt", "lit": "no", "length_m": 187.17, "type_element": "Way", "__fid": 3073}, "geometry": {"type": "LineString", "coordinates": [[2.2489783, 48.8552921], [2.2491094, 48.8555096], [2.2492477, 48.855695199999985], [2.2493521, 48.8557876], [2.2497074, 48.8560277], [2.2498932, 48.8561943], [2.25002, 48.8563779], [2.2500508, 48.8565005], [2.2500523, 48.8565867], [2.2500034, 48.8567561]]}}, {"type": "Feature", "properties": {"highway": "path", "footway": null, "name": null, "surface": null, "lit": null, "length_m": 81.08, "type_element": "Way", "__fid": 3074}, "geometry": {"type": "LineString", "coordinates": [[2.2499126, 48.854986100000026], [2.2497813, 48.8549691], [2.2496127, 48.8549936], [2.2490356, 48.8552136], [2.2489783, 48.8552921]]}}, {"type": "Feature", "properties": {"highway": "path", "footway": null, "name": null, "surface": "dirt", "lit": null, "length_m": 270.46, "type_element": "Way", "__fid": 3096}, "geometry": {"type": "LineString", "coordinates": [[2.2515534, 48.8585132], [2.2509354, 48.85877730000002], [2.2506774, 48.85891620000002], [2.2504965, 48.85902460000001], [2.2503318, 48.8591478], [2.2501962, 48.8592647], [2.249983, 48.8594899], [2.2498377, 48.85972360000002], [2.249721, 48.8598792], [2.2495246, 48.86007450000002], [2.2493577, 48.8601778], [2.2491243, 48.8602649]]}}, {"type": "Feature", "properties": {"highway": "path", "footway": null, "name": null, "surface": null, "lit": null, "length_m": 70.44, "type_element": "Way", "__fid": 3111}, "geometry": {"type": "LineString", "coordinates": [[2.2492932, 48.857362], [2.2493123, 48.8567286]]}}, {"type": "Feature", "properties": {"highway": "path", "footway": null, "name": null, "surface": null, "lit": null, "length_m": 37.34, "type_element": "Way", "__fid": 3112}, "geometry": {"type": "LineString", "coordinates": [[2.2492932, 48.857362], [2.2498007, 48.85733649999999]]}}, {"type": "Feature", "properties": {"highway": "path", "footway": null, "name": null, "surface": null, "lit": null, "length_m": 52.57, "type_element": "Way", "__fid": 3113}, "geometry": {"type": "LineString", "coordinates": [[2.2500034, 48.8567561], [2.2497871, 48.8567191], [2.2496948, 48.8567222], [2.2495103, 48.8567611], [2.2494205, 48.856758], [2.2493123, 48.8567286]]}}, {"type": "Feature", "properties": {"highway": "path", "footway": null, "name": null, "surface": "wood", "lit": null, "length_m": 78.39, "type_element": "Way", "__fid": 3130}, "geometry": {"type": "LineString", "coordinates": [[2.2495975, 48.8543272], [2.2503465, 48.8548299]]}}, {"type": "Feature", "properties": {"highway": "path", "footway": null, "name": null, "surface": null, "lit": null, "length_m": 34.44, "type_element": "Way", "__fid": 3131}, "geometry": {"type": "LineString", "coordinates": [[2.2495975, 48.8543272], [2.2499562, 48.8541275]]}}, {"type": "Feature", "properties": {"highway": "track", "footway": null, "name": "Route du Point du Jour à Bagatelle", "surface": "asphalt", "lit": "no", "length_m": 54.57, "type_element": "Way", "__fid": 3141}, "geometry": {"type": "LineString", "coordinates": [[2.2498007, 48.85733649999999], [2.2498701, 48.8574811], [2.2499816, 48.8576153], [2.2501458, 48.85776650000001]]}}, {"type": "Feature", "properties": {"highway": "track", "footway": null, "name": "Route du Point du Jour à Bagatelle", "surface": "asphalt", "lit": "no", "length_m": 66.91, "type_element": "Way", "__fid": 3142}, "geometry": {"type": "LineString", "coordinates": [[2.2500034, 48.8567561], [2.2498454, 48.8570522], [2.249799, 48.85718410000002], [2.2498007, 48.85733649999999]]}}, {"type": "Feature", "properties": {"highway": "path", "footway": null, "name": null, "surface": null, "lit": null, "length_m": 58.82, "type_element": "Way", "__fid": 3145}, "geometry": {"type": "LineString", "coordinates": [[2.2506773, 48.8551448], [2.2499126, 48.854986100000026]]}}, {"type": "Feature", "properties": {"highway": "path", "footway": null, "name": null, "surface": null, "lit": null, "length_m": 36.27, "type_element": "Way", "__fid": 3146}, "geometry": {"type": "LineString", "coordinates": [[2.2503465, 48.8548299], [2.2499126, 48.854986100000026]]}}, {"type": "Feature", "properties": {"highway": "service", "footway": null, "name": "Avenue de Saint-Cloud", "surface": "asphalt", "lit": null, "length_m": 78.83, "type_element": "Way", "__fid": 3149}, "geometry": {"type": "LineString", "coordinates": [[2.2499562, 48.8541275], [2.2506621, 48.85466189999999]]}}, {"type": "Feature", "properties": {"highway": "path", "footway": null, "name": null, "surface": null, "lit": null, "length_m": 154.78, "type_element": "Way", "__fid": 3154}, "geometry": {"type": "LineString", "coordinates": [[2.2518861, 48.8573264], [2.2518072, 48.8573136], [2.2516865, 48.857276200000015], [2.2515659, 48.8572186], [2.2514784, 48.8572031], [2.2511307, 48.857173500000016], [2.2508823, 48.8571175], [2.2506552, 48.857035], [2.2501395, 48.8567844], [2.2500034, 48.8567561]]}}, {"type": "Feature", "properties": {"highway": "service", "footway": null, "name": "Route de la Seine à la Butte Mortemart", "surface": "asphalt", "lit": null, "length_m": 70.01, "type_element": "Way", "__fid": 3156}, "geometry": {"type": "LineString", "coordinates": [[2.2500926, 48.85326540000001], [2.2504304, 48.8532943], [2.2510437, 48.8533044]]}}, {"type": "Feature", "properties": {"highway": "track", "footway": null, "name": "Chemin des Vieux Chênes", "surface": "asphalt", "lit": null, "length_m": 49.08, "type_element": "Way", "__fid": 3157}, "geometry": {"type": "LineString", "coordinates": [[2.2506608, 48.8530373], [2.2503432, 48.8531919], [2.2500926, 48.85326540000001]]}}, {"type": "Feature", "properties": {"highway": "path", "footway": null, "name": null, "surface": null, "lit": null, "length_m": 283.62, "type_element": "Way", "__fid": 3159}, "geometry": {"type": "LineString", "coordinates": [[2.2520302, 48.8588978], [2.2519334, 48.85893809999999], [2.2518489, 48.8589937], [2.2517713, 48.8590643], [2.2517028, 48.8592251], [2.2516048, 48.8596699], [2.2515354, 48.8598198], [2.2513572, 48.85999769999999], [2.2510375, 48.8602831], [2.2507292, 48.8605412], [2.2499823, 48.8609482]]}}, {"type": "Feature", "properties": {"highway": "service", "footway": null, "name": "Route de la Vierge aux Berceaux", "surface": "asphalt", "lit": null, "length_m": 127.1, "type_element": "Way", "__fid": 3163}, "geometry": {"type": "LineString", "coordinates": [[2.2501197, 48.85913819999998], [2.2505249, 48.8587779], [2.2506966, 48.8586667], [2.2508458, 48.8585991], [2.2513988, 48.858399]]}}, {"type": "Feature", "properties": {"highway": "path", "footway": null, "name": "Avenue de l'Hippodrome", "surface": "concrete", "lit": "yes", "length_m": 192.62, "type_element": "Way", "__fid": 3164}, "geometry": {"type": "LineString", "coordinates": [[2.2501458, 48.85776650000001], [2.2512954, 48.85782080000001], [2.2527629, 48.8579024]]}}, {"type": "Feature", "properties": {"highway": "track", "footway": null, "name": "Route du Point du Jour à Bagatelle", "surface": "asphalt", "lit": "no", "length_m": 19.33, "type_element": "Way", "__fid": 3165}, "geometry": {"type": "LineString", "coordinates": [[2.2501458, 48.85776650000001], [2.2502869, 48.8579133]]}}, {"type": "Feature", "properties": {"highway": "path", "footway": null, "name": "Avenue de l'Hippodrome", "surface": "concrete", "lit": "yes", "length_m": 175.97, "type_element": "Way", "__fid": 3173}, "geometry": {"type": "LineString", "coordinates": [[2.2526758, 48.8580482], [2.2521068, 48.8579994], [2.2502869, 48.8579133]]}}, {"type": "Feature", "properties": {"highway": "track", "footway": null, "name": "Route du Point du Jour à Bagatelle", "surface": "asphalt", "lit": "no", "length_m": 98.48, "type_element": "Way", "__fid": 3174}, "geometry": {"type": "LineString", "coordinates": [[2.2502869, 48.8579133], [2.2505718, 48.8580716], [2.2507193, 48.858137099999986], [2.2512425, 48.8583089], [2.2513988, 48.858399]]}}, {"type": "Feature", "properties": {"highway": "path", "footway": null, "name": null, "surface": "wood", "lit": null, "length_m": 42.61, "type_element": "Way", "__fid": 3175}, "geometry": {"type": "LineString", "coordinates": [[2.2503465, 48.8548299], [2.2506773, 48.8551448]]}}, {"type": "Feature", "properties": {"highway": "path", "footway": null, "name": null, "surface": null, "lit": null, "length_m": 29.75, "type_element": "Way", "__fid": 3176}, "geometry": {"type": "LineString", "coordinates": [[2.2506621, 48.85466189999999], [2.2503465, 48.8548299]]}}, {"type": "Feature", "properties": {"highway": "path", "footway": null, "name": null, "surface": "wood", "lit": "no", "length_m": 40.88, "type_element": "Way", "__fid": 3191}, "geometry": {"type": "LineString", "coordinates": [[2.2506608, 48.8530373], [2.2510437, 48.8533044]]}}, {"type": "Feature", "properties": {"highway": "service", "footway": null, "name": "Avenue de Saint-Cloud", "surface": "asphalt", "lit": null, "length_m": 27.13, "type_element": "Way", "__fid": 3194}, "geometry": {"type": "LineString", "coordinates": [[2.2506621, 48.85466189999999], [2.2509013, 48.854848]]}}, {"type": "Feature", "properties": {"highway": "path", "footway": null, "name": null, "surface": null, "lit": null, "length_m": 60.34, "type_element": "Way", "__fid": 3195}, "geometry": {"type": "LineString", "coordinates": [[2.2514537, 48.8545493], [2.2514228, 48.8545423], [2.251285, 48.8545398], [2.2511394, 48.85455740000001], [2.2509556, 48.8545876], [2.2506621, 48.85466189999999]]}}, {"type": "Feature", "properties": {"highway": "path", "footway": null, "name": null, "surface": null, "lit": null, "length_m": 149.88, "type_element": "Way", "__fid": 3200}, "geometry": {"type": "LineString", "coordinates": [[2.2520901, 48.8560158], [2.2517377, 48.85595270000001], [2.251413, 48.8558656], [2.2513262, 48.85582280000001], [2.2512471, 48.8557686], [2.2508174, 48.8552753], [2.2506773, 48.8551448]]}}, {"type": "Feature", "properties": {"highway": "service", "footway": null, "name": "Avenue de Saint-Cloud", "surface": "asphalt", "lit": null, "length_m": 77.47, "type_element": "Way", "__fid": 3211}, "geometry": {"type": "LineString", "coordinates": [[2.2509013, 48.854848], [2.2515321, 48.8554067]]}}, {"type": "Feature", "properties": {"highway": "path", "footway": null, "name": null, "surface": "dirt", "lit": null, "length_m": 52.56, "type_element": "Way", "__fid": 3212}, "geometry": {"type": "LineString", "coordinates": [[2.2509013, 48.854848], [2.2513194, 48.8546431], [2.2514537, 48.8545493]]}}, {"type": "Feature", "properties": {"highway": "service", "footway": null, "name": null, "surface": null, "lit": null, "length_m": 146.82, "type_element": "Way", "__fid": 3213}, "geometry": {"type": "LineString", "coordinates": [[2.2523734, 48.856494], [2.2520283, 48.8565616], [2.2518008, 48.8565631], [2.2516285, 48.85654730000001], [2.2515173, 48.8565014], [2.2508951, 48.8558961]]}}, {"type": "Feature", "properties": {"highway": "path", "footway": null, "name": null, "surface": "wood", "lit": "no", "length_m": 103.35, "type_element": "Way", "__fid": 3226}, "geometry": {"type": "LineString", "coordinates": [[2.2510437, 48.8533044], [2.2511814, 48.8534627], [2.2514213, 48.853697], [2.2516516, 48.8541356]]}}, {"type": "Feature", "properties": {"highway": "service", "footway": null, "name": "Route de la Seine à la Butte Mortemart", "surface": "asphalt", "lit": null, "length_m": 91.12, "type_element": "Way", "__fid": 3227}, "geometry": {"type": "LineString", "coordinates": [[2.2510437, 48.8533044], [2.2514215, 48.8532647], [2.2522495, 48.8531133]]}}, {"type": "Feature", "properties": {"highway": "path", "footway": null, "name": null, "surface": "dirt", "lit": null, "length_m": 79.01, "type_element": "Way", "__fid": 3296}, "geometry": {"type": "LineString", "coordinates": [[2.2522799, 48.8549939], [2.2518077, 48.8547459], [2.2517254, 48.8546683], [2.2515339, 48.8545675], [2.2514537, 48.8545493]]}}, {"type": "Feature", "properties": {"highway": "path", "footway": null, "name": null, "surface": "dirt", "lit": null, "length_m": 49.17, "type_element": "Way", "__fid": 3297}, "geometry": {"type": "LineString", "coordinates": [[2.2514537, 48.8545493], [2.2514878, 48.8544711], [2.2515095, 48.8543392], [2.2515907, 48.8541788], [2.2516516, 48.8541356]]}}, {"type": "Feature", "properties": {"highway": "track", "footway": null, "name": "Route du Point du Jour à Bagatelle", "surface": "asphalt", "lit": "no", "length_m": 17.03, "type_element": "Way", "__fid": 3298}, "geometry": {"type": "LineString", "coordinates": [[2.2513988, 48.858399], [2.2515534, 48.8585132]]}}, {"type": "Feature", "properties": {"highway": "service", "footway": null, "name": "Route de la Vierge aux Berceaux", "surface": "asphalt", "lit": null, "length_m": 98.14, "type_element": "Way", "__fid": 3299}, "geometry": {"type": "LineString", "coordinates": [[2.2513988, 48.858399], [2.2516072, 48.8583236], [2.2519489, 48.858231799999984], [2.2522139, 48.8581854], [2.2524913, 48.85817990000002], [2.2526649, 48.8581505]]}}, {"type": "Feature", "properties": {"highway": "service", "footway": null, "name": "Avenue de Saint-Cloud", "surface": "asphalt", "lit": null, "length_m": 79.14, "type_element": "Way", "__fid": 3313}, "geometry": {"type": "LineString", "coordinates": [[2.2515321, 48.8554067], [2.2520901, 48.8560158]]}}, {"type": "Feature", "properties": {"highway": "path", "footway": null, "name": null, "surface": "wood", "lit": null, "length_m": 71.54, "type_element": "Way", "__fid": 3314}, "geometry": {"type": "LineString", "coordinates": [[2.2522799, 48.8549939], [2.2515321, 48.8554067]]}}, {"type": "Feature", "properties": {"highway": "track", "footway": null, "name": "Route du Point du Jour à Bagatelle", "surface": "asphalt", "lit": "no", "length_m": 56.18, "type_element": "Way", "__fid": 3328}, "geometry": {"type": "LineString", "coordinates": [[2.2515534, 48.8585132], [2.2516749, 48.8586071], [2.2519028, 48.858743], [2.2519693, 48.8587938], [2.2520087, 48.8588465], [2.2520302, 48.8588978]]}}, {"type": "Feature", "properties": {"highway": "path", "footway": null, "name": null, "surface": "dirt", "lit": null, "length_m": 80.76, "type_element": "Way", "__fid": 3329}, "geometry": {"type": "LineString", "coordinates": [[2.2526208, 48.8583589], [2.2525245, 48.8583749], [2.251907, 48.858428300000014], [2.2516768, 48.8584693], [2.2515534, 48.8585132]]}}, {"type": "Feature", "properties": {"highway": "path", "footway": null, "name": null, "surface": "wood", "lit": null, "length_m": 91.72, "type_element": "Way", "__fid": 3332}, "geometry": {"type": "LineString", "coordinates": [[2.2516516, 48.8541356], [2.251846, 48.854278600000015], [2.2526139, 48.8546576]]}}, {"type": "Feature", "properties": {"highway": "path", "footway": null, "name": null, "surface": "dirt", "lit": null, "length_m": 110.16, "type_element": "Way", "__fid": 3333}, "geometry": {"type": "LineString", "coordinates": [[2.2516516, 48.8541356], [2.251743, 48.85408239999998], [2.2518638, 48.8539718], [2.2519521, 48.8539279], [2.2520526, 48.85390039999997], [2.2521329, 48.85385680000001], [2.2524946, 48.8533496]]}}, {"type": "Feature", "properties": {"highway": "path", "footway": null, "name": null, "surface": null, "lit": null, "length_m": 68.35, "type_element": "Way", "__fid": 3373}, "geometry": {"type": "LineString", "coordinates": [[2.2526847, 48.857642900000016], [2.2518861, 48.8573264]]}}, {"type": "Feature", "properties": {"highway": "track", "footway": null, "name": "Route du Point du Jour à Bagatelle", "surface": "asphalt", "lit": "no", "length_m": 249.7, "type_element": "Way", "__fid": 3404}, "geometry": {"type": "LineString", "coordinates": [[2.2520302, 48.8588978], [2.2520497, 48.8591564], [2.2521122, 48.8592918], [2.2522937, 48.8594759], [2.2523233, 48.8595676], [2.2523183, 48.8596844], [2.2522876, 48.8598022], [2.252145, 48.8602195], [2.2520742, 48.8604848], [2.2520548, 48.8606625], [2.2520684, 48.860983], [2.2520529, 48.8610819]]}}, {"type": "Feature", "properties": {"highway": "path", "footway": null, "name": null, "surface": "compacted", "lit": "no", "length_m": 71.57, "type_element": "Way", "__fid": 3405}, "geometry": {"type": "LineString", "coordinates": [[2.2529823, 48.858773099999986], [2.2528058, 48.8587939], [2.2524678, 48.8588119], [2.2522915, 48.8588392], [2.2520302, 48.8588978]]}}, {"type": "Feature", "properties": {"highway": "service", "footway": null, "name": "Avenue de Saint-Cloud", "surface": "asphalt", "lit": null, "length_m": 45.9, "type_element": "Way", "__fid": 3408}, "geometry": {"type": "LineString", "coordinates": [[2.2520901, 48.8560158], [2.2524309, 48.8563619]]}}, {"type": "Feature", "properties": {"highway": "path", "footway": null, "name": null, "surface": "wood", "lit": null, "length_m": 114.15, "type_element": "Way", "__fid": 3409}, "geometry": {"type": "LineString", "coordinates": [[2.2530842, 48.855571], [2.2531204, 48.8556818], [2.2531274, 48.8557792], [2.253084, 48.8559041], [2.2529888, 48.8559598], [2.2526613, 48.8559331], [2.2520901, 48.8560158]]}}, {"type": "Feature", "properties": {"highway": "path", "footway": null, "name": null, "surface": "compacted", "lit": null, "length_m": 31.84, "type_element": "Way", "__fid": 3431}, "geometry": {"type": "LineString", "coordinates": [[2.2522495, 48.8531133], [2.2524946, 48.8533496]]}}, {"type": "Feature", "properties": {"highway": "path", "footway": null, "name": null, "surface": null, "lit": null, "length_m": 88.64, "type_element": "Way", "__fid": 3442}, "geometry": {"type": "LineString", "coordinates": [[2.2530842, 48.855571], [2.2527462, 48.8552689], [2.2525182, 48.8550816], [2.2523727, 48.855016], [2.2522799, 48.8549939]]}}, {"type": "Feature", "properties": {"highway": "path", "footway": null, "name": null, "surface": "wood", "lit": null, "length_m": 44.71, "type_element": "Way", "__fid": 3443}, "geometry": {"type": "LineString", "coordinates": [[2.2526139, 48.8546576], [2.2522799, 48.8549939]]}}, {"type": "Feature", "properties": {"highway": "track", "footway": null, "name": null, "surface": "asphalt", "lit": null, "length_m": 122.06, "type_element": "Way", "__fid": 3461}, "geometry": {"type": "LineString", "coordinates": [[2.2526654, 48.85755560000001], [2.2526271, 48.85735110000002], [2.2526521, 48.8571564], [2.2526432, 48.8570573], [2.2526244, 48.8570011], [2.2525109, 48.8568366], [2.2524724, 48.8567245], [2.2524776, 48.8566701], [2.2524388, 48.8565919], [2.2523734, 48.856494]]}}, {"type": "Feature", "properties": {"highway": "track", "footway": null, "name": null, "surface": "asphalt", "lit": null, "length_m": 15.71, "type_element": "Way", "__fid": 3462}, "geometry": {"type": "LineString", "coordinates": [[2.2523734, 48.856494], [2.2523702, 48.8564449], [2.2524309, 48.8563619]]}}, {"type": "Feature", "properties": {"highway": "service", "footway": null, "name": null, "surface": null, "lit": null, "length_m": 12.71, "type_element": "Way", "__fid": 3463}, "geometry": {"type": "LineString", "coordinates": [[2.2525442, 48.8564752], [2.2523734, 48.856494]]}}, {"type": "Feature", "properties": {"highway": "service", "footway": null, "name": "Avenue de Saint-Cloud", "surface": "asphalt", "lit": null, "length_m": 6.28, "type_element": "Way", "__fid": 3470}, "geometry": {"type": "LineString", "coordinates": [[2.2524309, 48.8563619], [2.2524753, 48.8564102]]}}, {"type": "Feature", "properties": {"highway": "path", "footway": null, "name": null, "surface": "compacted", "lit": null, "length_m": 34.49, "type_element": "Way", "__fid": 3471}, "geometry": {"type": "LineString", "coordinates": [[2.2524946, 48.8533496], [2.2526574, 48.8535918], [2.2526688, 48.8536364]]}}, {"type": "Feature", "properties": {"highway": "path", "footway": null, "name": null, "surface": "wood", "lit": null, "length_m": 117.33, "type_element": "Way", "__fid": 3490}, "geometry": {"type": "LineString", "coordinates": [[2.2526139, 48.8546576], [2.2527064, 48.8547079], [2.2528621, 48.8548284], [2.2529689, 48.8548677], [2.2531043, 48.8550085], [2.2531368, 48.8550833], [2.2530661, 48.85532269999999], [2.2530842, 48.855571]]}}, {"type": "Feature", "properties": {"highway": "path", "footway": null, "name": null, "surface": "dirt", "lit": null, "length_m": 116.15, "type_element": "Way", "__fid": 3491}, "geometry": {"type": "LineString", "coordinates": [[2.2526688, 48.8536364], [2.2525897, 48.8537469], [2.2525627, 48.8538324], [2.2525572, 48.8539767], [2.2525125, 48.85410730000001], [2.2525275, 48.8543884], [2.2525464, 48.854477500000016], [2.2526139, 48.8546576]]}}, {"type": "Feature", "properties": {"highway": "path", "footway": null, "name": null, "surface": "compacted", "lit": null, "length_m": 18.35, "type_element": "Way", "__fid": 3494}, "geometry": {"type": "LineString", "coordinates": [[2.2526688, 48.8536364], [2.2527778, 48.8537849]]}}, {"type": "Feature", "properties": {"highway": "service", "footway": null, "name": null, "surface": "asphalt", "lit": "no", "length_m": 53.78, "type_element": "Way", "__fid": 3497}, "geometry": {"type": "LineString", "coordinates": [[2.2526208, 48.8583589], [2.2526345, 48.8584245], [2.2527783, 48.8585603], [2.2529823, 48.858773099999986]]}}, {"type": "Feature", "properties": {"highway": "service", "footway": null, "name": null, "surface": "asphalt", "lit": "no", "length_m": 23.4, "type_element": "Way", "__fid": 3498}, "geometry": {"type": "LineString", "coordinates": [[2.2526649, 48.8581505], [2.2526208, 48.8583589]]}}, {"type": "Feature", "properties": {"highway": "path", "footway": null, "name": null, "surface": "dirt", "lit": null, "length_m": 154.79, "type_element": "Way", "__fid": 3499}, "geometry": {"type": "LineString", "coordinates": [[2.2547238, 48.8583964], [2.2536673, 48.8583357], [2.25328, 48.858323200000015], [2.2526208, 48.8583589]]}}, {"type": "Feature", "properties": {"highway": "track", "footway": null, "name": null, "surface": "asphalt", "lit": null, "length_m": 9.81, "type_element": "Way", "__fid": 3508}, "geometry": {"type": "LineString", "coordinates": [[2.2526847, 48.857642900000016], [2.2526654, 48.85755560000001]]}}, {"type": "Feature", "properties": {"highway": "path", "footway": null, "name": null, "surface": "dirt", "lit": null, "length_m": 76.36, "type_element": "Way", "__fid": 3509}, "geometry": {"type": "LineString", "coordinates": [[2.2531058, 48.8569373], [2.2530337, 48.8569907], [2.2528568, 48.8572395], [2.2526654, 48.85755560000001]]}}, {"type": "Feature", "properties": {"highway": "service", "footway": null, "name": null, "surface": "asphalt", "lit": null, "length_m": 11.4, "type_element": "Way", "__fid": 3510}, "geometry": {"type": "LineString", "coordinates": [[2.2526758, 48.8580482], [2.2526649, 48.8581505]]}}, {"type": "Feature", "properties": {"highway": "path", "footway": null, "name": "Avenue de l'Hippodrome", "surface": "concrete", "lit": "yes", "length_m": 155.06, "type_element": "Way", "__fid": 3512}, "geometry": {"type": "LineString", "coordinates": [[2.2547661, 48.8582535], [2.2526758, 48.8580482]]}}, {"type": "Feature", "properties": {"highway": "service", "footway": null, "name": null, "surface": "asphalt", "lit": null, "length_m": 7.98, "type_element": "Way", "__fid": 3513}, "geometry": {"type": "LineString", "coordinates": [[2.2526891, 48.857977], [2.2526758, 48.8580482]]}}, {"type": "Feature", "properties": {"highway": "path", "footway": null, "name": null, "surface": null, "lit": null, "length_m": 148.66, "type_element": "Way", "__fid": 3514}, "geometry": {"type": "LineString", "coordinates": [[2.2545859, 48.8580812], [2.2545385, 48.85805879999999], [2.2538348, 48.8579141], [2.2534331, 48.8578236], [2.2532279, 48.8578077], [2.2530536, 48.8577702], [2.2526847, 48.857642900000016]]}}, {"type": "Feature", "properties": {"highway": "track", "footway": null, "name": null, "surface": "asphalt", "lit": null, "length_m": 29.48, "type_element": "Way", "__fid": 3515}, "geometry": {"type": "LineString", "coordinates": [[2.2527629, 48.8579024], [2.2527272, 48.8578243], [2.2526847, 48.857642900000016]]}}, {"type": "Feature", "properties": {"highway": "path", "footway": null, "name": null, "surface": "dirt", "lit": null, "length_m": 78.96, "type_element": "Way", "__fid": 3526}, "geometry": {"type": "LineString", "coordinates": [[2.2534472, 48.8543307], [2.2533453, 48.85426850000001], [2.2532621, 48.8541405], [2.2528591, 48.8538277], [2.2527778, 48.8537849]]}}, {"type": "Feature", "properties": {"highway": "path", "footway": null, "name": null, "surface": "compacted", "lit": null, "length_m": 100.82, "type_element": "Way", "__fid": 3527}, "geometry": {"type": "LineString", "coordinates": [[2.2527778, 48.8537849], [2.2528269, 48.85388550000001], [2.2531097, 48.8542939], [2.2532235, 48.85441869999999], [2.2534058, 48.8545863]]}}, {"type": "Feature", "properties": {"highway": "path", "footway": null, "name": "Avenue de l'Hippodrome", "surface": "concrete", "lit": "yes", "length_m": 135.24, "type_element": "Way", "__fid": 3544}, "geometry": {"type": "LineString", "coordinates": [[2.2527629, 48.8579024], [2.2539438, 48.8580275], [2.2545859, 48.8580812]]}}, {"type": "Feature", "properties": {"highway": "track", "footway": null, "name": null, "surface": "asphalt", "lit": null, "length_m": 9.13, "type_element": "Way", "__fid": 3545}, "geometry": {"type": "LineString", "coordinates": [[2.2527734, 48.8579842], [2.2527629, 48.8579024]]}}, {"type": "Feature", "properties": {"highway": "footway", "footway": "sidewalk", "name": null, "surface": "unpaved", "lit": null, "length_m": 462.25, "type_element": "Way", "__fid": 3560}, "geometry": {"type": "LineString", "coordinates": [[2.2537401, 48.854104], [2.25363, 48.85392430000001], [2.2535979, 48.85378690000001], [2.2536024, 48.8536643], [2.253667, 48.8534681], [2.2537627, 48.8532622], [2.253867, 48.8531097], [2.2541687, 48.8527236], [2.254274, 48.8525623], [2.2543173, 48.8524107], [2.2543098, 48.852295599999984], [2.2542471, 48.8521554], [2.254089, 48.8519948], [2.253528, 48.85134340000001], [2.2533123, 48.851076099999986], [2.2531985, 48.8509064], [2.253064, 48.8506482], [2.2529623, 48.8503105], [2.2529762, 48.8502655]]}}, {"type": "Feature", "properties": {"highway": "track", "footway": null, "name": null, "surface": "dirt", "lit": null, "length_m": 36.4, "type_element": "Way", "__fid": 3566}, "geometry": {"type": "LineString", "coordinates": [[2.2531892, 48.8565306], [2.2531408, 48.856628], [2.2529274, 48.856803300000024]]}}, {"type": "Feature", "properties": {"highway": "path", "footway": null, "name": null, "surface": "compacted", "lit": "no", "length_m": 117.37, "type_element": "Way", "__fid": 3573}, "geometry": {"type": "LineString", "coordinates": [[2.2529823, 48.858773099999986], [2.2531433, 48.8588012], [2.2535373, 48.858833799999985], [2.2537496, 48.8588638], [2.2540602, 48.8588848], [2.2541945, 48.8589062], [2.2543434, 48.8589464], [2.2545117, 48.8590267]]}}, {"type": "Feature", "properties": {"highway": "service", "footway": null, "name": null, "surface": "asphalt", "lit": "no", "length_m": 115.12, "type_element": "Way", "__fid": 3574}, "geometry": {"type": "LineString", "coordinates": [[2.2529823, 48.858773099999986], [2.2533266, 48.859074], [2.2533546, 48.859137], [2.2534921, 48.8596346], [2.253541, 48.8597152]]}}, {"type": "Feature", "properties": {"highway": "track", "footway": null, "name": null, "surface": null, "lit": null, "length_m": 96.95, "type_element": "Way", "__fid": 3590}, "geometry": {"type": "LineString", "coordinates": [[2.2543823, 48.8569048], [2.2538329, 48.8567226], [2.2531892, 48.8565306]]}}, {"type": "Feature", "properties": {"highway": "track", "footway": null, "name": null, "surface": null, "lit": null, "length_m": 155.64, "type_element": "Way", "__fid": 3591}, "geometry": {"type": "LineString", "coordinates": [[2.2545563, 48.85578930000001], [2.2541439, 48.8557004], [2.2536182, 48.8558627], [2.2533795, 48.8561259], [2.2531892, 48.8565306]]}}, {"type": "Feature", "properties": {"highway": "track", "footway": null, "name": null, "surface": null, "lit": null, "length_m": 160.68, "type_element": "Way", "__fid": 3612}, "geometry": {"type": "LineString", "coordinates": [[2.2534058, 48.8545863], [2.2534509, 48.8547162], [2.2535457, 48.854917600000014], [2.2538107, 48.8552115], [2.2545563, 48.85578930000001]]}}, {"type": "Feature", "properties": {"highway": "path", "footway": null, "name": null, "surface": "dirt", "lit": null, "length_m": 28.68, "type_element": "Way", "__fid": 3613}, "geometry": {"type": "LineString", "coordinates": [[2.2534472, 48.8543307], [2.2534264, 48.85453720000001], [2.2534058, 48.8545863]]}}, {"type": "Feature", "properties": {"highway": "path", "footway": null, "name": null, "surface": "dirt", "lit": null, "length_m": 194.06, "type_element": "Way", "__fid": 3616}, "geometry": {"type": "LineString", "coordinates": [[2.2553542, 48.8555359], [2.2540734, 48.854790499999986], [2.2536388, 48.8544799], [2.2534472, 48.8543307]]}}, {"type": "Feature", "properties": {"highway": "path", "footway": null, "name": null, "surface": "dirt", "lit": null, "length_m": 24.28, "type_element": "Way", "__fid": 3617}, "geometry": {"type": "LineString", "coordinates": [[2.2535421, 48.8541227], [2.2534955, 48.8541891], [2.2534472, 48.8543307]]}}, {"type": "Feature", "properties": {"highway": "footway", "footway": "sidewalk", "name": null, "surface": "unpaved", "lit": null, "length_m": 146.83, "type_element": "Way", "__fid": 3629}, "geometry": {"type": "LineString", "coordinates": [[2.2536409, 48.8528766], [2.253749, 48.8529522], [2.2537573, 48.8529917], [2.2536613, 48.8531435], [2.2535227, 48.8534244], [2.2534703, 48.853559], [2.2534289, 48.85371719999998], [2.253433, 48.8538948], [2.2534643, 48.853988], [2.2535421, 48.8541227]]}}, {"type": "Feature", "properties": {"highway": "path", "footway": null, "name": null, "surface": "dirt", "lit": null, "length_m": 8.25, "type_element": "Way", "__fid": 3630}, "geometry": {"type": "LineString", "coordinates": [[2.253597, 48.854058], [2.2535421, 48.8541227]]}}, {"type": "Feature", "properties": {"highway": "service", "footway": null, "name": "Route d'Auteuil aux Lacs", "surface": "asphalt", "lit": null, "length_m": 17.83, "type_element": "Way", "__fid": 3636}, "geometry": {"type": "LineString", "coordinates": [[2.2537165, 48.8541976], [2.253597, 48.854058]]}}, {"type": "Feature", "properties": {"highway": "service", "footway": null, "name": "Route d'Auteuil aux Lacs", "surface": "asphalt", "lit": null, "length_m": 120.27, "type_element": "Way", "__fid": 3637}, "geometry": {"type": "LineString", "coordinates": [[2.253597, 48.854058], [2.2535397, 48.85394860000001], [2.2535196, 48.8538807], [2.2535083, 48.853742], [2.2535196, 48.8536627], [2.2536039, 48.8534461], [2.253818, 48.85301410000001]]}}, {"type": "Feature", "properties": {"highway": "service", "footway": null, "name": "Route d'Auteuil aux Lacs", "surface": "asphalt", "lit": null, "length_m": 182.39, "type_element": "Way", "__fid": 3653}, "geometry": {"type": "LineString", "coordinates": [[2.2554404, 48.8553773], [2.2544514, 48.8547461], [2.2540668, 48.85447280000001], [2.2537165, 48.8541976]]}}, {"type": "Feature", "properties": {"highway": "service", "footway": null, "name": null, "surface": null, "lit": null, "length_m": 10.55, "type_element": "Way", "__fid": 3654}, "geometry": {"type": "LineString", "coordinates": [[2.2537165, 48.8541976], [2.2537401, 48.854104]]}}, {"type": "Feature", "properties": {"highway": "service", "footway": null, "name": null, "surface": null, "lit": null, "length_m": 182.73, "type_element": "Way", "__fid": 3657}, "geometry": {"type": "LineString", "coordinates": [[2.2537401, 48.854104], [2.2538033, 48.8540243], [2.253965, 48.8539889], [2.254352, 48.85398570000002], [2.2543965, 48.8539971], [2.2544818, 48.8540417], [2.2553303, 48.8546203], [2.2556822, 48.8547714]]}}, {"type": "Feature", "properties": {"highway": "track", "footway": null, "name": null, "surface": null, "lit": null, "length_m": 162.96, "type_element": "Way", "__fid": 3731}, "geometry": {"type": "LineString", "coordinates": [[2.2560737, 48.8577165], [2.2560125, 48.857641499999986], [2.2559374, 48.8574103], [2.2543823, 48.8569048]]}}, {"type": "Feature", "properties": {"highway": "track", "footway": null, "name": null, "surface": null, "lit": null, "length_m": 94.58, "type_element": "Way", "__fid": 3732}, "geometry": {"type": "LineString", "coordinates": [[2.2546223, 48.8577382], [2.2546226, 48.8576289], [2.2543823, 48.8569048]]}}, {"type": "Feature", "properties": {"highway": "track", "footway": null, "name": null, "surface": null, "lit": null, "length_m": 130.21, "type_element": "Way", "__fid": 3733}, "geometry": {"type": "LineString", "coordinates": [[2.2543823, 48.8569048], [2.254734, 48.856067400000015], [2.2546267, 48.8558839], [2.2545563, 48.85578930000001]]}}, {"type": "Feature", "properties": {"highway": "service", "footway": null, "name": null, "surface": null, "lit": null, "length_m": 20.68, "type_element": "Way", "__fid": 3741}, "geometry": {"type": "LineString", "coordinates": [[2.2543943, 48.8592761], [2.2544087, 48.8592265], [2.2544746, 48.8590982]]}}, {"type": "Feature", "properties": {"highway": "service", "footway": null, "name": null, "surface": "asphalt", "lit": "no", "length_m": 8.4, "type_element": "Way", "__fid": 3758}, "geometry": {"type": "LineString", "coordinates": [[2.2545117, 48.8590267], [2.2544746, 48.8590982]]}}, {"type": "Feature", "properties": {"highway": "path", "footway": null, "name": null, "surface": "compacted", "lit": "no", "length_m": 6.97, "type_element": "Way", "__fid": 3759}, "geometry": {"type": "LineString", "coordinates": [[2.2544746, 48.8590982], [2.2545694, 48.859094]]}}, {"type": "Feature", "properties": {"highway": "track", "footway": null, "name": null, "surface": null, "lit": null, "length_m": 86.32, "type_element": "Way", "__fid": 3767}, "geometry": {"type": "LineString", "coordinates": [[2.2556406, 48.8560904], [2.2545563, 48.85578930000001]]}}, {"type": "Feature", "properties": {"highway": "track", "footway": null, "name": null, "surface": "compacted", "lit": null, "length_m": 64.97, "type_element": "Way", "__fid": 3768}, "geometry": {"type": "LineString", "coordinates": [[2.2553542, 48.8555359], [2.2545563, 48.85578930000001]]}}, {"type": "Feature", "properties": {"highway": "path", "footway": null, "name": null, "surface": "compacted", "lit": "no", "length_m": 8.6, "type_element": "Way", "__fid": 3769}, "geometry": {"type": "LineString", "coordinates": [[2.2545694, 48.859094], [2.2545117, 48.8590267]]}}, {"type": "Feature", "properties": {"highway": "service", "footway": null, "name": null, "surface": "asphalt", "lit": "no", "length_m": 73.26, "type_element": "Way", "__fid": 3770}, "geometry": {"type": "LineString", "coordinates": [[2.2547795, 48.8583992], [2.2546828, 48.8585026], [2.2546106, 48.85864680000002], [2.2545117, 48.8590267]]}}, {"type": "Feature", "properties": {"highway": "path", "footway": null, "name": null, "surface": "compacted", "lit": "no", "length_m": 179.0, "type_element": "Way", "__fid": 3783}, "geometry": {"type": "LineString", "coordinates": [[2.2558638, 48.860454899999986], [2.2555549, 48.8602011], [2.2551476, 48.85977089999999], [2.2545694, 48.859094]]}}, {"type": "Feature", "properties": {"highway": "path", "footway": null, "name": null, "surface": null, "lit": "no", "length_m": 77.67, "type_element": "Way", "__fid": 3784}, "geometry": {"type": "LineString", "coordinates": [[2.2545694, 48.859094], [2.2547476, 48.8590636], [2.2549547, 48.8590507], [2.2550741, 48.8590516], [2.2554943, 48.8590847], [2.2556164, 48.8590709]]}}, {"type": "Feature", "properties": {"highway": "path", "footway": null, "name": "Avenue de l'Hippodrome", "surface": "concrete", "lit": "yes", "length_m": 17.89, "type_element": "Way", "__fid": 3785}, "geometry": {"type": "LineString", "coordinates": [[2.2545859, 48.8580812], [2.2548274, 48.8581034]]}}, {"type": "Feature", "properties": {"highway": "path", "footway": null, "name": null, "surface": "dirt", "lit": null, "length_m": 4.1, "type_element": "Way", "__fid": 3812}, "geometry": {"type": "LineString", "coordinates": [[2.2547795, 48.8583992], [2.2547238, 48.8583964]]}}, {"type": "Feature", "properties": {"highway": "path", "footway": null, "name": null, "surface": "pebblestone", "lit": null, "length_m": 16.19, "type_element": "Way", "__fid": 3813}, "geometry": {"type": "LineString", "coordinates": [[2.2547661, 48.8582535], [2.2547238, 48.8583964]]}}, {"type": "Feature", "properties": {"highway": "path", "footway": null, "name": "Avenue de l'Hippodrome", "surface": "concrete", "lit": "yes", "length_m": 12.98, "type_element": "Way", "__fid": 3816}, "geometry": {"type": "LineString", "coordinates": [[2.2549399, 48.8582755], [2.2547661, 48.8582535]]}}, {"type": "Feature", "properties": {"highway": "footway", "footway": "crossing", "name": null, "surface": "asphalt", "lit": "yes", "length_m": 17.29, "type_element": "Way", "__fid": 3817}, "geometry": {"type": "LineString", "coordinates": [[2.2548274, 48.8581034], [2.2547661, 48.8582535]]}}]}