{"type": "FeatureCollection", "features": [{"type": "Feature", "properties": {"@id": "node/1745776081", "amenity": "drinking_water", "man_made": "water_tap", "type_element": "Fontaines à boire", "__fid": 305}, "geometry": {"type": "Point", "coordinates": [2.2490511, 48.8706426]}, "id": "node/1745776081"}, {"type": "Feature", "properties": {"@id": "node/1745776087", "amenity": "drinking_water", "fixme": "emplacement à vérifier", "type_element": "Fontaines à boire", "__fid": 306}, "geometry": {"type": "Point", "coordinates": [2.2464422, 48.8703478]}, "id": "node/1745776087"}, {"type": "Feature", "properties": {"@id": "node/1745928809", "amenity": "drinking_water", "check_date": "2023-01-01", "man_made": "water_tap", "type_element": "Fontaines à boire", "__fid": 310}, "geometry": {"type": "Point", "coordinates": [2.2470412, 48.8687892]}, "id": "node/1745928809"}, {"type": "Feature", "properties": {"@id": "node/4171947788", "amenity": "drinking_water", "seasonal": "yes", "source": "Bing", "type_element": "Fontaines à boire", "__fid": 472}, "geometry": {"type": "Point", "coordinates": [2.2490814, 48.8652054]}, "id": "node/4171947788"}, {"type": "Feature", "properties": {"@id": "node/4484420025", "amenity": "drinking_water", "man_made": "water_tap", "type_element": "Fontaines à boire", "__fid": 502}, "geometry": {"type": "Point", "coordinates": [2.2508103, 48.8677865]}, "id": "node/4484420025"}, {"type": "Feature", "properties": {"@id": "node/8145701601", "amenity": "drinking_water", "man_made": "water_tap", "type_element": "Fontaines à boire", "__fid": 738}, "geometry": {"type": "Point", "coordinates": [2.253952, 48.8663688]}, "id": "node/8145701601"}, {"type": "Feature", "properties": {"highway": "path", "footway": null, "name": null, "surface": "compacted", "lit": "yes", "length_m": 365.42, "type_element": "Way", "__fid": 2690}, "geometry": {"type": "LineString", "coordinates": [[2.2491279, 48.8671138], [2.244752, 48.8655437]]}}, {"type": "Feature", "properties": {"highway": "path", "footway": null, "name": null, "surface": "ground", "lit": null, "length_m": 353.68, "type_element": "Way", "__fid": 2725}, "geometry": {"type": "LineString", "coordinates": [[2.2493027, 48.86689470000001], [2.2450641, 48.865379]]}}, {"type": "Feature", "properties": {"highway": "footway", "footway": null, "name": null, "surface": "concrete", "lit": "no", "length_m": 55.59, "type_element": "Way", "__fid": 2768}, "geometry": {"type": "LineString", "coordinates": [[2.2452954, 48.8692617], [2.2453918, 48.8692239], [2.2455435, 48.8692103], [2.2457946, 48.8692168], [2.2460226, 48.869268800000015]]}}, {"type": "Feature", "properties": {"highway": "footway", "footway": null, "name": null, "surface": "fine_gravel", "lit": "no", "length_m": 161.64, "type_element": "Way", "__fid": 2769}, "geometry": {"type": "LineString", "coordinates": [[2.2453331, 48.8672656], [2.2454122, 48.867273200000014], [2.2455046, 48.8673046], [2.2457311, 48.8674961], [2.2458282, 48.8675428], [2.2459036, 48.86761169999998], [2.246221, 48.867796099999985], [2.2463612, 48.867943], [2.2464613, 48.8679937], [2.2464983, 48.86802209999998], [2.2465183, 48.8680565], [2.2466411, 48.8681364], [2.2466498, 48.8681884], [2.2465398, 48.8683185]]}}, {"type": "Feature", "properties": {"highway": "service", "footway": null, "name": null, "surface": "sett", "lit": "yes", "length_m": 56.58, "type_element": "Way", "__fid": 2780}, "geometry": {"type": "LineString", "coordinates": [[2.2454113, 48.8704758], [2.2457383, 48.8706454], [2.2459478, 48.8707151], [2.2460684, 48.8707188]]}}, {"type": "Feature", "properties": {"highway": "path", "footway": null, "name": null, "surface": "dirt", "lit": null, "length_m": 126.0, "type_element": "Way", "__fid": 2782}, "geometry": {"type": "LineString", "coordinates": [[2.2455199, 48.865156], [2.2457764, 48.86520130000002], [2.2461248, 48.8652266], [2.2463321, 48.8651816], [2.2465052, 48.8650972], [2.246767, 48.8649415], [2.2470379, 48.8648348]]}}, {"type": "Feature", "properties": {"highway": "path", "footway": null, "name": "Route des Moulins", "surface": "dirt", "lit": null, "length_m": 26.03, "type_element": "Way", "__fid": 2783}, "geometry": {"type": "LineString", "coordinates": [[2.2455199, 48.865156], [2.2458009, 48.8650131]]}}, {"type": "Feature", "properties": {"highway": "footway", "footway": null, "name": null, "surface": "fine_gravel", "lit": null, "length_m": 21.6, "type_element": "Way", "__fid": 2791}, "geometry": {"type": "LineString", "coordinates": [[2.2455131, 48.86835050000001], [2.2457978, 48.8683008]]}}, {"type": "Feature", "properties": {"highway": "footway", "footway": null, "name": null, "surface": "fine_gravel", "lit": "no", "length_m": 38.32, "type_element": "Way", "__fid": 2792}, "geometry": {"type": "LineString", "coordinates": [[2.2455358, 48.8674762], [2.2458512, 48.8677509]]}}, {"type": "Feature", "properties": {"highway": "footway", "footway": null, "name": null, "surface": "fine_gravel", "lit": "no", "length_m": 37.82, "type_element": "Way", "__fid": 2805}, "geometry": {"type": "LineString", "coordinates": [[2.2456665, 48.8680592], [2.2457011, 48.8680446], [2.2457654, 48.8679762], [2.2457932, 48.8679224], [2.2458512, 48.8677509]]}}, {"type": "Feature", "properties": {"highway": "footway", "footway": null, "name": null, "surface": "fine_gravel", "lit": "no", "length_m": 64.54, "type_element": "Way", "__fid": 2807}, "geometry": {"type": "LineString", "coordinates": [[2.2460975, 48.8702052], [2.245919, 48.869966], [2.2458711, 48.8699258], [2.2456734, 48.8696978]]}}, {"type": "Feature", "properties": {"highway": "footway", "footway": null, "name": null, "surface": "concrete", "lit": null, "length_m": 27.54, "type_element": "Way", "__fid": 2808}, "geometry": {"type": "LineString", "coordinates": [[2.2460109, 48.869783699999985], [2.2458152, 48.86970070000001], [2.2457382, 48.8696939], [2.2456734, 48.8696978]]}}, {"type": "Feature", "properties": {"highway": "footway", "footway": null, "name": null, "surface": "concrete", "lit": "no", "length_m": 16.66, "type_element": "Way", "__fid": 2812}, "geometry": {"type": "LineString", "coordinates": [[2.2457463, 48.86825670000001], [2.2458227, 48.8682687], [2.245956, 48.868312]]}}, {"type": "Feature", "properties": {"highway": "footway", "footway": null, "name": null, "surface": "concrete", "lit": "no", "length_m": 6.19, "type_element": "Way", "__fid": 2813}, "geometry": {"type": "LineString", "coordinates": [[2.2457978, 48.8683008], [2.2457463, 48.86825670000001]]}}, {"type": "Feature", "properties": {"highway": "track", "footway": null, "name": null, "surface": "asphalt", "lit": null, "length_m": 63.46, "type_element": "Way", "__fid": 2818}, "geometry": {"type": "LineString", "coordinates": [[2.2460684, 48.8707188], [2.246027, 48.870529], [2.2457523, 48.87019620000002]]}}, {"type": "Feature", "properties": {"highway": "service", "footway": null, "name": null, "surface": "sett", "lit": "yes", "length_m": 75.17, "type_element": "Way", "__fid": 2820}, "geometry": {"type": "LineString", "coordinates": [[2.2457424, 48.8713032], [2.245925, 48.8712444], [2.2459484, 48.871219], [2.2459722, 48.871121299999984], [2.2459834, 48.8708601], [2.2460684, 48.8707188]]}}, {"type": "Feature", "properties": {"highway": "footway", "footway": null, "name": null, "surface": "fine_gravel", "lit": null, "length_m": 11.67, "type_element": "Way", "__fid": 2821}, "geometry": {"type": "LineString", "coordinates": [[2.2457978, 48.8683008], [2.245956, 48.868312]]}}, {"type": "Feature", "properties": {"highway": "footway", "footway": null, "name": null, "surface": "concrete", "lit": "no", "length_m": 79.94, "type_element": "Way", "__fid": 2822}, "geometry": {"type": "LineString", "coordinates": [[2.2460951, 48.8689856], [2.2460821, 48.86887989999999], [2.2460224, 48.8686723], [2.245951, 48.8685061], [2.2457978, 48.8683008]]}}, {"type": "Feature", "properties": {"highway": "footway", "footway": null, "name": null, "surface": "fine_gravel", "lit": "no", "length_m": 49.64, "type_element": "Way", "__fid": 2830}, "geometry": {"type": "LineString", "coordinates": [[2.2458512, 48.8677509], [2.2462114, 48.8679766], [2.2463193, 48.8680716]]}}, {"type": "Feature", "properties": {"highway": "footway", "footway": null, "name": null, "surface": "concrete", "lit": "no", "length_m": 54.41, "type_element": "Way", "__fid": 2837}, "geometry": {"type": "LineString", "coordinates": [[2.245956, 48.868312], [2.2463518, 48.8684241], [2.2465152, 48.8684895], [2.2466071, 48.8685403]]}}, {"type": "Feature", "properties": {"highway": "footway", "footway": null, "name": null, "surface": "fine_gravel", "lit": null, "length_m": 38.95, "type_element": "Way", "__fid": 2838}, "geometry": {"type": "LineString", "coordinates": [[2.245956, 48.868312], [2.2460704, 48.8682396], [2.2462298, 48.8681821], [2.2462559, 48.8681604], [2.2463193, 48.8680716]]}}, {"type": "Feature", "properties": {"highway": "footway", "footway": null, "name": null, "surface": "compacted", "lit": null, "length_m": 40.99, "type_element": "Way", "__fid": 2842}, "geometry": {"type": "LineString", "coordinates": [[2.2460109, 48.869783699999985], [2.246215, 48.8698616], [2.2465094, 48.8699493]]}}, {"type": "Feature", "properties": {"highway": "footway", "footway": null, "name": null, "surface": "compacted", "lit": null, "length_m": 59.2, "type_element": "Way", "__fid": 2843}, "geometry": {"type": "LineString", "coordinates": [[2.2460226, 48.869268800000015], [2.2459699, 48.86935], [2.2459777, 48.8694222], [2.2460497, 48.8695455], [2.2460109, 48.869783699999985]]}}, {"type": "Feature", "properties": {"highway": "footway", "footway": null, "name": null, "surface": "concrete", "lit": "no", "length_m": 6.91, "type_element": "Way", "__fid": 2844}, "geometry": {"type": "LineString", "coordinates": [[2.2460226, 48.869268800000015], [2.2461168, 48.8692681]]}}, {"type": "Feature", "properties": {"highway": "footway", "footway": null, "name": null, "surface": "compacted", "lit": null, "length_m": 438.38, "type_element": "Way", "__fid": 2847}, "geometry": {"type": "LineString", "coordinates": [[2.2487337, 48.8742371], [2.2479697, 48.8733546], [2.2476574, 48.8730193], [2.247409, 48.872695], [2.2473206, 48.872500500000015], [2.2470857, 48.8721868], [2.2468602, 48.8718281], [2.2464252, 48.8712772], [2.2461221, 48.87077710000002], [2.2460684, 48.8707188]]}}, {"type": "Feature", "properties": {"highway": "pedestrian", "footway": null, "name": null, "surface": "concrete", "lit": "no", "length_m": 20.3, "type_element": "Way", "__fid": 2848}, "geometry": {"type": "LineString", "coordinates": [[2.2460684, 48.8707188], [2.2463201, 48.8706429]]}}, {"type": "Feature", "properties": {"highway": "pedestrian", "footway": null, "name": null, "surface": "concrete", "lit": "no", "length_m": 31.45, "type_element": "Way", "__fid": 2849}, "geometry": {"type": "LineString", "coordinates": [[2.2461168, 48.8692681], [2.2460951, 48.8689856]]}}, {"type": "Feature", "properties": {"highway": "pedestrian", "footway": null, "name": null, "surface": "concrete", "lit": "no", "length_m": 71.91, "type_element": "Way", "__fid": 2850}, "geometry": {"type": "LineString", "coordinates": [[2.2460951, 48.8689856], [2.2463572, 48.8688532], [2.2466055, 48.8688095], [2.2469982, 48.8687967]]}}, {"type": "Feature", "properties": {"highway": "footway", "footway": null, "name": null, "surface": "fine_gravel", "lit": "no", "length_m": 33.21, "type_element": "Way", "__fid": 2851}, "geometry": {"type": "LineString", "coordinates": [[2.2465124, 48.8703243], [2.2463952, 48.8702958], [2.2460975, 48.8702052]]}}, {"type": "Feature", "properties": {"highway": "footway", "footway": null, "name": null, "surface": null, "lit": null, "length_m": 52.47, "type_element": "Way", "__fid": 2852}, "geometry": {"type": "LineString", "coordinates": [[2.2460975, 48.8702052], [2.2463071, 48.8704697], [2.2463201, 48.8706429]]}}, {"type": "Feature", "properties": {"highway": "pedestrian", "footway": null, "name": null, "surface": "concrete", "lit": "no", "length_m": 81.68, "type_element": "Way", "__fid": 2853}, "geometry": {"type": "LineString", "coordinates": [[2.2465094, 48.8699493], [2.2464546, 48.8697632], [2.2463143, 48.86950030000001], [2.2461168, 48.8692681]]}}, {"type": "Feature", "properties": {"highway": "footway", "footway": null, "name": null, "surface": "fine_gravel", "lit": "no", "length_m": 32.01, "type_element": "Way", "__fid": 2862}, "geometry": {"type": "LineString", "coordinates": [[2.2463193, 48.8680716], [2.2463658, 48.8681045], [2.2465398, 48.8683185]]}}, {"type": "Feature", "properties": {"highway": "pedestrian", "footway": null, "name": null, "surface": "concrete", "lit": "no", "length_m": 14.82, "type_element": "Way", "__fid": 2865}, "geometry": {"type": "LineString", "coordinates": [[2.2463201, 48.8706429], [2.246503, 48.8705862]]}}, {"type": "Feature", "properties": {"highway": "footway", "footway": null, "name": null, "surface": "compacted", "lit": null, "length_m": 41.62, "type_element": "Way", "__fid": 2873}, "geometry": {"type": "LineString", "coordinates": [[2.2465094, 48.8699493], [2.2470097, 48.8701258]]}}, {"type": "Feature", "properties": {"highway": "pedestrian", "footway": null, "name": null, "surface": "concrete", "lit": "no", "length_m": 41.7, "type_element": "Way", "__fid": 2874}, "geometry": {"type": "LineString", "coordinates": [[2.2465124, 48.8703243], [2.2465094, 48.8699493]]}}, {"type": "Feature", "properties": {"highway": "footway", "footway": null, "name": null, "surface": "fine_gravel", "lit": "no", "length_m": 58.77, "type_element": "Way", "__fid": 2875}, "geometry": {"type": "LineString", "coordinates": [[2.246503, 48.8705862], [2.2468216, 48.8710711]]}}, {"type": "Feature", "properties": {"highway": "pedestrian", "footway": null, "name": null, "surface": "concrete", "lit": "no", "length_m": 29.13, "type_element": "Way", "__fid": 2876}, "geometry": {"type": "LineString", "coordinates": [[2.246503, 48.8705862], [2.2465124, 48.8703243]]}}, {"type": "Feature", "properties": {"highway": "footway", "footway": null, "name": null, "surface": "fine_gravel", "lit": "no", "length_m": 25.23, "type_element": "Way", "__fid": 2877}, "geometry": {"type": "LineString", "coordinates": [[2.2465398, 48.8683185], [2.2465873, 48.8684297], [2.2466071, 48.8685403]]}}, {"type": "Feature", "properties": {"highway": "footway", "footway": null, "name": null, "surface": "fine_gravel", "lit": "no", "length_m": 34.24, "type_element": "Way", "__fid": 2878}, "geometry": {"type": "LineString", "coordinates": [[2.2469354, 48.8704531], [2.2468062, 48.87040410000002], [2.2465124, 48.8703243]]}}, {"type": "Feature", "properties": {"highway": "footway", "footway": null, "name": null, "surface": "concrete", "lit": "no", "length_m": 12.13, "type_element": "Way", "__fid": 2884}, "geometry": {"type": "LineString", "coordinates": [[2.2466071, 48.8685403], [2.2467264, 48.8686159]]}}, {"type": "Feature", "properties": {"highway": "footway", "footway": null, "name": null, "surface": "concrete", "lit": "no", "length_m": 28.31, "type_element": "Way", "__fid": 2891}, "geometry": {"type": "LineString", "coordinates": [[2.2467264, 48.8686159], [2.2469982, 48.8687967]]}}, {"type": "Feature", "properties": {"highway": "footway", "footway": null, "name": null, "surface": "concrete", "lit": "no", "length_m": 245.82, "type_element": "Way", "__fid": 2892}, "geometry": {"type": "LineString", "coordinates": [[2.2467264, 48.8686159], [2.2466739, 48.868517], [2.2466665, 48.86845], [2.2466847, 48.86838910000002], [2.2467289, 48.8683252], [2.2468141, 48.8682802], [2.2468945, 48.8682621], [2.2470447, 48.8682859], [2.2471185, 48.8683327], [2.2471936, 48.868402400000015], [2.2472298, 48.8684915], [2.247199, 48.868553200000015], [2.2471641, 48.8685854], [2.2471232, 48.8686048], [2.2470528, 48.868618], [2.2469958, 48.8686185], [2.2469328, 48.8686013], [2.2468845, 48.8685744], [2.2468496, 48.8685457], [2.2468261, 48.86850380000001], [2.2468389, 48.8684178], [2.2468784, 48.86838159999997], [2.2469549, 48.8683622], [2.2469998, 48.8683635], [2.2470447, 48.8683772], [2.2470836, 48.8684015], [2.2471259, 48.8684575], [2.2471292, 48.8684976], [2.247085, 48.868555], [2.2470461, 48.86856690000001], [2.2469938, 48.8685686], [2.2469495, 48.8685501], [2.2469167, 48.8685245], [2.2468999, 48.8684919], [2.2469019, 48.8684553], [2.2469462, 48.8684226], [2.2469817, 48.8684134], [2.2470166, 48.8684191], [2.2470427, 48.86843540000001], [2.2470649, 48.8684857], [2.247036, 48.8685289], [2.2470065, 48.8685316], [2.2469797, 48.86852190000001], [2.2469636, 48.8684994], [2.2469562, 48.8684742], [2.2469656, 48.8684566], [2.2469837, 48.8684473], [2.2469998, 48.8684504], [2.2470286, 48.8684813]]}}, {"type": "Feature", "properties": {"highway": "footway", "footway": null, "name": null, "surface": null, "lit": null, "length_m": 65.57, "type_element": "Way", "__fid": 2913}, "geometry": {"type": "LineString", "coordinates": [[2.2477088, 48.8707479], [2.2475449, 48.87068], [2.2473705, 48.8706195], [2.2472412, 48.8705627], [2.2469354, 48.8704531]]}}, {"type": "Feature", "properties": {"highway": "footway", "footway": null, "name": null, "surface": null, "lit": null, "length_m": 100.34, "type_element": "Way", "__fid": 2914}, "geometry": {"type": "LineString", "coordinates": [[2.2469354, 48.8704531], [2.246964, 48.8705043], [2.2469746, 48.8705882], [2.2472602, 48.8709364], [2.24751, 48.87126509999999]]}}, {"type": "Feature", "properties": {"highway": "footway", "footway": null, "name": null, "surface": null, "lit": null, "length_m": 36.84, "type_element": "Way", "__fid": 2915}, "geometry": {"type": "LineString", "coordinates": [[2.2470097, 48.8701258], [2.246995, 48.8702429], [2.2469354, 48.8704531]]}}, {"type": "Feature", "properties": {"highway": "pedestrian", "footway": null, "name": null, "surface": "concrete", "lit": "no", "length_m": 77.31, "type_element": "Way", "__fid": 2917}, "geometry": {"type": "LineString", "coordinates": [[2.2469982, 48.8687967], [2.2472065, 48.8688087], [2.2480412, 48.8688949]]}}, {"type": "Feature", "properties": {"highway": "footway", "footway": null, "name": null, "surface": "concrete", "lit": "no", "length_m": 61.12, "type_element": "Way", "__fid": 2918}, "geometry": {"type": "LineString", "coordinates": [[2.2469982, 48.8687967], [2.2473753, 48.8691817], [2.2474882, 48.8692344]]}}, {"type": "Feature", "properties": {"highway": "footway", "footway": null, "name": null, "surface": null, "lit": null, "length_m": 15.89, "type_element": "Way", "__fid": 2919}, "geometry": {"type": "LineString", "coordinates": [[2.2469982, 48.8687967], [2.2470988, 48.86870169999999], [2.2471041, 48.8686749]]}}, {"type": "Feature", "properties": {"highway": "footway", "footway": null, "name": null, "surface": "compacted", "lit": null, "length_m": 87.31, "type_element": "Way", "__fid": 2926}, "geometry": {"type": "LineString", "coordinates": [[2.2470097, 48.8701258], [2.2471447, 48.8701678], [2.2472216, 48.8701774], [2.2472849, 48.8701641], [2.2473438, 48.8701261], [2.2474375, 48.8700189], [2.247612, 48.8699091], [2.247723, 48.8697997], [2.2477615, 48.8697737], [2.2478892, 48.8697559]]}}, {"type": "Feature", "properties": {"highway": "footway", "footway": null, "name": null, "surface": "compacted", "lit": null, "length_m": 108.37, "type_element": "Way", "__fid": 2927}, "geometry": {"type": "LineString", "coordinates": [[2.2474882, 48.8692344], [2.2473224, 48.869343499999985], [2.2472366, 48.8694234], [2.2471823, 48.8695102], [2.2470867, 48.8697585], [2.2470543, 48.86994459999998], [2.2470098, 48.8700643], [2.2470097, 48.8701258]]}}, {"type": "Feature", "properties": {"highway": "footway", "footway": null, "name": null, "surface": "compacted", "lit": null, "length_m": 64.53, "type_element": "Way", "__fid": 2959}, "geometry": {"type": "LineString", "coordinates": [[2.2483238, 48.86933589999999], [2.2478811, 48.8692118], [2.2477794, 48.869205], [2.2476054, 48.8692118], [2.2474882, 48.8692344]]}}, {"type": "Feature", "properties": {"highway": "footway", "footway": null, "name": null, "surface": null, "lit": null, "length_m": 24.1, "type_element": "Way", "__fid": 2968}, "geometry": {"type": "LineString", "coordinates": [[2.2476285, 48.870519499999986], [2.247618, 48.87055150000001], [2.2476473, 48.8706209], [2.2477843, 48.870687]]}}, {"type": "Feature", "properties": {"highway": "footway", "footway": null, "name": null, "surface": "compacted", "lit": null, "length_m": 58.42, "type_element": "Way", "__fid": 2974}, "geometry": {"type": "LineString", "coordinates": [[2.2484796, 48.8708758], [2.2482812, 48.87085779999999], [2.2477088, 48.8707479]]}}, {"type": "Feature", "properties": {"highway": "footway", "footway": null, "name": null, "surface": "compacted", "lit": null, "length_m": 41.06, "type_element": "Way", "__fid": 2975}, "geometry": {"type": "LineString", "coordinates": [[2.2477252, 48.8711153], [2.2477012, 48.8710464], [2.2477088, 48.8707479]]}}, {"type": "Feature", "properties": {"highway": "footway", "footway": null, "name": null, "surface": "compacted", "lit": null, "length_m": 8.75, "type_element": "Way", "__fid": 2976}, "geometry": {"type": "LineString", "coordinates": [[2.2477088, 48.8707479], [2.2477843, 48.870687]]}}, {"type": "Feature", "properties": {"highway": "footway", "footway": null, "name": null, "surface": "compacted", "lit": null, "length_m": 24.6, "type_element": "Way", "__fid": 2981}, "geometry": {"type": "LineString", "coordinates": [[2.2477843, 48.870687], [2.2478244, 48.8706486], [2.2479208, 48.870486]]}}, {"type": "Feature", "properties": {"highway": "path", "footway": null, "name": null, "surface": null, "lit": null, "length_m": 11.02, "type_element": "Way", "__fid": 2988}, "geometry": {"type": "LineString", "coordinates": [[2.2479208, 48.870486], [2.2478034, 48.8704242]]}}, {"type": "Feature", "properties": {"highway": "footway", "footway": null, "name": null, "surface": null, "lit": null, "length_m": 53.86, "type_element": "Way", "__fid": 2999}, "geometry": {"type": "LineString", "coordinates": [[2.2478677, 48.871075300000015], [2.2478918, 48.8710621], [2.2479012, 48.871010100000014], [2.2479723, 48.8709686], [2.2483203, 48.8708897], [2.2484796, 48.8708758]]}}, {"type": "Feature", "properties": {"highway": "footway", "footway": null, "name": null, "surface": null, "lit": null, "length_m": 70.67, "type_element": "Way", "__fid": 3000}, "geometry": {"type": "LineString", "coordinates": [[2.2478892, 48.8697559], [2.2479681, 48.8698827], [2.2479503, 48.87015610000001], [2.247989, 48.8703795]]}}, {"type": "Feature", "properties": {"highway": "footway", "footway": null, "name": null, "surface": "dirt", "lit": "no", "length_m": 49.65, "type_element": "Way", "__fid": 3001}, "geometry": {"type": "LineString", "coordinates": [[2.2478892, 48.8697559], [2.2479406, 48.8697415], [2.2480815, 48.8697221], [2.2482237, 48.8697434], [2.2485427, 48.869684699999986]]}}, {"type": "Feature", "properties": {"highway": "footway", "footway": null, "name": null, "surface": null, "lit": null, "length_m": 22.28, "type_element": "Way", "__fid": 3009}, "geometry": {"type": "LineString", "coordinates": [[2.2479208, 48.870486], [2.2479855, 48.8705208], [2.2480127, 48.8705508], [2.2480217, 48.8705852], [2.2480167, 48.8706606]]}}, {"type": "Feature", "properties": {"highway": "footway", "footway": null, "name": null, "surface": "compacted", "lit": null, "length_m": 12.86, "type_element": "Way", "__fid": 3010}, "geometry": {"type": "LineString", "coordinates": [[2.2479208, 48.870486], [2.247989, 48.8703795]]}}, {"type": "Feature", "properties": {"highway": "footway", "footway": null, "name": null, "surface": "compacted", "lit": null, "length_m": 87.44, "type_element": "Way", "__fid": 3013}, "geometry": {"type": "LineString", "coordinates": [[2.247989, 48.8703795], [2.2484636, 48.86975260000001], [2.2485427, 48.869684699999986]]}}, {"type": "Feature", "properties": {"highway": "footway", "footway": null, "name": null, "surface": "asphalt", "lit": "no", "length_m": 62.08, "type_element": "Way", "__fid": 3015}, "geometry": {"type": "LineString", "coordinates": [[2.2480412, 48.8688949], [2.2480428, 48.86895780000001], [2.2480798, 48.86900850000002], [2.2481339, 48.8690488], [2.2481993, 48.8690739], [2.248288, 48.869071], [2.2483206, 48.8690845], [2.2483238, 48.86933589999999]]}}, {"type": "Feature", "properties": {"highway": "pedestrian", "footway": null, "name": null, "surface": "concrete", "lit": "no", "length_m": 23.61, "type_element": "Way", "__fid": 3016}, "geometry": {"type": "LineString", "coordinates": [[2.2480412, 48.8688949], [2.2480724, 48.8688929], [2.2483083, 48.868781100000014]]}}, {"type": "Feature", "properties": {"highway": "path", "footway": null, "name": null, "surface": "dirt", "lit": null, "length_m": 68.9, "type_element": "Way", "__fid": 3026}, "geometry": {"type": "LineString", "coordinates": [[2.2482239, 48.8649392], [2.248401, 48.8650691], [2.2488028, 48.86513380000001], [2.2490079, 48.8651507], [2.2490481, 48.8651268]]}}, {"type": "Feature", "properties": {"highway": "footway", "footway": null, "name": null, "surface": "asphalt", "lit": "no", "length_m": 38.52, "type_element": "Way", "__fid": 3038}, "geometry": {"type": "LineString", "coordinates": [[2.2483238, 48.86933589999999], [2.2484933, 48.8694179], [2.2487577, 48.8695307]]}}, {"type": "Feature", "properties": {"highway": "footway", "footway": null, "name": null, "surface": null, "lit": null, "length_m": 88.46, "type_element": "Way", "__fid": 3049}, "geometry": {"type": "LineString", "coordinates": [[2.2484796, 48.8708758], [2.2487904, 48.8705681], [2.2489283, 48.87048369999999], [2.2490788, 48.8704338], [2.2492212, 48.870415], [2.2493643, 48.8704066]]}}, {"type": "Feature", "properties": {"highway": "footway", "footway": null, "name": null, "surface": "compacted", "lit": null, "length_m": 26.01, "type_element": "Way", "__fid": 3050}, "geometry": {"type": "LineString", "coordinates": [[2.2488297, 48.870843], [2.2487669, 48.8708558], [2.2484796, 48.8708758]]}}, {"type": "Feature", "properties": {"highway": "footway", "footway": null, "name": null, "surface": "compacted", "lit": null, "length_m": 23.28, "type_element": "Way", "__fid": 3053}, "geometry": {"type": "LineString", "coordinates": [[2.2485427, 48.869684699999986], [2.2487577, 48.8695307]]}}, {"type": "Feature", "properties": {"highway": "footway", "footway": null, "name": null, "surface": "asphalt", "lit": "no", "length_m": 70.92, "type_element": "Way", "__fid": 3069}, "geometry": {"type": "LineString", "coordinates": [[2.2487577, 48.8695307], [2.2495061, 48.8699344]]}}, {"type": "Feature", "properties": {"highway": "footway", "footway": null, "name": null, "surface": null, "lit": null, "length_m": 72.07, "type_element": "Way", "__fid": 3078}, "geometry": {"type": "LineString", "coordinates": [[2.2487897, 48.8714393], [2.2488819, 48.8711171], [2.2490049, 48.8708073]]}}, {"type": "Feature", "properties": {"highway": "footway", "footway": null, "name": null, "surface": null, "lit": null, "length_m": 32.11, "type_element": "Way", "__fid": 3081}, "geometry": {"type": "LineString", "coordinates": [[2.2490107, 48.8706126], [2.248906, 48.8706657], [2.2488171, 48.8707344], [2.2488061, 48.8707586], [2.2488096, 48.8707893], [2.2488297, 48.870843]]}}, {"type": "Feature", "properties": {"highway": "footway", "footway": null, "name": null, "surface": "compacted", "lit": null, "length_m": 13.45, "type_element": "Way", "__fid": 3082}, "geometry": {"type": "LineString", "coordinates": [[2.2490049, 48.8708073], [2.2488297, 48.870843]]}}, {"type": "Feature", "properties": {"highway": "footway", "footway": null, "name": null, "surface": "dirt", "lit": "no", "length_m": 27.85, "type_element": "Way", "__fid": 3093}, "geometry": {"type": "LineString", "coordinates": [[2.2492059, 48.8653546], [2.2490481, 48.8651268]]}}, {"type": "Feature", "properties": {"highway": "path", "footway": null, "name": null, "surface": "dirt", "lit": null, "length_m": 11.18, "type_element": "Way", "__fid": 3094}, "geometry": {"type": "LineString", "coordinates": [[2.2492004, 48.8651239], [2.2490481, 48.8651268]]}}, {"type": "Feature", "properties": {"highway": "footway", "footway": null, "name": null, "surface": "compacted", "lit": null, "length_m": 6.87, "type_element": "Way", "__fid": 3100}, "geometry": {"type": "LineString", "coordinates": [[2.2490888, 48.8707799], [2.2490049, 48.8708073]]}}, {"type": "Feature", "properties": {"highway": "footway", "footway": null, "name": null, "surface": null, "lit": null, "length_m": 7.57, "type_element": "Way", "__fid": 3101}, "geometry": {"type": "LineString", "coordinates": [[2.2490107, 48.8706126], [2.2490289, 48.870635100000015], [2.249030227938927, 48.870677659553344]]}}, {"type": "Feature", "properties": {"highway": "footway", "footway": null, "name": null, "surface": null, "lit": null, "length_m": 41.75, "type_element": "Way", "__fid": 3102}, "geometry": {"type": "LineString", "coordinates": [[2.2495547, 48.870609], [2.2494906, 48.870593], [2.2491529, 48.8705673], [2.2491125, 48.8705707], [2.2490107, 48.8706126]]}}, {"type": "Feature", "properties": {"highway": "footway", "footway": null, "name": null, "surface": null, "lit": null, "length_m": 10.42, "type_element": "Way", "__fid": 3103}, "geometry": {"type": "LineString", "coordinates": [[2.2490268, 48.8706987], [2.24903, 48.8707175], [2.2490709, 48.8707475], [2.2490888, 48.8707799]]}}, {"type": "Feature", "properties": {"highway": "footway", "footway": null, "name": null, "surface": null, "lit": null, "length_m": 2.35, "type_element": "Way", "__fid": 3104}, "geometry": {"type": "LineString", "coordinates": [[2.249030227938927, 48.870677659553344], [2.2490268, 48.8706987]]}}, {"type": "Feature", "properties": {"highway": "footway", "footway": null, "name": null, "surface": null, "lit": null, "length_m": 1.31, "type_element": "Way", "__fid": 3105}, "geometry": {"type": "LineString", "coordinates": [[2.249048, 48.87067703333333], [2.249030227938927, 48.870677659553344]]}}, {"type": "Feature", "properties": {"highway": "footway", "footway": "sidewalk", "name": null, "surface": "dirt", "lit": "no", "length_m": 306.63, "type_element": "Way", "__fid": 3106}, "geometry": {"type": "LineString", "coordinates": [[2.2491563, 48.8648149], [2.2492186, 48.8649384], [2.2493005, 48.865024], [2.250832, 48.8673393]]}}, {"type": "Feature", "properties": {"highway": "path", "footway": null, "name": null, "surface": "compacted", "lit": "yes", "length_m": 113.86, "type_element": "Way", "__fid": 3107}, "geometry": {"type": "LineString", "coordinates": [[2.2504872, 48.867608], [2.2491279, 48.8671138]]}}, {"type": "Feature", "properties": {"highway": "footway", "footway": "crossing", "name": null, "surface": "asphalt", "lit": "yes", "length_m": 27.64, "type_element": "Way", "__fid": 3108}, "geometry": {"type": "LineString", "coordinates": [[2.2493027, 48.86689470000001], [2.2492687, 48.8669588], [2.2491279, 48.8671138]]}}, {"type": "Feature", "properties": {"highway": "footway", "footway": null, "name": null, "surface": "compacted", "lit": null, "length_m": 39.22, "type_element": "Way", "__fid": 3110}, "geometry": {"type": "LineString", "coordinates": [[2.2495547, 48.870609], [2.2493959, 48.8706823], [2.2490888, 48.8707799]]}}, {"type": "Feature", "properties": {"highway": "footway", "footway": null, "name": null, "surface": "dirt", "lit": "no", "length_m": 241.58, "type_element": "Way", "__fid": 3114}, "geometry": {"type": "LineString", "coordinates": [[2.2505289, 48.8673433], [2.250517, 48.867307199999985], [2.2492059, 48.8653546]]}}, {"type": "Feature", "properties": {"highway": "path", "footway": null, "name": "Route du Point du Jour à Bagatelle", "surface": null, "lit": null, "length_m": 172.1, "type_element": "Way", "__fid": 3115}, "geometry": {"type": "LineString", "coordinates": [[2.2492059, 48.8653546], [2.2491905, 48.8654735], [2.2492026, 48.8656852], [2.2493407, 48.8664761], [2.2493454, 48.866627], [2.2493347, 48.8667527], [2.2493027, 48.86689470000001]]}}, {"type": "Feature", "properties": {"highway": "path", "footway": null, "name": "Route du Point du Jour à Bagatelle", "surface": null, "lit": null, "length_m": 16.12, "type_element": "Way", "__fid": 3116}, "geometry": {"type": "LineString", "coordinates": [[2.2492659, 48.865217], [2.2492132, 48.865297900000016], [2.2492059, 48.8653546]]}}, {"type": "Feature", "properties": {"highway": "track", "footway": null, "name": null, "surface": "asphalt", "lit": null, "length_m": 36.15, "type_element": "Way", "__fid": 3121}, "geometry": {"type": "LineString", "coordinates": [[2.2492967, 48.864965900000016], [2.2492946, 48.8649945], [2.2494687, 48.86513830000001], [2.2495098, 48.8651885], [2.2495899, 48.865205]]}}, {"type": "Feature", "properties": {"highway": "path", "footway": null, "name": null, "surface": "ground", "lit": null, "length_m": 103.17, "type_element": "Way", "__fid": 3122}, "geometry": {"type": "LineString", "coordinates": [[2.2505289, 48.8673433], [2.2504981, 48.86731769999999], [2.2503425, 48.8672696], [2.2493027, 48.86689470000001]]}}, {"type": "Feature", "properties": {"highway": "footway", "footway": null, "name": null, "surface": null, "lit": null, "length_m": 27.2, "type_element": "Way", "__fid": 3128}, "geometry": {"type": "LineString", "coordinates": [[2.2493643, 48.8704066], [2.2494235, 48.8704301], [2.2494711, 48.8704828], [2.2495547, 48.870609]]}}, {"type": "Feature", "properties": {"highway": "footway", "footway": null, "name": null, "surface": null, "lit": null, "length_m": 54.92, "type_element": "Way", "__fid": 3129}, "geometry": {"type": "LineString", "coordinates": [[2.2493643, 48.8704066], [2.2493755, 48.8702185], [2.2494004, 48.870174200000015], [2.2494856, 48.8700851], [2.2495126, 48.8700145], [2.2495061, 48.8699344]]}}, {"type": "Feature", "properties": {"highway": "footway", "footway": null, "name": null, "surface": "asphalt", "lit": "no", "length_m": 64.42, "type_element": "Way", "__fid": 3135}, "geometry": {"type": "LineString", "coordinates": [[2.2495061, 48.8699344], [2.2497764, 48.8701095], [2.2500571, 48.870382]]}}, {"type": "Feature", "properties": {"highway": "track", "footway": null, "name": null, "surface": "asphalt", "lit": null, "length_m": 49.97, "type_element": "Way", "__fid": 3138}, "geometry": {"type": "LineString", "coordinates": [[2.2495899, 48.865205], [2.2498527, 48.865259], [2.2502344, 48.865350099999986]]}}, {"type": "Feature", "properties": {"highway": "path", "footway": null, "name": null, "surface": "dirt", "lit": null, "length_m": 285.57, "type_element": "Way", "__fid": 3139}, "geometry": {"type": "LineString", "coordinates": [[2.2495899, 48.865205], [2.2495821, 48.8652701], [2.249629, 48.865355700000016], [2.2497793, 48.8655736], [2.2499516, 48.8658493], [2.2501963, 48.86620040000001], [2.2507247, 48.86701290000001], [2.2508843, 48.86720520000002], [2.2509715, 48.8673296], [2.2510332, 48.8674681], [2.2510774, 48.8675149], [2.2510982, 48.8675608]]}}, {"type": "Feature", "properties": {"highway": "footway", "footway": null, "name": null, "surface": "compacted", "lit": null, "length_m": 44.67, "type_element": "Way", "__fid": 3140}, "geometry": {"type": "LineString", "coordinates": [[2.2500571, 48.870382], [2.2495547, 48.870609]]}}, {"type": "Feature", "properties": {"highway": "footway", "footway": null, "name": null, "surface": "asphalt", "lit": "no", "length_m": 76.05, "type_element": "Way", "__fid": 3172}, "geometry": {"type": "LineString", "coordinates": [[2.2500571, 48.870382], [2.2502889, 48.8706198], [2.2504072, 48.8707765], [2.2504524, 48.8710007]]}}, {"type": "Feature", "properties": {"highway": "track", "footway": null, "name": null, "surface": "asphalt", "lit": null, "length_m": 26.13, "type_element": "Way", "__fid": 3181}, "geometry": {"type": "LineString", "coordinates": [[2.2502344, 48.865350099999986], [2.2505057, 48.8654134], [2.2505566, 48.8654436]]}}, {"type": "Feature", "properties": {"highway": "footway", "footway": null, "name": null, "surface": "dirt", "lit": null, "length_m": 261.61, "type_element": "Way", "__fid": 3182}, "geometry": {"type": "LineString", "coordinates": [[2.2521567, 48.8672343], [2.2520651, 48.8671474], [2.2520015, 48.8671007], [2.251913, 48.86706320000001], [2.2516118, 48.8669776], [2.2513597, 48.8668417], [2.2512344, 48.8667315], [2.2511673, 48.866582299999976], [2.251111, 48.8664964], [2.2509232, 48.8662665], [2.25083, 48.866075], [2.2506988, 48.865840800000015], [2.2505512, 48.8656663], [2.2503962, 48.8655507], [2.2502709, 48.865434599999986], [2.2502344, 48.865350099999986]]}}, {"type": "Feature", "properties": {"highway": "path", "footway": null, "name": null, "surface": "compacted", "lit": "yes", "length_m": 26.69, "type_element": "Way", "__fid": 3196}, "geometry": {"type": "LineString", "coordinates": [[2.2508065, 48.867723], [2.2504872, 48.867608]]}}, {"type": "Feature", "properties": {"highway": "path", "footway": "crossing", "name": null, "surface": "asphalt", "lit": "yes", "length_m": 27.35, "type_element": "Way", "__fid": 3197}, "geometry": {"type": "LineString", "coordinates": [[2.2505531, 48.8673706], [2.250535, 48.8674046], [2.2505504, 48.86744609999999], [2.2504872, 48.867608]]}}, {"type": "Feature", "properties": {"highway": "path", "footway": null, "name": null, "surface": "ground", "lit": null, "length_m": 3.52, "type_element": "Way", "__fid": 3203}, "geometry": {"type": "LineString", "coordinates": [[2.2505531, 48.8673706], [2.2505289, 48.8673433]]}}, {"type": "Feature", "properties": {"highway": "track", "footway": null, "name": null, "surface": "asphalt", "lit": null, "length_m": 250.5, "type_element": "Way", "__fid": 3204}, "geometry": {"type": "LineString", "coordinates": [[2.2505566, 48.8654436], [2.2509016, 48.8656294], [2.2510581, 48.8657386], [2.2510962, 48.8657862], [2.2511975, 48.8660516], [2.2512748, 48.8661927], [2.2513483, 48.866262699999986], [2.2517221, 48.8663811], [2.2518669, 48.8664144], [2.2520902, 48.8664244], [2.2521783, 48.8664542], [2.2522757, 48.8665528], [2.2523561, 48.866738], [2.2526279, 48.8670362]]}}, {"type": "Feature", "properties": {"highway": "path", "footway": null, "name": null, "surface": null, "lit": null, "length_m": 22.76, "type_element": "Way", "__fid": 3205}, "geometry": {"type": "LineString", "coordinates": [[2.2508522, 48.86538140000001], [2.2505566, 48.8654436]]}}, {"type": "Feature", "properties": {"highway": "service", "footway": null, "name": null, "surface": "asphalt", "lit": "yes", "length_m": 38.52, "type_element": "Way", "__fid": 3206}, "geometry": {"type": "LineString", "coordinates": [[2.2508838, 48.8649936], [2.2507028, 48.8651144], [2.2506166, 48.8651917], [2.2505734, 48.8652671]]}}, {"type": "Feature", "properties": {"highway": "footway", "footway": "crossing", "name": null, "surface": "asphalt", "lit": "yes", "length_m": 28.2, "type_element": "Way", "__fid": 3207}, "geometry": {"type": "LineString", "coordinates": [[2.2509128, 48.86745670000001], [2.2506091, 48.8673748], [2.2505531, 48.8673706]]}}, {"type": "Feature", "properties": {"highway": "path", "footway": "crossing", "name": null, "surface": "asphalt", "lit": "yes", "length_m": 37.13, "type_element": "Way", "__fid": 3221}, "geometry": {"type": "LineString", "coordinates": [[2.2512509, 48.8678829], [2.2508065, 48.867723]]}}, {"type": "Feature", "properties": {"highway": "footway", "footway": "sidewalk", "name": null, "surface": null, "lit": null, "length_m": 400.79, "type_element": "Way", "__fid": 3222}, "geometry": {"type": "LineString", "coordinates": [[2.25297, 48.871031500000015], [2.2521669, 48.8697985], [2.2509391, 48.8679437], [2.2508764, 48.8678678], [2.2508065, 48.867723]]}}, {"type": "Feature", "properties": {"highway": "path", "footway": null, "name": null, "surface": "dirt", "lit": null, "length_m": 4.8, "type_element": "Way", "__fid": 3223}, "geometry": {"type": "LineString", "coordinates": [[2.2508522, 48.86538140000001], [2.2508488, 48.8653383]]}}, {"type": "Feature", "properties": {"highway": "path", "footway": null, "name": null, "surface": "dirt", "lit": null, "length_m": 166.29, "type_element": "Way", "__fid": 3224}, "geometry": {"type": "LineString", "coordinates": [[2.2522873, 48.8663344], [2.2518431, 48.8663052], [2.2517407, 48.8662652], [2.2516692, 48.8662064], [2.2516623, 48.86615759999999], [2.2517102, 48.8660647], [2.2516576, 48.8659984], [2.2515129, 48.8658647], [2.2513321, 48.8657315], [2.2509232, 48.8654964], [2.2508522, 48.86538140000001]]}}, {"type": "Feature", "properties": {"highway": "footway", "footway": null, "name": null, "surface": null, "lit": null, "length_m": 35.83, "type_element": "Way", "__fid": 3225}, "geometry": {"type": "LineString", "coordinates": [[2.2507898, 48.8708106], [2.2507006, 48.870849], [2.2509058, 48.8710615]]}}, {"type": "Feature", "properties": {"highway": "path", "footway": null, "name": null, "surface": "ground", "lit": null, "length_m": 5.55, "type_element": "Way", "__fid": 3248}, "geometry": {"type": "LineString", "coordinates": [[2.2510982, 48.8675608], [2.2510283, 48.86754160000001]]}}, {"type": "Feature", "properties": {"highway": "path", "footway": null, "name": null, "surface": "dirt", "lit": null, "length_m": 2.07, "type_element": "Way", "__fid": 3257}, "geometry": {"type": "LineString", "coordinates": [[2.2510982, 48.8675608], [2.2510906, 48.8675787]]}}, {"type": "Feature", "properties": {"highway": "path", "footway": null, "name": null, "surface": "ground", "lit": null, "length_m": 22.36, "type_element": "Way", "__fid": 3258}, "geometry": {"type": "LineString", "coordinates": [[2.2513795, 48.8676383], [2.2510982, 48.8675608]]}}, {"type": "Feature", "properties": {"highway": "footway", "footway": null, "name": null, "surface": "asphalt", "lit": "no", "length_m": 24.84, "type_element": "Way", "__fid": 3267}, "geometry": {"type": "LineString", "coordinates": [[2.2513869, 48.86515060000002], [2.2513226, 48.8651343], [2.2512817, 48.865114], [2.2511864, 48.86498430000001]]}}, {"type": "Feature", "properties": {"highway": "path", "footway": null, "name": null, "surface": "compacted", "lit": "yes", "length_m": 248.19, "type_element": "Way", "__fid": 3293}, "geometry": {"type": "LineString", "coordinates": [[2.254221, 48.8689519], [2.2512509, 48.8678829]]}}, {"type": "Feature", "properties": {"highway": "path", "footway": null, "name": null, "surface": "dirt", "lit": "yes", "length_m": 148.69, "type_element": "Way", "__fid": 3294}, "geometry": {"type": "LineString", "coordinates": [[2.2512509, 48.8678829], [2.2512384, 48.8679202], [2.2512442, 48.86795770000001], [2.2520073, 48.8691142]]}}, {"type": "Feature", "properties": {"highway": "path", "footway": "crossing", "name": null, "surface": null, "lit": null, "length_m": 29.1, "type_element": "Way", "__fid": 3295}, "geometry": {"type": "LineString", "coordinates": [[2.2513795, 48.8676383], [2.251342, 48.8677493], [2.2513028, 48.8678051], [2.2512793, 48.867859199999984], [2.2512509, 48.8678829]]}}, {"type": "Feature", "properties": {"highway": "footway", "footway": null, "name": null, "surface": null, "lit": null, "length_m": 16.14, "type_element": "Way", "__fid": 3311}, "geometry": {"type": "LineString", "coordinates": [[2.2516015, 48.8651802], [2.2515033, 48.8651603], [2.2513869, 48.86515060000002]]}}, {"type": "Feature", "properties": {"highway": "footway", "footway": null, "name": null, "surface": null, "lit": null, "length_m": 92.63, "type_element": "Way", "__fid": 3312}, "geometry": {"type": "LineString", "coordinates": [[2.2513869, 48.86515060000002], [2.2513282, 48.8652097], [2.2513135, 48.8652909], [2.2513269, 48.8653244], [2.2514302, 48.865382600000025], [2.2519706, 48.8655079], [2.2520833, 48.865552], [2.2522227, 48.865552]]}}, {"type": "Feature", "properties": {"highway": "path", "footway": null, "name": null, "surface": "ground", "lit": null, "length_m": 283.34, "type_element": "Way", "__fid": 3318}, "geometry": {"type": "LineString", "coordinates": [[2.2547681, 48.8688611], [2.2513795, 48.8676383]]}}, {"type": "Feature", "properties": {"highway": "track", "footway": null, "name": "Route des Lacs à Bagatelle", "surface": "compacted", "lit": null, "length_m": 73.42, "type_element": "Way", "__fid": 3319}, "geometry": {"type": "LineString", "coordinates": [[2.2521567, 48.8672343], [2.251806, 48.8673833], [2.2515041, 48.86753380000001], [2.2514194, 48.8675839], [2.2513795, 48.8676383]]}}, {"type": "Feature", "properties": {"highway": "footway", "footway": null, "name": null, "surface": null, "lit": null, "length_m": 26.92, "type_element": "Way", "__fid": 3344}, "geometry": {"type": "LineString", "coordinates": [[2.2519289, 48.8652775], [2.2517863, 48.8652079], [2.2516015, 48.8651802]]}}, {"type": "Feature", "properties": {"highway": "footway", "footway": null, "name": null, "surface": null, "lit": null, "length_m": 15.17, "type_element": "Way", "__fid": 3345}, "geometry": {"type": "LineString", "coordinates": [[2.2516015, 48.8651802], [2.2516528, 48.8652309], [2.2516702, 48.8652838], [2.251691, 48.8653001]]}}, {"type": "Feature", "properties": {"highway": "footway", "footway": null, "name": null, "surface": null, "lit": null, "length_m": 30.89, "type_element": "Way", "__fid": 3360}, "geometry": {"type": "LineString", "coordinates": [[2.251691, 48.8653001], [2.251746, 48.8653433], [2.2520286, 48.8654626]]}}, {"type": "Feature", "properties": {"highway": "footway", "footway": null, "name": null, "surface": null, "lit": null, "length_m": 17.63, "type_element": "Way", "__fid": 3361}, "geometry": {"type": "LineString", "coordinates": [[2.2519289, 48.8652775], [2.251691, 48.8653001]]}}, {"type": "Feature", "properties": {"highway": "footway", "footway": null, "name": null, "surface": null, "lit": null, "length_m": 76.9, "type_element": "Way", "__fid": 3382}, "geometry": {"type": "LineString", "coordinates": [[2.252506, 48.865481], [2.2523773, 48.8653973], [2.2521939, 48.8652941], [2.2519374, 48.865114], [2.2518408, 48.86502930000002], [2.251804, 48.8649742]]}}, {"type": "Feature", "properties": {"highway": "footway", "footway": null, "name": null, "surface": null, "lit": null, "length_m": 14.19, "type_element": "Way", "__fid": 3402}, "geometry": {"type": "LineString", "coordinates": [[2.2520762, 48.8653602], [2.2519289, 48.8652775]]}}, {"type": "Feature", "properties": {"highway": "path", "footway": null, "name": null, "surface": null, "lit": null, "length_m": 10.2, "type_element": "Way", "__fid": 3403}, "geometry": {"type": "LineString", "coordinates": [[2.2520073, 48.8691142], [2.2518778, 48.8691475]]}}, {"type": "Feature", "properties": {"highway": "footway", "footway": null, "name": null, "surface": null, "lit": null, "length_m": 17.37, "type_element": "Way", "__fid": 3423}, "geometry": {"type": "LineString", "coordinates": [[2.2520286, 48.8654626], [2.2522227, 48.865552]]}}, {"type": "Feature", "properties": {"highway": "footway", "footway": null, "name": null, "surface": null, "lit": null, "length_m": 11.91, "type_element": "Way", "__fid": 3424}, "geometry": {"type": "LineString", "coordinates": [[2.2520762, 48.8653602], [2.2520286, 48.8654626]]}}, {"type": "Feature", "properties": {"highway": "path", "footway": null, "name": null, "surface": "dirt", "lit": "yes", "length_m": 336.73, "type_element": "Way", "__fid": 3429}, "geometry": {"type": "LineString", "coordinates": [[2.2520073, 48.8691142], [2.2538322, 48.8718929]]}}, {"type": "Feature", "properties": {"highway": "path", "footway": null, "name": null, "surface": null, "lit": null, "length_m": 139.36, "type_element": "Way", "__fid": 3430}, "geometry": {"type": "LineString", "coordinates": [[2.2537923, 48.8693461], [2.2528081, 48.8690613], [2.2525265, 48.86903309999999], [2.2522878, 48.86904190000001], [2.2520073, 48.8691142]]}}, {"type": "Feature", "properties": {"highway": "footway", "footway": null, "name": null, "surface": null, "lit": null, "length_m": 29.3, "type_element": "Way", "__fid": 3433}, "geometry": {"type": "LineString", "coordinates": [[2.2523782, 48.86553269999999], [2.2520762, 48.8653602]]}}, {"type": "Feature", "properties": {"highway": "footway", "footway": null, "name": null, "surface": "dirt", "lit": null, "length_m": 239.05, "type_element": "Way", "__fid": 3444}, "geometry": {"type": "LineString", "coordinates": [[2.2548791, 48.868173099999986], [2.2547833, 48.86816910000001], [2.2546114, 48.8681812], [2.2545131, 48.8681787], [2.2544333, 48.8681569], [2.2543081, 48.8681077], [2.2541865, 48.8680398], [2.2540355, 48.8679389], [2.2539409, 48.8679025], [2.253898, 48.867896], [2.2536119, 48.867937199999986], [2.2534485, 48.8679187], [2.2533343, 48.86788880000002], [2.2532238, 48.8678282], [2.2528923, 48.86760039999998], [2.2526983, 48.8674962], [2.2525509, 48.867447800000015], [2.252465, 48.86741140000004], [2.2523692, 48.8673565], [2.2522955, 48.8673024], [2.2522145, 48.8672563], [2.2521567, 48.8672343]]}}, {"type": "Feature", "properties": {"highway": "track", "footway": null, "name": "Route des Lacs à Bagatelle", "surface": "compacted", "lit": null, "length_m": 41.94, "type_element": "Way", "__fid": 3445}, "geometry": {"type": "LineString", "coordinates": [[2.2526863, 48.8670922], [2.2521567, 48.8672343]]}}, {"type": "Feature", "properties": {"highway": "service", "footway": null, "name": null, "surface": "asphalt", "lit": null, "length_m": 56.68, "type_element": "Way", "__fid": 3446}, "geometry": {"type": "LineString", "coordinates": [[2.2525806, 48.8654124], [2.2524767, 48.86533270000001], [2.2522651, 48.8651246], [2.2521874, 48.8650054], [2.2521916, 48.8649813]]}}, {"type": "Feature", "properties": {"highway": "footway", "footway": null, "name": null, "surface": null, "lit": null, "length_m": 11.61, "type_element": "Way", "__fid": 3457}, "geometry": {"type": "LineString", "coordinates": [[2.2522227, 48.865552], [2.2523782, 48.86553269999999]]}}, {"type": "Feature", "properties": {"highway": "path", "footway": null, "name": null, "surface": "dirt", "lit": null, "length_m": 82.8, "type_element": "Way", "__fid": 3468}, "geometry": {"type": "LineString", "coordinates": [[2.2527846, 48.8669971], [2.252693, 48.86692660000002], [2.2525533, 48.8667758], [2.2522873, 48.8663344]]}}, {"type": "Feature", "properties": {"highway": "path", "footway": null, "name": null, "surface": "dirt", "lit": null, "length_m": 55.54, "type_element": "Way", "__fid": 3469}, "geometry": {"type": "LineString", "coordinates": [[2.2524985, 48.86589270000002], [2.2523252, 48.8660061], [2.2522788, 48.8660515], [2.2522677, 48.8661147], [2.2522873, 48.8663344]]}}, {"type": "Feature", "properties": {"highway": "footway", "footway": null, "name": null, "surface": null, "lit": null, "length_m": 3.55, "type_element": "Way", "__fid": 3476}, "geometry": {"type": "LineString", "coordinates": [[2.2524112, 48.865556], [2.2523782, 48.86553269999999]]}}, {"type": "Feature", "properties": {"highway": "footway", "footway": null, "name": null, "surface": null, "lit": null, "length_m": 39.98, "type_element": "Way", "__fid": 3486}, "geometry": {"type": "LineString", "coordinates": [[2.2527099, 48.8658375], [2.2526664, 48.8658302], [2.2525972, 48.865788], [2.2525007, 48.8657056], [2.2524795, 48.865629], [2.2524112, 48.865556]]}}, {"type": "Feature", "properties": {"highway": "footway", "footway": null, "name": null, "surface": null, "lit": null, "length_m": 10.86, "type_element": "Way", "__fid": 3487}, "geometry": {"type": "LineString", "coordinates": [[2.2524112, 48.865556], [2.252506, 48.865481]]}}, {"type": "Feature", "properties": {"highway": "footway", "footway": null, "name": null, "surface": "compacted", "lit": "no", "length_m": 24.01, "type_element": "Way", "__fid": 3492}, "geometry": {"type": "LineString", "coordinates": [[2.2526412, 48.8651915], [2.2525596, 48.865107], [2.2524806, 48.86500370000001]]}}, {"type": "Feature", "properties": {"highway": "footway", "footway": null, "name": null, "surface": null, "lit": null, "length_m": 50.21, "type_element": "Way", "__fid": 3495}, "geometry": {"type": "LineString", "coordinates": [[2.2529512, 48.8658233], [2.2528268, 48.8657318], [2.2526282, 48.8655631], [2.252506, 48.865481]]}}, {"type": "Feature", "properties": {"highway": "footway", "footway": null, "name": null, "surface": "compacted", "lit": "no", "length_m": 9.39, "type_element": "Way", "__fid": 3496}, "geometry": {"type": "LineString", "coordinates": [[2.252506, 48.865481], [2.2525806, 48.8654124]]}}, {"type": "Feature", "properties": {"highway": "service", "footway": null, "name": null, "surface": "asphalt", "lit": null, "length_m": 65.7, "type_element": "Way", "__fid": 3516}, "geometry": {"type": "LineString", "coordinates": [[2.2533508, 48.8657045], [2.2531231, 48.8656529], [2.2529616, 48.8655958], [2.2525806, 48.8654124]]}}, {"type": "Feature", "properties": {"highway": "footway", "footway": null, "name": null, "surface": "compacted", "lit": "no", "length_m": 24.96, "type_element": "Way", "__fid": 3517}, "geometry": {"type": "LineString", "coordinates": [[2.2525806, 48.8654124], [2.2526412, 48.8651915]]}}, {"type": "Feature", "properties": {"highway": "footway", "footway": null, "name": null, "surface": null, "lit": null, "length_m": 26.42, "type_element": "Way", "__fid": 3518}, "geometry": {"type": "LineString", "coordinates": [[2.2529302, 48.8653574], [2.2526644, 48.8654055], [2.2525806, 48.8654124]]}}, {"type": "Feature", "properties": {"highway": "footway", "footway": null, "name": null, "surface": null, "lit": null, "length_m": 13.71, "type_element": "Way", "__fid": 3521}, "geometry": {"type": "LineString", "coordinates": [[2.2527099, 48.8658375], [2.2526837, 48.86586170000002], [2.252576, 48.8659225]]}}, {"type": "Feature", "properties": {"highway": "footway", "footway": null, "name": null, "surface": null, "lit": null, "length_m": 28.44, "type_element": "Way", "__fid": 3538}, "geometry": {"type": "LineString", "coordinates": [[2.2526412, 48.8651915], [2.2527283, 48.865263], [2.2527964, 48.8653043], [2.2529302, 48.8653574]]}}, {"type": "Feature", "properties": {"highway": "track", "footway": null, "name": null, "surface": "asphalt", "lit": null, "length_m": 7.56, "type_element": "Way", "__fid": 3542}, "geometry": {"type": "LineString", "coordinates": [[2.2526279, 48.8670362], [2.2526863, 48.8670922]]}}, {"type": "Feature", "properties": {"highway": "path", "footway": null, "name": null, "surface": "asphalt", "lit": null, "length_m": 12.29, "type_element": "Way", "__fid": 3543}, "geometry": {"type": "LineString", "coordinates": [[2.2527846, 48.8669971], [2.2526279, 48.8670362]]}}, {"type": "Feature", "properties": {"highway": "track", "footway": null, "name": null, "surface": "asphalt", "lit": "no", "length_m": 182.91, "type_element": "Way", "__fid": 3552}, "geometry": {"type": "LineString", "coordinates": [[2.2526863, 48.8670922], [2.2528484, 48.86719930000002], [2.2530448, 48.867282], [2.253405, 48.8673907], [2.2536993, 48.8674954], [2.2539273, 48.8675375], [2.2541248, 48.8675832], [2.2544268, 48.8675986], [2.2545091, 48.8676283], [2.2546797, 48.8677482], [2.254762, 48.867820500000015], [2.2548231, 48.8678449]]}}, {"type": "Feature", "properties": {"highway": "track", "footway": null, "name": "Route des Lacs à Bagatelle", "surface": "asphalt", "lit": null, "length_m": 14.14, "type_element": "Way", "__fid": 3553}, "geometry": {"type": "LineString", "coordinates": [[2.2528669, 48.8670478], [2.2526863, 48.8670922]]}}, {"type": "Feature", "properties": {"highway": "footway", "footway": null, "name": null, "surface": null, "lit": null, "length_m": 17.77, "type_element": "Way", "__fid": 3554}, "geometry": {"type": "LineString", "coordinates": [[2.2529512, 48.8658233], [2.2527099, 48.8658375]]}}, {"type": "Feature", "properties": {"highway": "path", "footway": null, "name": null, "surface": "dirt", "lit": null, "length_m": 8.26, "type_element": "Way", "__fid": 3570}, "geometry": {"type": "LineString", "coordinates": [[2.2528669, 48.8670478], [2.2527846, 48.8669971]]}}, {"type": "Feature", "properties": {"highway": "path", "footway": null, "name": null, "surface": "dirt", "lit": null, "length_m": 158.17, "type_element": "Way", "__fid": 3575}, "geometry": {"type": "LineString", "coordinates": [[2.254862, 48.8674817], [2.2545332, 48.867489], [2.2539149, 48.8674325], [2.2536947, 48.867371099999986], [2.2533881, 48.8672464], [2.2531801, 48.8671844], [2.2528669, 48.8670478]]}}, {"type": "Feature", "properties": {"highway": "track", "footway": null, "name": "Route des Lacs à Bagatelle", "surface": "asphalt", "lit": null, "length_m": 181.2, "type_element": "Way", "__fid": 3576}, "geometry": {"type": "LineString", "coordinates": [[2.2528669, 48.8670478], [2.2534699, 48.8669664], [2.2536972, 48.8669088], [2.2539015, 48.8668359], [2.254116, 48.86673060000001], [2.2543354, 48.8665584], [2.2550579, 48.8667348]]}}, {"type": "Feature", "properties": {"highway": "footway", "footway": null, "name": null, "surface": null, "lit": null, "length_m": 34.78, "type_element": "Way", "__fid": 3580}, "geometry": {"type": "LineString", "coordinates": [[2.2529302, 48.8653574], [2.2530229, 48.8653725], [2.2531848, 48.865373300000016], [2.25339, 48.86532730000001]]}}, {"type": "Feature", "properties": {"highway": "footway", "footway": null, "name": null, "surface": null, "lit": null, "length_m": 54.58, "type_element": "Way", "__fid": 3581}, "geometry": {"type": "LineString", "coordinates": [[2.2535779, 48.8660849], [2.2535096, 48.8660456], [2.2529781, 48.865841], [2.2529512, 48.8658233]]}}, {"type": "Feature", "properties": {"highway": "footway", "footway": null, "name": null, "surface": null, "lit": null, "length_m": 32.56, "type_element": "Way", "__fid": 3582}, "geometry": {"type": "LineString", "coordinates": [[2.2533508, 48.8657045], [2.2532916, 48.8657414], [2.2529512, 48.8658233]]}}, {"type": "Feature", "properties": {"highway": "footway", "footway": null, "name": null, "surface": null, "lit": null, "length_m": 10.27, "type_element": "Way", "__fid": 3589}, "geometry": {"type": "LineString", "coordinates": [[2.25297, 48.871031500000015], [2.2530944, 48.8709892]]}}, {"type": "Feature", "properties": {"highway": "service", "footway": null, "name": null, "surface": "asphalt", "lit": null, "length_m": 8.63, "type_element": "Way", "__fid": 3626}, "geometry": {"type": "LineString", "coordinates": [[2.2534684, 48.865707], [2.2533508, 48.8657045]]}}, {"type": "Feature", "properties": {"highway": "footway", "footway": null, "name": null, "surface": null, "lit": null, "length_m": 42.73, "type_element": "Way", "__fid": 3632}, "geometry": {"type": "LineString", "coordinates": [[2.25339, 48.86532730000001], [2.2534005, 48.8654836], [2.2534684, 48.865707]]}}, {"type": "Feature", "properties": {"highway": "footway", "footway": null, "name": null, "surface": null, "lit": null, "length_m": 65.58, "type_element": "Way", "__fid": 3633}, "geometry": {"type": "LineString", "coordinates": [[2.25339, 48.86532730000001], [2.2537709, 48.8650562], [2.2538468, 48.864989], [2.2539503, 48.864871]]}}, {"type": "Feature", "properties": {"highway": "service", "footway": null, "name": null, "surface": "asphalt", "lit": null, "length_m": 38.96, "type_element": "Way", "__fid": 3647}, "geometry": {"type": "LineString", "coordinates": [[2.253972, 48.86561210000002], [2.253807, 48.865672], [2.2534684, 48.865707]]}}, {"type": "Feature", "properties": {"highway": "footway", "footway": null, "name": null, "surface": null, "lit": null, "length_m": 129.9, "type_element": "Way", "__fid": 3659}, "geometry": {"type": "LineString", "coordinates": [[2.2535779, 48.8660849], [2.2536647, 48.8661374], [2.2540134, 48.8662962], [2.2541958, 48.8663491], [2.2543165, 48.8663642], [2.2544163, 48.86636720000003], [2.2545053, 48.8663592], [2.2546034, 48.8663333], [2.2546825, 48.8662826], [2.2547314, 48.86620579999999], [2.2547803, 48.865960399999985]]}}, {"type": "Feature", "properties": {"highway": "footway", "footway": null, "name": null, "surface": null, "lit": null, "length_m": 64.27, "type_element": "Way", "__fid": 3660}, "geometry": {"type": "LineString", "coordinates": [[2.253972, 48.86561210000002], [2.2539631, 48.8657148], [2.2538056, 48.8659971], [2.253701, 48.8660434], [2.2535779, 48.8660849]]}}, {"type": "Feature", "properties": {"highway": "footway", "footway": null, "name": null, "surface": "dirt", "lit": "no", "length_m": 60.82, "type_element": "Way", "__fid": 3675}, "geometry": {"type": "LineString", "coordinates": [[2.2540338, 48.8698524], [2.2540426, 48.8697417], [2.2540186, 48.8696574], [2.2539131, 48.8695055], [2.2538784, 48.8694695], [2.253833, 48.8694431], [2.2537923, 48.8693461]]}}, {"type": "Feature", "properties": {"highway": "footway", "footway": null, "name": null, "surface": "dirt", "lit": "no", "length_m": 54.36, "type_element": "Way", "__fid": 3676}, "geometry": {"type": "LineString", "coordinates": [[2.2537923, 48.8693461], [2.2538143, 48.8693017], [2.2538717, 48.8692446], [2.2539532, 48.8691735], [2.2541321, 48.86904530000001], [2.254221, 48.8689519]]}}, {"type": "Feature", "properties": {"highway": "footway", "footway": null, "name": null, "surface": "fine_gravel", "lit": "no", "length_m": 54.72, "type_element": "Way", "__fid": 3683}, "geometry": {"type": "LineString", "coordinates": [[2.2539503, 48.864871], [2.2540661, 48.8650979], [2.254191, 48.8652539], [2.2542816, 48.8653012]]}}, {"type": "Feature", "properties": {"highway": "service", "footway": null, "name": null, "surface": "asphalt", "lit": null, "length_m": 17.91, "type_element": "Way", "__fid": 3688}, "geometry": {"type": "LineString", "coordinates": [[2.2541417, 48.8654963], [2.253972, 48.86561210000002]]}}, {"type": "Feature", "properties": {"highway": "path", "footway": null, "name": null, "surface": null, "lit": null, "length_m": 201.33, "type_element": "Way", "__fid": 3708}, "geometry": {"type": "LineString", "coordinates": [[2.2540338, 48.8698524], [2.2544784, 48.869879800000014], [2.2547187, 48.8699026], [2.2550138, 48.8699448], [2.2553823, 48.8700203], [2.2556426, 48.8700827], [2.2559177, 48.8701301], [2.2565465, 48.87027759999999], [2.2566803, 48.87030209999999]]}}, {"type": "Feature", "properties": {"highway": "footway", "footway": null, "name": null, "surface": "dirt", "lit": "no", "length_m": 56.19, "type_element": "Way", "__fid": 3709}, "geometry": {"type": "LineString", "coordinates": [[2.2541292, 48.8703524], [2.2540546, 48.8701097], [2.2540338, 48.8698524]]}}, {"type": "Feature", "properties": {"highway": "service", "footway": null, "name": null, "surface": "asphalt", "lit": null, "length_m": 70.19, "type_element": "Way", "__fid": 3713}, "geometry": {"type": "LineString", "coordinates": [[2.2541417, 48.8654963], [2.2542173, 48.86551990000001], [2.2544533, 48.8656575], [2.2546196, 48.865788], [2.2547001, 48.8658622], [2.2548201, 48.8659335]]}}, {"type": "Feature", "properties": {"highway": "service", "footway": null, "name": null, "surface": "asphalt", "lit": null, "length_m": 24.1, "type_element": "Way", "__fid": 3714}, "geometry": {"type": "LineString", "coordinates": [[2.2542816, 48.8653012], [2.254217, 48.8654147], [2.2541417, 48.8654963]]}}, {"type": "Feature", "properties": {"highway": "path", "footway": null, "name": null, "surface": "compacted", "lit": "yes", "length_m": 52.54, "type_element": "Way", "__fid": 3735}, "geometry": {"type": "LineString", "coordinates": [[2.2548498, 48.8691782], [2.254221, 48.8689519]]}}, {"type": "Feature", "properties": {"highway": "service", "footway": null, "name": null, "surface": "asphalt", "lit": null, "length_m": 14.21, "type_element": "Way", "__fid": 3736}, "geometry": {"type": "LineString", "coordinates": [[2.2543128, 48.86517509999999], [2.2542816, 48.8653012]]}}, {"type": "Feature", "properties": {"highway": "footway", "footway": null, "name": null, "surface": null, "lit": null, "length_m": 55.8, "type_element": "Way", "__fid": 3742}, "geometry": {"type": "LineString", "coordinates": [[2.2543128, 48.86517509999999], [2.2543586, 48.8652371], [2.2544283, 48.8654162], [2.2544699, 48.8654762], [2.2546979, 48.8655785]]}}, {"type": "Feature", "properties": {"highway": "service", "footway": null, "name": null, "surface": "asphalt", "lit": null, "length_m": 11.76, "type_element": "Way", "__fid": 3743}, "geometry": {"type": "LineString", "coordinates": [[2.2543366, 48.8650705], [2.2543128, 48.86517509999999]]}}, {"type": "Feature", "properties": {"highway": "footway", "footway": null, "name": null, "surface": "compacted", "lit": "no", "length_m": 33.94, "type_element": "Way", "__fid": 3747}, "geometry": {"type": "LineString", "coordinates": [[2.2547979, 48.865094], [2.2543366, 48.8650705]]}}, {"type": "Feature", "properties": {"highway": "path", "footway": null, "name": null, "surface": null, "lit": null, "length_m": 67.01, "type_element": "Way", "__fid": 3794}, "geometry": {"type": "LineString", "coordinates": [[2.2545209, 48.86650909999999], [2.2548136, 48.8664648], [2.2553861, 48.8663201]]}}, {"type": "Feature", "properties": {"highway": "service", "footway": null, "name": null, "surface": null, "lit": null, "length_m": 95.18, "type_element": "Way", "__fid": 3795}, "geometry": {"type": "LineString", "coordinates": [[2.2545638, 48.8643372], [2.2546349, 48.864451], [2.2547616, 48.8647246], [2.2550045, 48.86514170000002]]}}, {"type": "Feature", "properties": {"highway": "footway", "footway": null, "name": null, "surface": "compacted", "lit": "no", "length_m": 26.4, "type_element": "Way", "__fid": 3798}, "geometry": {"type": "LineString", "coordinates": [[2.2545759, 48.8649398], [2.2546886, 48.86495], [2.2547458, 48.8650026], [2.2547979, 48.865094]]}}, {"type": "Feature", "properties": {"highway": "footway", "footway": null, "name": null, "surface": null, "lit": null, "length_m": 38.57, "type_element": "Way", "__fid": 3827}, "geometry": {"type": "LineString", "coordinates": [[2.2546979, 48.8655785], [2.2549138, 48.8658948]]}}, {"type": "Feature", "properties": {"highway": "footway", "footway": null, "name": null, "surface": null, "lit": null, "length_m": 55.85, "type_element": "Way", "__fid": 3828}, "geometry": {"type": "LineString", "coordinates": [[2.2546979, 48.8655785], [2.2547717, 48.86546469999998], [2.2548307, 48.8652883], [2.2548307, 48.8651577], [2.2547979, 48.865094]]}}, {"type": "Feature", "properties": {"highway": "path", "footway": null, "name": null, "surface": "ground", "lit": null, "length_m": 24.78, "type_element": "Way", "__fid": 3843}, "geometry": {"type": "LineString", "coordinates": [[2.2550645, 48.868968], [2.2547681, 48.8688611]]}}, {"type": "Feature", "properties": {"highway": "footway", "footway": null, "name": null, "surface": "dirt", "lit": null, "length_m": 78.33, "type_element": "Way", "__fid": 3844}, "geometry": {"type": "LineString", "coordinates": [[2.2547681, 48.8688611], [2.2547894, 48.8687336], [2.2548214, 48.8686432], [2.2548177, 48.8685955], [2.2547956, 48.8685487], [2.2547943, 48.8685034], [2.2548778, 48.8683556], [2.2548926, 48.868245], [2.2548791, 48.868173099999986]]}}]}