{"type": "FeatureCollection", "features": [{"type": "Feature", "properties": {"@id": "node/5632630333", "amenity": "drinking_water", "check_date": "2024-11-07", "man_made": "water_tap", "type_element": "Fontaines à boire", "__fid": 556}, "geometry": {"type": "Point", "coordinates": [2.2587305, 48.8796518]}, "id": "node/5632630333"}, {"type": "Feature", "properties": {"@id": "node/5796360413", "amenity": "drinking_water", "type_element": "Fontaines à boire", "__fid": 567}, "geometry": {"type": "Point", "coordinates": [2.2610115, 48.8789771]}, "id": "node/5796360413"}, {"type": "Feature", "properties": {"@id": "node/5796360416", "amenity": "drinking_water", "type_element": "Fontaines à boire", "__fid": 568}, "geometry": {"type": "Point", "coordinates": [2.2617182, 48.8793291]}, "id": "node/5796360416"}, {"type": "Feature", "properties": {"highway": "footway", "footway": null, "name": null, "surface": "dirt", "lit": "no", "length_m": 51.22, "type_element": "Way", "__fid": 4295}, "geometry": {"type": "LineString", "coordinates": [[2.2574506, 48.8771708], [2.2571869, 48.8772225], [2.2570601, 48.8772594], [2.2567898, 48.8773183]]}}, {"type": "Feature", "properties": {"highway": "service", "footway": null, "name": "Allée de Madrid à Neuilly", "surface": "asphalt", "lit": null, "length_m": 66.2, "type_element": "Way", "__fid": 4338}, "geometry": {"type": "LineString", "coordinates": [[2.2574506, 48.8771708], [2.2573029, 48.876928], [2.2570987, 48.8766227]]}}, {"type": "Feature", "properties": {"highway": "path", "footway": null, "name": null, "surface": "dirt", "lit": null, "length_m": 40.99, "type_element": "Way", "__fid": 4360}, "geometry": {"type": "LineString", "coordinates": [[2.257711, 48.8776583], [2.2573981, 48.87769330000002], [2.2571639, 48.8777323]]}}, {"type": "Feature", "properties": {"highway": "service", "footway": null, "name": "Allée de Madrid à Neuilly", "surface": "asphalt", "lit": null, "length_m": 46.31, "type_element": "Way", "__fid": 4419}, "geometry": {"type": "LineString", "coordinates": [[2.2576714, 48.8775605], [2.2576394, 48.8774812], [2.2574506, 48.8771708]]}}, {"type": "Feature", "properties": {"highway": "footway", "footway": null, "name": null, "surface": "dirt", "lit": "no", "length_m": 37.22, "type_element": "Way", "__fid": 4420}, "geometry": {"type": "LineString", "coordinates": [[2.2579336, 48.8772239], [2.2578944, 48.877226], [2.2577903, 48.8772014], [2.2576795, 48.8771601], [2.2576088, 48.8771575], [2.2574506, 48.8771708]]}}, {"type": "Feature", "properties": {"highway": "path", "footway": null, "name": null, "surface": "dirt", "lit": null, "length_m": 50.97, "type_element": "Way", "__fid": 4437}, "geometry": {"type": "LineString", "coordinates": [[2.2582201, 48.8786057], [2.2581799, 48.8786053], [2.258021, 48.8786437], [2.2579727, 48.8786388], [2.257785, 48.878577100000015], [2.2575707, 48.878527799999986]]}}, {"type": "Feature", "properties": {"highway": "footway", "footway": null, "name": null, "surface": "dirt", "lit": null, "length_m": 95.56, "type_element": "Way", "__fid": 4444}, "geometry": {"type": "LineString", "coordinates": [[2.2585166, 48.8771256], [2.2585099, 48.8770662], [2.2584438, 48.87700250000001], [2.2581511, 48.8768841], [2.2580792, 48.8768462], [2.2579593, 48.8767611], [2.2576945, 48.876602], [2.2576197, 48.876535299999986]]}}, {"type": "Feature", "properties": {"highway": "service", "footway": null, "name": "Allée de Madrid à Neuilly", "surface": "asphalt", "lit": null, "length_m": 11.26, "type_element": "Way", "__fid": 4453}, "geometry": {"type": "LineString", "coordinates": [[2.257711, 48.8776583], [2.2576714, 48.8775605]]}}, {"type": "Feature", "properties": {"highway": "path", "footway": null, "name": null, "surface": "dirt", "lit": null, "length_m": 42.14, "type_element": "Way", "__fid": 4454}, "geometry": {"type": "LineString", "coordinates": [[2.2579336, 48.8772239], [2.2578447, 48.8773185], [2.2576714, 48.8775605]]}}, {"type": "Feature", "properties": {"highway": "service", "footway": null, "name": "Allée de Madrid à Neuilly", "surface": "asphalt", "lit": null, "length_m": 112.43, "type_element": "Way", "__fid": 4460}, "geometry": {"type": "LineString", "coordinates": [[2.2582201, 48.8786057], [2.2581509, 48.8785416], [2.2579441, 48.8782354], [2.257711, 48.8776583]]}}, {"type": "Feature", "properties": {"highway": "footway", "footway": null, "name": null, "surface": "dirt", "lit": "no", "length_m": 47.04, "type_element": "Way", "__fid": 4531}, "geometry": {"type": "LineString", "coordinates": [[2.2585166, 48.8771256], [2.2583563, 48.8771338], [2.2582589, 48.8771127], [2.2581788, 48.877123300000015], [2.2580386, 48.8772032], [2.2579759, 48.8772216], [2.2579336, 48.8772239]]}}, {"type": "Feature", "properties": {"highway": "path", "footway": null, "name": null, "surface": "dirt", "lit": null, "length_m": 51.77, "type_element": "Way", "__fid": 4575}, "geometry": {"type": "LineString", "coordinates": [[2.2586806, 48.879246], [2.2583087, 48.8793991], [2.258076, 48.879486]]}}, {"type": "Feature", "properties": {"highway": "service", "footway": null, "name": "Allée de Madrid à Neuilly", "surface": "asphalt", "lit": null, "length_m": 38.97, "type_element": "Way", "__fid": 4585}, "geometry": {"type": "LineString", "coordinates": [[2.2585585, 48.87887530000002], [2.2583231, 48.878701], [2.2582201, 48.8786057]]}}, {"type": "Feature", "properties": {"highway": "path", "footway": null, "name": null, "surface": "dirt", "lit": null, "length_m": 13.53, "type_element": "Way", "__fid": 4601}, "geometry": {"type": "LineString", "coordinates": [[2.2583845, 48.8798304], [2.2583389, 48.87986210000001], [2.2582885, 48.87993259999998]]}}, {"type": "Feature", "properties": {"highway": "path", "footway": null, "name": null, "surface": "dirt", "lit": null, "length_m": 6.21, "type_element": "Way", "__fid": 4604}, "geometry": {"type": "LineString", "coordinates": [[2.2583845, 48.8798304], [2.258302, 48.879818]]}}, {"type": "Feature", "properties": {"highway": "path", "footway": null, "name": null, "surface": "dirt", "lit": null, "length_m": 34.75, "type_element": "Way", "__fid": 4626}, "geometry": {"type": "LineString", "coordinates": [[2.2586929, 48.879605900000016], [2.2585809, 48.8797418], [2.2585025, 48.87978720000001], [2.2583845, 48.8798304]]}}, {"type": "Feature", "properties": {"highway": "footway", "footway": null, "name": null, "surface": "dirt", "lit": "no", "length_m": 11.51, "type_element": "Way", "__fid": 4645}, "geometry": {"type": "LineString", "coordinates": [[2.2586701, 48.877147], [2.2585166, 48.8771256]]}}, {"type": "Feature", "properties": {"highway": "footway", "footway": null, "name": null, "surface": "dirt", "lit": null, "length_m": 203.18, "type_element": "Way", "__fid": 4646}, "geometry": {"type": "LineString", "coordinates": [[2.2585585, 48.87887530000002], [2.2585152, 48.8787194], [2.2584858, 48.8786518], [2.2582455, 48.8783305], [2.2582402, 48.8783033], [2.2582802, 48.8781013], [2.258371, 48.8778248], [2.2584551, 48.8776869], [2.2585286, 48.8776167], [2.2585459, 48.8773568], [2.2585166, 48.8771256]]}}, {"type": "Feature", "properties": {"highway": "service", "footway": null, "name": "Allée de Madrid à Neuilly", "surface": "asphalt", "lit": null, "length_m": 10.89, "type_element": "Way", "__fid": 4657}, "geometry": {"type": "LineString", "coordinates": [[2.2586666, 48.8789425], [2.2585585, 48.87887530000002]]}}, {"type": "Feature", "properties": {"highway": "footway", "footway": null, "name": null, "surface": "dirt", "lit": "no", "length_m": 35.62, "type_element": "Way", "__fid": 4681}, "geometry": {"type": "LineString", "coordinates": [[2.2590545, 48.8773278], [2.2589744, 48.8773191], [2.2589237, 48.8772962], [2.2587675, 48.877184700000015], [2.2586701, 48.877147]]}}, {"type": "Feature", "properties": {"highway": "footway", "footway": null, "name": null, "surface": "dirt", "lit": "no", "length_m": 80.7, "type_element": "Way", "__fid": 4682}, "geometry": {"type": "LineString", "coordinates": [[2.2590398, 48.8764661], [2.2588368, 48.8769249], [2.2586701, 48.877147]]}}, {"type": "Feature", "properties": {"highway": "service", "footway": null, "name": "Allée de Madrid à Neuilly", "surface": "asphalt", "lit": null, "length_m": 11.59, "type_element": "Way", "__fid": 4686}, "geometry": {"type": "LineString", "coordinates": [[2.2587843, 48.8790121], [2.2586666, 48.8789425]]}}, {"type": "Feature", "properties": {"highway": "path", "footway": null, "name": null, "surface": "compacted", "lit": null, "length_m": 33.76, "type_element": "Way", "__fid": 4687}, "geometry": {"type": "LineString", "coordinates": [[2.2586666, 48.8789425], [2.2586806, 48.879246]]}}, {"type": "Feature", "properties": {"highway": "path", "footway": null, "name": null, "surface": "compacted", "lit": null, "length_m": 40.05, "type_element": "Way", "__fid": 4688}, "geometry": {"type": "LineString", "coordinates": [[2.2586806, 48.879246], [2.2586976, 48.8794917], [2.2586929, 48.879605900000016]]}}, {"type": "Feature", "properties": {"highway": "path", "footway": null, "name": null, "surface": "dirt", "lit": null, "length_m": 17.19, "type_element": "Way", "__fid": 4689}, "geometry": {"type": "LineString", "coordinates": [[2.2588857, 48.8791727], [2.2588558, 48.8791777], [2.2586806, 48.879246]]}}, {"type": "Feature", "properties": {"highway": "path", "footway": null, "name": null, "surface": "compacted", "lit": null, "length_m": 10.76, "type_element": "Way", "__fid": 4694}, "geometry": {"type": "LineString", "coordinates": [[2.2586929, 48.879605900000016], [2.2587251, 48.8797003]]}}, {"type": "Feature", "properties": {"highway": "path", "footway": null, "name": null, "surface": "compacted", "lit": null, "length_m": 53.24, "type_element": "Way", "__fid": 4701}, "geometry": {"type": "LineString", "coordinates": [[2.2587251, 48.8797003], [2.2586587, 48.8799583], [2.2588142, 48.8800039], [2.2588802, 48.8800315], [2.258961, 48.8800307]]}}, {"type": "Feature", "properties": {"highway": "path", "footway": null, "name": null, "surface": "compacted", "lit": "yes", "length_m": 59.84, "type_element": "Way", "__fid": 4702}, "geometry": {"type": "LineString", "coordinates": [[2.2587251, 48.8797003], [2.2588857, 48.8791727]]}}, {"type": "Feature", "properties": {"highway": "service", "footway": null, "name": "Allée de Madrid à Neuilly", "surface": "asphalt", "lit": null, "length_m": 13.75, "type_element": "Way", "__fid": 4715}, "geometry": {"type": "LineString", "coordinates": [[2.2589267, 48.8790925], [2.2587843, 48.8790121]]}}, {"type": "Feature", "properties": {"highway": "footway", "footway": null, "name": null, "surface": "dirt", "lit": "no", "length_m": 160.67, "type_element": "Way", "__fid": 4716}, "geometry": {"type": "LineString", "coordinates": [[2.2593862, 48.8776258], [2.2593469, 48.87768340000002], [2.2593015, 48.8778458], [2.2591814, 48.87812330000003], [2.2591306, 48.8782708], [2.2590412, 48.87847270000001], [2.258873, 48.8787677], [2.2587843, 48.8790121]]}}, {"type": "Feature", "properties": {"highway": "path", "footway": null, "name": null, "surface": "compacted", "lit": "yes", "length_m": 9.41, "type_element": "Way", "__fid": 4741}, "geometry": {"type": "LineString", "coordinates": [[2.2588857, 48.8791727], [2.2589267, 48.8790925]]}}, {"type": "Feature", "properties": {"highway": "service", "footway": null, "name": "Allée de Madrid à Neuilly", "surface": "asphalt", "lit": null, "length_m": 7.76, "type_element": "Way", "__fid": 4754}, "geometry": {"type": "LineString", "coordinates": [[2.259015, 48.879131], [2.2589267, 48.8790925]]}}, {"type": "Feature", "properties": {"highway": "path", "footway": null, "name": null, "surface": "compacted", "lit": "yes", "length_m": 143.97, "type_element": "Way", "__fid": 4755}, "geometry": {"type": "LineString", "coordinates": [[2.2589267, 48.8790925], [2.2591634, 48.8785691], [2.2594222, 48.8780401], [2.2595389, 48.87786349999999]]}}, {"type": "Feature", "properties": {"highway": "footway", "footway": "sidewalk", "name": null, "surface": "dirt", "lit": null, "length_m": 224.42, "type_element": "Way", "__fid": 4763}, "geometry": {"type": "LineString", "coordinates": [[2.258961, 48.8800307], [2.2588431, 48.880129799999985], [2.258788, 48.88019030000001], [2.2587588, 48.8802574], [2.2588388, 48.8802901], [2.2589643, 48.8802787], [2.2594724, 48.88020150000001], [2.2602676, 48.8801011], [2.261355, 48.8799742]]}}, {"type": "Feature", "properties": {"highway": "track", "footway": null, "name": null, "surface": "asphalt", "lit": null, "length_m": 55.76, "type_element": "Way", "__fid": 4764}, "geometry": {"type": "LineString", "coordinates": [[2.258961, 48.8800307], [2.2590854, 48.8799747], [2.2593162, 48.8798888], [2.2595987, 48.8797586]]}}, {"type": "Feature", "properties": {"highway": "service", "footway": null, "name": "Allée des Érables", "surface": "asphalt", "lit": null, "length_m": 57.67, "type_element": "Way", "__fid": 4772}, "geometry": {"type": "LineString", "coordinates": [[2.2597133, 48.8793694], [2.259015, 48.879131]]}}, {"type": "Feature", "properties": {"highway": "service", "footway": null, "name": null, "surface": "asphalt", "lit": null, "length_m": 31.51, "type_element": "Way", "__fid": 4773}, "geometry": {"type": "LineString", "coordinates": [[2.2593979, 48.879003200000014], [2.2592363, 48.8790645], [2.259015, 48.879131]]}}, {"type": "Feature", "properties": {"highway": "footway", "footway": null, "name": null, "surface": "dirt", "lit": "no", "length_m": 41.83, "type_element": "Way", "__fid": 4775}, "geometry": {"type": "LineString", "coordinates": [[2.2593862, 48.8776258], [2.2592908, 48.8774911], [2.2592454, 48.8774446], [2.2591346, 48.8773682], [2.2590545, 48.8773278]]}}, {"type": "Feature", "properties": {"highway": "footway", "footway": null, "name": null, "surface": "dirt", "lit": "no", "length_m": 41.64, "type_element": "Way", "__fid": 4776}, "geometry": {"type": "LineString", "coordinates": [[2.2590545, 48.8773278], [2.2591441, 48.8773248], [2.2592402, 48.87730289999998], [2.2594338, 48.87718779999999], [2.2595298, 48.8771452]]}}, {"type": "Feature", "properties": {"highway": "footway", "footway": null, "name": null, "surface": "dirt", "lit": "no", "length_m": 28.76, "type_element": "Way", "__fid": 4831}, "geometry": {"type": "LineString", "coordinates": [[2.2595389, 48.87786349999999], [2.2594217, 48.877665], [2.2593862, 48.8776258]]}}, {"type": "Feature", "properties": {"highway": "footway", "footway": null, "name": null, "surface": "dirt", "lit": "no", "length_m": 54.5, "type_element": "Way", "__fid": 4832}, "geometry": {"type": "LineString", "coordinates": [[2.2595298, 48.8771452], [2.2594283, 48.8775201], [2.2593862, 48.8776258]]}}, {"type": "Feature", "properties": {"highway": "service", "footway": null, "name": null, "surface": null, "lit": null, "length_m": 88.87, "type_element": "Way", "__fid": 4841}, "geometry": {"type": "LineString", "coordinates": [[2.2603354, 48.8794713], [2.2601853, 48.879437], [2.2600428, 48.879390600000015], [2.2598885, 48.8793114], [2.2596605, 48.8792386], [2.2594815, 48.879101], [2.2593979, 48.879003200000014]]}}, {"type": "Feature", "properties": {"highway": "service", "footway": null, "name": null, "surface": "asphalt", "lit": null, "length_m": 73.81, "type_element": "Way", "__fid": 4842}, "geometry": {"type": "LineString", "coordinates": [[2.2603096, 48.8787322], [2.2598677, 48.8788227], [2.2593979, 48.879003200000014]]}}, {"type": "Feature", "properties": {"highway": "footway", "footway": null, "name": null, "surface": "dirt", "lit": "no", "length_m": 79.07, "type_element": "Way", "__fid": 4859}, "geometry": {"type": "LineString", "coordinates": [[2.2603229, 48.8766718], [2.260212, 48.876715], [2.2599356, 48.8768634], [2.2596473, 48.8770337], [2.2595298, 48.8771452]]}}, {"type": "Feature", "properties": {"highway": "path", "footway": null, "name": null, "surface": "compacted", "lit": "yes", "length_m": 147.87, "type_element": "Way", "__fid": 4860}, "geometry": {"type": "LineString", "coordinates": [[2.2595389, 48.87786349999999], [2.2595806, 48.8778651], [2.2600577, 48.87723730000002], [2.2604681, 48.87674890000002], [2.2605058, 48.8767156]]}}, {"type": "Feature", "properties": {"highway": "footway", "footway": null, "name": null, "surface": "compacted", "lit": null, "length_m": 46.7, "type_element": "Way", "__fid": 4877}, "geometry": {"type": "LineString", "coordinates": [[2.2597133, 48.8793694], [2.2596746, 48.87943569999999], [2.2596934, 48.8795173], [2.2595821, 48.87967779999999], [2.2595626, 48.87972370000002], [2.2595987, 48.8797586]]}}, {"type": "Feature", "properties": {"highway": "track", "footway": null, "name": null, "surface": "asphalt", "lit": null, "length_m": 60.96, "type_element": "Way", "__fid": 4878}, "geometry": {"type": "LineString", "coordinates": [[2.2595987, 48.8797586], [2.2597848, 48.8796922], [2.2603781, 48.8795743]]}}, {"type": "Feature", "properties": {"highway": "service", "footway": null, "name": "Allée des Érables", "surface": "asphalt", "lit": null, "length_m": 53.82, "type_element": "Way", "__fid": 4904}, "geometry": {"type": "LineString", "coordinates": [[2.2603781, 48.8795743], [2.2597133, 48.8793694]]}}, {"type": "Feature", "properties": {"highway": "footway", "footway": null, "name": null, "surface": null, "lit": null, "length_m": 97.14, "type_element": "Way", "__fid": 5006}, "geometry": {"type": "LineString", "coordinates": [[2.2606409, 48.87913120000001], [2.2604846, 48.8791949], [2.2603177, 48.8792262], [2.2602325, 48.87922530000002], [2.2601815, 48.87921260000001], [2.2601024, 48.8791636], [2.2600669, 48.87909], [2.2600749, 48.8790247], [2.2601171, 48.8789559], [2.2603096, 48.8787322]]}}, {"type": "Feature", "properties": {"highway": "service", "footway": null, "name": null, "surface": "asphalt", "lit": null, "length_m": 37.92, "type_element": "Way", "__fid": 5007}, "geometry": {"type": "LineString", "coordinates": [[2.2608231, 48.8786924], [2.2603096, 48.8787322]]}}, {"type": "Feature", "properties": {"highway": "service", "footway": null, "name": null, "surface": null, "lit": null, "length_m": 615.61, "type_element": "Way", "__fid": 5017}, "geometry": {"type": "LineString", "coordinates": [[2.2684882, 48.8785134], [2.2683555, 48.87854450000001], [2.2674875, 48.87867], [2.2671391, 48.8787324], [2.265919, 48.879006], [2.2651853, 48.8792042], [2.264936, 48.879255], [2.2638404, 48.8794296], [2.2635439, 48.8794639], [2.2627338, 48.8795339], [2.2619481, 48.8795825], [2.2612246, 48.87956650000001], [2.2607836, 48.87953319999998], [2.2604656, 48.8794973], [2.2603354, 48.8794713]]}}, {"type": "Feature", "properties": {"highway": "footway", "footway": null, "name": null, "surface": null, "lit": null, "length_m": 26.75, "type_element": "Way", "__fid": 5018}, "geometry": {"type": "LineString", "coordinates": [[2.2603354, 48.8794713], [2.2604809, 48.8793668], [2.2606117, 48.8793188]]}}, {"type": "Feature", "properties": {"highway": "service", "footway": null, "name": "Allée des Érables", "surface": "asphalt", "lit": null, "length_m": 309.04, "type_element": "Way", "__fid": 5022}, "geometry": {"type": "LineString", "coordinates": [[2.2645497, 48.8794043], [2.2641769, 48.8794701], [2.2635834, 48.87954460000001], [2.2629657, 48.8796023], [2.2625705, 48.8796271], [2.261711, 48.87965210000002], [2.2614067, 48.879653], [2.2608955, 48.8796386], [2.2603781, 48.8795743]]}}, {"type": "Feature", "properties": {"highway": "path", "footway": null, "name": null, "surface": "dirt", "lit": null, "length_m": 26.58, "type_element": "Way", "__fid": 5023}, "geometry": {"type": "LineString", "coordinates": [[2.2607079, 48.879673400000016], [2.2603781, 48.8795743]]}}, {"type": "Feature", "properties": {"highway": "footway", "footway": null, "name": null, "surface": null, "lit": null, "length_m": 63.23, "type_element": "Way", "__fid": 5055}, "geometry": {"type": "LineString", "coordinates": [[2.2612649, 48.8793587], [2.2611538, 48.8794044], [2.2609444, 48.8794495], [2.260779, 48.879472], [2.260681, 48.8794638], [2.2606475, 48.8794523], [2.2606117, 48.8793188]]}}, {"type": "Feature", "properties": {"highway": "footway", "footway": null, "name": null, "surface": null, "lit": null, "length_m": 21.51, "type_element": "Way", "__fid": 5056}, "geometry": {"type": "LineString", "coordinates": [[2.2606117, 48.8793188], [2.2605934, 48.8792248], [2.2606409, 48.87913120000001]]}}, {"type": "Feature", "properties": {"highway": "footway", "footway": null, "name": null, "surface": null, "lit": null, "length_m": 32.51, "type_element": "Way", "__fid": 5058}, "geometry": {"type": "LineString", "coordinates": [[2.2606409, 48.87913120000001], [2.2607701, 48.879034800000014], [2.2608934, 48.8788927]]}}, {"type": "Feature", "properties": {"highway": "path", "footway": null, "name": null, "surface": "dirt", "lit": null, "length_m": 77.97, "type_element": "Way", "__fid": 5064}, "geometry": {"type": "LineString", "coordinates": [[2.2607079, 48.879673400000016], [2.2613087, 48.8797607], [2.2614978, 48.879818], [2.2615756, 48.87985769999999], [2.2616534, 48.8799356]]}}, {"type": "Feature", "properties": {"highway": "path", "footway": null, "name": null, "surface": "dirt", "lit": null, "length_m": 58.29, "type_element": "Way", "__fid": 5065}, "geometry": {"type": "LineString", "coordinates": [[2.261355, 48.8799742], [2.2612162, 48.8798904], [2.2610566, 48.8798083], [2.2607079, 48.879673400000016]]}}, {"type": "Feature", "properties": {"highway": "footway", "footway": null, "name": null, "surface": null, "lit": null, "length_m": 22.86, "type_element": "Way", "__fid": 5091}, "geometry": {"type": "LineString", "coordinates": [[2.2608934, 48.8788927], [2.2608231, 48.8786924]]}}, {"type": "Feature", "properties": {"highway": "service", "footway": null, "name": null, "surface": "asphalt", "lit": null, "length_m": 33.26, "type_element": "Way", "__fid": 5092}, "geometry": {"type": "LineString", "coordinates": [[2.2612762, 48.8786798], [2.2608231, 48.8786924]]}}, {"type": "Feature", "properties": {"highway": "service", "footway": null, "name": null, "surface": "asphalt", "lit": null, "length_m": 71.99, "type_element": "Way", "__fid": 5102}, "geometry": {"type": "LineString", "coordinates": [[2.2608974, 48.8780973], [2.2609048, 48.8781882], [2.2609214, 48.8782355], [2.2610798, 48.87851], [2.2611626, 48.8785945], [2.2612762, 48.8786798]]}}, {"type": "Feature", "properties": {"highway": "service", "footway": null, "name": null, "surface": "asphalt", "lit": null, "length_m": 56.34, "type_element": "Way", "__fid": 5103}, "geometry": {"type": "LineString", "coordinates": [[2.2610468, 48.877602400000015], [2.2609093, 48.8779643], [2.2608962, 48.878026800000015], [2.2608974, 48.8780973]]}}, {"type": "Feature", "properties": {"highway": "footway", "footway": null, "name": null, "surface": null, "lit": null, "length_m": 26.93, "type_element": "Way", "__fid": 5104}, "geometry": {"type": "LineString", "coordinates": [[2.2612644, 48.8780911], [2.2608974, 48.8780973]]}}, {"type": "Feature", "properties": {"highway": "footway", "footway": null, "name": null, "surface": null, "lit": null, "length_m": 39.3, "type_element": "Way", "__fid": 5105}, "geometry": {"type": "LineString", "coordinates": [[2.2613729, 48.8790212], [2.2612322, 48.879013], [2.2611403, 48.87899980000001], [2.2609996, 48.8789604], [2.2608934, 48.8788927]]}}, {"type": "Feature", "properties": {"highway": "footway", "footway": null, "name": null, "surface": null, "lit": null, "length_m": 39.43, "type_element": "Way", "__fid": 5124}, "geometry": {"type": "LineString", "coordinates": [[2.2610468, 48.877602400000015], [2.2613717, 48.87771580000002], [2.2615307, 48.8777554]]}}, {"type": "Feature", "properties": {"highway": "service", "footway": null, "name": null, "surface": "asphalt", "lit": null, "length_m": 83.72, "type_element": "Way", "__fid": 5125}, "geometry": {"type": "LineString", "coordinates": [[2.2619263, 48.877146], [2.261647, 48.877240599999986], [2.261357, 48.877361], [2.2612629, 48.877407900000016], [2.26114, 48.8775014], [2.2610468, 48.877602400000015]]}}, {"type": "Feature", "properties": {"highway": "footway", "footway": null, "name": null, "surface": null, "lit": null, "length_m": 35.3, "type_element": "Way", "__fid": 5173}, "geometry": {"type": "LineString", "coordinates": [[2.2612644, 48.8780911], [2.2612658, 48.878230899999984], [2.261507, 48.8783099]]}}, {"type": "Feature", "properties": {"highway": "footway", "footway": null, "name": null, "surface": null, "lit": null, "length_m": 10.76, "type_element": "Way", "__fid": 5174}, "geometry": {"type": "LineString", "coordinates": [[2.261411, 48.87808860000001], [2.2612644, 48.8780911]]}}, {"type": "Feature", "properties": {"highway": "footway", "footway": null, "name": null, "surface": null, "lit": null, "length_m": 35.68, "type_element": "Way", "__fid": 5180}, "geometry": {"type": "LineString", "coordinates": [[2.2616538, 48.8793097], [2.2615858, 48.87937059999999], [2.2615416, 48.8793922], [2.2614136, 48.8794155], [2.2613347, 48.8794102], [2.2612649, 48.8793587]]}}, {"type": "Feature", "properties": {"highway": "footway", "footway": null, "name": null, "surface": null, "lit": null, "length_m": 22.46, "type_element": "Way", "__fid": 5181}, "geometry": {"type": "LineString", "coordinates": [[2.2612649, 48.8793587], [2.2612974, 48.8793015], [2.2613872, 48.8792568], [2.2614835, 48.87923640000001]]}}, {"type": "Feature", "properties": {"highway": "service", "footway": null, "name": null, "surface": "asphalt", "lit": null, "length_m": 41.19, "type_element": "Way", "__fid": 5182}, "geometry": {"type": "LineString", "coordinates": [[2.2612762, 48.8786798], [2.2616266, 48.8788263], [2.2617569, 48.8788708]]}}, {"type": "Feature", "properties": {"highway": "footway", "footway": null, "name": null, "surface": null, "lit": null, "length_m": 46.1, "type_element": "Way", "__fid": 5183}, "geometry": {"type": "LineString", "coordinates": [[2.261507, 48.8783099], [2.261413, 48.8785915], [2.2612762, 48.8786798]]}}, {"type": "Feature", "properties": {"highway": "service", "footway": null, "name": null, "surface": "asphalt", "lit": null, "length_m": 57.33, "type_element": "Way", "__fid": 5184}, "geometry": {"type": "LineString", "coordinates": [[2.2619888, 48.8784742], [2.2617313, 48.8785758], [2.2612762, 48.8786798]]}}, {"type": "Feature", "properties": {"highway": "footway", "footway": "sidewalk", "name": null, "surface": "dirt", "lit": null, "length_m": 22.3, "type_element": "Way", "__fid": 5195}, "geometry": {"type": "LineString", "coordinates": [[2.261355, 48.8799742], [2.2616534, 48.8799356]]}}, {"type": "Feature", "properties": {"highway": "footway", "footway": null, "name": null, "surface": null, "lit": null, "length_m": 20.02, "type_element": "Way", "__fid": 5196}, "geometry": {"type": "LineString", "coordinates": [[2.2615722, 48.87914420000001], [2.2613729, 48.8790212]]}}, {"type": "Feature", "properties": {"highway": "footway", "footway": null, "name": null, "surface": null, "lit": null, "length_m": 33.25, "type_element": "Way", "__fid": 5197}, "geometry": {"type": "LineString", "coordinates": [[2.2613729, 48.8790212], [2.2615419, 48.8789841], [2.2617569, 48.8788708]]}}, {"type": "Feature", "properties": {"highway": "footway", "footway": null, "name": null, "surface": null, "lit": null, "length_m": 25.89, "type_element": "Way", "__fid": 5205}, "geometry": {"type": "LineString", "coordinates": [[2.2617542, 48.878143], [2.261411, 48.87808860000001]]}}, {"type": "Feature", "properties": {"highway": "footway", "footway": null, "name": null, "surface": null, "lit": null, "length_m": 38.08, "type_element": "Way", "__fid": 5206}, "geometry": {"type": "LineString", "coordinates": [[2.2615307, 48.8777554], [2.261411, 48.87808860000001]]}}, {"type": "Feature", "properties": {"highway": "footway", "footway": null, "name": null, "surface": null, "lit": null, "length_m": 15.78, "type_element": "Way", "__fid": 5226}, "geometry": {"type": "LineString", "coordinates": [[2.2614835, 48.87923640000001], [2.2615902, 48.8793073], [2.2616538, 48.8793097]]}}, {"type": "Feature", "properties": {"highway": "footway", "footway": null, "name": null, "surface": null, "lit": null, "length_m": 12.44, "type_element": "Way", "__fid": 5227}, "geometry": {"type": "LineString", "coordinates": [[2.2615722, 48.87914420000001], [2.2615149, 48.8791812], [2.2614835, 48.87923640000001]]}}, {"type": "Feature", "properties": {"highway": "footway", "footway": null, "name": null, "surface": null, "lit": null, "length_m": 29.76, "type_element": "Way", "__fid": 5231}, "geometry": {"type": "LineString", "coordinates": [[2.261507, 48.8783099], [2.2616576, 48.8782886], [2.2617196, 48.8782513], [2.2617542, 48.878143]]}}, {"type": "Feature", "properties": {"highway": "footway", "footway": null, "name": null, "surface": null, "lit": null, "length_m": 24.48, "type_element": "Way", "__fid": 5234}, "geometry": {"type": "LineString", "coordinates": [[2.2615307, 48.8777554], [2.2618554, 48.87780619999999]]}}, {"type": "Feature", "properties": {"highway": "footway", "footway": null, "name": null, "surface": null, "lit": null, "length_m": 34.72, "type_element": "Way", "__fid": 5244}, "geometry": {"type": "LineString", "coordinates": [[2.2618993, 48.8789212], [2.2618351, 48.8789652], [2.261803, 48.8790022], [2.2616205, 48.8791213], [2.2615722, 48.87914420000001]]}}, {"type": "Feature", "properties": {"highway": "footway", "footway": null, "name": null, "surface": null, "lit": null, "length_m": 34.37, "type_element": "Way", "__fid": 5278}, "geometry": {"type": "LineString", "coordinates": [[2.2620985, 48.8792243], [2.261996, 48.8792268], [2.2619042, 48.879239], [2.2616538, 48.8793097]]}}, {"type": "Feature", "properties": {"highway": "footway", "footway": "sidewalk", "name": null, "surface": "dirt", "lit": null, "length_m": 221.31, "type_element": "Way", "__fid": 5281}, "geometry": {"type": "LineString", "coordinates": [[2.2616534, 48.8799356], [2.2622555, 48.8798516], [2.2642511, 48.879617], [2.2646159, 48.8795596]]}}, {"type": "Feature", "properties": {"highway": "footway", "footway": null, "name": null, "surface": null, "lit": null, "length_m": 35.66, "type_element": "Way", "__fid": 5308}, "geometry": {"type": "LineString", "coordinates": [[2.2622173, 48.8782111], [2.261946, 48.8782025], [2.2618555, 48.8781621], [2.2617542, 48.878143]]}}, {"type": "Feature", "properties": {"highway": "footway", "footway": null, "name": null, "surface": null, "lit": null, "length_m": 38.18, "type_element": "Way", "__fid": 5309}, "geometry": {"type": "LineString", "coordinates": [[2.2617542, 48.878143], [2.2618554, 48.87780619999999]]}}, {"type": "Feature", "properties": {"highway": "service", "footway": null, "name": null, "surface": "asphalt", "lit": null, "length_m": 11.85, "type_element": "Way", "__fid": 5313}, "geometry": {"type": "LineString", "coordinates": [[2.2617569, 48.8788708], [2.2618993, 48.8789212]]}}, {"type": "Feature", "properties": {"highway": "footway", "footway": null, "name": null, "surface": null, "lit": null, "length_m": 38.37, "type_element": "Way", "__fid": 5332}, "geometry": {"type": "LineString", "coordinates": [[2.2618554, 48.87780619999999], [2.2619016, 48.877765799999985], [2.2623393, 48.877708]]}}, {"type": "Feature", "properties": {"highway": "service", "footway": null, "name": null, "surface": "asphalt", "lit": null, "length_m": 65.17, "type_element": "Way", "__fid": 5350}, "geometry": {"type": "LineString", "coordinates": [[2.2618993, 48.8789212], [2.2620836, 48.87896160000001], [2.2622244, 48.878983], [2.2624454, 48.8789837], [2.2627698, 48.8789483]]}}, {"type": "Feature", "properties": {"highway": "footway", "footway": null, "name": null, "surface": null, "lit": null, "length_m": 43.12, "type_element": "Way", "__fid": 5351}, "geometry": {"type": "LineString", "coordinates": [[2.2619263, 48.877146], [2.2622515, 48.8771494], [2.262513, 48.8771333]]}}, {"type": "Feature", "properties": {"highway": "footway", "footway": null, "name": null, "surface": null, "lit": null, "length_m": 51.71, "type_element": "Way", "__fid": 5352}, "geometry": {"type": "LineString", "coordinates": [[2.2625542, 48.8773517], [2.2624964, 48.8773182], [2.2622522, 48.8772316], [2.2619263, 48.877146]]}}, {"type": "Feature", "properties": {"highway": "service", "footway": null, "name": null, "surface": "asphalt", "lit": null, "length_m": 69.98, "type_element": "Way", "__fid": 5353}, "geometry": {"type": "LineString", "coordinates": [[2.2619263, 48.877146], [2.2620819, 48.877283300000016], [2.2621955, 48.87744269999999], [2.2623393, 48.877708]]}}, {"type": "Feature", "properties": {"highway": "service", "footway": null, "name": null, "surface": "asphalt", "lit": null, "length_m": 69.64, "type_element": "Way", "__fid": 5354}, "geometry": {"type": "LineString", "coordinates": [[2.2619263, 48.877146], [2.2620967, 48.8771048], [2.2623713, 48.87705349999998], [2.2628415, 48.8769818]]}}, {"type": "Feature", "properties": {"highway": "footway", "footway": null, "name": null, "surface": null, "lit": null, "length_m": 27.55, "type_element": "Way", "__fid": 5367}, "geometry": {"type": "LineString", "coordinates": [[2.2623616, 48.8784712], [2.2621179, 48.8784874], [2.2619888, 48.8784742]]}}, {"type": "Feature", "properties": {"highway": "service", "footway": null, "name": null, "surface": "asphalt", "lit": null, "length_m": 33.72, "type_element": "Way", "__fid": 5368}, "geometry": {"type": "LineString", "coordinates": [[2.2622173, 48.8782111], [2.2619888, 48.8784742]]}}, {"type": "Feature", "properties": {"highway": "footway", "footway": null, "name": null, "surface": null, "lit": null, "length_m": 11.12, "type_element": "Way", "__fid": 5373}, "geometry": {"type": "LineString", "coordinates": [[2.2621796, 48.879395], [2.2620297, 48.8793799]]}}, {"type": "Feature", "properties": {"highway": "footway", "footway": null, "name": null, "surface": null, "lit": null, "length_m": 17.21, "type_element": "Way", "__fid": 5374}, "geometry": {"type": "LineString", "coordinates": [[2.2622007, 48.879424], [2.2620213, 48.879415600000016], [2.2620297, 48.8793799]]}}, {"type": "Feature", "properties": {"highway": "footway", "footway": null, "name": null, "surface": null, "lit": null, "length_m": 4.79, "type_element": "Way", "__fid": 5375}, "geometry": {"type": "LineString", "coordinates": [[2.2620297, 48.8793799], [2.2620379, 48.8793372]]}}, {"type": "Feature", "properties": {"highway": "footway", "footway": null, "name": null, "surface": null, "lit": null, "length_m": 8.85, "type_element": "Way", "__fid": 5378}, "geometry": {"type": "LineString", "coordinates": [[2.262156, 48.8793535], [2.2620379, 48.8793372]]}}, {"type": "Feature", "properties": {"highway": "footway", "footway": null, "name": null, "surface": null, "lit": null, "length_m": 13.56, "type_element": "Way", "__fid": 5379}, "geometry": {"type": "LineString", "coordinates": [[2.2620379, 48.8793372], [2.2620606, 48.8792616], [2.2620985, 48.8792243]]}}, {"type": "Feature", "properties": {"highway": "footway", "footway": null, "name": null, "surface": null, "lit": null, "length_m": 22.45, "type_element": "Way", "__fid": 5394}, "geometry": {"type": "LineString", "coordinates": [[2.2623895, 48.8792836], [2.2622773, 48.8792506], [2.2620985, 48.8792243]]}}, {"type": "Feature", "properties": {"highway": "footway", "footway": null, "name": null, "surface": null, "lit": null, "length_m": 11.17, "type_element": "Way", "__fid": 5395}, "geometry": {"type": "LineString", "coordinates": [[2.2621379, 48.87932129999999], [2.2620985, 48.8792243]]}}, {"type": "Feature", "properties": {"highway": "footway", "footway": null, "name": null, "surface": null, "lit": null, "length_m": 17.01, "type_element": "Way", "__fid": 5406}, "geometry": {"type": "LineString", "coordinates": [[2.2623692, 48.8793323], [2.2621379, 48.87932129999999]]}}, {"type": "Feature", "properties": {"highway": "footway", "footway": null, "name": null, "surface": null, "lit": null, "length_m": 3.82, "type_element": "Way", "__fid": 5407}, "geometry": {"type": "LineString", "coordinates": [[2.262156, 48.8793535], [2.2621379, 48.87932129999999]]}}, {"type": "Feature", "properties": {"highway": "footway", "footway": null, "name": null, "surface": null, "lit": null, "length_m": 14.44, "type_element": "Way", "__fid": 5408}, "geometry": {"type": "LineString", "coordinates": [[2.2623524, 48.87936250000001], [2.262156, 48.8793535]]}}, {"type": "Feature", "properties": {"highway": "footway", "footway": null, "name": null, "surface": null, "lit": null, "length_m": 4.93, "type_element": "Way", "__fid": 5409}, "geometry": {"type": "LineString", "coordinates": [[2.2621796, 48.879395], [2.262156, 48.8793535]]}}, {"type": "Feature", "properties": {"highway": "footway", "footway": null, "name": null, "surface": null, "lit": null, "length_m": 11.69, "type_element": "Way", "__fid": 5412}, "geometry": {"type": "LineString", "coordinates": [[2.2623389, 48.8793986], [2.2621796, 48.879395]]}}, {"type": "Feature", "properties": {"highway": "footway", "footway": null, "name": null, "surface": null, "lit": null, "length_m": 3.58, "type_element": "Way", "__fid": 5413}, "geometry": {"type": "LineString", "coordinates": [[2.2622007, 48.879424], [2.2621796, 48.879395]]}}, {"type": "Feature", "properties": {"highway": "footway", "footway": null, "name": null, "surface": null, "lit": null, "length_m": 30.8, "type_element": "Way", "__fid": 5418}, "geometry": {"type": "LineString", "coordinates": [[2.2623616, 48.8784712], [2.2622173, 48.8782111]]}}, {"type": "Feature", "properties": {"highway": "service", "footway": null, "name": null, "surface": "asphalt", "lit": null, "length_m": 23.05, "type_element": "Way", "__fid": 5419}, "geometry": {"type": "LineString", "coordinates": [[2.2623308, 48.8780182], [2.2622741, 48.878097], [2.2622173, 48.8782111]]}}, {"type": "Feature", "properties": {"highway": "footway", "footway": null, "name": null, "surface": null, "lit": null, "length_m": 14.08, "type_element": "Way", "__fid": 5420}, "geometry": {"type": "LineString", "coordinates": [[2.2622173, 48.8782111], [2.2623762, 48.87814]]}}, {"type": "Feature", "properties": {"highway": "footway", "footway": null, "name": null, "surface": null, "lit": null, "length_m": 13.1, "type_element": "Way", "__fid": 5421}, "geometry": {"type": "LineString", "coordinates": [[2.2623389, 48.8793986], [2.2623216, 48.8794342], [2.2622007, 48.879424]]}}, {"type": "Feature", "properties": {"highway": "service", "footway": null, "name": null, "surface": "asphalt", "lit": null, "length_m": 34.5, "type_element": "Way", "__fid": 5445}, "geometry": {"type": "LineString", "coordinates": [[2.2623393, 48.877708], [2.2623308, 48.8780182]]}}, {"type": "Feature", "properties": {"highway": "footway", "footway": null, "name": null, "surface": null, "lit": null, "length_m": 35.91, "type_element": "Way", "__fid": 5446}, "geometry": {"type": "LineString", "coordinates": [[2.2626345, 48.8777655], [2.262564, 48.8778159], [2.2624554, 48.8779183], [2.2623308, 48.8780182]]}}, {"type": "Feature", "properties": {"highway": "footway", "footway": null, "name": null, "surface": null, "lit": null, "length_m": 23.26, "type_element": "Way", "__fid": 5447}, "geometry": {"type": "LineString", "coordinates": [[2.2623393, 48.877708], [2.2624373, 48.8777471], [2.2625117, 48.8777661], [2.2626345, 48.8777655]]}}, {"type": "Feature", "properties": {"highway": "footway", "footway": null, "name": null, "surface": null, "lit": null, "length_m": 4.13, "type_element": "Way", "__fid": 5449}, "geometry": {"type": "LineString", "coordinates": [[2.2623524, 48.87936250000001], [2.2623389, 48.8793986]]}}, {"type": "Feature", "properties": {"highway": "footway", "footway": null, "name": null, "surface": null, "lit": null, "length_m": 13.62, "type_element": "Way", "__fid": 5454}, "geometry": {"type": "LineString", "coordinates": [[2.2623616, 48.8784712], [2.2624112, 48.8784402], [2.2624738, 48.8783747]]}}, {"type": "Feature", "properties": {"highway": "footway", "footway": null, "name": null, "surface": null, "lit": null, "length_m": 3.58, "type_element": "Way", "__fid": 5457}, "geometry": {"type": "LineString", "coordinates": [[2.2623692, 48.8793323], [2.2623524, 48.87936250000001]]}}, {"type": "Feature", "properties": {"highway": "path", "footway": null, "name": null, "surface": null, "lit": null, "length_m": 27.53, "type_element": "Way", "__fid": 5458}, "geometry": {"type": "LineString", "coordinates": [[2.2624738, 48.8783747], [2.2624172, 48.8782935], [2.2624128, 48.8782007], [2.2623762, 48.87814]]}}, {"type": "Feature", "properties": {"highway": "footway", "footway": null, "name": null, "surface": null, "lit": null, "length_m": 26.87, "type_element": "Way", "__fid": 5459}, "geometry": {"type": "LineString", "coordinates": [[2.2623762, 48.87814], [2.2626687, 48.8779945]]}}, {"type": "Feature", "properties": {"highway": "footway", "footway": null, "name": null, "surface": null, "lit": null, "length_m": 5.62, "type_element": "Way", "__fid": 5464}, "geometry": {"type": "LineString", "coordinates": [[2.2623895, 48.8792836], [2.2623692, 48.8793323]]}}, {"type": "Feature", "properties": {"highway": "footway", "footway": null, "name": null, "surface": null, "lit": null, "length_m": 11.31, "type_element": "Way", "__fid": 5468}, "geometry": {"type": "LineString", "coordinates": [[2.2625369, 48.8793134], [2.2623895, 48.8792836]]}}, {"type": "Feature", "properties": {"highway": "footway", "footway": null, "name": null, "surface": null, "lit": null, "length_m": 57.3, "type_element": "Way", "__fid": 5475}, "geometry": {"type": "LineString", "coordinates": [[2.2629002, 48.8784191], [2.2627909, 48.87838940000001], [2.2627263, 48.8783981], [2.2626308, 48.87843560000002], [2.2625998, 48.8784664], [2.2625989, 48.8785537], [2.2625761, 48.8785965], [2.2624505, 48.87872260000001]]}}, {"type": "Feature", "properties": {"highway": "footway", "footway": null, "name": null, "surface": null, "lit": null, "length_m": 12.76, "type_element": "Way", "__fid": 5479}, "geometry": {"type": "LineString", "coordinates": [[2.2624738, 48.8783747], [2.262624066666464, 48.878432466666744]]}}, {"type": "Feature", "properties": {"highway": "footway", "footway": null, "name": null, "surface": null, "lit": null, "length_m": 35.9, "type_element": "Way", "__fid": 5482}, "geometry": {"type": "LineString", "coordinates": [[2.262513, 48.8771333], [2.2626472, 48.87715530000001], [2.2626679, 48.8771946], [2.2626753, 48.8772647], [2.2626659, 48.8772792], [2.2626371, 48.8773053], [2.2625542, 48.8773517]]}}, {"type": "Feature", "properties": {"highway": "footway", "footway": null, "name": null, "surface": null, "lit": null, "length_m": 18.62, "type_element": "Way", "__fid": 5483}, "geometry": {"type": "LineString", "coordinates": [[2.262513, 48.8771333], [2.2627646, 48.8771109]]}}, {"type": "Feature", "properties": {"highway": "footway", "footway": null, "name": null, "surface": null, "lit": null, "length_m": 22.98, "type_element": "Way", "__fid": 5489}, "geometry": {"type": "LineString", "coordinates": [[2.2627894, 48.87748819999999], [2.2625542, 48.8773517]]}}, {"type": "Feature", "properties": {"highway": "footway", "footway": null, "name": null, "surface": null, "lit": null, "length_m": 26.73, "type_element": "Way", "__fid": 5490}, "geometry": {"type": "LineString", "coordinates": [[2.2625369, 48.8793134], [2.2625294, 48.8793451], [2.2625365, 48.8793775], [2.2625576, 48.87940680000001], [2.2626371, 48.8794282], [2.2627681, 48.87943290000001]]}}, {"type": "Feature", "properties": {"highway": "footway", "footway": null, "name": null, "surface": null, "lit": null, "length_m": 21.22, "type_element": "Way", "__fid": 5491}, "geometry": {"type": "LineString", "coordinates": [[2.2627468, 48.8791821], [2.2625369, 48.8793134]]}}, {"type": "Feature", "properties": {"highway": "footway", "footway": null, "name": null, "surface": null, "lit": null, "length_m": 14.26, "type_element": "Way", "__fid": 5505}, "geometry": {"type": "LineString", "coordinates": [[2.2626345, 48.8777655], [2.2628254, 48.8777412]]}}, {"type": "Feature", "properties": {"highway": "footway", "footway": null, "name": null, "surface": null, "lit": null, "length_m": 27.63, "type_element": "Way", "__fid": 5518}, "geometry": {"type": "LineString", "coordinates": [[2.2626687, 48.8779945], [2.262877, 48.87790059999998], [2.2629933, 48.87787140000001]]}}, {"type": "Feature", "properties": {"highway": "footway", "footway": null, "name": null, "surface": null, "lit": null, "length_m": 42.79, "type_element": "Way", "__fid": 5530}, "geometry": {"type": "LineString", "coordinates": [[2.2627646, 48.8771109], [2.2627196, 48.8772515], [2.2627894, 48.87748819999999]]}}, {"type": "Feature", "properties": {"highway": "footway", "footway": null, "name": null, "surface": null, "lit": null, "length_m": 15.42, "type_element": "Way", "__fid": 5531}, "geometry": {"type": "LineString", "coordinates": [[2.2628415, 48.8769818], [2.2627646, 48.8771109]]}}, {"type": "Feature", "properties": {"highway": "footway", "footway": null, "name": null, "surface": null, "lit": null, "length_m": 26.43, "type_element": "Way", "__fid": 5532}, "geometry": {"type": "LineString", "coordinates": [[2.2627468, 48.8791821], [2.2627888, 48.87906270000001], [2.2627698, 48.8789483]]}}, {"type": "Feature", "properties": {"highway": "footway", "footway": null, "name": null, "surface": null, "lit": null, "length_m": 58.12, "type_element": "Way", "__fid": 5533}, "geometry": {"type": "LineString", "coordinates": [[2.2635225, 48.8790753], [2.2627468, 48.8791821]]}}, {"type": "Feature", "properties": {"highway": "footway", "footway": null, "name": null, "surface": null, "lit": null, "length_m": 15.82, "type_element": "Way", "__fid": 5536}, "geometry": {"type": "LineString", "coordinates": [[2.262923, 48.8775999], [2.2627894, 48.87748819999999]]}}, {"type": "Feature", "properties": {"highway": "service", "footway": null, "name": null, "surface": "asphalt", "lit": null, "length_m": 26.27, "type_element": "Way", "__fid": 5537}, "geometry": {"type": "LineString", "coordinates": [[2.2627698, 48.8789483], [2.2631193, 48.8788964]]}}, {"type": "Feature", "properties": {"highway": "footway", "footway": null, "name": null, "surface": null, "lit": null, "length_m": 17.64, "type_element": "Way", "__fid": 5544}, "geometry": {"type": "LineString", "coordinates": [[2.2628254, 48.8777412], [2.2628805, 48.87769859999999], [2.262923, 48.8775999]]}}, {"type": "Feature", "properties": {"highway": "footway", "footway": null, "name": null, "surface": null, "lit": null, "length_m": 22.05, "type_element": "Way", "__fid": 5545}, "geometry": {"type": "LineString", "coordinates": [[2.2628254, 48.8777412], [2.263124, 48.87771840000001]]}}, {"type": "Feature", "properties": {"highway": "service", "footway": null, "name": null, "surface": "asphalt", "lit": null, "length_m": 50.28, "type_element": "Way", "__fid": 5546}, "geometry": {"type": "LineString", "coordinates": [[2.2628415, 48.8769818], [2.2633126, 48.876928100000015], [2.2635196, 48.8769196]]}}, {"type": "Feature", "properties": {"highway": "path", "footway": null, "name": null, "surface": null, "lit": null, "length_m": 20.77, "type_element": "Way", "__fid": 5554}, "geometry": {"type": "LineString", "coordinates": [[2.2629002, 48.8784191], [2.2629406, 48.87843139999998], [2.2630681, 48.8784231], [2.2631717, 48.8784485]]}}, {"type": "Feature", "properties": {"highway": "footway", "footway": null, "name": null, "surface": null, "lit": null, "length_m": 26.84, "type_element": "Way", "__fid": 5555}, "geometry": {"type": "LineString", "coordinates": [[2.263233, 48.8783989], [2.2630962, 48.87837119999999], [2.2629614, 48.8783777], [2.2629002, 48.8784191]]}}, {"type": "Feature", "properties": {"highway": "footway", "footway": null, "name": null, "surface": null, "lit": null, "length_m": 19.77, "type_element": "Way", "__fid": 5557}, "geometry": {"type": "LineString", "coordinates": [[2.263124, 48.87771840000001], [2.262923, 48.8775999]]}}, {"type": "Feature", "properties": {"highway": "footway", "footway": null, "name": null, "surface": null, "lit": null, "length_m": 6.26, "type_element": "Way", "__fid": 5563}, "geometry": {"type": "LineString", "coordinates": [[2.2629933, 48.87787140000001], [2.2630755, 48.87785619999999]]}}, {"type": "Feature", "properties": {"highway": "path", "footway": null, "name": null, "surface": null, "lit": null, "length_m": 45.22, "type_element": "Way", "__fid": 5581}, "geometry": {"type": "LineString", "coordinates": [[2.2630755, 48.87785619999999], [2.263491, 48.8780007], [2.2635862, 48.8780232], [2.2636319, 48.8780241]]}}, {"type": "Feature", "properties": {"highway": "footway", "footway": null, "name": null, "surface": null, "lit": null, "length_m": 13.47, "type_element": "Way", "__fid": 5582}, "geometry": {"type": "LineString", "coordinates": [[2.2630755, 48.87785619999999], [2.2632306, 48.8777914]]}}, {"type": "Feature", "properties": {"highway": "footway", "footway": null, "name": null, "surface": null, "lit": null, "length_m": 11.27, "type_element": "Way", "__fid": 5588}, "geometry": {"type": "LineString", "coordinates": [[2.263124, 48.87771840000001], [2.2632306, 48.8777914]]}}, {"type": "Feature", "properties": {"highway": "footway", "footway": null, "name": null, "surface": null, "lit": null, "length_m": 10.72, "type_element": "Way", "__fid": 5589}, "geometry": {"type": "LineString", "coordinates": [[2.2632141, 48.87851050000001], [2.263193, 48.878523600000015], [2.2631386, 48.8785202], [2.2631176, 48.8785074], [2.2631136, 48.8784852]]}}, {"type": "Feature", "properties": {"highway": "footway", "footway": null, "name": null, "surface": null, "lit": null, "length_m": 50.04, "type_element": "Way", "__fid": 5590}, "geometry": {"type": "LineString", "coordinates": [[2.2631193, 48.8788964], [2.2630878, 48.8786732], [2.263115, 48.8786146], [2.2633548, 48.8785691]]}}, {"type": "Feature", "properties": {"highway": "service", "footway": null, "name": null, "surface": "asphalt", "lit": null, "length_m": 24.16, "type_element": "Way", "__fid": 5591}, "geometry": {"type": "LineString", "coordinates": [[2.2631193, 48.8788964], [2.2634386, 48.878842900000016]]}}, {"type": "Feature", "properties": {"highway": "path", "footway": null, "name": null, "surface": null, "lit": null, "length_m": 8.97, "type_element": "Way", "__fid": 5597}, "geometry": {"type": "LineString", "coordinates": [[2.2631717, 48.8784485], [2.263225, 48.8784739], [2.2632141, 48.87851050000001]]}}, {"type": "Feature", "properties": {"highway": "steps", "footway": null, "name": null, "surface": null, "lit": null, "length_m": 7.12, "type_element": "Way", "__fid": 5598}, "geometry": {"type": "LineString", "coordinates": [[2.263233, 48.8783989], [2.2631717, 48.8784485]]}}, {"type": "Feature", "properties": {"highway": "steps", "footway": null, "name": null, "surface": null, "lit": null, "length_m": 6.46, "type_element": "Way", "__fid": 5607}, "geometry": {"type": "LineString", "coordinates": [[2.2632141, 48.87851050000001], [2.2632997, 48.8785243]]}}, {"type": "Feature", "properties": {"highway": "footway", "footway": null, "name": null, "surface": null, "lit": null, "length_m": 27.59, "type_element": "Way", "__fid": 5608}, "geometry": {"type": "LineString", "coordinates": [[2.2632306, 48.8777914], [2.2634195, 48.8778459], [2.2635841, 48.8778738]]}}, {"type": "Feature", "properties": {"highway": "footway", "footway": null, "name": null, "surface": null, "lit": null, "length_m": 35.06, "type_element": "Way", "__fid": 5609}, "geometry": {"type": "LineString", "coordinates": [[2.2632306, 48.8777914], [2.2633048, 48.8777433], [2.2634804, 48.877719599999985], [2.263652, 48.8776588]]}}, {"type": "Feature", "properties": {"highway": "footway", "footway": null, "name": null, "surface": null, "lit": null, "length_m": 10.9, "type_element": "Way", "__fid": 5610}, "geometry": {"type": "LineString", "coordinates": [[2.263233, 48.8783989], [2.2632936, 48.878406], [2.2633323, 48.8783546]]}}, {"type": "Feature", "properties": {"highway": "footway", "footway": null, "name": null, "surface": null, "lit": null, "length_m": 14.85, "type_element": "Way", "__fid": 5611}, "geometry": {"type": "LineString", "coordinates": [[2.2632997, 48.8785243], [2.2632886, 48.87848549999999], [2.263233, 48.8783989]]}}, {"type": "Feature", "properties": {"highway": "footway", "footway": null, "name": null, "surface": null, "lit": null, "length_m": 6.41, "type_element": "Way", "__fid": 5628}, "geometry": {"type": "LineString", "coordinates": [[2.2633548, 48.8785691], [2.2632997, 48.8785243]]}}, {"type": "Feature", "properties": {"highway": "footway", "footway": null, "name": null, "surface": null, "lit": null, "length_m": 15.3, "type_element": "Way", "__fid": 5630}, "geometry": {"type": "LineString", "coordinates": [[2.2633323, 48.8783546], [2.2635306, 48.8783972]]}}, {"type": "Feature", "properties": {"highway": "footway", "footway": null, "name": null, "surface": null, "lit": null, "length_m": 13.31, "type_element": "Way", "__fid": 5631}, "geometry": {"type": "LineString", "coordinates": [[2.2633323, 48.8783546], [2.2633663, 48.8783335], [2.2634117, 48.8782677], [2.2634295, 48.878256]]}}, {"type": "Feature", "properties": {"highway": "footway", "footway": null, "name": null, "surface": null, "lit": null, "length_m": 7.19, "type_element": "Way", "__fid": 5636}, "geometry": {"type": "LineString", "coordinates": [[2.2633548, 48.8785691], [2.2634503, 48.8785545]]}}, {"type": "Feature", "properties": {"highway": "footway", "footway": null, "name": null, "surface": null, "lit": null, "length_m": 18.91, "type_element": "Way", "__fid": 5644}, "geometry": {"type": "LineString", "coordinates": [[2.2634295, 48.878256], [2.2634226, 48.8783177], [2.2635014, 48.8783631], [2.2635306, 48.8783972]]}}, {"type": "Feature", "properties": {"highway": "footway", "footway": null, "name": null, "surface": null, "lit": null, "length_m": 24.98, "type_element": "Way", "__fid": 5645}, "geometry": {"type": "LineString", "coordinates": [[2.2634295, 48.878256], [2.2634391, 48.8782296], [2.2634612, 48.878208], [2.2635381, 48.8781869], [2.2636039, 48.87818090000001], [2.2637016, 48.878214599999986]]}}, {"type": "Feature", "properties": {"highway": "footway", "footway": null, "name": null, "surface": null, "lit": null, "length_m": 26.56, "type_element": "Way", "__fid": 5646}, "geometry": {"type": "LineString", "coordinates": [[2.2635225, 48.8790753], [2.2634386, 48.878842900000016]]}}, {"type": "Feature", "properties": {"highway": "service", "footway": null, "name": null, "surface": "asphalt", "lit": null, "length_m": 13.05, "type_element": "Way", "__fid": 5647}, "geometry": {"type": "LineString", "coordinates": [[2.2634386, 48.878842900000016], [2.2636118, 48.8788159]]}}, {"type": "Feature", "properties": {"highway": "footway", "footway": null, "name": null, "surface": null, "lit": null, "length_m": 20.26, "type_element": "Way", "__fid": 5651}, "geometry": {"type": "LineString", "coordinates": [[2.2635306, 48.8783972], [2.2635418, 48.8784316], [2.2635191, 48.8784784], [2.2634548, 48.878509], [2.2634503, 48.8785545]]}}, {"type": "Feature", "properties": {"highway": "footway", "footway": null, "name": null, "surface": null, "lit": null, "length_m": 25.72, "type_element": "Way", "__fid": 5652}, "geometry": {"type": "LineString", "coordinates": [[2.2634503, 48.8785545], [2.2637844, 48.8784841]]}}, {"type": "Feature", "properties": {"highway": "footway", "footway": null, "name": null, "surface": null, "lit": null, "length_m": 57.73, "type_element": "Way", "__fid": 5658}, "geometry": {"type": "LineString", "coordinates": [[2.2637882, 48.8774024], [2.2637871, 48.87733], [2.2635196, 48.8769196]]}}, {"type": "Feature", "properties": {"highway": "service", "footway": null, "name": null, "surface": "asphalt", "lit": null, "length_m": 80.03, "type_element": "Way", "__fid": 5659}, "geometry": {"type": "LineString", "coordinates": [[2.2646089, 48.8769442], [2.2640012, 48.8769133], [2.2635196, 48.8769196]]}}, {"type": "Feature", "properties": {"highway": "footway", "footway": null, "name": null, "surface": null, "lit": null, "length_m": 19.08, "type_element": "Way", "__fid": 5670}, "geometry": {"type": "LineString", "coordinates": [[2.2635306, 48.8783972], [2.2636495, 48.8784127], [2.2637681, 48.8784605]]}}, {"type": "Feature", "properties": {"highway": "footway", "footway": null, "name": null, "surface": null, "lit": null, "length_m": 13.49, "type_element": "Way", "__fid": 5671}, "geometry": {"type": "LineString", "coordinates": [[2.2637019, 48.8790485], [2.2635225, 48.8790753]]}}, {"type": "Feature", "properties": {"highway": "footway", "footway": null, "name": null, "surface": null, "lit": null, "length_m": 40.32, "type_element": "Way", "__fid": 5678}, "geometry": {"type": "LineString", "coordinates": [[2.2635841, 48.8778738], [2.2641307, 48.8779129]]}}, {"type": "Feature", "properties": {"highway": "footway", "footway": null, "name": null, "surface": null, "lit": null, "length_m": 17.08, "type_element": "Way", "__fid": 5679}, "geometry": {"type": "LineString", "coordinates": [[2.2635841, 48.8778738], [2.2636319, 48.8780241]]}}, {"type": "Feature", "properties": {"highway": "footway", "footway": null, "name": null, "surface": null, "lit": null, "length_m": 25.51, "type_element": "Way", "__fid": 5680}, "geometry": {"type": "LineString", "coordinates": [[2.263652, 48.8776588], [2.2635664, 48.8777679], [2.2635841, 48.8778738]]}}, {"type": "Feature", "properties": {"highway": "footway", "footway": null, "name": null, "surface": null, "lit": null, "length_m": 26.7, "type_element": "Way", "__fid": 5685}, "geometry": {"type": "LineString", "coordinates": [[2.2636118, 48.8788159], [2.2637019, 48.8790485]]}}, {"type": "Feature", "properties": {"highway": "service", "footway": null, "name": null, "surface": "asphalt", "lit": null, "length_m": 20.63, "type_element": "Way", "__fid": 5686}, "geometry": {"type": "LineString", "coordinates": [[2.2636118, 48.8788159], [2.2638851, 48.878772]]}}, {"type": "Feature", "properties": {"highway": "footway", "footway": null, "name": null, "surface": null, "lit": null, "length_m": 21.86, "type_element": "Way", "__fid": 5688}, "geometry": {"type": "LineString", "coordinates": [[2.2636319, 48.8780241], [2.26368, 48.8781818], [2.2637016, 48.878214599999986]]}}, {"type": "Feature", "properties": {"highway": "footway", "footway": null, "name": null, "surface": null, "lit": null, "length_m": 31.08, "type_element": "Way", "__fid": 5694}, "geometry": {"type": "LineString", "coordinates": [[2.263652, 48.8776588], [2.2637422, 48.8775536], [2.2637629, 48.8775425], [2.2637882, 48.8774024]]}}, {"type": "Feature", "properties": {"highway": "footway", "footway": null, "name": null, "surface": null, "lit": null, "length_m": 36.82, "type_element": "Way", "__fid": 5708}, "geometry": {"type": "LineString", "coordinates": [[2.2637016, 48.878214599999986], [2.263889, 48.8782468], [2.2639601, 48.8782498], [2.2641087, 48.8782416], [2.2641937, 48.8782267]]}}, {"type": "Feature", "properties": {"highway": "footway", "footway": null, "name": null, "surface": null, "lit": null, "length_m": 27.77, "type_element": "Way", "__fid": 5709}, "geometry": {"type": "LineString", "coordinates": [[2.2637016, 48.878214599999986], [2.2637681, 48.8784605]]}}, {"type": "Feature", "properties": {"highway": "footway", "footway": null, "name": null, "surface": null, "lit": null, "length_m": 40.92, "type_element": "Way", "__fid": 5715}, "geometry": {"type": "LineString", "coordinates": [[2.264246, 48.8789671], [2.2637019, 48.8790485]]}}]}