{"type": "FeatureCollection", "features": [{"type": "Feature", "geometry": {"type": "Point", "coordinates": [2.256026, 48.846372]}, "properties": {"id": 2622, "name": "Square du Tchad", "categorie": "Parcs, jardins et bois", "photo_url": "https://cdn.paris.fr/eqpts-prod/2023/11/16/050c1a8db92dd944bd92b0a9ce21d2da.jpg", "photo_credit": "Clement Dorval / Ville de Paris", "photo_alt": "Terrain de sport du square du Tchad", "address_street": "8, avenue du Général-Sarrail", "address_postcode": "75016", "address_city": "PARIS", "phone": null, "accessibility": "{\"handicaps\": [{\"name\": \"Personnes déficientes visuelles\", \"status\": \"undefined\"}, {\"name\": \"Personnes déficientes auditives\", \"status\": \"undefined\"}, {\"name\": \"Personnes déficientes mentales\", \"status\": \"undefined\"}, {\"name\": \"Personnes à mobilité réduite\", \"status\": \"non_accessible\"}, {\"name\": \"Accueil en langue des signes\", \"status\": \"undefined\"}], \"additional_info\": \"<p><br></p>\"}", "latitude": 48.846372, "longitude": 2.256026, "url": "https://www.paris.fr/lieux/square-du-tchad-2622", "type_element": "Parcs, Jardins et Bois", "__fid": 1287}}, {"type": "Feature", "geometry": {"type": "Point", "coordinates": [2.255305, 48.844184]}, "properties": {"id": 2778, "name": "Jardin des Poètes", "categorie": "Parcs, jardins et bois", "photo_url": "https://cdn.paris.fr/eqpts-prod/2022/05/10/1a50f6a92f11e77cf2d8ca8101e28f9a.jpg", "photo_credit": "Sonia Yassa /Ville de Paris", "photo_alt": "Vue générale du Square des Poètes", "address_street": "avenue du Général Sarrail", "address_postcode": "75016", "address_city": "PARIS", "phone": null, "accessibility": "{\"handicaps\": [{\"name\": \"Personnes à mobilité réduite\", \"status\": \"accessible\"}, {\"name\": \"Personnes déficientes visuelles\", \"status\": \"undefined\"}, {\"name\": \"Personnes déficientes auditives\", \"status\": \"undefined\"}, {\"name\": \"Personnes déficientes mentales\", \"status\": \"undefined\"}, {\"name\": \"Accueil en langue des signes\", \"status\": \"undefined\"}], \"additional_info\": \"<p>Espace vert dont l’accessibilité pour les personnes à mobilité réduite est limitée à certaines zones.</p>\"}", "latitude": 48.844184, "longitude": 2.255305, "url": "https://www.paris.fr/lieux/jardin-des-poetes-2778", "type_element": "Parcs, Jardins et Bois", "__fid": 1333}}, {"type": "Feature", "properties": {"highway": "service", "footway": null, "name": "Allée Charles Brennus", "surface": "asphalt", "lit": null, "length_m": 76.45, "type_element": "Way", "__fid": 3664}, "geometry": {"type": "LineString", "coordinates": [[2.2539364, 48.8438649], [2.2541021, 48.8438003], [2.2544362, 48.8437501], [2.2549214, 48.843654]]}}, {"type": "Feature", "properties": {"highway": "footway", "footway": "sidewalk", "name": null, "surface": "asphalt", "lit": "yes", "length_m": 39.51, "type_element": "Way", "__fid": 3701}, "geometry": {"type": "LineString", "coordinates": [[2.2547779, 48.842481699999986], [2.2547134, 48.8424907], [2.2544758, 48.8424741], [2.2544597, 48.842542], [2.2544309, 48.8426025], [2.2544074, 48.842618]]}}, {"type": "Feature", "properties": {"highway": "footway", "footway": "sidewalk", "name": null, "surface": null, "lit": null, "length_m": 115.95, "type_element": "Way", "__fid": 3706}, "geometry": {"type": "LineString", "coordinates": [[2.2544468, 48.84075629999999], [2.2543363, 48.84074720000001], [2.2543417, 48.8409189], [2.2543672, 48.8409798], [2.2545603, 48.8412137], [2.2545871, 48.8412578], [2.25463, 48.8413558], [2.2546481, 48.84146350000001], [2.2549647, 48.841485300000016]]}}, {"type": "Feature", "properties": {"highway": "footway", "footway": "sidewalk", "name": null, "surface": null, "lit": null, "length_m": 94.65, "type_element": "Way", "__fid": 3720}, "geometry": {"type": "LineString", "coordinates": [[2.254911, 48.8436137], [2.2548728, 48.843595], [2.2545362, 48.842948], [2.2545496, 48.8428624], [2.2545335, 48.8428139]]}}, {"type": "Feature", "properties": {"highway": "footway", "footway": "crossing", "name": null, "surface": "asphalt", "lit": null, "length_m": 24.89, "type_element": "Way", "__fid": 3721}, "geometry": {"type": "LineString", "coordinates": [[2.2548581, 48.8427491], [2.2545335, 48.8428139]]}}, {"type": "Feature", "properties": {"highway": "footway", "footway": "sidewalk", "name": null, "surface": null, "lit": null, "length_m": 47.44, "type_element": "Way", "__fid": 3773}, "geometry": {"type": "LineString", "coordinates": [[2.2547172, 48.8455079], [2.2553629, 48.8454881]]}}, {"type": "Feature", "properties": {"highway": "footway", "footway": "sidewalk", "name": null, "surface": null, "lit": null, "length_m": 61.6, "type_element": "Way", "__fid": 3776}, "geometry": {"type": "LineString", "coordinates": [[2.2555567, 48.8450451], [2.2553254, 48.8450839], [2.254804, 48.8451116], [2.2547266, 48.84510740000001]]}}, {"type": "Feature", "properties": {"highway": "footway", "footway": "sidewalk", "name": null, "surface": null, "lit": null, "length_m": 11.67, "type_element": "Way", "__fid": 3778}, "geometry": {"type": "LineString", "coordinates": [[2.2547779, 48.842481699999986], [2.2549106, 48.84253959999999]]}}, {"type": "Feature", "properties": {"highway": "footway", "footway": "sidewalk", "name": null, "surface": null, "lit": null, "length_m": 111.64, "type_element": "Way", "__fid": 3779}, "geometry": {"type": "LineString", "coordinates": [[2.2549647, 48.841485300000016], [2.2547779, 48.842481699999986]]}}, {"type": "Feature", "properties": {"highway": "footway", "footway": "sidewalk", "name": null, "surface": null, "lit": null, "length_m": 89.58, "type_element": "Way", "__fid": 3792}, "geometry": {"type": "LineString", "coordinates": [[2.2551813, 48.843526], [2.2548581, 48.8427491]]}}, {"type": "Feature", "properties": {"highway": "footway", "footway": "sidewalk", "name": null, "surface": null, "lit": null, "length_m": 11.31, "type_element": "Way", "__fid": 3793}, "geometry": {"type": "LineString", "coordinates": [[2.2548581, 48.8427491], [2.2549294, 48.8426589]]}}, {"type": "Feature", "properties": {"highway": "footway", "footway": "sidewalk", "name": null, "surface": null, "lit": null, "length_m": 71.87, "type_element": "Way", "__fid": 3801}, "geometry": {"type": "LineString", "coordinates": [[2.2549106, 48.84253959999999], [2.2550411, 48.8425421], [2.2558081, 48.842456200000015], [2.2558688, 48.8424322]]}}, {"type": "Feature", "properties": {"highway": "footway", "footway": "crossing", "name": null, "surface": null, "lit": null, "length_m": 13.43, "type_element": "Way", "__fid": 3802}, "geometry": {"type": "LineString", "coordinates": [[2.2549294, 48.8426589], [2.2549061, 48.84256749999999], [2.2549106, 48.84253959999999]]}}, {"type": "Feature", "properties": {"highway": "footway", "footway": "sidewalk", "name": null, "surface": null, "lit": null, "length_m": 4.55, "type_element": "Way", "__fid": 3805}, "geometry": {"type": "LineString", "coordinates": [[2.254911, 48.8436137], [2.2549214, 48.843654]]}}, {"type": "Feature", "properties": {"highway": "footway", "footway": "crossing", "name": null, "surface": "asphalt", "lit": null, "length_m": 22.11, "type_element": "Way", "__fid": 3806}, "geometry": {"type": "LineString", "coordinates": [[2.2551813, 48.843526], [2.254911, 48.8436137]]}}, {"type": "Feature", "properties": {"highway": "footway", "footway": "sidewalk", "name": null, "surface": null, "lit": null, "length_m": 73.17, "type_element": "Way", "__fid": 3807}, "geometry": {"type": "LineString", "coordinates": [[2.2549294, 48.8426589], [2.2559153, 48.8425614]]}}, {"type": "Feature", "properties": {"highway": "footway", "footway": "sidewalk", "name": null, "surface": null, "lit": null, "length_m": 161.98, "type_element": "Way", "__fid": 3808}, "geometry": {"type": "LineString", "coordinates": [[2.2549214, 48.843654], [2.2549506, 48.8437441], [2.2554722, 48.8449524], [2.2555567, 48.8450451]]}}, {"type": "Feature", "properties": {"highway": "service", "footway": null, "name": "Allée Charles Brennus", "surface": "asphalt", "lit": null, "length_m": 10.69, "type_element": "Way", "__fid": 3809}, "geometry": {"type": "LineString", "coordinates": [[2.2549214, 48.843654], [2.2550609, 48.8436263]]}}, {"type": "Feature", "properties": {"highway": "footway", "footway": "sidewalk", "name": null, "surface": null, "lit": null, "length_m": 6.07, "type_element": "Way", "__fid": 3811}, "geometry": {"type": "LineString", "coordinates": [[2.2550441, 48.8414701], [2.2549647, 48.841485300000016]]}}, {"type": "Feature", "properties": {"highway": "footway", "footway": "sidewalk", "name": null, "surface": null, "lit": null, "length_m": 65.73, "type_element": "Way", "__fid": 3829}, "geometry": {"type": "LineString", "coordinates": [[2.2559355, 48.8415275], [2.2550441, 48.8414701]]}}, {"type": "Feature", "properties": {"highway": "footway", "footway": "crossing", "name": null, "surface": null, "lit": null, "length_m": 15.7, "type_element": "Way", "__fid": 3830}, "geometry": {"type": "LineString", "coordinates": [[2.2550441, 48.8414701], [2.2550647, 48.8413639], [2.2550945, 48.841336]]}}, {"type": "Feature", "properties": {"highway": "footway", "footway": "sidewalk", "name": null, "surface": null, "lit": null, "length_m": 13.37, "type_element": "Way", "__fid": 3853}, "geometry": {"type": "LineString", "coordinates": [[2.2553573, 48.843557], [2.2551813, 48.843526]]}}, {"type": "Feature", "properties": {"highway": "service", "footway": null, "name": null, "surface": null, "lit": null, "length_m": 80.64, "type_element": "Way", "__fid": 3862}, "geometry": {"type": "LineString", "coordinates": [[2.255415905739806, 48.845821658058256], [2.255353, 48.8458422], [2.2552711, 48.8459141], [2.2552557, 48.8459664], [2.2551844, 48.8465]]}}, {"type": "Feature", "properties": {"highway": "footway", "footway": null, "name": null, "surface": "paving_stones", "lit": "yes", "length_m": 43.27, "type_element": "Way", "__fid": 3877}, "geometry": {"type": "LineString", "coordinates": [[2.2556083, 48.8466503], [2.2554339, 48.84671379999999], [2.2553213, 48.84682330000002], [2.2552891, 48.8469468]]}}, {"type": "Feature", "properties": {"highway": "footway", "footway": "crossing", "name": null, "surface": null, "lit": null, "length_m": 11.35, "type_element": "Way", "__fid": 3879}, "geometry": {"type": "LineString", "coordinates": [[2.2554664, 48.8436294], [2.2553573, 48.843557]]}}, {"type": "Feature", "properties": {"highway": "footway", "footway": "sidewalk", "name": null, "surface": null, "lit": null, "length_m": 86.01, "type_element": "Way", "__fid": 3880}, "geometry": {"type": "LineString", "coordinates": [[2.2561573, 48.8429918], [2.2553573, 48.843557]]}}, {"type": "Feature", "properties": {"highway": "footway", "footway": "sidewalk", "name": null, "surface": null, "lit": null, "length_m": 36.8, "type_element": "Way", "__fid": 3889}, "geometry": {"type": "LineString", "coordinates": [[2.2553629, 48.8454881], [2.2554441, 48.8454939], [2.2557145, 48.8454889], [2.255768, 48.845498700000014], [2.2558131, 48.8455173], [2.2558394, 48.8455377]]}}, {"type": "Feature", "properties": {"highway": "footway", "footway": null, "name": null, "surface": "asphalt", "lit": "no", "length_m": 17.29, "type_element": "Way", "__fid": 3890}, "geometry": {"type": "LineString", "coordinates": [[2.2555036, 48.8456128], [2.2553629, 48.8454881]]}}, {"type": "Feature", "properties": {"highway": "footway", "footway": null, "name": null, "surface": "paving_stones", "lit": "yes", "length_m": 109.33, "type_element": "Way", "__fid": 3902}, "geometry": {"type": "LineString", "coordinates": [[2.255415905739806, 48.845821658058256], [2.2555985, 48.845975], [2.2556655, 48.846052600000014], [2.2556763, 48.8461162], [2.2554322, 48.8463792], [2.2554, 48.8464762], [2.2554349, 48.8465363], [2.2555234, 48.8466086], [2.2556083, 48.8466503]]}}, {"type": "Feature", "properties": {"highway": "steps", "footway": null, "name": null, "surface": "concrete", "lit": "no", "length_m": 29.64, "type_element": "Way", "__fid": 3903}, "geometry": {"type": "LineString", "coordinates": [[2.255415905739806, 48.845821658058256], [2.2553501, 48.8457676], [2.2553457, 48.8457405], [2.255358, 48.845707400000016], [2.255393, 48.845674], [2.2555036, 48.8456128]]}}, {"type": "Feature", "properties": {"highway": "service", "footway": null, "name": null, "surface": null, "lit": null, "length_m": 18.65, "type_element": "Way", "__fid": 3904}, "geometry": {"type": "LineString", "coordinates": [[2.2556537, 48.8457644], [2.2556, 48.845783900000015], [2.255415905739806, 48.845821658058256]]}}, {"type": "Feature", "properties": {"highway": "footway", "footway": "sidewalk", "name": null, "surface": null, "lit": null, "length_m": 64.8, "type_element": "Way", "__fid": 3905}, "geometry": {"type": "LineString", "coordinates": [[2.2556646, 48.8441839], [2.255435, 48.8436568], [2.2554664, 48.8436294]]}}, {"type": "Feature", "properties": {"highway": "footway", "footway": "sidewalk", "name": null, "surface": null, "lit": null, "length_m": 79.56, "type_element": "Way", "__fid": 3906}, "geometry": {"type": "LineString", "coordinates": [[2.2554664, 48.8436294], [2.2561469, 48.8431534], [2.2562375, 48.843141]]}}, {"type": "Feature", "properties": {"highway": "footway", "footway": null, "name": null, "surface": "asphalt", "lit": "no", "length_m": 20.19, "type_element": "Way", "__fid": 3923}, "geometry": {"type": "LineString", "coordinates": [[2.2556537, 48.8457644], [2.2556373, 48.8457395], [2.2555036, 48.8456128]]}}, {"type": "Feature", "properties": {"highway": "footway", "footway": "crossing", "name": null, "surface": "asphalt", "lit": "yes", "length_m": 23.49, "type_element": "Way", "__fid": 3932}, "geometry": {"type": "LineString", "coordinates": [[2.2558455, 48.84504], [2.2556104, 48.8450813], [2.2555567, 48.8450451]]}}, {"type": "Feature", "properties": {"highway": "footway", "footway": "sidewalk", "name": null, "surface": "asphalt", "lit": null, "length_m": 98.45, "type_element": "Way", "__fid": 3941}, "geometry": {"type": "LineString", "coordinates": [[2.255639, 48.8443066], [2.2557433, 48.8443094], [2.2569456, 48.8445016]]}}, {"type": "Feature", "properties": {"highway": "footway", "footway": "sidewalk", "name": null, "surface": "asphalt", "lit": null, "length_m": 85.15, "type_element": "Way", "__fid": 3942}, "geometry": {"type": "LineString", "coordinates": [[2.2558455, 48.84504], [2.2558287, 48.8450065], [2.2558377, 48.8449352], [2.2555905, 48.84437590000001], [2.255639, 48.8443066]]}}, {"type": "Feature", "properties": {"highway": "footway", "footway": "crossing", "name": null, "surface": null, "lit": null, "length_m": 13.84, "type_element": "Way", "__fid": 3943}, "geometry": {"type": "LineString", "coordinates": [[2.2556646, 48.8441839], [2.255637, 48.8442777], [2.255639, 48.8443066]]}}, {"type": "Feature", "properties": {"highway": "footway", "footway": null, "name": null, "surface": "paving_stones", "lit": "yes", "length_m": 9.55, "type_element": "Way", "__fid": 3944}, "geometry": {"type": "LineString", "coordinates": [[2.2556083, 48.8466503], [2.255737925339035, 48.8466574387509]]}}, {"type": "Feature", "properties": {"highway": "service", "footway": null, "name": null, "surface": null, "lit": null, "length_m": 7.46, "type_element": "Way", "__fid": 3945}, "geometry": {"type": "LineString", "coordinates": [[2.255677834508804, 48.84695398016237], [2.2556034, 48.8469997]]}}, {"type": "Feature", "properties": {"highway": "footway", "footway": "sidewalk", "name": null, "surface": null, "lit": null, "length_m": 90.05, "type_element": "Way", "__fid": 3949}, "geometry": {"type": "LineString", "coordinates": [[2.2568587, 48.844362899999986], [2.256686, 48.84435550000001], [2.2556646, 48.8441839]]}}, {"type": "Feature", "properties": {"highway": "footway", "footway": null, "name": null, "surface": "asphalt", "lit": "no", "length_m": 11.22, "type_element": "Way", "__fid": 3950}, "geometry": {"type": "LineString", "coordinates": [[2.2557426, 48.8458432], [2.2557002, 48.8458215], [2.2556644, 48.84578730000001], [2.2556537, 48.8457644]]}}, {"type": "Feature", "properties": {"highway": "service", "footway": null, "name": null, "surface": null, "lit": null, "length_m": 21.51, "type_element": "Way", "__fid": 3951}, "geometry": {"type": "LineString", "coordinates": [[2.2559259, 48.8456926], [2.2556537, 48.8457644]]}}, {"type": "Feature", "properties": {"highway": "service", "footway": null, "name": null, "surface": null, "lit": null, "length_m": 20.33, "type_element": "Way", "__fid": 3970}, "geometry": {"type": "LineString", "coordinates": [[2.2559054, 48.8470582], [2.255677834508804, 48.84695398016237]]}}, {"type": "Feature", "properties": {"highway": "service", "footway": null, "name": null, "surface": null, "lit": null, "length_m": 40.41, "type_element": "Way", "__fid": 3971}, "geometry": {"type": "LineString", "coordinates": [[2.255677834508804, 48.84695398016237], [2.2555688, 48.8468764], [2.2555675, 48.8468058], [2.2556385, 48.8467299], [2.255737925339035, 48.8466574387509]]}}, {"type": "Feature", "properties": {"highway": "service", "footway": null, "name": null, "surface": null, "lit": null, "length_m": 36.76, "type_element": "Way", "__fid": 3972}, "geometry": {"type": "LineString", "coordinates": [[2.2560098, 48.8467113], [2.2559505, 48.84678649999998], [2.255677834508804, 48.84695398016237]]}}, {"type": "Feature", "properties": {"highway": "footway", "footway": null, "name": null, "surface": "asphalt", "lit": "no", "length_m": 2.9, "type_element": "Way", "__fid": 3979}, "geometry": {"type": "LineString", "coordinates": [[2.2557722, 48.8458605], [2.2557426, 48.8458432]]}}, {"type": "Feature", "properties": {"highway": "steps", "footway": null, "name": null, "surface": "paving_stones", "lit": "no", "length_m": 11.39, "type_element": "Way", "__fid": 3980}, "geometry": {"type": "LineString", "coordinates": [[2.2557426, 48.8458432], [2.2558095, 48.845802], [2.2558726, 48.8458077]]}}, {"type": "Feature", "properties": {"highway": "footway", "footway": null, "name": null, "surface": "paving_stones", "lit": "yes", "length_m": 23.04, "type_element": "Way", "__fid": 3981}, "geometry": {"type": "LineString", "coordinates": [[2.255737925339035, 48.8466574387509], [2.2558523, 48.84662740000002], [2.255992918216104, 48.846542252357004]]}}, {"type": "Feature", "properties": {"highway": "footway", "footway": null, "name": null, "surface": "asphalt", "lit": "no", "length_m": 2.65, "type_element": "Way", "__fid": 3983}, "geometry": {"type": "LineString", "coordinates": [[2.2557969, 48.845877899999984], [2.2557722, 48.8458605]]}}, {"type": "Feature", "properties": {"highway": "footway", "footway": null, "name": null, "surface": "sett", "lit": "no", "length_m": 9.42, "type_element": "Way", "__fid": 3984}, "geometry": {"type": "LineString", "coordinates": [[2.2557722, 48.8458605], [2.2558726, 48.8458077]]}}, {"type": "Feature", "properties": {"highway": "footway", "footway": null, "name": null, "surface": "concrete:plates", "lit": "no", "length_m": 52.27, "type_element": "Way", "__fid": 3986}, "geometry": {"type": "LineString", "coordinates": [[2.2563893, 48.8473444], [2.2562291, 48.8473064], [2.2560884, 48.8473106], [2.255991, 48.8473319], [2.2557497, 48.8474479]]}}, {"type": "Feature", "properties": {"highway": "footway", "footway": null, "name": null, "surface": "asphalt", "lit": "no", "length_m": 4.08, "type_element": "Way", "__fid": 3991}, "geometry": {"type": "LineString", "coordinates": [[2.2558277, 48.8459084], [2.2557969, 48.845877899999984]]}}, {"type": "Feature", "properties": {"highway": "steps", "footway": null, "name": null, "surface": "paving_stones", "lit": "no", "length_m": 10.13, "type_element": "Way", "__fid": 3992}, "geometry": {"type": "LineString", "coordinates": [[2.2557969, 48.845877899999984], [2.2558646, 48.8458393], [2.2558726, 48.8458077]]}}, {"type": "Feature", "properties": {"highway": "footway", "footway": "sidewalk", "name": null, "surface": null, "lit": null, "length_m": 5.55, "type_element": "Way", "__fid": 3997}, "geometry": {"type": "LineString", "coordinates": [[2.2558688, 48.8424322], [2.2558648, 48.8423824]]}}, {"type": "Feature", "properties": {"highway": "footway", "footway": "sidewalk", "name": null, "surface": null, "lit": null, "length_m": 90.0, "type_element": "Way", "__fid": 3998}, "geometry": {"type": "LineString", "coordinates": [[2.2558648, 48.8423824], [2.2558775, 48.84199440000001], [2.2559299, 48.8415745]]}}, {"type": "Feature", "properties": {"highway": "footway", "footway": "crossing", "name": null, "surface": null, "lit": "yes", "length_m": 26.6, "type_element": "Way", "__fid": 3999}, "geometry": {"type": "LineString", "coordinates": [[2.2558648, 48.8423824], [2.2560215, 48.8423708], [2.2562262, 48.8423677]]}}, {"type": "Feature", "properties": {"highway": "footway", "footway": "crossing", "name": null, "surface": null, "lit": null, "length_m": 16.57, "type_element": "Way", "__fid": 4002}, "geometry": {"type": "LineString", "coordinates": [[2.2558688, 48.8424322], [2.2559204, 48.8424567], [2.255934, 48.8425182], [2.2559153, 48.8425614]]}}, {"type": "Feature", "properties": {"highway": "footway", "footway": "sidewalk", "name": null, "surface": "asphalt", "lit": null, "length_m": 26.84, "type_element": "Way", "__fid": 4005}, "geometry": {"type": "LineString", "coordinates": [[2.2560446, 48.8452372], [2.2558847, 48.8451181], [2.2558455, 48.84504]]}}, {"type": "Feature", "properties": {"highway": "footway", "footway": "sidewalk", "name": null, "surface": null, "lit": null, "length_m": 18.51, "type_element": "Way", "__fid": 4006}, "geometry": {"type": "LineString", "coordinates": [[2.2558394, 48.8455377], [2.2558813, 48.8455835], [2.2559259, 48.8456926]]}}, {"type": "Feature", "properties": {"highway": "footway", "footway": "crossing", "name": null, "surface": "asphalt", "lit": "yes", "length_m": 17.3, "type_element": "Way", "__fid": 4007}, "geometry": {"type": "LineString", "coordinates": [[2.2560717, 48.8455111], [2.2558394, 48.8455377]]}}, {"type": "Feature", "properties": {"highway": "footway", "footway": "crossing", "name": null, "surface": null, "lit": null, "length_m": 16.34, "type_element": "Way", "__fid": 4012}, "geometry": {"type": "LineString", "coordinates": [[2.2559256, 48.8413847], [2.2559527, 48.8414286], [2.2559355, 48.8415275]]}}, {"type": "Feature", "properties": {"highway": "footway", "footway": "sidewalk", "name": null, "surface": null, "lit": null, "length_m": 10.25, "type_element": "Way", "__fid": 4014}, "geometry": {"type": "LineString", "coordinates": [[2.2559153, 48.8425614], [2.2559887, 48.8426398]]}}, {"type": "Feature", "properties": {"highway": "footway", "footway": "traffic_island", "name": null, "surface": null, "lit": "yes", "length_m": 23.95, "type_element": "Way", "__fid": 4015}, "geometry": {"type": "LineString", "coordinates": [[2.2559299, 48.8415745], [2.2562544, 48.8415976]]}}, {"type": "Feature", "properties": {"highway": "footway", "footway": "sidewalk", "name": null, "surface": null, "lit": null, "length_m": 5.24, "type_element": "Way", "__fid": 4016}, "geometry": {"type": "LineString", "coordinates": [[2.2559299, 48.8415745], [2.2559355, 48.8415275]]}}, {"type": "Feature", "properties": {"highway": "footway", "footway": null, "name": null, "surface": "sett", "lit": "no", "length_m": 6.99, "type_element": "Way", "__fid": 4017}, "geometry": {"type": "LineString", "coordinates": [[2.2558726, 48.8458077], [2.2559589, 48.8457812]]}}, {"type": "Feature", "properties": {"highway": "service", "footway": null, "name": null, "surface": null, "lit": null, "length_m": 48.48, "type_element": "Way", "__fid": 4023}, "geometry": {"type": "LineString", "coordinates": [[2.2565197, 48.8471164], [2.2563378, 48.84705], [2.2562306, 48.8470246], [2.2561558, 48.8470328], [2.2560114, 48.8470706], [2.2559054, 48.8470582]]}}, {"type": "Feature", "properties": {"highway": "service", "footway": null, "name": null, "surface": null, "lit": null, "length_m": 38.14, "type_element": "Way", "__fid": 4024}, "geometry": {"type": "LineString", "coordinates": [[2.256127947789064, 48.846800101204714], [2.2561388, 48.84683490000001], [2.2561307, 48.8469135], [2.2560878, 48.84699640000002], [2.2560208, 48.8470414], [2.2559054, 48.8470582]]}}, {"type": "Feature", "properties": {"highway": "footway", "footway": "sidewalk", "name": null, "surface": null, "lit": null, "length_m": 10.15, "type_element": "Way", "__fid": 4025}, "geometry": {"type": "LineString", "coordinates": [[2.2559259, 48.8456926], [2.2559589, 48.8457812]]}}, {"type": "Feature", "properties": {"highway": "service", "footway": null, "name": null, "surface": null, "lit": null, "length_m": 7.75, "type_element": "Way", "__fid": 4026}, "geometry": {"type": "LineString", "coordinates": [[2.2560243, 48.8456673], [2.2559259, 48.8456926]]}}, {"type": "Feature", "properties": {"highway": "footway", "footway": "sidewalk", "name": null, "surface": null, "lit": null, "length_m": 36.73, "type_element": "Way", "__fid": 4035}, "geometry": {"type": "LineString", "coordinates": [[2.2559887, 48.8426398], [2.2561478, 48.842953]]}}, {"type": "Feature", "properties": {"highway": "footway", "footway": "crossing", "name": null, "surface": null, "lit": "yes", "length_m": 23.79, "type_element": "Way", "__fid": 4036}, "geometry": {"type": "LineString", "coordinates": [[2.2559887, 48.8426398], [2.2562968, 48.8425734]]}}, {"type": "Feature", "properties": {"highway": "footway", "footway": "sidewalk", "name": null, "surface": null, "lit": null, "length_m": 77.08, "type_element": "Way", "__fid": 4042}, "geometry": {"type": "LineString", "coordinates": [[2.2559589, 48.8457812], [2.2562537, 48.8464465]]}}, {"type": "Feature", "properties": {"highway": "footway", "footway": null, "name": null, "surface": "paving_stones", "lit": "yes", "length_m": 23.42, "type_element": "Way", "__fid": 4051}, "geometry": {"type": "LineString", "coordinates": [[2.255992918216104, 48.846542252357004], [2.2560363, 48.8464974], [2.2561333, 48.8464534], [2.2562537, 48.8464465]]}}, {"type": "Feature", "properties": {"highway": "service", "footway": null, "name": null, "surface": null, "lit": null, "length_m": 23.07, "type_element": "Way", "__fid": 4052}, "geometry": {"type": "LineString", "coordinates": [[2.255992918216104, 48.846542252357004], [2.2560556, 48.8465538], [2.256061, 48.8465785], [2.2560113, 48.846655], [2.2560098, 48.8467113]]}}, {"type": "Feature", "properties": {"highway": "service", "footway": null, "name": null, "surface": null, "lit": null, "length_m": 13.68, "type_element": "Way", "__fid": 4060}, "geometry": {"type": "LineString", "coordinates": [[2.2560098, 48.8467113], [2.2560516, 48.8467686], [2.256127947789064, 48.846800101204714]]}}, {"type": "Feature", "properties": {"highway": "footway", "footway": "traffic_island", "name": null, "surface": "asphalt", "lit": null, "length_m": 33.9, "type_element": "Way", "__fid": 4066}, "geometry": {"type": "LineString", "coordinates": [[2.2560446, 48.8452372], [2.2559569, 48.8453651], [2.2560717, 48.8455111]]}}, {"type": "Feature", "properties": {"highway": "footway", "footway": "sidewalk", "name": null, "surface": "asphalt", "lit": null, "length_m": 87.87, "type_element": "Way", "__fid": 4067}, "geometry": {"type": "LineString", "coordinates": [[2.257241, 48.8452234], [2.2571534, 48.8452319], [2.2560446, 48.8452372]]}}, {"type": "Feature", "properties": {"highway": "footway", "footway": "sidewalk", "name": null, "surface": null, "lit": "yes", "length_m": 8.49, "type_element": "Way", "__fid": 4069}, "geometry": {"type": "LineString", "coordinates": [[2.2561534, 48.8455651], [2.2560717, 48.8455111]]}}, {"type": "Feature", "properties": {"highway": "footway", "footway": "sidewalk", "name": null, "surface": null, "lit": null, "length_m": 4.37, "type_element": "Way", "__fid": 4075}, "geometry": {"type": "LineString", "coordinates": [[2.2561478, 48.842953], [2.2561573, 48.8429918]]}}, {"type": "Feature", "properties": {"highway": "footway", "footway": "crossing", "name": null, "surface": null, "lit": "yes", "length_m": 24.5, "type_element": "Way", "__fid": 4076}, "geometry": {"type": "LineString", "coordinates": [[2.2564646, 48.8428836], [2.2561478, 48.842953]]}}, {"type": "Feature", "properties": {"highway": "footway", "footway": "crossing", "name": null, "surface": null, "lit": null, "length_m": 18.0, "type_element": "Way", "__fid": 4080}, "geometry": {"type": "LineString", "coordinates": [[2.2561573, 48.8429918], [2.2561854, 48.8430131], [2.256204, 48.8430469], [2.2562359, 48.8431072], [2.2562375, 48.843141]]}}, {"type": "Feature", "properties": {"highway": "service", "footway": null, "name": null, "surface": null, "lit": null, "length_m": 15.29, "type_element": "Way", "__fid": 4084}, "geometry": {"type": "LineString", "coordinates": [[2.256127947789064, 48.846800101204714], [2.2563181, 48.8468564]]}}, {"type": "Feature", "properties": {"highway": "service", "footway": null, "name": null, "surface": null, "lit": null, "length_m": 34.45, "type_element": "Way", "__fid": 4085}, "geometry": {"type": "LineString", "coordinates": [[2.2562285, 48.84653010000001], [2.2561606, 48.8465668], [2.256116, 48.846602800000014], [2.2560811, 48.8466558], [2.256127947789064, 48.846800101204714]]}}, {"type": "Feature", "properties": {"highway": "footway", "footway": "sidewalk", "name": null, "surface": "asphalt", "lit": "yes", "length_m": 99.28, "type_element": "Way", "__fid": 4086}, "geometry": {"type": "LineString", "coordinates": [[2.2564089, 48.8464258], [2.2562672, 48.846001], [2.2562022, 48.8458401], [2.2561102, 48.8456554], [2.256114, 48.8456136], [2.2561534, 48.8455651]]}}, {"type": "Feature", "properties": {"highway": "footway", "footway": "sidewalk", "name": null, "surface": "asphalt", "lit": "yes", "length_m": 82.06, "type_element": "Way", "__fid": 4087}, "geometry": {"type": "LineString", "coordinates": [[2.2561534, 48.8455651], [2.2562136, 48.8455483], [2.2567463, 48.8455351], [2.2569612, 48.8455166], [2.2572641, 48.8455106]]}}, {"type": "Feature", "properties": {"highway": "footway", "footway": "sidewalk", "name": null, "surface": null, "lit": null, "length_m": 4.07, "type_element": "Way", "__fid": 4090}, "geometry": {"type": "LineString", "coordinates": [[2.256253, 48.8423997], [2.2562262, 48.8423677]]}}, {"type": "Feature", "properties": {"highway": "footway", "footway": "sidewalk", "name": null, "surface": null, "lit": null, "length_m": 85.73, "type_element": "Way", "__fid": 4091}, "geometry": {"type": "LineString", "coordinates": [[2.2562262, 48.8423677], [2.2562151, 48.8420299], [2.2562544, 48.8415976]]}}, {"type": "Feature", "properties": {"highway": "footway", "footway": "sidewalk", "name": null, "surface": null, "lit": null, "length_m": 26.98, "type_element": "Way", "__fid": 4092}, "geometry": {"type": "LineString", "coordinates": [[2.2562544, 48.8415976], [2.2563, 48.8413568]]}}, {"type": "Feature", "properties": {"highway": "footway", "footway": "sidewalk", "name": null, "surface": null, "lit": null, "length_m": 7.17, "type_element": "Way", "__fid": 4093}, "geometry": {"type": "LineString", "coordinates": [[2.2562375, 48.843141], [2.256287, 48.8431966]]}}, {"type": "Feature", "properties": {"highway": "footway", "footway": "sidewalk", "name": null, "surface": null, "lit": null, "length_m": 57.84, "type_element": "Way", "__fid": 4094}, "geometry": {"type": "LineString", "coordinates": [[2.2570368, 48.8423562], [2.2563293, 48.842405], [2.256253, 48.8423997]]}}, {"type": "Feature", "properties": {"highway": "footway", "footway": "crossing", "name": null, "surface": null, "lit": null, "length_m": 14.62, "type_element": "Way", "__fid": 4095}, "geometry": {"type": "LineString", "coordinates": [[2.256253, 48.8423997], [2.2562839, 48.8425071], [2.2563, 48.8425265]]}}, {"type": "Feature", "properties": {"highway": "service", "footway": null, "name": null, "surface": null, "lit": null, "length_m": 36.98, "type_element": "Way", "__fid": 4101}, "geometry": {"type": "LineString", "coordinates": [[2.2562285, 48.84653010000001], [2.2562392, 48.8466343], [2.2563181, 48.8468564]]}}, {"type": "Feature", "properties": {"highway": "service", "footway": null, "name": null, "surface": null, "lit": null, "length_m": 4.43, "type_element": "Way", "__fid": 4102}, "geometry": {"type": "LineString", "coordinates": [[2.2562801, 48.8465095], [2.2562285, 48.84653010000001]]}}, {"type": "Feature", "properties": {"highway": "footway", "footway": "sidewalk", "name": null, "surface": null, "lit": null, "length_m": 124.97, "type_element": "Way", "__fid": 4106}, "geometry": {"type": "LineString", "coordinates": [[2.256287, 48.8431966], [2.256842, 48.8442591]]}}, {"type": "Feature", "properties": {"highway": "footway", "footway": "crossing", "name": null, "surface": null, "lit": "yes", "length_m": 23.67, "type_element": "Way", "__fid": 4107}, "geometry": {"type": "LineString", "coordinates": [[2.256287, 48.8431966], [2.2565916, 48.843126699999985]]}}, {"type": "Feature", "properties": {"highway": "footway", "footway": "sidewalk", "name": null, "surface": null, "lit": "yes", "length_m": 36.62, "type_element": "Way", "__fid": 4109}, "geometry": {"type": "LineString", "coordinates": [[2.2564646, 48.8428836], [2.2562968, 48.8425734]]}}, {"type": "Feature", "properties": {"highway": "footway", "footway": "sidewalk", "name": null, "surface": null, "lit": "yes", "length_m": 5.22, "type_element": "Way", "__fid": 4110}, "geometry": {"type": "LineString", "coordinates": [[2.2562968, 48.8425734], [2.2563, 48.8425265]]}}, {"type": "Feature", "properties": {"highway": "footway", "footway": "sidewalk", "name": null, "surface": null, "lit": "yes", "length_m": 57.35, "type_element": "Way", "__fid": 4111}, "geometry": {"type": "LineString", "coordinates": [[2.2563, 48.8425265], [2.2563708, 48.8424866], [2.257055679999947, 48.84244122]]}}, {"type": "Feature", "properties": {"highway": "footway", "footway": "sidewalk", "name": null, "surface": null, "lit": null, "length_m": 7.27, "type_element": "Way", "__fid": 4113}, "geometry": {"type": "LineString", "coordinates": [[2.2562537, 48.8464465], [2.2562801, 48.8465095]]}}, {"type": "Feature", "properties": {"highway": "footway", "footway": "crossing", "name": null, "surface": "paving_stones", "lit": "yes", "length_m": 11.62, "type_element": "Way", "__fid": 4114}, "geometry": {"type": "LineString", "coordinates": [[2.2562537, 48.8464465], [2.2564089, 48.8464258]]}}, {"type": "Feature", "properties": {"highway": "service", "footway": null, "name": null, "surface": null, "lit": null, "length_m": 4.83, "type_element": "Way", "__fid": 4117}, "geometry": {"type": "LineString", "coordinates": [[2.2563364, 48.846487], [2.2562801, 48.8465095]]}}, {"type": "Feature", "properties": {"highway": "service", "footway": null, "name": null, "surface": null, "lit": null, "length_m": 17.1, "type_element": "Way", "__fid": 4124}, "geometry": {"type": "LineString", "coordinates": [[2.2563181, 48.8468564], [2.256525, 48.84692720000001]]}}, {"type": "Feature", "properties": {"highway": "footway", "footway": "sidewalk", "name": null, "surface": "asphalt", "lit": "yes", "length_m": 38.94, "type_element": "Way", "__fid": 4128}, "geometry": {"type": "LineString", "coordinates": [[2.2563263, 48.8470926], [2.2564227, 48.8471255], [2.2565121, 48.8472598], [2.2566205, 48.8473706]]}}, {"type": "Feature", "properties": {"highway": "footway", "footway": null, "name": null, "surface": "concrete:plates", "lit": "no", "length_m": 17.81, "type_element": "Way", "__fid": 4136}, "geometry": {"type": "LineString", "coordinates": [[2.2566205, 48.8473706], [2.2565858, 48.8473805], [2.2565461, 48.84737830000001], [2.2563893, 48.8473444]]}}, {"type": "Feature", "properties": {"highway": "footway", "footway": null, "name": null, "surface": "concrete:plates", "lit": "no", "length_m": 21.21, "type_element": "Way", "__fid": 4137}, "geometry": {"type": "LineString", "coordinates": [[2.2565268, 48.8475105], [2.2564703, 48.84741790000002], [2.2563893, 48.8473444]]}}, {"type": "Feature", "properties": {"highway": "footway", "footway": "sidewalk", "name": null, "surface": "asphalt", "lit": "yes", "length_m": 119.32, "type_element": "Way", "__fid": 4140}, "geometry": {"type": "LineString", "coordinates": [[2.2570594, 48.8473868], [2.2570178, 48.8473752], [2.2569802, 48.8473545], [2.2568131, 48.8471925], [2.2566993, 48.8470382], [2.2565649, 48.8468268], [2.2564549, 48.8465638], [2.2564089, 48.8464258]]}}, {"type": "Feature", "properties": {"highway": "footway", "footway": "sidewalk", "name": null, "surface": null, "lit": "yes", "length_m": 28.59, "type_element": "Way", "__fid": 4141}, "geometry": {"type": "LineString", "coordinates": [[2.2565916, 48.843126699999985], [2.2564646, 48.8428836]]}}, {"type": "Feature", "properties": {"highway": "footway", "footway": "sidewalk", "name": null, "surface": null, "lit": "yes", "length_m": 125.77, "type_element": "Way", "__fid": 4169}, "geometry": {"type": "LineString", "coordinates": [[2.2571383, 48.844198700000014], [2.2565916, 48.843126699999985]]}}, {"type": "Feature", "properties": {"highway": "footway", "footway": "sidewalk", "name": null, "surface": null, "lit": null, "length_m": 11.61, "type_element": "Way", "__fid": 4207}, "geometry": {"type": "LineString", "coordinates": [[2.256842, 48.8442591], [2.2568587, 48.844362899999986]]}}, {"type": "Feature", "properties": {"highway": "footway", "footway": "crossing", "name": null, "surface": null, "lit": "yes", "length_m": 22.93, "type_element": "Way", "__fid": 4208}, "geometry": {"type": "LineString", "coordinates": [[2.256842, 48.8442591], [2.2568891, 48.8442588], [2.2571383, 48.844198700000014]]}}, {"type": "Feature", "properties": {"highway": "footway", "footway": "crossing", "name": null, "surface": null, "lit": null, "length_m": 16.74, "type_element": "Way", "__fid": 4211}, "geometry": {"type": "LineString", "coordinates": [[2.2569456, 48.8445016], [2.2569158, 48.8444678], [2.2568587, 48.844362899999986]]}}, {"type": "Feature", "properties": {"highway": "footway", "footway": "sidewalk", "name": null, "surface": "asphalt", "lit": null, "length_m": 1.88, "type_element": "Way", "__fid": 4230}, "geometry": {"type": "LineString", "coordinates": [[2.2569456, 48.8445016], [2.2569567, 48.8445168]]}}, {"type": "Feature", "properties": {"highway": "footway", "footway": "sidewalk", "name": null, "surface": "asphalt", "lit": null, "length_m": 80.46, "type_element": "Way", "__fid": 4232}, "geometry": {"type": "LineString", "coordinates": [[2.2569567, 48.8445168], [2.257177, 48.8449231], [2.2572584, 48.8452102]]}}, {"type": "Feature", "properties": {"highway": "footway", "footway": "crossing", "name": null, "surface": null, "lit": "yes", "length_m": 23.5, "type_element": "Way", "__fid": 4233}, "geometry": {"type": "LineString", "coordinates": [[2.2569567, 48.8445168], [2.2571008, 48.8444859], [2.2572559, 48.844442100000016]]}}, {"type": "Feature", "properties": {"highway": "footway", "footway": "crossing", "name": null, "surface": null, "lit": null, "length_m": 9.55, "type_element": "Way", "__fid": 4237}, "geometry": {"type": "LineString", "coordinates": [[2.2570368, 48.8423562], [2.257055679999947, 48.84244122]]}}, {"type": "Feature", "properties": {"highway": "footway", "footway": "sidewalk", "name": null, "surface": null, "lit": null, "length_m": 110.11, "type_element": "Way", "__fid": 4238}, "geometry": {"type": "LineString", "coordinates": [[2.257490433333184, 48.841428000000114], [2.2571047, 48.84233039999998], [2.2570722, 48.842348500000014], [2.2570368, 48.8423562]]}}, {"type": "Feature", "properties": {"highway": "footway", "footway": "sidewalk", "name": null, "surface": null, "lit": null, "length_m": 240.24, "type_element": "Way", "__fid": 4246}, "geometry": {"type": "LineString", "coordinates": [[2.257055679999947, 48.84244122], [2.257121, 48.8424629], [2.2571455, 48.84248130000001], [2.258605433333282, 48.844333466666804]]}}, {"type": "Feature", "properties": {"highway": "footway", "footway": "crossing", "name": null, "surface": null, "lit": "yes", "length_m": 9.58, "type_element": "Way", "__fid": 4271}, "geometry": {"type": "LineString", "coordinates": [[2.257151833333425, 48.842479766666756], [2.2572717, 48.8424456]]}}, {"type": "Feature", "properties": {"highway": "footway", "footway": "sidewalk", "name": null, "surface": null, "lit": "yes", "length_m": 28.41, "type_element": "Way", "__fid": 4274}, "geometry": {"type": "LineString", "coordinates": [[2.2572559, 48.844442100000016], [2.2571383, 48.844198700000014]]}}, {"type": "Feature", "properties": {"highway": "footway", "footway": "sidewalk", "name": null, "surface": "asphalt", "lit": "yes", "length_m": 221.64, "type_element": "Way", "__fid": 4287}, "geometry": {"type": "LineString", "coordinates": [[2.2586871, 48.8441968], [2.2586086, 48.8441647], [2.2572717, 48.8424456]]}}, {"type": "Feature", "properties": {"highway": "footway", "footway": "sidewalk", "name": null, "surface": "asphalt", "lit": "yes", "length_m": 112.61, "type_element": "Way", "__fid": 4288}, "geometry": {"type": "LineString", "coordinates": [[2.2572717, 48.8424456], [2.2572406, 48.84240040000002], [2.257232, 48.84236510000002], [2.2576053, 48.8414711]]}}, {"type": "Feature", "properties": {"highway": "footway", "footway": "crossing", "name": null, "surface": null, "lit": "yes", "length_m": 32.1, "type_element": "Way", "__fid": 4291}, "geometry": {"type": "LineString", "coordinates": [[2.257241, 48.8452234], [2.2572622, 48.84529049999998], [2.2572641, 48.8455106]]}}, {"type": "Feature", "properties": {"highway": "footway", "footway": "sidewalk", "name": null, "surface": "asphalt", "lit": null, "length_m": 1.95, "type_element": "Way", "__fid": 4292}, "geometry": {"type": "LineString", "coordinates": [[2.2572584, 48.8452102], [2.257241, 48.8452234]]}}, {"type": "Feature", "properties": {"highway": "footway", "footway": "sidewalk", "name": null, "surface": null, "lit": "yes", "length_m": 89.02, "type_element": "Way", "__fid": 4294}, "geometry": {"type": "LineString", "coordinates": [[2.2576451, 48.8452004], [2.2572559, 48.844442100000016]]}}, {"type": "Feature", "properties": {"highway": "footway", "footway": "crossing", "name": null, "surface": null, "lit": "yes", "length_m": 28.74, "type_element": "Way", "__fid": 4298}, "geometry": {"type": "LineString", "coordinates": [[2.2572584, 48.8452102], [2.257323, 48.8452234], [2.2576451, 48.8452004]]}}, {"type": "Feature", "properties": {"highway": "footway", "footway": "sidewalk", "name": null, "surface": "asphalt", "lit": "yes", "length_m": 9.03, "type_element": "Way", "__fid": 4302}, "geometry": {"type": "LineString", "coordinates": [[2.2572641, 48.8455106], [2.2573808, 48.8455364]]}}, {"type": "Feature", "properties": {"highway": "footway", "footway": "sidewalk", "name": null, "surface": "asphalt", "lit": "yes", "length_m": 162.11, "type_element": "Way", "__fid": 4320}, "geometry": {"type": "LineString", "coordinates": [[2.2573808, 48.8455364], [2.2580469, 48.8469264]]}}, {"type": "Feature", "properties": {"highway": "footway", "footway": "crossing", "name": null, "surface": null, "lit": "yes", "length_m": 31.8, "type_element": "Way", "__fid": 4321}, "geometry": {"type": "LineString", "coordinates": [[2.2573808, 48.8455364], [2.2577945, 48.8454513]]}}, {"type": "Feature", "properties": {"highway": "footway", "footway": "crossing", "name": null, "surface": null, "lit": null, "length_m": 9.7, "type_element": "Way", "__fid": 4324}, "geometry": {"type": "LineString", "coordinates": [[2.2576053, 48.8414711], [2.257490433333184, 48.841428000000114]]}}, {"type": "Feature", "properties": {"highway": "footway", "footway": "sidewalk", "name": null, "surface": "asphalt", "lit": "yes", "length_m": 2.97, "type_element": "Way", "__fid": 4341}, "geometry": {"type": "LineString", "coordinates": [[2.2576053, 48.8414711], [2.2576456, 48.8414688]]}}, {"type": "Feature", "properties": {"highway": "footway", "footway": "sidewalk", "name": null, "surface": "asphalt", "lit": "yes", "length_m": 254.75, "type_element": "Way", "__fid": 4354}, "geometry": {"type": "LineString", "coordinates": [[2.2576456, 48.8414688], [2.2592104, 48.84347860000001], [2.2592179, 48.8435096]]}}, {"type": "Feature", "properties": {"highway": "footway", "footway": "crossing", "name": null, "surface": null, "lit": null, "length_m": 13.75, "type_element": "Way", "__fid": 4355}, "geometry": {"type": "LineString", "coordinates": [[2.2576456, 48.8414688], [2.2577184, 48.8413549]]}}, {"type": "Feature", "properties": {"highway": "footway", "footway": "sidewalk", "name": null, "surface": null, "lit": "yes", "length_m": 16.63, "type_element": "Way", "__fid": 4361}, "geometry": {"type": "LineString", "coordinates": [[2.2577859, 48.8452861], [2.2577127, 48.8452868], [2.2576919, 48.8452811], [2.2576451, 48.8452004]]}}, {"type": "Feature", "properties": {"highway": "footway", "footway": "sidewalk", "name": null, "surface": null, "lit": null, "length_m": 258.85, "type_element": "Way", "__fid": 4372}, "geometry": {"type": "LineString", "coordinates": [[2.2593326, 48.8434235], [2.2592843, 48.843379700000014], [2.2581655, 48.841955099999986], [2.2578074, 48.841493], [2.2577184, 48.8413549]]}}, {"type": "Feature", "properties": {"highway": "footway", "footway": "crossing", "name": null, "surface": "asphalt", "lit": "yes", "length_m": 14.95, "type_element": "Way", "__fid": 4394}, "geometry": {"type": "LineString", "coordinates": [[2.2577859, 48.8452861], [2.2577858, 48.8453067], [2.2578524, 48.8454117]]}}, {"type": "Feature", "properties": {"highway": "footway", "footway": "sidewalk", "name": null, "surface": "asphalt", "lit": "yes", "length_m": 35.57, "type_element": "Way", "__fid": 4395}, "geometry": {"type": "LineString", "coordinates": [[2.25827, 48.8452699], [2.2577859, 48.8452861]]}}, {"type": "Feature", "properties": {"highway": "footway", "footway": "sidewalk", "name": null, "surface": null, "lit": "yes", "length_m": 275.04, "type_element": "Way", "__fid": 4398}, "geometry": {"type": "LineString", "coordinates": [[2.2577945, 48.8454513], [2.2589841, 48.8477686], [2.259008, 48.847790300000035]]}}, {"type": "Feature", "properties": {"highway": "footway", "footway": "sidewalk", "name": null, "surface": null, "lit": "yes", "length_m": 6.12, "type_element": "Way", "__fid": 4399}, "geometry": {"type": "LineString", "coordinates": [[2.2578524, 48.8454117], [2.2577945, 48.8454513]]}}, {"type": "Feature", "properties": {"highway": "footway", "footway": "sidewalk", "name": null, "surface": null, "lit": "yes", "length_m": 29.98, "type_element": "Way", "__fid": 4404}, "geometry": {"type": "LineString", "coordinates": [[2.2582608, 48.84540490000001], [2.2578524, 48.8454117]]}}, {"type": "Feature", "properties": {"highway": "footway", "footway": "sidewalk", "name": null, "surface": "asphalt", "lit": "yes", "length_m": 53.05, "type_element": "Way", "__fid": 4446}, "geometry": {"type": "LineString", "coordinates": [[2.2580469, 48.8469264], [2.2582703, 48.8473104], [2.2582679, 48.8473446], [2.2582429, 48.8473715]]}}, {"type": "Feature", "properties": {"highway": "steps", "footway": null, "name": null, "surface": null, "lit": null, "length_m": 4.36, "type_element": "Way", "__fid": 4447}, "geometry": {"type": "LineString", "coordinates": [[2.2580469, 48.8469264], [2.2581027, 48.846913]]}}, {"type": "Feature", "properties": {"highway": "footway", "footway": "sidewalk", "name": null, "surface": null, "lit": "yes", "length_m": 4.98, "type_element": "Way", "__fid": 4493}, "geometry": {"type": "LineString", "coordinates": [[2.2583026, 48.8454402], [2.2582608, 48.84540490000001]]}}, {"type": "Feature", "properties": {"highway": "footway", "footway": "crossing", "name": null, "surface": null, "lit": "yes", "length_m": 15.49, "type_element": "Way", "__fid": 4494}, "geometry": {"type": "LineString", "coordinates": [[2.2582608, 48.84540490000001], [2.2582822, 48.84538230000001], [2.25827, 48.8452699]]}}, {"type": "Feature", "properties": {"highway": "footway", "footway": "sidewalk", "name": null, "surface": null, "lit": "yes", "length_m": 6.09, "type_element": "Way", "__fid": 4496}, "geometry": {"type": "LineString", "coordinates": [[2.258319, 48.8452257], [2.25827, 48.8452699]]}}, {"type": "Feature", "properties": {"highway": "footway", "footway": "sidewalk", "name": null, "surface": null, "lit": "yes", "length_m": 267.98, "type_element": "Way", "__fid": 4502}, "geometry": {"type": "LineString", "coordinates": [[2.2592489, 48.8477442], [2.2592585, 48.8477093], [2.2592497, 48.8476768], [2.2590143, 48.8473543], [2.2587974, 48.8470098], [2.2585561, 48.846511600000014], [2.2584507, 48.8462359], [2.2583745, 48.84595070000001], [2.2583177, 48.845700700000016], [2.2583026, 48.8454402]]}}, {"type": "Feature", "properties": {"highway": "footway", "footway": "traffic_island", "name": null, "surface": null, "lit": "yes", "length_m": 36.82, "type_element": "Way", "__fid": 4503}, "geometry": {"type": "LineString", "coordinates": [[2.258798, 48.8454622], [2.2587589, 48.84545090000001], [2.2585055, 48.8454358], [2.2583434, 48.8454324], [2.2583026, 48.8454402]]}}, {"type": "Feature", "properties": {"highway": "footway", "footway": "traffic_island", "name": null, "surface": "asphalt", "lit": "yes", "length_m": 38.16, "type_element": "Way", "__fid": 4513}, "geometry": {"type": "LineString", "coordinates": [[2.258319, 48.8452257], [2.2583587, 48.845232899999985], [2.2585384, 48.8452213], [2.2588361, 48.8452336]]}}, {"type": "Feature", "properties": {"highway": "footway", "footway": "sidewalk", "name": null, "surface": "asphalt", "lit": "yes", "length_m": 101.75, "type_element": "Way", "__fid": 4514}, "geometry": {"type": "LineString", "coordinates": [[2.258605433333282, 48.844333466666804], [2.2585679, 48.844383399999984], [2.2584509, 48.84468], [2.2583914, 48.844876700000015], [2.258319, 48.8452257]]}}, {"type": "Feature", "properties": {"highway": "footway", "footway": "sidewalk", "name": null, "surface": null, "lit": null, "length_m": 92.51, "type_element": "Way", "__fid": 4515}, "geometry": {"type": "LineString", "coordinates": [[2.2583817, 48.840897300000016], [2.2586397, 48.8413082], [2.2588839, 48.8416602]]}}, {"type": "Feature", "properties": {"highway": "footway", "footway": "sidewalk", "name": null, "surface": null, "lit": null, "length_m": 91.45, "type_element": "Way", "__fid": 4553}, "geometry": {"type": "LineString", "coordinates": [[2.258533, 48.8408572], [2.2586403, 48.8409889], [2.2588859, 48.8413663], [2.259054, 48.8416038]]}}, {"type": "Feature", "properties": {"highway": "footway", "footway": "crossing", "name": null, "surface": "asphalt", "lit": "yes", "length_m": 16.48, "type_element": "Way", "__fid": 4576}, "geometry": {"type": "LineString", "coordinates": [[2.258605433333282, 48.844333466666804], [2.258688, 48.84421], [2.2586871, 48.8441968]]}}, {"type": "Feature", "properties": {"highway": "footway", "footway": "sidewalk", "name": null, "surface": "asphalt", "lit": "yes", "length_m": 80.6, "type_element": "Way", "__fid": 4584}, "geometry": {"type": "LineString", "coordinates": [[2.259205, 48.8435576], [2.2586871, 48.8441968]]}}, {"type": "Feature", "properties": {"highway": "pedestrian", "footway": null, "name": "Avenue du Général Balfourier", "surface": null, "lit": null, "length_m": 10.62, "type_element": "Way", "__fid": 4592}, "geometry": {"type": "LineString", "coordinates": [[2.2588735, 48.8449691], [2.2587289, 48.844973]]}}, {"type": "Feature", "properties": {"highway": "footway", "footway": "sidewalk", "name": null, "surface": null, "lit": null, "length_m": 276.14, "type_element": "Way", "__fid": 4605}, "geometry": {"type": "LineString", "coordinates": [[2.2598807, 48.8478162], [2.2594708, 48.847269], [2.2590965, 48.846609], [2.2589175, 48.8461837], [2.2588234, 48.8457983], [2.258798, 48.8454622]]}}, {"type": "Feature", "properties": {"highway": "footway", "footway": "sidewalk", "name": null, "surface": null, "lit": null, "length_m": 2.56, "type_element": "Way", "__fid": 4606}, "geometry": {"type": "LineString", "coordinates": [[2.258798, 48.8454622], [2.2588323, 48.845458]]}}, {"type": "Feature", "properties": {"highway": "footway", "footway": "sidewalk", "name": null, "surface": null, "lit": null, "length_m": 164.87, "type_element": "Way", "__fid": 4613}, "geometry": {"type": "LineString", "coordinates": [[2.2588839, 48.8416602], [2.2594036, 48.8423447], [2.2599278, 48.84297280000001]]}}, {"type": "Feature", "properties": {"highway": "footway", "footway": "crossing", "name": null, "surface": null, "lit": null, "length_m": 13.97, "type_element": "Way", "__fid": 4614}, "geometry": {"type": "LineString", "coordinates": [[2.2588839, 48.8416602], [2.259054, 48.8416038]]}}, {"type": "Feature", "properties": {"highway": "footway", "footway": "sidewalk", "name": null, "surface": null, "lit": null, "length_m": 279.44, "type_element": "Way", "__fid": 4615}, "geometry": {"type": "LineString", "coordinates": [[2.2588323, 48.845458], [2.2588903, 48.84553], [2.259166, 48.846066600000015], [2.2599878, 48.8476686], [2.2600528, 48.84783680000002]]}}, {"type": "Feature", "properties": {"highway": "footway", "footway": "crossing", "name": null, "surface": null, "lit": "yes", "length_m": 11.27, "type_element": "Way", "__fid": 4616}, "geometry": {"type": "LineString", "coordinates": [[2.2588323, 48.845458], [2.2589736, 48.8454183]]}}, {"type": "Feature", "properties": {"highway": "footway", "footway": "sidewalk", "name": null, "surface": "asphalt", "lit": "yes", "length_m": 9.83, "type_element": "Way", "__fid": 4617}, "geometry": {"type": "LineString", "coordinates": [[2.2588361, 48.8452336], [2.2589662, 48.8452546]]}}, {"type": "Feature", "properties": {"highway": "footway", "footway": "sidewalk", "name": null, "surface": "asphalt", "lit": "yes", "length_m": 29.73, "type_element": "Way", "__fid": 4618}, "geometry": {"type": "LineString", "coordinates": [[2.2588735, 48.8449691], [2.2588284, 48.8451299], [2.2588361, 48.8452336]]}}, {"type": "Feature", "properties": {"highway": "footway", "footway": "sidewalk", "name": null, "surface": "asphalt", "lit": "yes", "length_m": 127.39, "type_element": "Way", "__fid": 4622}, "geometry": {"type": "LineString", "coordinates": [[2.2594498, 48.8438977], [2.2594453, 48.8439275], [2.2592099, 48.84420879999998], [2.2590351, 48.844506], [2.2589273, 48.844777599999986], [2.2588735, 48.8449691]]}}, {"type": "Feature", "properties": {"highway": "pedestrian", "footway": null, "name": "Avenue du Général Balfourier", "surface": null, "lit": null, "length_m": 96.48, "type_element": "Way", "__fid": 4623}, "geometry": {"type": "LineString", "coordinates": [[2.2601873, 48.8449384], [2.2588735, 48.8449691]]}}, {"type": "Feature", "properties": {"highway": "footway", "footway": "crossing", "name": null, "surface": null, "lit": "yes", "length_m": 14.78, "type_element": "Way", "__fid": 4643}, "geometry": {"type": "LineString", "coordinates": [[2.2589662, 48.8452546], [2.259004, 48.8453641], [2.2590221, 48.8453809]]}}, {"type": "Feature", "properties": {"highway": "footway", "footway": "sidewalk", "name": null, "surface": "asphalt", "lit": "yes", "length_m": 97.72, "type_element": "Way", "__fid": 4644}, "geometry": {"type": "LineString", "coordinates": [[2.2589662, 48.8452546], [2.2602963, 48.8452143]]}}, {"type": "Feature", "properties": {"highway": "footway", "footway": "sidewalk", "name": null, "surface": null, "lit": null, "length_m": 244.98, "type_element": "Way", "__fid": 4647}, "geometry": {"type": "LineString", "coordinates": [[2.2600276, 48.84750610000001], [2.258968, 48.8454379], [2.2589736, 48.8454183]]}}, {"type": "Feature", "properties": {"highway": "footway", "footway": "sidewalk", "name": null, "surface": null, "lit": "yes", "length_m": 5.47, "type_element": "Way", "__fid": 4648}, "geometry": {"type": "LineString", "coordinates": [[2.2589736, 48.8454183], [2.2590221, 48.8453809]]}}, {"type": "Feature", "properties": {"highway": "footway", "footway": "sidewalk", "name": null, "surface": null, "lit": null, "length_m": 4.97, "type_element": "Way", "__fid": 4653}, "geometry": {"type": "LineString", "coordinates": [[2.259054, 48.8416038], [2.2591144, 48.841624]]}}, {"type": "Feature", "properties": {"highway": "footway", "footway": "sidewalk", "name": null, "surface": null, "lit": "yes", "length_m": 94.81, "type_element": "Way", "__fid": 4655}, "geometry": {"type": "LineString", "coordinates": [[2.2590221, 48.8453809], [2.2598247, 48.84535609999998], [2.2599484, 48.84533709999999], [2.2603097, 48.845334]]}}, {"type": "Feature", "properties": {"highway": "footway", "footway": "crossing", "name": null, "surface": null, "lit": null, "length_m": 13.1, "type_element": "Way", "__fid": 4661}, "geometry": {"type": "LineString", "coordinates": [[2.2591725, 48.8417271], [2.2591452, 48.84171590000001], [2.2591076, 48.841645], [2.2591144, 48.841624]]}}, {"type": "Feature", "properties": {"highway": "footway", "footway": "sidewalk", "name": null, "surface": null, "lit": null, "length_m": 43.69, "type_element": "Way", "__fid": 4662}, "geometry": {"type": "LineString", "coordinates": [[2.2591144, 48.841624], [2.2596732, 48.8414886]]}}, {"type": "Feature", "properties": {"highway": "footway", "footway": null, "name": "Chemin du Nord", "surface": null, "lit": null, "length_m": 52.79, "type_element": "Way", "__fid": 4669}, "geometry": {"type": "LineString", "coordinates": [[2.2591386, 48.841354], [2.2592842, 48.84152150000001], [2.2596652, 48.8413946]]}}, {"type": "Feature", "properties": {"highway": "footway", "footway": "sidewalk", "name": null, "surface": null, "lit": null, "length_m": 144.81, "type_element": "Way", "__fid": 4679}, "geometry": {"type": "LineString", "coordinates": [[2.2600803, 48.8428795], [2.2591738, 48.841760700000016], [2.2591725, 48.8417271]]}}, {"type": "Feature", "properties": {"highway": "footway", "footway": "sidewalk", "name": null, "surface": null, "lit": null, "length_m": 120.94, "type_element": "Way", "__fid": 4680}, "geometry": {"type": "LineString", "coordinates": [[2.2591725, 48.8417271], [2.2591878, 48.8417112], [2.2607014, 48.84133149999999]]}}, {"type": "Feature", "properties": {"highway": "footway", "footway": "traffic_island", "name": null, "surface": null, "lit": "yes", "length_m": 42.15, "type_element": "Way", "__fid": 4692}, "geometry": {"type": "LineString", "coordinates": [[2.259205, 48.8435576], [2.2592315, 48.8435783], [2.2593034, 48.8436893], [2.2593439, 48.8437781], [2.2594498, 48.8438977]]}}, {"type": "Feature", "properties": {"highway": "footway", "footway": "sidewalk", "name": null, "surface": "asphalt", "lit": "yes", "length_m": 5.42, "type_element": "Way", "__fid": 4693}, "geometry": {"type": "LineString", "coordinates": [[2.2592179, 48.8435096], [2.259205, 48.8435576]]}}, {"type": "Feature", "properties": {"highway": "footway", "footway": "crossing", "name": null, "surface": null, "lit": null, "length_m": 13.27, "type_element": "Way", "__fid": 4698}, "geometry": {"type": "LineString", "coordinates": [[2.2592179, 48.8435096], [2.2592429, 48.8435074], [2.2593326, 48.8434235]]}}, {"type": "Feature", "properties": {"highway": "footway", "footway": "sidewalk", "name": null, "surface": null, "lit": null, "length_m": 2.26, "type_element": "Way", "__fid": 4721}, "geometry": {"type": "LineString", "coordinates": [[2.2593633, 48.84342190000001], [2.2593326, 48.8434235]]}}, {"type": "Feature", "properties": {"highway": "footway", "footway": "traffic_island", "name": null, "surface": null, "lit": "yes", "length_m": 40.38, "type_element": "Way", "__fid": 4732}, "geometry": {"type": "LineString", "coordinates": [[2.2593633, 48.84342190000001], [2.2593668, 48.84344], [2.2595123, 48.8436125], [2.2595693, 48.8437353], [2.2595953, 48.84374349999999]]}}, {"type": "Feature", "properties": {"highway": "footway", "footway": "sidewalk", "name": null, "surface": null, "lit": null, "length_m": 53.66, "type_element": "Way", "__fid": 4733}, "geometry": {"type": "LineString", "coordinates": [[2.2598159, 48.8430512], [2.259814, 48.8430803], [2.2594726, 48.843325499999985], [2.2593633, 48.84342190000001]]}}, {"type": "Feature", "properties": {"highway": "footway", "footway": "sidewalk", "name": null, "surface": "asphalt", "lit": "yes", "length_m": 2.28, "type_element": "Way", "__fid": 4760}, "geometry": {"type": "LineString", "coordinates": [[2.2594804, 48.8438943], [2.2594498, 48.8438977]]}}, {"type": "Feature", "properties": {"highway": "footway", "footway": "sidewalk", "name": null, "surface": "asphalt", "lit": "yes", "length_m": 127.34, "type_element": "Way", "__fid": 4765}, "geometry": {"type": "LineString", "coordinates": [[2.2601873, 48.8449384], [2.2595116, 48.8439166], [2.2594804, 48.8438943]]}}, {"type": "Feature", "properties": {"highway": "footway", "footway": "crossing", "name": null, "surface": null, "lit": "yes", "length_m": 13.77, "type_element": "Way", "__fid": 4766}, "geometry": {"type": "LineString", "coordinates": [[2.2594804, 48.8438943], [2.2594842, 48.8438769], [2.2595593, 48.8437995], [2.2595776, 48.8437918]]}}, {"type": "Feature", "properties": {"highway": "footway", "footway": "sidewalk", "name": null, "surface": null, "lit": "yes", "length_m": 168.85, "type_element": "Way", "__fid": 4784}, "geometry": {"type": "LineString", "coordinates": [[2.2604907, 48.8451856], [2.2595776, 48.8437918]]}}, {"type": "Feature", "properties": {"highway": "footway", "footway": "sidewalk", "name": null, "surface": null, "lit": "yes", "length_m": 5.53, "type_element": "Way", "__fid": 4785}, "geometry": {"type": "LineString", "coordinates": [[2.2595776, 48.8437918], [2.2595953, 48.84374349999999]]}}, {"type": "Feature", "properties": {"highway": "footway", "footway": "sidewalk", "name": null, "surface": null, "lit": "yes", "length_m": 63.2, "type_element": "Way", "__fid": 4786}, "geometry": {"type": "LineString", "coordinates": [[2.2595953, 48.84374349999999], [2.2601371, 48.8433206], [2.2601573, 48.8433147]]}}, {"type": "Feature", "properties": {"highway": "footway", "footway": "sidewalk", "name": null, "surface": null, "lit": null, "length_m": 6.3, "type_element": "Way", "__fid": 4799}, "geometry": {"type": "LineString", "coordinates": [[2.2596732, 48.8414886], [2.2596786, 48.8414744], [2.2596534, 48.8414358]]}}, {"type": "Feature", "properties": {"highway": "service", "footway": null, "name": null, "surface": null, "lit": null, "length_m": 10.3, "type_element": "Way", "__fid": 4800}, "geometry": {"type": "LineString", "coordinates": [[2.2597281, 48.8414774], [2.2596652, 48.8413946]]}}, {"type": "Feature", "properties": {"highway": "footway", "footway": "crossing", "name": null, "surface": null, "lit": null, "length_m": 4.22, "type_element": "Way", "__fid": 4801}, "geometry": {"type": "LineString", "coordinates": [[2.2596732, 48.8414886], [2.2597281, 48.8414774]]}}, {"type": "Feature", "properties": {"highway": "service", "footway": null, "name": null, "surface": null, "lit": null, "length_m": 5.17, "type_element": "Way", "__fid": 4811}, "geometry": {"type": "LineString", "coordinates": [[2.2597614, 48.8415184], [2.2597281, 48.8414774]]}}, {"type": "Feature", "properties": {"highway": "footway", "footway": "sidewalk", "name": null, "surface": null, "lit": null, "length_m": 72.6, "type_element": "Way", "__fid": 4812}, "geometry": {"type": "LineString", "coordinates": [[2.2597281, 48.8414774], [2.2597834, 48.8414554], [2.2598159, 48.8414578], [2.2606491, 48.8412477]]}}, {"type": "Feature", "properties": {"highway": "steps", "footway": null, "name": null, "surface": "asphalt", "lit": null, "length_m": 8.79, "type_element": "Way", "__fid": 4825}, "geometry": {"type": "LineString", "coordinates": [[2.2598159, 48.8430512], [2.2598633, 48.84305240000002], [2.2599165, 48.8430201]]}}, {"type": "Feature", "properties": {"highway": "footway", "footway": "sidewalk", "name": null, "surface": null, "lit": null, "length_m": 9.66, "type_element": "Way", "__fid": 4826}, "geometry": {"type": "LineString", "coordinates": [[2.2599256, 48.8430098], [2.2598988, 48.8430101], [2.2598607, 48.8430229], [2.2598159, 48.8430512]]}}, {"type": "Feature", "properties": {"highway": "footway", "footway": "traffic_island", "name": null, "surface": null, "lit": "yes", "length_m": 38.05, "type_element": "Way", "__fid": 4845}, "geometry": {"type": "LineString", "coordinates": [[2.2601573, 48.8433147], [2.2600072, 48.84312519999999], [2.2599444, 48.8430232], [2.2599256, 48.8430098]]}}, {"type": "Feature", "properties": {"highway": "footway", "footway": "sidewalk", "name": null, "surface": null, "lit": null, "length_m": 4.12, "type_element": "Way", "__fid": 4846}, "geometry": {"type": "LineString", "coordinates": [[2.2599278, 48.84297280000001], [2.2599256, 48.8430098]]}}, {"type": "Feature", "properties": {"highway": "footway", "footway": "crossing", "name": null, "surface": null, "lit": null, "length_m": 15.79, "type_element": "Way", "__fid": 4849}, "geometry": {"type": "LineString", "coordinates": [[2.2599278, 48.84297280000001], [2.2599577, 48.8429703], [2.2600185, 48.8429335], [2.2600803, 48.8428795]]}}, {"type": "Feature", "properties": {"highway": "footway", "footway": "sidewalk", "name": null, "surface": null, "lit": null, "length_m": 3.69, "type_element": "Way", "__fid": 4867}, "geometry": {"type": "LineString", "coordinates": [[2.2601302, 48.84288350000001], [2.2600803, 48.8428795]]}}, {"type": "Feature", "properties": {"highway": "footway", "footway": "sidewalk", "name": null, "surface": null, "lit": null, "length_m": 9.36, "type_element": "Way", "__fid": 4881}, "geometry": {"type": "LineString", "coordinates": [[2.2602378, 48.8428484], [2.2601693, 48.842885199999984], [2.2601302, 48.84288350000001]]}}, {"type": "Feature", "properties": {"highway": "footway", "footway": "traffic_island", "name": null, "surface": null, "lit": null, "length_m": 36.29, "type_element": "Way", "__fid": 4882}, "geometry": {"type": "LineString", "coordinates": [[2.2601302, 48.84288350000001], [2.2601325, 48.8429029], [2.2602634, 48.8430615], [2.260342, 48.8431767]]}}, {"type": "Feature", "properties": {"highway": "steps", "footway": null, "name": null, "surface": null, "lit": null, "length_m": 7.12, "type_element": "Way", "__fid": 4890}, "geometry": {"type": "LineString", "coordinates": [[2.2601628, 48.8428719], [2.2602267, 48.84284], [2.2602378, 48.8428484]]}}, {"type": "Feature", "properties": {"highway": "footway", "footway": "sidewalk", "name": null, "surface": null, "lit": "yes", "length_m": 4.34, "type_element": "Way", "__fid": 4891}, "geometry": {"type": "LineString", "coordinates": [[2.2601573, 48.8433147], [2.2602142, 48.84332520000001]]}}, {"type": "Feature", "properties": {"highway": "footway", "footway": "sidewalk", "name": null, "surface": "asphalt", "lit": "yes", "length_m": 30.1, "type_element": "Way", "__fid": 4899}, "geometry": {"type": "LineString", "coordinates": [[2.2603276, 48.8451895], [2.2603295, 48.8451534], [2.2601873, 48.8449384]]}}, {"type": "Feature", "properties": {"highway": "pedestrian", "footway": null, "name": "Avenue du Général Balfourier", "surface": null, "lit": null, "length_m": 4.79, "type_element": "Way", "__fid": 4900}, "geometry": {"type": "LineString", "coordinates": [[2.2602526, 48.8449379], [2.2601873, 48.8449384]]}}, {"type": "Feature", "properties": {"highway": "footway", "footway": "sidewalk", "name": null, "surface": null, "lit": "yes", "length_m": 223.98, "type_element": "Way", "__fid": 4901}, "geometry": {"type": "LineString", "coordinates": [[2.2602142, 48.84332520000001], [2.2616619, 48.8450985]]}}, {"type": "Feature", "properties": {"highway": "footway", "footway": "crossing", "name": null, "surface": null, "lit": "yes", "length_m": 12.35, "type_element": "Way", "__fid": 4902}, "geometry": {"type": "LineString", "coordinates": [[2.2602142, 48.84332520000001], [2.2602416, 48.8432934], [2.2603248, 48.8432431]]}}, {"type": "Feature", "properties": {"highway": "footway", "footway": "sidewalk", "name": null, "surface": null, "lit": null, "length_m": 145.07, "type_element": "Way", "__fid": 4905}, "geometry": {"type": "LineString", "coordinates": [[2.2618368, 48.84209530000001], [2.2602505, 48.8428218], [2.2602494, 48.8428422], [2.2602378, 48.8428484]]}}, {"type": "Feature", "properties": {"highway": "footway", "footway": "crossing", "name": null, "surface": null, "lit": "yes", "length_m": 13.43, "type_element": "Way", "__fid": 4916}, "geometry": {"type": "LineString", "coordinates": [[2.2602963, 48.8452143], [2.2603147, 48.8452909], [2.2603097, 48.845334]]}}, {"type": "Feature", "properties": {"highway": "footway", "footway": "sidewalk", "name": null, "surface": "asphalt", "lit": "yes", "length_m": 3.59, "type_element": "Way", "__fid": 4917}, "geometry": {"type": "LineString", "coordinates": [[2.2602963, 48.8452143], [2.2603276, 48.8451895]]}}, {"type": "Feature", "properties": {"highway": "footway", "footway": "sidewalk", "name": null, "surface": null, "lit": null, "length_m": 241.88, "type_element": "Way", "__fid": 4918}, "geometry": {"type": "LineString", "coordinates": [[2.2619378, 48.84513970000002], [2.2619073, 48.8451132], [2.2603248, 48.8432431]]}}, {"type": "Feature", "properties": {"highway": "footway", "footway": "sidewalk", "name": null, "surface": null, "lit": null, "length_m": 7.49, "type_element": "Way", "__fid": 4919}, "geometry": {"type": "LineString", "coordinates": [[2.2603248, 48.8432431], [2.260342, 48.8431767]]}}, {"type": "Feature", "properties": {"highway": "footway", "footway": "sidewalk", "name": null, "surface": null, "lit": "yes", "length_m": 11.83, "type_element": "Way", "__fid": 4922}, "geometry": {"type": "LineString", "coordinates": [[2.2603097, 48.845334], [2.2604164, 48.8453331], [2.2604582, 48.8453561]]}}, {"type": "Feature", "properties": {"highway": "footway", "footway": "sidewalk", "name": null, "surface": null, "lit": null, "length_m": 116.0, "type_element": "Way", "__fid": 4923}, "geometry": {"type": "LineString", "coordinates": [[2.260342, 48.8431767], [2.2616266, 48.84256890000001]]}}, {"type": "Feature", "properties": {"highway": "footway", "footway": "crossing", "name": null, "surface": null, "lit": "yes", "length_m": 12.58, "type_element": "Way", "__fid": 4924}, "geometry": {"type": "LineString", "coordinates": [[2.2604907, 48.8451856], [2.2604806, 48.8451931], [2.260348, 48.8451971], [2.2603276, 48.8451895]]}}, {"type": "Feature", "properties": {"highway": "footway", "footway": "sidewalk", "name": null, "surface": null, "lit": "yes", "length_m": 308.39, "type_element": "Way", "__fid": 4949}, "geometry": {"type": "LineString", "coordinates": [[2.2604582, 48.8453561], [2.2621117, 48.8478626], [2.2620911, 48.8478999]]}}, {"type": "Feature", "properties": {"highway": "footway", "footway": "crossing", "name": null, "surface": null, "lit": "yes", "length_m": 13.39, "type_element": "Way", "__fid": 4950}, "geometry": {"type": "LineString", "coordinates": [[2.2606385, 48.8453487], [2.2606036, 48.8453435], [2.2604582, 48.8453561]]}}, {"type": "Feature", "properties": {"highway": "footway", "footway": "sidewalk", "name": null, "surface": null, "lit": "yes", "length_m": 10.55, "type_element": "Way", "__fid": 4960}, "geometry": {"type": "LineString", "coordinates": [[2.2606308, 48.8452067], [2.2604907, 48.8451856]]}}, {"type": "Feature", "properties": {"highway": "footway", "footway": "crossing", "name": null, "surface": null, "lit": "yes", "length_m": 13.54, "type_element": "Way", "__fid": 4979}, "geometry": {"type": "LineString", "coordinates": [[2.2606587, 48.845326], [2.2606482, 48.845314299999984], [2.2606308, 48.8452067]]}}, {"type": "Feature", "properties": {"highway": "footway", "footway": "sidewalk", "name": null, "surface": null, "lit": "yes", "length_m": 70.61, "type_element": "Way", "__fid": 4980}, "geometry": {"type": "LineString", "coordinates": [[2.2615918, 48.8451769], [2.2606308, 48.8452067]]}}, {"type": "Feature", "properties": {"highway": "footway", "footway": "sidewalk", "name": null, "surface": null, "lit": "yes", "length_m": 114.3, "type_element": "Way", "__fid": 4981}, "geometry": {"type": "LineString", "coordinates": [[2.2612254, 48.8462911], [2.2606212, 48.8453681], [2.2606385, 48.8453487]]}}, {"type": "Feature", "properties": {"highway": "footway", "footway": "sidewalk", "name": null, "surface": null, "lit": "yes", "length_m": 2.93, "type_element": "Way", "__fid": 4982}, "geometry": {"type": "LineString", "coordinates": [[2.2606385, 48.8453487], [2.2606587, 48.845326]]}}, {"type": "Feature", "properties": {"highway": "footway", "footway": "sidewalk", "name": null, "surface": null, "lit": "yes", "length_m": 84.87, "type_element": "Way", "__fid": 4990}, "geometry": {"type": "LineString", "coordinates": [[2.2606587, 48.845326], [2.2618145, 48.8453022]]}}, {"type": "Feature", "properties": {"highway": "footway", "footway": null, "name": "Villa Erlanger", "surface": null, "lit": null, "length_m": 5.68, "type_element": "Way", "__fid": 5062}, "geometry": {"type": "LineString", "coordinates": [[2.2612254, 48.8462911], [2.2611541, 48.846311]]}}, {"type": "Feature", "properties": {"highway": "footway", "footway": "sidewalk", "name": null, "surface": null, "lit": "yes", "length_m": 150.5, "type_element": "Way", "__fid": 5080}, "geometry": {"type": "LineString", "coordinates": [[2.2620387, 48.8475336], [2.2612254, 48.8462911]]}}, {"type": "Feature", "properties": {"highway": "footway", "footway": null, "name": "Villa Erlanger", "surface": null, "lit": null, "length_m": 44.75, "type_element": "Way", "__fid": 5081}, "geometry": {"type": "LineString", "coordinates": [[2.2617873, 48.8461347], [2.2612254, 48.8462911]]}}, {"type": "Feature", "properties": {"highway": "service", "footway": null, "name": null, "surface": null, "lit": null, "length_m": 43.28, "type_element": "Way", "__fid": 5120}, "geometry": {"type": "LineString", "coordinates": [[2.2618368, 48.84209530000001], [2.2615092, 48.8417717]]}}, {"type": "Feature", "properties": {"highway": "service", "footway": null, "name": "Impasse Voltaire", "surface": null, "lit": null, "length_m": 51.01, "type_element": "Way", "__fid": 5122}, "geometry": {"type": "LineString", "coordinates": [[2.2615056, 48.843451299999984], [2.2620544, 48.84351560000001], [2.2621907, 48.84350280000001]]}}, {"type": "Feature", "properties": {"highway": "service", "footway": null, "name": "Villa Exelmans", "surface": null, "lit": null, "length_m": 9.97, "type_element": "Way", "__fid": 5128}, "geometry": {"type": "LineString", "coordinates": [[2.261551, 48.8424944], [2.2616266, 48.84256890000001]]}}, {"type": "Feature", "properties": {"highway": "service", "footway": null, "name": "Villa Exelmans", "surface": null, "lit": null, "length_m": 51.61, "type_element": "Way", "__fid": 5137}, "geometry": {"type": "LineString", "coordinates": [[2.2616266, 48.84256890000001], [2.2617385, 48.8426792], [2.2618092, 48.8427256], [2.2619961, 48.8426731], [2.2620684, 48.8427957]]}}, {"type": "Feature", "properties": {"highway": "footway", "footway": "sidewalk", "name": null, "surface": null, "lit": null, "length_m": 96.05, "type_element": "Way", "__fid": 5138}, "geometry": {"type": "LineString", "coordinates": [[2.2616266, 48.84256890000001], [2.2626653, 48.8420991], [2.2627144, 48.84209480000001]]}}, {"type": "Feature", "properties": {"highway": "footway", "footway": "sidewalk", "name": null, "surface": null, "lit": null, "length_m": 4.56, "type_element": "Way", "__fid": 5139}, "geometry": {"type": "LineString", "coordinates": [[2.2615918, 48.8451769], [2.2616539, 48.845178699999984]]}}, {"type": "Feature", "properties": {"highway": "footway", "footway": "sidewalk", "name": null, "surface": null, "lit": "yes", "length_m": 10.12, "type_element": "Way", "__fid": 5140}, "geometry": {"type": "LineString", "coordinates": [[2.2616619, 48.8450985], [2.2615918, 48.8451769]]}}, {"type": "Feature", "properties": {"highway": "footway", "footway": "sidewalk", "name": null, "surface": null, "lit": null, "length_m": 2.58, "type_element": "Way", "__fid": 5150}, "geometry": {"type": "LineString", "coordinates": [[2.2616539, 48.845178699999984], [2.2616879, 48.8451846]]}}, {"type": "Feature", "properties": {"highway": "steps", "footway": null, "name": null, "surface": null, "lit": null, "length_m": 10.32, "type_element": "Way", "__fid": 5151}, "geometry": {"type": "LineString", "coordinates": [[2.2616619, 48.8450985], [2.2616933, 48.8451344], [2.2616539, 48.845178699999984]]}}, {"type": "Feature", "properties": {"highway": "footway", "footway": "sidewalk", "name": null, "surface": null, "lit": null, "length_m": 7.46, "type_element": "Way", "__fid": 5152}, "geometry": {"type": "LineString", "coordinates": [[2.261722, 48.8451477], [2.2616951, 48.8451086], [2.2616619, 48.8450985]]}}, {"type": "Feature", "properties": {"highway": "footway", "footway": "crossing", "name": null, "surface": null, "lit": "yes", "length_m": 16.04, "type_element": "Way", "__fid": 5155}, "geometry": {"type": "LineString", "coordinates": [[2.2616879, 48.8451846], [2.2618145, 48.8453022]]}}, {"type": "Feature", "properties": {"highway": "footway", "footway": "sidewalk", "name": null, "surface": null, "lit": null, "length_m": 4.81, "type_element": "Way", "__fid": 5156}, "geometry": {"type": "LineString", "coordinates": [[2.2616879, 48.8451846], [2.261722, 48.8451477]]}}, {"type": "Feature", "properties": {"highway": "footway", "footway": "crossing", "name": null, "surface": null, "lit": "yes", "length_m": 16.28, "type_element": "Way", "__fid": 5171}, "geometry": {"type": "LineString", "coordinates": [[2.261722, 48.8451477], [2.261739, 48.8451527], [2.2618975, 48.8451525], [2.2619378, 48.84513970000002]]}}, {"type": "Feature", "properties": {"highway": "service", "footway": null, "name": null, "surface": null, "lit": null, "length_m": 6.0, "type_element": "Way", "__fid": 5189}, "geometry": {"type": "LineString", "coordinates": [[2.2618811, 48.84214069999999], [2.2618368, 48.84209530000001]]}}, {"type": "Feature", "properties": {"highway": "footway", "footway": "sidewalk", "name": null, "surface": null, "lit": null, "length_m": 69.48, "type_element": "Way", "__fid": 5190}, "geometry": {"type": "LineString", "coordinates": [[2.2626089, 48.84173540000001], [2.2625818, 48.84175660000001], [2.2618368, 48.84209530000001]]}}, {"type": "Feature", "properties": {"highway": "footway", "footway": "sidewalk", "name": null, "surface": null, "lit": "yes", "length_m": 5.05, "type_element": "Way", "__fid": 5192}, "geometry": {"type": "LineString", "coordinates": [[2.2618145, 48.8453022], [2.2618682, 48.8453306]]}}, {"type": "Feature", "properties": {"highway": "footway", "footway": "sidewalk", "name": null, "surface": null, "lit": "yes", "length_m": 326.39, "type_element": "Way", "__fid": 5201}, "geometry": {"type": "LineString", "coordinates": [[2.2618682, 48.8453306], [2.2639424, 48.84788319999998], [2.2639598, 48.8479203]]}}, {"type": "Feature", "properties": {"highway": "footway", "footway": "crossing", "name": null, "surface": null, "lit": "yes", "length_m": 14.8, "type_element": "Way", "__fid": 5202}, "geometry": {"type": "LineString", "coordinates": [[2.2618682, 48.8453306], [2.2618853, 48.845318], [2.2619793, 48.8453151], [2.2620201, 48.8453159], [2.2620581, 48.84532630000001]]}}, {"type": "Feature", "properties": {"highway": "footway", "footway": "sidewalk", "name": null, "surface": null, "lit": null, "length_m": 3.95, "type_element": "Way", "__fid": 5223}, "geometry": {"type": "LineString", "coordinates": [[2.2619704, 48.845168], [2.2619378, 48.84513970000002]]}}, {"type": "Feature", "properties": {"highway": "footway", "footway": "sidewalk", "name": null, "surface": null, "lit": null, "length_m": 150.86, "type_element": "Way", "__fid": 5228}, "geometry": {"type": "LineString", "coordinates": [[2.264024, 48.8451223], [2.2639962, 48.84511830000001], [2.2619704, 48.845168]]}}, {"type": "Feature", "properties": {"highway": "footway", "footway": "crossing", "name": null, "surface": null, "lit": "yes", "length_m": 17.46, "type_element": "Way", "__fid": 5229}, "geometry": {"type": "LineString", "coordinates": [[2.2620862, 48.8453025], [2.2620525, 48.8452794], [2.2619739, 48.8451857], [2.2619704, 48.845168]]}}, {"type": "Feature", "properties": {"highway": "footway", "footway": "sidewalk", "name": null, "surface": null, "lit": null, "length_m": 297.79, "type_element": "Way", "__fid": 5248}, "geometry": {"type": "LineString", "coordinates": [[2.2620581, 48.84532630000001], [2.2640089, 48.8476746]]}}, {"type": "Feature", "properties": {"highway": "footway", "footway": "sidewalk", "name": null, "surface": null, "lit": null, "length_m": 3.36, "type_element": "Way", "__fid": 5249}, "geometry": {"type": "LineString", "coordinates": [[2.2620862, 48.8453025], [2.2620581, 48.84532630000001]]}}, {"type": "Feature", "properties": {"highway": "footway", "footway": "sidewalk", "name": null, "surface": null, "lit": null, "length_m": 105.05, "type_element": "Way", "__fid": 5256}, "geometry": {"type": "LineString", "coordinates": [[2.2635162, 48.8452606], [2.2620862, 48.8453025]]}}, {"type": "Feature", "properties": {"highway": "service", "footway": null, "name": null, "surface": null, "lit": null, "length_m": 54.54, "type_element": "Way", "__fid": 5268}, "geometry": {"type": "LineString", "coordinates": [[2.2621275, 48.8447114], [2.2626301, 48.8446147], [2.2627033, 48.844478]]}}, {"type": "Feature", "properties": {"highway": "service", "footway": null, "name": "Avenue Molière", "surface": null, "lit": null, "length_m": 117.74, "type_element": "Way", "__fid": 5286}, "geometry": {"type": "LineString", "coordinates": [[2.2629137, 48.844448], [2.2621907, 48.84350280000001]]}}, {"type": "Feature", "properties": {"highway": "service", "footway": null, "name": "Avenue Despréaux", "surface": null, "lit": null, "length_m": 163.54, "type_element": "Way", "__fid": 5287}, "geometry": {"type": "LineString", "coordinates": [[2.2627033, 48.844478], [2.2617201, 48.8441327], [2.2616683, 48.84405789999999], [2.2621907, 48.84350280000001]]}}, {"type": "Feature", "properties": {"highway": "service", "footway": null, "name": "Impasse Racine", "surface": null, "lit": null, "length_m": 45.42, "type_element": "Way", "__fid": 5288}, "geometry": {"type": "LineString", "coordinates": [[2.2621907, 48.84350280000001], [2.2625127, 48.843154]]}}, {"type": "Feature", "properties": {"highway": "footway", "footway": "sidewalk", "name": null, "surface": null, "lit": null, "length_m": 84.03, "type_element": "Way", "__fid": 5330}, "geometry": {"type": "LineString", "coordinates": [[2.2623757, 48.8409956], [2.2625204, 48.8414828], [2.2626089, 48.84173540000001]]}}, {"type": "Feature", "properties": {"highway": "pedestrian", "footway": null, "name": "Rue Boileau", "surface": null, "lit": null, "length_m": 80.92, "type_element": "Way", "__fid": 5356}, "geometry": {"type": "LineString", "coordinates": [[2.2624421, 48.84099910000001], [2.2626677, 48.841711400000015]]}}, {"type": "Feature", "properties": {"highway": "footway", "footway": "sidewalk", "name": null, "surface": null, "lit": null, "length_m": 78.36, "type_element": "Way", "__fid": 5365}, "geometry": {"type": "LineString", "coordinates": [[2.2624935, 48.8409973], [2.2626265, 48.841452], [2.2626973, 48.8416525], [2.2627269, 48.84168240000002]]}}, {"type": "Feature", "properties": {"highway": "footway", "footway": "crossing", "name": null, "surface": null, "lit": null, "length_m": 5.24, "type_element": "Way", "__fid": 5390}, "geometry": {"type": "LineString", "coordinates": [[2.2626089, 48.84173540000001], [2.2626257, 48.8417344], [2.2626677, 48.841711400000015]]}}, {"type": "Feature", "properties": {"highway": "pedestrian", "footway": null, "name": "Rue Boileau", "surface": null, "lit": null, "length_m": 7.08, "type_element": "Way", "__fid": 5404}, "geometry": {"type": "LineString", "coordinates": [[2.2626677, 48.841711400000015], [2.2626953, 48.84177240000001]]}}, {"type": "Feature", "properties": {"highway": "footway", "footway": "crossing", "name": null, "surface": null, "lit": null, "length_m": 5.63, "type_element": "Way", "__fid": 5405}, "geometry": {"type": "LineString", "coordinates": [[2.2626677, 48.841711400000015], [2.2627225, 48.841691], [2.2627269, 48.84168240000002]]}}, {"type": "Feature", "properties": {"highway": "footway", "footway": "sidewalk", "name": null, "surface": null, "lit": null, "length_m": 258.77, "type_element": "Way", "__fid": 5414}, "geometry": {"type": "LineString", "coordinates": [[2.2627144, 48.84209480000001], [2.2627579, 48.8421239], [2.2630175, 48.8432582], [2.2635409, 48.8443437]]}}, {"type": "Feature", "properties": {"highway": "footway", "footway": "crossing", "name": null, "surface": null, "lit": null, "length_m": 12.39, "type_element": "Way", "__fid": 5415}, "geometry": {"type": "LineString", "coordinates": [[2.2628364, 48.8420314], [2.2628108, 48.8420322], [2.2627226, 48.8420706], [2.2627144, 48.84209480000001]]}}, {"type": "Feature", "properties": {"highway": "footway", "footway": "sidewalk", "name": null, "surface": null, "lit": null, "length_m": 78.16, "type_element": "Way", "__fid": 5417}, "geometry": {"type": "LineString", "coordinates": [[2.2627269, 48.84168240000002], [2.2627445, 48.8416857], [2.2636015, 48.8412892]]}}, {"type": "Feature", "properties": {"highway": "service", "footway": null, "name": "Avenue Despréaux", "surface": null, "lit": null, "length_m": 10.08, "type_element": "Way", "__fid": 5425}, "geometry": {"type": "LineString", "coordinates": [[2.2628381, 48.84446060000002], [2.2627033, 48.844478]]}}, {"type": "Feature", "properties": {"highway": "service", "footway": null, "name": "Impasse Corneille", "surface": null, "lit": null, "length_m": 63.3, "type_element": "Way", "__fid": 5430}, "geometry": {"type": "LineString", "coordinates": [[2.2627113, 48.8449883], [2.2626247, 48.8448545], [2.2626206, 48.84479090000002], [2.2628381, 48.84446060000002]]}}, {"type": "Feature", "properties": {"highway": "footway", "footway": "crossing", "name": null, "surface": null, "lit": null, "length_m": 8.03, "type_element": "Way", "__fid": 5437}, "geometry": {"type": "LineString", "coordinates": [[2.2628955, 48.84221159999998], [2.26278720000004, 48.842221600000094]]}}, {"type": "Feature", "properties": {"highway": "pedestrian", "footway": null, "name": "Rue de Musset", "surface": "asphalt", "lit": null, "length_m": 6.2, "type_element": "Way", "__fid": 5442}, "geometry": {"type": "LineString", "coordinates": [[2.2628084, 48.8421721], [2.2628902, 48.842158200000014]]}}, {"type": "Feature", "properties": {"highway": "footway", "footway": "sidewalk", "name": null, "surface": null, "lit": null, "length_m": 11.86, "type_element": "Way", "__fid": 5443}, "geometry": {"type": "LineString", "coordinates": [[2.2628782, 48.8421244], [2.2628523, 48.8421197], [2.2628364, 48.8420314]]}}, {"type": "Feature", "properties": {"highway": "footway", "footway": "sidewalk", "name": null, "surface": null, "lit": null, "length_m": 83.73, "type_element": "Way", "__fid": 5444}, "geometry": {"type": "LineString", "coordinates": [[2.2628364, 48.8420314], [2.2628456, 48.84201560000001], [2.263778733333299, 48.841612566666704]]}}, {"type": "Feature", "properties": {"highway": "service", "footway": null, "name": "Avenue Despréaux", "surface": null, "lit": null, "length_m": 5.72, "type_element": "Way", "__fid": 5450}, "geometry": {"type": "LineString", "coordinates": [[2.2629137, 48.844448], [2.2628381, 48.84446060000002]]}}, {"type": "Feature", "properties": {"highway": "footway", "footway": "sidewalk", "name": null, "surface": null, "lit": null, "length_m": 88.98, "type_element": "Way", "__fid": 5455}, "geometry": {"type": "LineString", "coordinates": [[2.2639904, 48.841885200000014], [2.2639979, 48.8419141], [2.2639399, 48.841929100000016], [2.2629019, 48.8421286], [2.2628782, 48.8421244]]}}, {"type": "Feature", "properties": {"highway": "footway", "footway": "crossing", "name": null, "surface": null, "lit": null, "length_m": 3.86, "type_element": "Way", "__fid": 5456}, "geometry": {"type": "LineString", "coordinates": [[2.2628782, 48.8421244], [2.2628902, 48.842158200000014]]}}, {"type": "Feature", "properties": {"highway": "footway", "footway": "crossing", "name": null, "surface": null, "lit": null, "length_m": 4.21, "type_element": "Way", "__fid": 5460}, "geometry": {"type": "LineString", "coordinates": [[2.2628902, 48.842158200000014], [2.2629, 48.842186], [2.2629111, 48.8421917]]}}, {"type": "Feature", "properties": {"highway": "pedestrian", "footway": null, "name": "Rue de Musset", "surface": "asphalt", "lit": null, "length_m": 86.07, "type_element": "Way", "__fid": 5461}, "geometry": {"type": "LineString", "coordinates": [[2.2628902, 48.842158200000014], [2.2640146, 48.8419383]]}}, {"type": "Feature", "properties": {"highway": "footway", "footway": "sidewalk", "name": null, "surface": null, "lit": null, "length_m": 262.71, "type_element": "Way", "__fid": 5465}, "geometry": {"type": "LineString", "coordinates": [[2.2647044, 48.8431092], [2.2646605, 48.8431312], [2.2632834, 48.84352229999999], [2.2632657, 48.8434973], [2.2629761, 48.8425714], [2.2628955, 48.84221159999998]]}}, {"type": "Feature", "properties": {"highway": "footway", "footway": "sidewalk", "name": null, "surface": null, "lit": null, "length_m": 2.82, "type_element": "Way", "__fid": 5466}, "geometry": {"type": "LineString", "coordinates": [[2.2628955, 48.84221159999998], [2.2628939, 48.8422009], [2.2629111, 48.8421917]]}}, {"type": "Feature", "properties": {"highway": "footway", "footway": "sidewalk", "name": null, "surface": null, "lit": null, "length_m": 87.56, "type_element": "Way", "__fid": 5467}, "geometry": {"type": "LineString", "coordinates": [[2.2629111, 48.8421917], [2.2629368, 48.842178], [2.2630588, 48.84215239999998], [2.2639493, 48.8419829], [2.2640535, 48.841992]]}}, {"type": "Feature", "properties": {"highway": "service", "footway": null, "name": "Avenue Despréaux", "surface": null, "lit": null, "length_m": 47.47, "type_element": "Way", "__fid": 5471}, "geometry": {"type": "LineString", "coordinates": [[2.2635409, 48.8443437], [2.2629137, 48.844448]]}}, {"type": "Feature", "properties": {"highway": "service", "footway": null, "name": "Villa Boileau", "surface": "sett", "lit": null, "length_m": 7.94, "type_element": "Way", "__fid": 5570}, "geometry": {"type": "LineString", "coordinates": [[2.2634767, 48.8451941], [2.2635162, 48.8452606]]}}, {"type": "Feature", "properties": {"highway": "service", "footway": null, "name": "Villa Boileau", "surface": "sett", "lit": null, "length_m": 43.71, "type_element": "Way", "__fid": 5577}, "geometry": {"type": "LineString", "coordinates": [[2.2635162, 48.8452606], [2.2637446, 48.845623600000025]]}}, {"type": "Feature", "properties": {"highway": "footway", "footway": "sidewalk", "name": null, "surface": null, "lit": null, "length_m": 43.87, "type_element": "Way", "__fid": 5578}, "geometry": {"type": "LineString", "coordinates": [[2.2641124, 48.8452494], [2.2640803, 48.8452441], [2.2635162, 48.8452606]]}}, {"type": "Feature", "properties": {"highway": "footway", "footway": "sidewalk", "name": null, "surface": null, "lit": null, "length_m": 93.41, "type_element": "Way", "__fid": 5579}, "geometry": {"type": "LineString", "coordinates": [[2.2635409, 48.8443437], [2.2636351, 48.8445416], [2.2640501, 48.8450595], [2.2640655, 48.8451051]]}}, {"type": "Feature", "properties": {"highway": "service", "footway": null, "name": "Avenue Despréaux", "surface": null, "lit": null, "length_m": 3.12, "type_element": "Way", "__fid": 5580}, "geometry": {"type": "LineString", "coordinates": [[2.2635819, 48.84433639999999], [2.2635409, 48.8443437]]}}, {"type": "Feature", "properties": {"highway": "footway", "footway": "sidewalk", "name": null, "surface": null, "lit": null, "length_m": 38.68, "type_element": "Way", "__fid": 5583}, "geometry": {"type": "LineString", "coordinates": [[2.263778733333299, 48.841612566666704], [2.2637865, 48.841587799999985], [2.2636015, 48.8412892]]}}, {"type": "Feature", "properties": {"highway": "footway", "footway": "sidewalk", "name": null, "surface": null, "lit": null, "length_m": 294.97, "type_element": "Way", "__fid": 5714}, "geometry": {"type": "LineString", "coordinates": [[2.2641806, 48.8450874], [2.2641376, 48.845053], [2.2637057, 48.8445092], [2.2635817, 48.844269], [2.2636061, 48.844243], [2.2635806, 48.84418140000002], [2.2633041, 48.8436118], [2.2633549, 48.8435677], [2.2647373, 48.84317729999999]]}}]}