{"type": "FeatureCollection", "features": [{"type": "Feature", "properties": {"@id": "node/503045630", "amenity": "drinking_water", "type_element": "Fontaines à boire", "__fid": 89}, "geometry": {"type": "Point", "coordinates": [2.261679, 48.8620807]}, "id": "node/503045630"}, {"type": "Feature", "properties": {"@id": "node/918204097", "FIXME": "verifier la position", "amenity": "drinking_water", "source": "Eau de Paris", "type_element": "Fontaines à boire", "__fid": 168}, "geometry": {"type": "Point", "coordinates": [2.2620126, 48.8635021]}, "id": "node/918204097"}, {"type": "Feature", "properties": {"@id": "node/5860490487", "amenity": "drinking_water", "type_element": "Fontaines à boire", "__fid": 578}, "geometry": {"type": "Point", "coordinates": [2.2595889, 48.8631879]}, "id": "node/5860490487"}, {"type": "Feature", "properties": {"@id": "node/6402116840", "amenity": "drinking_water", "type_element": "Fontaines à boire", "__fid": 622}, "geometry": {"type": "Point", "coordinates": [2.2620789, 48.8639207]}, "id": "node/6402116840"}, {"type": "Feature", "properties": {"@id": "node/8145701600", "amenity": "drinking_water", "type_element": "Fontaines à boire", "__fid": 737}, "geometry": {"type": "Point", "coordinates": [2.2577829, 48.8625074]}, "id": "node/8145701600"}, {"type": "Feature", "properties": {"highway": "path", "footway": null, "name": null, "surface": null, "lit": null, "length_m": 158.12, "type_element": "Way", "__fid": 3619}, "geometry": {"type": "LineString", "coordinates": [[2.2533438, 48.863339], [2.2535011, 48.8633331], [2.2538583, 48.863335100000015], [2.2544014, 48.86330310000002], [2.2544862, 48.8633148], [2.254607, 48.8635438], [2.2546609, 48.863588600000014], [2.2550082, 48.8637937], [2.2550126, 48.86385189999998]]}}, {"type": "Feature", "properties": {"highway": "path", "footway": null, "name": null, "surface": null, "lit": null, "length_m": 85.44, "type_element": "Way", "__fid": 3691}, "geometry": {"type": "LineString", "coordinates": [[2.2551183, 48.8616533], [2.2544848, 48.86183960000001], [2.2540385, 48.86193880000001]]}}, {"type": "Feature", "properties": {"highway": "path", "footway": null, "name": null, "surface": "grass", "lit": "no", "length_m": 76.48, "type_element": "Way", "__fid": 3696}, "geometry": {"type": "LineString", "coordinates": [[2.2540946, 48.8630797], [2.2544847, 48.8630554], [2.2548484, 48.8630669], [2.2551336, 48.8630489]]}}, {"type": "Feature", "properties": {"highway": "footway", "footway": null, "name": null, "surface": "compacted", "lit": "no", "length_m": 33.94, "type_element": "Way", "__fid": 3747}, "geometry": {"type": "LineString", "coordinates": [[2.2547979, 48.865094], [2.2543366, 48.8650705]]}}, {"type": "Feature", "properties": {"highway": "service", "footway": null, "name": null, "surface": null, "lit": null, "length_m": 97.67, "type_element": "Way", "__fid": 3756}, "geometry": {"type": "LineString", "coordinates": [[2.2548935, 48.860195900000015], [2.2547771, 48.85972369999998], [2.2546877, 48.8595972], [2.2544631, 48.8593831]]}}, {"type": "Feature", "properties": {"highway": "path", "footway": null, "name": null, "surface": null, "lit": null, "length_m": 41.83, "type_element": "Way", "__fid": 3765}, "geometry": {"type": "LineString", "coordinates": [[2.2544294, 48.86397239999999], [2.2546709, 48.8640094], [2.2547158, 48.8640059], [2.2549098, 48.864136400000014]]}}, {"type": "Feature", "properties": {"highway": "path", "footway": null, "name": null, "surface": null, "lit": null, "length_m": 54.78, "type_element": "Way", "__fid": 3766}, "geometry": {"type": "LineString", "coordinates": [[2.2544294, 48.86397239999999], [2.2545053, 48.8640301], [2.2547957, 48.8643208], [2.2548416, 48.86438179999998]]}}, {"type": "Feature", "properties": {"highway": "path", "footway": null, "name": null, "surface": "compacted", "lit": "no", "length_m": 179.0, "type_element": "Way", "__fid": 3783}, "geometry": {"type": "LineString", "coordinates": [[2.2558638, 48.860454899999986], [2.2555549, 48.8602011], [2.2551476, 48.85977089999999], [2.2545694, 48.859094]]}}, {"type": "Feature", "properties": {"highway": "path", "footway": null, "name": null, "surface": "compacted", "lit": null, "length_m": 56.91, "type_element": "Way", "__fid": 3786}, "geometry": {"type": "LineString", "coordinates": [[2.2551734, 48.86104739999998], [2.2548055, 48.861068], [2.2545738, 48.861288299999984]]}}, {"type": "Feature", "properties": {"highway": "service", "footway": null, "name": null, "surface": null, "lit": null, "length_m": 95.18, "type_element": "Way", "__fid": 3795}, "geometry": {"type": "LineString", "coordinates": [[2.2545638, 48.8643372], [2.2546349, 48.864451], [2.2547616, 48.8647246], [2.2550045, 48.86514170000002]]}}, {"type": "Feature", "properties": {"highway": "footway", "footway": null, "name": null, "surface": "compacted", "lit": "no", "length_m": 26.4, "type_element": "Way", "__fid": 3798}, "geometry": {"type": "LineString", "coordinates": [[2.2545759, 48.8649398], [2.2546886, 48.86495], [2.2547458, 48.8650026], [2.2547979, 48.865094]]}}, {"type": "Feature", "properties": {"highway": "path", "footway": null, "name": null, "surface": "grass", "lit": "no", "length_m": 51.02, "type_element": "Way", "__fid": 3814}, "geometry": {"type": "LineString", "coordinates": [[2.2546645, 48.86272970000001], [2.2549556, 48.86257280000002], [2.2551346, 48.8624877], [2.2552293, 48.8624688]]}}, {"type": "Feature", "properties": {"highway": "service", "footway": null, "name": null, "surface": null, "lit": null, "length_m": 29.87, "type_element": "Way", "__fid": 3842}, "geometry": {"type": "LineString", "coordinates": [[2.2548838, 48.8604637], [2.2549043, 48.8603135], [2.2548935, 48.860195900000015]]}}, {"type": "Feature", "properties": {"highway": "path", "footway": null, "name": null, "surface": null, "lit": null, "length_m": 83.22, "type_element": "Way", "__fid": 3845}, "geometry": {"type": "LineString", "coordinates": [[2.2548935, 48.860195900000015], [2.2550831, 48.86029570000002], [2.2552699, 48.8604471], [2.2556085, 48.8604667], [2.2558638, 48.860454899999986]]}}, {"type": "Feature", "properties": {"highway": "service", "footway": null, "name": null, "surface": null, "lit": null, "length_m": 34.07, "type_element": "Way", "__fid": 3867}, "geometry": {"type": "LineString", "coordinates": [[2.2550126, 48.86385189999998], [2.2549418, 48.8638444], [2.2548701, 48.8638493], [2.2548392, 48.86387], [2.2548319, 48.8639075], [2.2548439, 48.8639494], [2.2548942, 48.8639803], [2.2549721, 48.8640042]]}}, {"type": "Feature", "properties": {"highway": "service", "footway": null, "name": null, "surface": null, "lit": null, "length_m": 2.44, "type_element": "Way", "__fid": 3873}, "geometry": {"type": "LineString", "coordinates": [[2.2550442, 48.86385869999999], [2.2550126, 48.86385189999998]]}}, {"type": "Feature", "properties": {"highway": "pedestrian", "footway": null, "name": null, "surface": null, "lit": null, "length_m": 43.38, "type_element": "Way", "__fid": 3874}, "geometry": {"type": "LineString", "coordinates": [[2.2550126, 48.86385189999998], [2.2550167, 48.863907], [2.2551097, 48.8639764], [2.2553974, 48.8641271]]}}, {"type": "Feature", "properties": {"highway": "path", "footway": null, "name": null, "surface": null, "lit": null, "length_m": 82.72, "type_element": "Way", "__fid": 3884}, "geometry": {"type": "LineString", "coordinates": [[2.2551336, 48.8630489], [2.2550866, 48.863393899999984], [2.2550676, 48.8636237], [2.2550829, 48.8637908]]}}, {"type": "Feature", "properties": {"highway": "path", "footway": null, "name": null, "surface": null, "lit": null, "length_m": 95.76, "type_element": "Way", "__fid": 3885}, "geometry": {"type": "LineString", "coordinates": [[2.2551183, 48.8616533], [2.2551616, 48.8617495], [2.2551995, 48.8618974], [2.2553377, 48.8620114], [2.2553268, 48.8621753], [2.2552727, 48.8623695], [2.2552293, 48.8624688]]}}, {"type": "Feature", "properties": {"highway": "path", "footway": null, "name": null, "surface": null, "lit": null, "length_m": 67.94, "type_element": "Way", "__fid": 3886}, "geometry": {"type": "LineString", "coordinates": [[2.2551734, 48.86104739999998], [2.2551372, 48.861199], [2.2551427, 48.8613736], [2.2550993, 48.8615357], [2.2551183, 48.8616533]]}}, {"type": "Feature", "properties": {"highway": "path", "footway": null, "name": null, "surface": null, "lit": null, "length_m": 139.34, "type_element": "Way", "__fid": 3887}, "geometry": {"type": "LineString", "coordinates": [[2.2568871, 48.8613055], [2.2566809, 48.86135220000001], [2.2565265, 48.8614074], [2.2563288, 48.8615303], [2.2562368, 48.8615589], [2.2560661, 48.8615874], [2.2557357, 48.8615891], [2.2555272, 48.8616034], [2.2553485, 48.8616194], [2.2551183, 48.8616533]]}}, {"type": "Feature", "properties": {"highway": "path", "footway": null, "name": null, "surface": null, "lit": null, "length_m": 64.99, "type_element": "Way", "__fid": 3895}, "geometry": {"type": "LineString", "coordinates": [[2.2552293, 48.8624688], [2.255205, 48.86252450000002], [2.2551336, 48.8630489]]}}, {"type": "Feature", "properties": {"highway": "path", "footway": null, "name": null, "surface": "grass", "lit": "no", "length_m": 109.42, "type_element": "Way", "__fid": 3896}, "geometry": {"type": "LineString", "coordinates": [[2.2551336, 48.8630489], [2.2558441, 48.8630048], [2.2560415, 48.8629258], [2.2565845, 48.8628829]]}}, {"type": "Feature", "properties": {"highway": "path", "footway": null, "name": null, "surface": "compacted", "lit": null, "length_m": 88.28, "type_element": "Way", "__fid": 3898}, "geometry": {"type": "LineString", "coordinates": [[2.2559117, 48.86049420000001], [2.2553578, 48.8607203], [2.2552409, 48.86079320000001], [2.2551734, 48.86104739999998]]}}, {"type": "Feature", "properties": {"highway": "path", "footway": null, "name": null, "surface": "grass", "lit": "no", "length_m": 177.7, "type_element": "Way", "__fid": 3911}, "geometry": {"type": "LineString", "coordinates": [[2.2552293, 48.8624688], [2.2559145, 48.8623356], [2.2561907, 48.8622751], [2.2563911, 48.8622002], [2.2569084, 48.8619811], [2.2573175, 48.8617176]]}}, {"type": "Feature", "properties": {"highway": "pedestrian", "footway": null, "name": null, "surface": null, "lit": null, "length_m": 117.04, "type_element": "Way", "__fid": 3952}, "geometry": {"type": "LineString", "coordinates": [[2.2565962, 48.8648212], [2.2557842, 48.8643376], [2.2553974, 48.8641271]]}}, {"type": "Feature", "properties": {"highway": "footway", "footway": null, "name": null, "surface": null, "lit": null, "length_m": 101.51, "type_element": "Way", "__fid": 3953}, "geometry": {"type": "LineString", "coordinates": [[2.2553974, 48.8641271], [2.2558112, 48.8638452], [2.2561284, 48.8637279], [2.2565525, 48.863707200000015]]}}, {"type": "Feature", "properties": {"highway": "path", "footway": null, "name": null, "surface": null, "lit": null, "length_m": 95.94, "type_element": "Way", "__fid": 3994}, "geometry": {"type": "LineString", "coordinates": [[2.2556164, 48.8590709], [2.2558447, 48.8594083], [2.2559476, 48.8596221], [2.2560776, 48.85971830000001], [2.2562635, 48.859786]]}}, {"type": "Feature", "properties": {"highway": "path", "footway": null, "name": null, "surface": "compacted", "lit": "no", "length_m": 5.61, "type_element": "Way", "__fid": 4071}, "geometry": {"type": "LineString", "coordinates": [[2.2559117, 48.86049420000001], [2.2558638, 48.860454899999986]]}}, {"type": "Feature", "properties": {"highway": "path", "footway": null, "name": null, "surface": "compacted", "lit": "no", "length_m": 115.42, "type_element": "Way", "__fid": 4081}, "geometry": {"type": "LineString", "coordinates": [[2.2568871, 48.8613055], [2.2566228, 48.8610324], [2.2559117, 48.86049420000001]]}}, {"type": "Feature", "properties": {"highway": "path", "footway": null, "name": null, "surface": "compacted", "lit": null, "length_m": 42.78, "type_element": "Way", "__fid": 4082}, "geometry": {"type": "LineString", "coordinates": [[2.2564064, 48.86029050000002], [2.2559117, 48.86049420000001]]}}, {"type": "Feature", "properties": {"highway": "path", "footway": null, "name": null, "surface": null, "lit": null, "length_m": 57.74, "type_element": "Way", "__fid": 4149}, "geometry": {"type": "LineString", "coordinates": [[2.2564064, 48.86029050000002], [2.2563746, 48.8600953], [2.256275, 48.8599416], [2.2562635, 48.859786]]}}, {"type": "Feature", "properties": {"highway": "path", "footway": null, "name": null, "surface": null, "lit": null, "length_m": 117.38, "type_element": "Way", "__fid": 4150}, "geometry": {"type": "LineString", "coordinates": [[2.2562635, 48.859786], [2.2562635, 48.8597198], [2.2562788, 48.8596417], [2.2563516, 48.8595712], [2.256566, 48.8593167], [2.2567231, 48.8592109], [2.2570103, 48.8589816], [2.2571216, 48.858932]]}}, {"type": "Feature", "properties": {"highway": "path", "footway": null, "name": null, "surface": "grass", "lit": "no", "length_m": 32.73, "type_element": "Way", "__fid": 4152}, "geometry": {"type": "LineString", "coordinates": [[2.2565845, 48.8628829], [2.2562302, 48.8630617]]}}, {"type": "Feature", "properties": {"highway": "path", "footway": null, "name": null, "surface": "compacted", "lit": null, "length_m": 142.23, "type_element": "Way", "__fid": 4180}, "geometry": {"type": "LineString", "coordinates": [[2.2574452, 48.8592708], [2.2574199, 48.8592932], [2.2573025, 48.8594609], [2.2572076, 48.8597278], [2.2571426, 48.8598347], [2.2570749, 48.8599166], [2.256972, 48.8600129], [2.2569014, 48.8600554], [2.2566041, 48.8602092], [2.2564064, 48.86029050000002]]}}, {"type": "Feature", "properties": {"highway": "footway", "footway": null, "name": null, "surface": null, "lit": null, "length_m": 74.04, "type_element": "Way", "__fid": 4205}, "geometry": {"type": "LineString", "coordinates": [[2.2570282, 48.8642647], [2.2569613, 48.8641832], [2.2567825, 48.8640593], [2.2565206, 48.8637526], [2.2565525, 48.863707200000015]]}}, {"type": "Feature", "properties": {"highway": "footway", "footway": null, "name": null, "surface": null, "lit": null, "length_m": 69.98, "type_element": "Way", "__fid": 4206}, "geometry": {"type": "LineString", "coordinates": [[2.2565525, 48.863707200000015], [2.2574006, 48.8634191]]}}, {"type": "Feature", "properties": {"highway": "path", "footway": null, "name": null, "surface": "grass", "lit": "no", "length_m": 144.71, "type_element": "Way", "__fid": 4209}, "geometry": {"type": "LineString", "coordinates": [[2.2573175, 48.8617176], [2.2571582, 48.8623789], [2.2569518, 48.8625959], [2.2565845, 48.8628829]]}}, {"type": "Feature", "properties": {"highway": "path", "footway": null, "name": null, "surface": "grass", "lit": "no", "length_m": 82.24, "type_element": "Way", "__fid": 4210}, "geometry": {"type": "LineString", "coordinates": [[2.2565845, 48.8628829], [2.2576172, 48.86259530000002]]}}, {"type": "Feature", "properties": {"highway": "pedestrian", "footway": null, "name": null, "surface": null, "lit": null, "length_m": 39.5, "type_element": "Way", "__fid": 4215}, "geometry": {"type": "LineString", "coordinates": [[2.2569908, 48.8650629], [2.2565962, 48.8648212]]}}, {"type": "Feature", "properties": {"highway": "footway", "footway": null, "name": null, "surface": null, "lit": null, "length_m": 66.81, "type_element": "Way", "__fid": 4216}, "geometry": {"type": "LineString", "coordinates": [[2.2565962, 48.8648212], [2.2566395, 48.8647818], [2.2572276, 48.8645027], [2.2572797, 48.8644369]]}}, {"type": "Feature", "properties": {"highway": "path", "footway": null, "name": null, "surface": "compacted", "lit": "no", "length_m": 55.65, "type_element": "Way", "__fid": 4272}, "geometry": {"type": "LineString", "coordinates": [[2.2573175, 48.8617176], [2.2568871, 48.8613055]]}}, {"type": "Feature", "properties": {"highway": "path", "footway": null, "name": null, "surface": null, "lit": null, "length_m": 57.01, "type_element": "Way", "__fid": 4273}, "geometry": {"type": "LineString", "coordinates": [[2.25761, 48.8611331], [2.2574744, 48.8611384], [2.2572956, 48.8611829], [2.2570871, 48.8612578], [2.2568871, 48.8613055]]}}, {"type": "Feature", "properties": {"highway": "pedestrian", "footway": null, "name": null, "surface": null, "lit": null, "length_m": 33.69, "type_element": "Way", "__fid": 4303}, "geometry": {"type": "LineString", "coordinates": [[2.2573275, 48.865269], [2.2569908, 48.8650629]]}}, {"type": "Feature", "properties": {"highway": "footway", "footway": null, "name": null, "surface": null, "lit": null, "length_m": 78.51, "type_element": "Way", "__fid": 4304}, "geometry": {"type": "LineString", "coordinates": [[2.257846, 48.8646384], [2.2569908, 48.8650629]]}}, {"type": "Feature", "properties": {"highway": "path", "footway": null, "name": null, "surface": null, "lit": null, "length_m": 42.63, "type_element": "Way", "__fid": 4308}, "geometry": {"type": "LineString", "coordinates": [[2.2571216, 48.858932], [2.2574854, 48.8592309]]}}, {"type": "Feature", "properties": {"highway": "path", "footway": null, "name": null, "surface": "compacted", "lit": "no", "length_m": 82.06, "type_element": "Way", "__fid": 4342}, "geometry": {"type": "LineString", "coordinates": [[2.2577463, 48.8623989], [2.2575394, 48.8620942], [2.2573175, 48.8617176]]}}, {"type": "Feature", "properties": {"highway": "path", "footway": null, "name": null, "surface": "grass", "lit": "no", "length_m": 68.62, "type_element": "Way", "__fid": 4343}, "geometry": {"type": "LineString", "coordinates": [[2.25761, 48.8611331], [2.257507, 48.8612773], [2.2573175, 48.8617176]]}}, {"type": "Feature", "properties": {"highway": "footway", "footway": null, "name": null, "surface": null, "lit": null, "length_m": 47.61, "type_element": "Way", "__fid": 4344}, "geometry": {"type": "LineString", "coordinates": [[2.2572797, 48.8644369], [2.2573582, 48.8643187], [2.2574566, 48.864075100000015], [2.2574979, 48.8640368]]}}, {"type": "Feature", "properties": {"highway": "footway", "footway": null, "name": null, "surface": null, "lit": null, "length_m": 39.64, "type_element": "Way", "__fid": 4345}, "geometry": {"type": "LineString", "coordinates": [[2.25782, 48.8644362], [2.2572797, 48.8644369]]}}, {"type": "Feature", "properties": {"highway": "footway", "footway": null, "name": null, "surface": null, "lit": null, "length_m": 68.23, "type_element": "Way", "__fid": 4359}, "geometry": {"type": "LineString", "coordinates": [[2.2580153, 48.8648732], [2.2577571, 48.86495], [2.2573275, 48.865269]]}}, {"type": "Feature", "properties": {"highway": "path", "footway": null, "name": null, "surface": null, "lit": null, "length_m": 209.08, "type_element": "Way", "__fid": 4362}, "geometry": {"type": "LineString", "coordinates": [[2.2574452, 48.8592708], [2.2574531, 48.8594021], [2.2575057, 48.8594937], [2.2575055, 48.8597545], [2.2574716, 48.8598487], [2.2574819, 48.860077], [2.2575732, 48.86030860000001], [2.2575867, 48.8605384], [2.2575813, 48.86068990000001], [2.2576558, 48.8611313]]}}, {"type": "Feature", "properties": {"highway": "path", "footway": null, "name": null, "surface": "compacted", "lit": null, "length_m": 5.33, "type_element": "Way", "__fid": 4363}, "geometry": {"type": "LineString", "coordinates": [[2.2574854, 48.8592309], [2.2574452, 48.8592708]]}}, {"type": "Feature", "properties": {"highway": "footway", "footway": null, "name": null, "surface": null, "lit": null, "length_m": 80.21, "type_element": "Way", "__fid": 4370}, "geometry": {"type": "LineString", "coordinates": [[2.2574006, 48.8634191], [2.2575786, 48.8635256], [2.2576425, 48.8635977], [2.2576699, 48.86366680000001], [2.2576813, 48.863748], [2.2576654, 48.86389070000001], [2.2574979, 48.8640368]]}}, {"type": "Feature", "properties": {"highway": "footway", "footway": null, "name": null, "surface": null, "lit": null, "length_m": 41.07, "type_element": "Way", "__fid": 4371}, "geometry": {"type": "LineString", "coordinates": [[2.2574006, 48.8634191], [2.257887, 48.86323620000001]]}}, {"type": "Feature", "properties": {"highway": "path", "footway": null, "name": null, "surface": null, "lit": null, "length_m": 26.1, "type_element": "Way", "__fid": 4375}, "geometry": {"type": "LineString", "coordinates": [[2.2574854, 48.8592309], [2.2576959, 48.8594201]]}}, {"type": "Feature", "properties": {"highway": "path", "footway": null, "name": null, "surface": "compacted", "lit": null, "length_m": 22.16, "type_element": "Way", "__fid": 4376}, "geometry": {"type": "LineString", "coordinates": [[2.2576619, 48.8590692], [2.2574854, 48.8592309]]}}, {"type": "Feature", "properties": {"highway": "footway", "footway": null, "name": null, "surface": null, "lit": null, "length_m": 36.08, "type_element": "Way", "__fid": 4390}, "geometry": {"type": "LineString", "coordinates": [[2.2574979, 48.8640368], [2.2576069, 48.8640672], [2.2579719, 48.8641193]]}}, {"type": "Feature", "properties": {"highway": "path", "footway": null, "name": null, "surface": null, "lit": null, "length_m": 3.37, "type_element": "Way", "__fid": 4400}, "geometry": {"type": "LineString", "coordinates": [[2.2576558, 48.8611313], [2.25761, 48.8611331]]}}, {"type": "Feature", "properties": {"highway": "service", "footway": null, "name": "Chemin de Ceinture du Lac Inférieur", "surface": "asphalt", "lit": null, "length_m": 39.1, "type_element": "Way", "__fid": 4405}, "geometry": {"type": "LineString", "coordinates": [[2.2576619, 48.8590692], [2.2576959, 48.8594201]]}}, {"type": "Feature", "properties": {"highway": "path", "footway": null, "name": null, "surface": null, "lit": null, "length_m": 23.8, "type_element": "Way", "__fid": 4408}, "geometry": {"type": "LineString", "coordinates": [[2.2577463, 48.8623989], [2.2576172, 48.86259530000002]]}}, {"type": "Feature", "properties": {"highway": "path", "footway": null, "name": null, "surface": null, "lit": null, "length_m": 19.72, "type_element": "Way", "__fid": 4409}, "geometry": {"type": "LineString", "coordinates": [[2.2576172, 48.86259530000002], [2.257857, 48.8625151]]}}, {"type": "Feature", "properties": {"highway": "path", "footway": null, "name": null, "surface": null, "lit": null, "length_m": 142.74, "type_element": "Way", "__fid": 4414}, "geometry": {"type": "LineString", "coordinates": [[2.2576558, 48.8611313], [2.2576978, 48.8612119], [2.257825, 48.8617838], [2.2578223, 48.8620635], [2.2578061, 48.8622471], [2.2577463, 48.8623989]]}}, {"type": "Feature", "properties": {"highway": "path", "footway": null, "name": null, "surface": null, "lit": null, "length_m": 23.3, "type_element": "Way", "__fid": 4415}, "geometry": {"type": "LineString", "coordinates": [[2.2576558, 48.8611313], [2.2579325, 48.8610284]]}}, {"type": "Feature", "properties": {"highway": "service", "footway": null, "name": "Chemin de Ceinture du Lac Inférieur", "surface": "asphalt", "lit": null, "length_m": 179.8, "type_element": "Way", "__fid": 4418}, "geometry": {"type": "LineString", "coordinates": [[2.2576959, 48.8594201], [2.2577134, 48.8597664], [2.2577382, 48.859971600000016], [2.2578109, 48.86040839999998], [2.2579325, 48.8610284]]}}, {"type": "Feature", "properties": {"highway": "path", "footway": null, "name": null, "surface": "compacted", "lit": "no", "length_m": 15.26, "type_element": "Way", "__fid": 4429}, "geometry": {"type": "LineString", "coordinates": [[2.257857, 48.8625151], [2.2577463, 48.8623989]]}}, {"type": "Feature", "properties": {"highway": "footway", "footway": null, "name": null, "surface": null, "lit": null, "length_m": 22.65, "type_element": "Way", "__fid": 4449}, "geometry": {"type": "LineString", "coordinates": [[2.257846, 48.8646384], [2.2578507, 48.8645849], [2.25782, 48.8644362]]}}, {"type": "Feature", "properties": {"highway": "footway", "footway": null, "name": null, "surface": null, "lit": null, "length_m": 22.7, "type_element": "Way", "__fid": 4450}, "geometry": {"type": "LineString", "coordinates": [[2.25782, 48.8644362], [2.2578474, 48.86442990000002], [2.2579152, 48.864279], [2.2579557, 48.864286]]}}, {"type": "Feature", "properties": {"highway": "footway", "footway": null, "name": null, "surface": "compacted", "lit": "no", "length_m": 176.52, "type_element": "Way", "__fid": 4451}, "geometry": {"type": "LineString", "coordinates": [[2.257857, 48.8625151], [2.2579112, 48.862552], [2.2579097, 48.8626331], [2.2579401, 48.8626929], [2.2579607, 48.8632039], [2.2580203, 48.8635127], [2.2581771, 48.8638681], [2.2582769, 48.8640562]]}}, {"type": "Feature", "properties": {"highway": "footway", "footway": null, "name": null, "surface": null, "lit": null, "length_m": 28.91, "type_element": "Way", "__fid": 4452}, "geometry": {"type": "LineString", "coordinates": [[2.2580153, 48.8648732], [2.257846, 48.8646384]]}}, {"type": "Feature", "properties": {"highway": "service", "footway": null, "name": "Chemin de Ceinture du Lac Inférieur", "surface": "asphalt", "lit": null, "length_m": 42.36, "type_element": "Way", "__fid": 4457}, "geometry": {"type": "LineString", "coordinates": [[2.2579325, 48.8610284], [2.2579662, 48.8614087]]}}, {"type": "Feature", "properties": {"highway": "footway", "footway": null, "name": null, "surface": "dirt", "lit": "no", "length_m": 267.4, "type_element": "Way", "__fid": 4464}, "geometry": {"type": "LineString", "coordinates": [[2.2583834, 48.8613569], [2.2583952, 48.8613313], [2.2584142, 48.861124899999986], [2.2583961, 48.8610168], [2.2582781, 48.8606251], [2.2582728, 48.860438], [2.2582406, 48.8602192], [2.2582996, 48.8600392], [2.2583425, 48.8598275], [2.2583479, 48.8596792], [2.258321, 48.859527499999984], [2.2582674, 48.8593792], [2.2581882, 48.8592654], [2.2580398, 48.8591467], [2.2580035, 48.8590956], [2.2579931, 48.8590266]]}}, {"type": "Feature", "properties": {"highway": "footway", "footway": null, "name": null, "surface": "concrete", "lit": null, "length_m": 33.29, "type_element": "Way", "__fid": 4471}, "geometry": {"type": "LineString", "coordinates": [[2.2583834, 48.8613569], [2.258302, 48.8614032], [2.2582477, 48.861423], [2.258186, 48.8614266], [2.2581283, 48.86141640000001], [2.2579662, 48.8614087]]}}, {"type": "Feature", "properties": {"highway": "service", "footway": null, "name": "Chemin de Ceinture du Lac Inférieur", "surface": "asphalt", "lit": null, "length_m": 110.68, "type_element": "Way", "__fid": 4472}, "geometry": {"type": "LineString", "coordinates": [[2.2579662, 48.8614087], [2.2580353, 48.862403]]}}, {"type": "Feature", "properties": {"highway": "service", "footway": null, "name": "Chemin de Ceinture du Lac Inférieur", "surface": "asphalt", "lit": null, "length_m": 27.35, "type_element": "Way", "__fid": 4475}, "geometry": {"type": "LineString", "coordinates": [[2.2580353, 48.862403], [2.2579689, 48.862645]]}}, {"type": "Feature", "properties": {"highway": "footway", "footway": null, "name": null, "surface": null, "lit": null, "length_m": 120.62, "type_element": "Way", "__fid": 4478}, "geometry": {"type": "LineString", "coordinates": [[2.2579557, 48.864286], [2.258051, 48.8643073], [2.2580881, 48.8643646], [2.2580881, 48.864449600000015], [2.258164, 48.8644581], [2.2583739, 48.8644135], [2.2584854, 48.8646706], [2.2584692, 48.8647556], [2.2580153, 48.8648732]]}}, {"type": "Feature", "properties": {"highway": "footway", "footway": null, "name": null, "surface": null, "lit": null, "length_m": 18.57, "type_element": "Way", "__fid": 4479}, "geometry": {"type": "LineString", "coordinates": [[2.2579719, 48.8641193], [2.2579557, 48.864286]]}}, {"type": "Feature", "properties": {"highway": "footway", "footway": null, "name": null, "surface": null, "lit": null, "length_m": 24.11, "type_element": "Way", "__fid": 4484}, "geometry": {"type": "LineString", "coordinates": [[2.2579719, 48.8641193], [2.2580397, 48.86412640000001], [2.2582769, 48.8640562]]}}, {"type": "Feature", "properties": {"highway": "footway", "footway": null, "name": null, "surface": "asphalt", "lit": "no", "length_m": 6.13, "type_element": "Way", "__fid": 4489}, "geometry": {"type": "LineString", "coordinates": [[2.2580845, 48.8628411], [2.258001, 48.8628425]]}}, {"type": "Feature", "properties": {"highway": "service", "footway": null, "name": "Chemin de Ceinture du Lac Inférieur", "surface": "asphalt", "lit": "no", "length_m": 49.22, "type_element": "Way", "__fid": 4500}, "geometry": {"type": "LineString", "coordinates": [[2.2580353, 48.862403], [2.2580764, 48.8624855], [2.2580706, 48.8626102], [2.2580845, 48.8628411]]}}, {"type": "Feature", "properties": {"highway": "footway", "footway": null, "name": null, "surface": "concrete", "lit": "no", "length_m": 5.92, "type_element": "Way", "__fid": 4509}, "geometry": {"type": "LineString", "coordinates": [[2.2581379, 48.8633906], [2.2580577, 48.8633962]]}}, {"type": "Feature", "properties": {"highway": "footway", "footway": null, "name": null, "surface": "asphalt", "lit": "no", "length_m": 5.06, "type_element": "Way", "__fid": 4519}, "geometry": {"type": "LineString", "coordinates": [[2.2581508, 48.8628537], [2.2580845, 48.8628411]]}}, {"type": "Feature", "properties": {"highway": "service", "footway": null, "name": "Chemin de Ceinture du Lac Inférieur", "surface": "asphalt", "lit": "no", "length_m": 61.29, "type_element": "Way", "__fid": 4520}, "geometry": {"type": "LineString", "coordinates": [[2.2580845, 48.8628411], [2.2581001, 48.8631907], [2.2581379, 48.8633906]]}}, {"type": "Feature", "properties": {"highway": "footway", "footway": null, "name": null, "surface": "compacted", "lit": "no", "length_m": 200.72, "type_element": "Way", "__fid": 4521}, "geometry": {"type": "LineString", "coordinates": [[2.2595441, 48.8601445], [2.2594461, 48.8599522], [2.2590965, 48.859486], [2.2590452, 48.8593653], [2.258897, 48.8590761], [2.2588157, 48.8589538], [2.2587478, 48.858892], [2.2586909, 48.858862], [2.2585152, 48.8587743], [2.2583959, 48.85873380000001], [2.2582074, 48.85872590000002], [2.2581548, 48.858730499999986]]}}, {"type": "Feature", "properties": {"highway": "service", "footway": null, "name": "Chemin de Ceinture du Lac Inférieur", "surface": "asphalt", "lit": "no", "length_m": 94.85, "type_element": "Way", "__fid": 4535}, "geometry": {"type": "LineString", "coordinates": [[2.2581379, 48.8633906], [2.2582275, 48.8636724], [2.2583851, 48.8639702], [2.2585462, 48.8641961]]}}, {"type": "Feature", "properties": {"highway": "footway", "footway": null, "name": null, "surface": "concrete", "lit": "no", "length_m": 18.37, "type_element": "Way", "__fid": 4536}, "geometry": {"type": "LineString", "coordinates": [[2.2583872, 48.863375], [2.2581379, 48.8633906]]}}, {"type": "Feature", "properties": {"highway": "footway", "footway": null, "name": null, "surface": "dirt", "lit": "no", "length_m": 61.95, "type_element": "Way", "__fid": 4537}, "geometry": {"type": "LineString", "coordinates": [[2.2583872, 48.863375], [2.2583472, 48.86308180000001], [2.258188, 48.86288589999999], [2.2581508, 48.8628537]]}}, {"type": "Feature", "properties": {"highway": "footway", "footway": null, "name": null, "surface": "dirt", "lit": "no", "length_m": 14.03, "type_element": "Way", "__fid": 4538}, "geometry": {"type": "LineString", "coordinates": [[2.2581508, 48.8628537], [2.2582121, 48.86273420000001]]}}, {"type": "Feature", "properties": {"highway": "footway", "footway": null, "name": null, "surface": "dirt", "lit": "no", "length_m": 12.69, "type_element": "Way", "__fid": 4551}, "geometry": {"type": "LineString", "coordinates": [[2.2582121, 48.86273420000001], [2.2583851, 48.8627359]]}}, {"type": "Feature", "properties": {"highway": "footway", "footway": null, "name": null, "surface": "dirt", "lit": "no", "length_m": 159.19, "type_element": "Way", "__fid": 4552}, "geometry": {"type": "LineString", "coordinates": [[2.2582121, 48.86273420000001], [2.2582567, 48.8626389], [2.2583982, 48.8625131], [2.2584659, 48.8623473], [2.258482, 48.8621144], [2.2584283, 48.8620014], [2.2583479, 48.8617474], [2.2583425, 48.8615414], [2.2583834, 48.8613569]]}}, {"type": "Feature", "properties": {"highway": "footway", "footway": null, "name": null, "surface": "compacted", "lit": "no", "length_m": 146.58, "type_element": "Way", "__fid": 4572}, "geometry": {"type": "LineString", "coordinates": [[2.2582769, 48.8640562], [2.2586614, 48.86452879999999], [2.2590604, 48.8649173], [2.2593688, 48.8651546]]}}, {"type": "Feature", "properties": {"highway": "footway", "footway": null, "name": null, "surface": "dirt", "lit": "no", "length_m": 84.19, "type_element": "Way", "__fid": 4581}, "geometry": {"type": "LineString", "coordinates": [[2.2586654, 48.8640976], [2.2586326, 48.8640368], [2.2586154, 48.863948600000015], [2.2584109, 48.863653100000015], [2.2584119, 48.8635626], [2.2583872, 48.863375]]}}, {"type": "Feature", "properties": {"highway": "footway", "footway": null, "name": null, "surface": "compacted", "lit": null, "length_m": 5.2, "type_element": "Way", "__fid": 4599}, "geometry": {"type": "LineString", "coordinates": [[2.2585462, 48.8641961], [2.2584955, 48.8642288]]}}, {"type": "Feature", "properties": {"highway": "service", "footway": null, "name": "Chemin de Ceinture du Lac Inférieur", "surface": "asphalt", "lit": "no", "length_m": 212.1, "type_element": "Way", "__fid": 4609}, "geometry": {"type": "LineString", "coordinates": [[2.2585462, 48.8641961], [2.2587338, 48.8644205], [2.2589591, 48.864657399999984], [2.2592987, 48.86496420000001], [2.2600022, 48.8654898], [2.2603039, 48.8657013]]}}, {"type": "Feature", "properties": {"highway": "footway", "footway": null, "name": null, "surface": "compacted", "lit": null, "length_m": 14.16, "type_element": "Way", "__fid": 4610}, "geometry": {"type": "LineString", "coordinates": [[2.2586654, 48.8640976], [2.2586352, 48.8641365], [2.2585462, 48.8641961]]}}, {"type": "Feature", "properties": {"highway": "footway", "footway": null, "name": null, "surface": "dirt", "lit": "no", "length_m": 241.55, "type_element": "Way", "__fid": 4640}, "geometry": {"type": "LineString", "coordinates": [[2.2606336, 48.8657922], [2.260381, 48.86559750000002], [2.2603287, 48.8654916], [2.2602146, 48.8653249], [2.2600484, 48.8652023], [2.2598177, 48.8650576], [2.259638, 48.8649715], [2.2595398, 48.864885700000016], [2.2590399, 48.8645071], [2.2589218, 48.86444], [2.2588621, 48.8642953], [2.2588199, 48.8642283], [2.2586654, 48.8640976]]}}, {"type": "Feature", "properties": {"highway": "footway", "footway": null, "name": null, "surface": null, "lit": null, "length_m": 129.59, "type_element": "Way", "__fid": 4749}, "geometry": {"type": "LineString", "coordinates": [[2.2591877, 48.85888760000001], [2.2590857, 48.858962800000015], [2.2590447, 48.8591068], [2.2591364, 48.8593122], [2.2592817, 48.8595761], [2.259382, 48.8596851], [2.2595432, 48.8597924], [2.2597367, 48.85986010000001]]}}, {"type": "Feature", "properties": {"highway": "steps", "footway": null, "name": null, "surface": "compacted", "lit": "no", "length_m": 16.7, "type_element": "Way", "__fid": 4822}, "geometry": {"type": "LineString", "coordinates": [[2.2595441, 48.8601445], [2.2595975, 48.86017480000001], [2.2596525, 48.8602447], [2.2596816, 48.8602606]]}}, {"type": "Feature", "properties": {"highway": "footway", "footway": null, "name": null, "surface": "compacted", "lit": "no", "length_m": 13.81, "type_element": "Way", "__fid": 4823}, "geometry": {"type": "LineString", "coordinates": [[2.2595441, 48.8601445], [2.2596015, 48.8602628]]}}, {"type": "Feature", "properties": {"highway": "footway", "footway": null, "name": null, "surface": "compacted", "lit": "no", "length_m": 134.57, "type_element": "Way", "__fid": 4847}, "geometry": {"type": "LineString", "coordinates": [[2.2596816, 48.8602606], [2.2596729, 48.8603727], [2.2596847, 48.8604702], [2.2597598, 48.8606625], [2.2599173, 48.8609162], [2.260024, 48.86106870000002], [2.2602095, 48.861302], [2.2602891, 48.8613823]]}}, {"type": "Feature", "properties": {"highway": "steps", "footway": null, "name": null, "surface": "compacted", "lit": "no", "length_m": 16.53, "type_element": "Way", "__fid": 4848}, "geometry": {"type": "LineString", "coordinates": [[2.2596816, 48.8602606], [2.2596914, 48.8601498], [2.2597269, 48.8601203]]}}, {"type": "Feature", "properties": {"highway": "footway", "footway": "sidewalk", "name": null, "surface": null, "lit": null, "length_m": 182.04, "type_element": "Way", "__fid": 4854}, "geometry": {"type": "LineString", "coordinates": [[2.2610053, 48.86149390000001], [2.2607292, 48.8613083], [2.2604158, 48.8610752], [2.2601597, 48.8608359], [2.2600262, 48.8606754], [2.2599089, 48.86048130000001], [2.2597269, 48.8601203]]}}, {"type": "Feature", "properties": {"highway": "footway", "footway": null, "name": null, "surface": null, "lit": null, "length_m": 8.83, "type_element": "Way", "__fid": 4855}, "geometry": {"type": "LineString", "coordinates": [[2.2597269, 48.8601203], [2.259842, 48.860097]]}}, {"type": "Feature", "properties": {"highway": "service", "footway": null, "name": "Chemin de Ceinture du Lac Inférieur", "surface": "asphalt", "lit": null, "length_m": 27.45, "type_element": "Way", "__fid": 4856}, "geometry": {"type": "LineString", "coordinates": [[2.2597367, 48.85986010000001], [2.259842, 48.860097]]}}, {"type": "Feature", "properties": {"highway": "track", "footway": null, "name": null, "surface": null, "lit": null, "length_m": 22.17, "type_element": "Way", "__fid": 4857}, "geometry": {"type": "LineString", "coordinates": [[2.2597367, 48.85986010000001], [2.2598669, 48.8598077], [2.2599322, 48.8597188]]}}, {"type": "Feature", "properties": {"highway": "service", "footway": null, "name": "Chemin de Ceinture du Lac Inférieur", "surface": "asphalt", "lit": null, "length_m": 40.89, "type_element": "Way", "__fid": 4868}, "geometry": {"type": "LineString", "coordinates": [[2.259842, 48.860097], [2.2600208, 48.860445300000016]]}}, {"type": "Feature", "properties": {"highway": "track", "footway": null, "name": null, "surface": null, "lit": null, "length_m": 63.79, "type_element": "Way", "__fid": 4883}, "geometry": {"type": "LineString", "coordinates": [[2.2599322, 48.8597188], [2.2599058, 48.8591454]]}}, {"type": "Feature", "properties": {"highway": "path", "footway": null, "name": null, "surface": null, "lit": null, "length_m": 87.8, "type_element": "Way", "__fid": 4893}, "geometry": {"type": "LineString", "coordinates": [[2.2602853, 48.8604528], [2.2602278, 48.8603952], [2.2601205, 48.85993460000001], [2.2600615, 48.8598508], [2.2599784, 48.85980290000001], [2.2599322, 48.8597188]]}}, {"type": "Feature", "properties": {"highway": "track", "footway": null, "name": "Allée des Dames", "surface": null, "lit": null, "length_m": 6.72, "type_element": "Way", "__fid": 4909}, "geometry": {"type": "LineString", "coordinates": [[2.2600208, 48.860445300000016], [2.2601123, 48.8604479]]}}, {"type": "Feature", "properties": {"highway": "service", "footway": null, "name": "Chemin de Ceinture du Lac Inférieur", "surface": "asphalt", "lit": null, "length_m": 197.63, "type_element": "Way", "__fid": 4910}, "geometry": {"type": "LineString", "coordinates": [[2.2600208, 48.860445300000016], [2.2601416, 48.860671], [2.2603024, 48.860861], [2.2605262, 48.8610522], [2.261197, 48.8615283], [2.2616498, 48.8618358]]}}, {"type": "Feature", "properties": {"highway": "track", "footway": null, "name": "Allée des Dames", "surface": null, "lit": null, "length_m": 12.7, "type_element": "Way", "__fid": 4925}, "geometry": {"type": "LineString", "coordinates": [[2.2601123, 48.8604479], [2.2602853, 48.8604528]]}}, {"type": "Feature", "properties": {"highway": "footway", "footway": "sidewalk", "name": null, "surface": null, "lit": null, "length_m": 201.72, "type_element": "Way", "__fid": 4926}, "geometry": {"type": "LineString", "coordinates": [[2.2601123, 48.8604479], [2.260154, 48.8605279], [2.2602712, 48.8606986], [2.2603568, 48.8607983], [2.2604888, 48.860918599999984], [2.2609737, 48.8612825], [2.2614203, 48.8615755], [2.2617409, 48.861755299999984], [2.2618666, 48.8618134]]}}, {"type": "Feature", "properties": {"highway": "track", "footway": null, "name": "Allée des Dames", "surface": null, "lit": null, "length_m": 191.1, "type_element": "Way", "__fid": 4961}, "geometry": {"type": "LineString", "coordinates": [[2.2602853, 48.8604528], [2.262888, 48.8605187]]}}, {"type": "Feature", "properties": {"highway": "path", "footway": null, "name": null, "surface": null, "lit": null, "length_m": 193.6, "type_element": "Way", "__fid": 4962}, "geometry": {"type": "LineString", "coordinates": [[2.2619177, 48.8618081], [2.2619026, 48.86176970000001], [2.261857, 48.861709], [2.2614535, 48.8614248], [2.2611554, 48.8612015], [2.2609925, 48.8610979], [2.2605379, 48.8606481], [2.2602853, 48.8604528]]}}, {"type": "Feature", "properties": {"highway": "footway", "footway": null, "name": null, "surface": null, "lit": null, "length_m": 54.75, "type_element": "Way", "__fid": 4965}, "geometry": {"type": "LineString", "coordinates": [[2.2602891, 48.8613823], [2.2604239, 48.8614297], [2.2606512, 48.8614704], [2.260973, 48.861499], [2.2610053, 48.86149390000001]]}}, {"type": "Feature", "properties": {"highway": "footway", "footway": null, "name": null, "surface": "compacted", "lit": "no", "length_m": 196.5, "type_element": "Way", "__fid": 4966}, "geometry": {"type": "LineString", "coordinates": [[2.2602891, 48.8613823], [2.2603877, 48.8614826], [2.2606546, 48.8617173], [2.2608061, 48.8618841], [2.2608315, 48.86196969999999], [2.2608557, 48.8621205], [2.2609322, 48.8623773], [2.2610502, 48.8625776], [2.2611521, 48.862694], [2.2614475, 48.8629349]]}}, {"type": "Feature", "properties": {"highway": "path", "footway": null, "name": null, "surface": null, "lit": null, "length_m": 298.82, "type_element": "Way", "__fid": 4967}, "geometry": {"type": "LineString", "coordinates": [[2.2603377, 48.8586235], [2.2607751, 48.85894570000002], [2.2609122, 48.8590653], [2.2610693, 48.8592731], [2.2612141, 48.8595224], [2.2613374, 48.8596268], [2.2614529, 48.8596856], [2.2615654, 48.85972], [2.2616886, 48.8597403], [2.2618735, 48.85974330000001], [2.2621992, 48.8598288], [2.262405, 48.8599113], [2.2625067, 48.8599953], [2.2625327, 48.86004669999998], [2.2625398, 48.8601354], [2.262632, 48.8602707], [2.2627621, 48.8604077], [2.262888, 48.8605187]]}}, {"type": "Feature", "properties": {"highway": "footway", "footway": "sidewalk", "name": null, "surface": null, "lit": null, "length_m": 19.78, "type_element": "Way", "__fid": 5079}, "geometry": {"type": "LineString", "coordinates": [[2.261177, 48.861631], [2.2610053, 48.86149390000001]]}}, {"type": "Feature", "properties": {"highway": "footway", "footway": "sidewalk", "name": null, "surface": null, "lit": null, "length_m": 72.08, "type_element": "Way", "__fid": 5110}, "geometry": {"type": "LineString", "coordinates": [[2.2617534, 48.8621525], [2.2615866, 48.8619573], [2.2614631, 48.861844], [2.261177, 48.861631]]}}, {"type": "Feature", "properties": {"highway": "footway", "footway": null, "name": null, "surface": null, "lit": null, "length_m": 155.04, "type_element": "Way", "__fid": 5111}, "geometry": {"type": "LineString", "coordinates": [[2.261177, 48.861631], [2.2611516, 48.86166240000002], [2.2610891, 48.8619556], [2.2611052, 48.8621532], [2.2612071, 48.8623649], [2.2613841, 48.8625132], [2.2616389, 48.8626587], [2.2617489, 48.8627567], [2.2618288, 48.8628528]]}}, {"type": "Feature", "properties": {"highway": "footway", "footway": null, "name": null, "surface": "compacted", "lit": "no", "length_m": 6.16, "type_element": "Way", "__fid": 5163}, "geometry": {"type": "LineString", "coordinates": [[2.2614475, 48.8629349], [2.2614954, 48.8629804]]}}, {"type": "Feature", "properties": {"highway": "steps", "footway": null, "name": null, "surface": null, "lit": null, "length_m": 33.22, "type_element": "Way", "__fid": 5164}, "geometry": {"type": "LineString", "coordinates": [[2.2618288, 48.8628528], [2.2617164, 48.8628245], [2.2616577, 48.8628237], [2.2615786, 48.8628466], [2.2614475, 48.8629349]]}}, {"type": "Feature", "properties": {"highway": "footway", "footway": null, "name": null, "surface": null, "lit": null, "length_m": 1.83, "type_element": "Way", "__fid": 5172}, "geometry": {"type": "LineString", "coordinates": [[2.2614954, 48.8629804], [2.2614737, 48.8629885]]}}, {"type": "Feature", "properties": {"highway": "footway", "footway": null, "name": null, "surface": "compacted", "lit": "no", "length_m": 73.16, "type_element": "Way", "__fid": 5179}, "geometry": {"type": "LineString", "coordinates": [[2.2614954, 48.8629804], [2.2615772, 48.8630743], [2.2616094, 48.8632154], [2.2615508, 48.8634593], [2.2615611, 48.8635154], [2.2616016, 48.863615400000015]]}}, {"type": "Feature", "properties": {"highway": "footway", "footway": null, "name": null, "surface": "compacted", "lit": "no", "length_m": 123.3, "type_element": "Way", "__fid": 5199}, "geometry": {"type": "LineString", "coordinates": [[2.2616016, 48.863615400000015], [2.2616416, 48.8638824], [2.2616708, 48.8640081], [2.2617295, 48.8640955], [2.2618622, 48.8642185], [2.2619766, 48.864310299999985], [2.2621332, 48.8643888], [2.2624267, 48.86448940000003]]}}, {"type": "Feature", "properties": {"highway": "footway", "footway": null, "name": null, "surface": null, "lit": null, "length_m": 34.66, "type_element": "Way", "__fid": 5200}, "geometry": {"type": "LineString", "coordinates": [[2.2616016, 48.863615400000015], [2.2617995, 48.8633324]]}}, {"type": "Feature", "properties": {"highway": "path", "footway": null, "name": "Chemin de Ceinture du Lac Inférieur", "surface": null, "lit": null, "length_m": 28.72, "type_element": "Way", "__fid": 5207}, "geometry": {"type": "LineString", "coordinates": [[2.2616498, 48.8618358], [2.2618635, 48.8618606], [2.2619336, 48.8618952], [2.2619366, 48.8619525]]}}, {"type": "Feature", "properties": {"highway": "path", "footway": null, "name": "Chemin de Ceinture du Lac Inférieur", "surface": null, "lit": null, "length_m": 25.69, "type_element": "Way", "__fid": 5208}, "geometry": {"type": "LineString", "coordinates": [[2.261762, 48.8620333], [2.2617082, 48.8620158], [2.2616534, 48.8619643], [2.2616498, 48.8618358]]}}, {"type": "Feature", "properties": {"highway": "path", "footway": null, "name": null, "surface": null, "lit": null, "length_m": 16.1, "type_element": "Way", "__fid": 5209}, "geometry": {"type": "LineString", "coordinates": [[2.2616498, 48.8618358], [2.2618666, 48.8618134]]}}, {"type": "Feature", "properties": {"highway": "footway", "footway": "sidewalk", "name": null, "surface": null, "lit": null, "length_m": 82.86, "type_element": "Way", "__fid": 5235}, "geometry": {"type": "LineString", "coordinates": [[2.2618871, 48.8628861], [2.2619009, 48.86268349999999], [2.2618915, 48.86255989999999], [2.2618718, 48.8624528], [2.2618366, 48.862347], [2.2618044, 48.862252099999985], [2.2617534, 48.8621525]]}}, {"type": "Feature", "properties": {"highway": "footway", "footway": "crossing", "name": null, "surface": null, "lit": null, "length_m": 19.68, "type_element": "Way", "__fid": 5236}, "geometry": {"type": "LineString", "coordinates": [[2.2617534, 48.8621525], [2.2620214, 48.862146]]}}, {"type": "Feature", "properties": {"highway": "footway", "footway": "sidewalk", "name": null, "surface": null, "lit": null, "length_m": 138.39, "type_element": "Way", "__fid": 5245}, "geometry": {"type": "LineString", "coordinates": [[2.2624914, 48.8644566], [2.262182, 48.8641848], [2.262099, 48.8640982], [2.2619766, 48.8639412], [2.2618864, 48.8637801], [2.2618189, 48.8636048], [2.2617971, 48.8634444], [2.2617995, 48.8633324]]}}, {"type": "Feature", "properties": {"highway": "footway", "footway": "sidewalk", "name": null, "surface": null, "lit": null, "length_m": 50.04, "type_element": "Way", "__fid": 5246}, "geometry": {"type": "LineString", "coordinates": [[2.2617995, 48.8633324], [2.2618871, 48.8628861]]}}, {"type": "Feature", "properties": {"highway": "footway", "footway": null, "name": null, "surface": null, "lit": null, "length_m": 5.66, "type_element": "Way", "__fid": 5254}, "geometry": {"type": "LineString", "coordinates": [[2.2618288, 48.8628528], [2.2618871, 48.8628861]]}}, {"type": "Feature", "properties": {"highway": "footway", "footway": "sidewalk", "name": null, "surface": null, "lit": null, "length_m": 181.12, "type_element": "Way", "__fid": 5262}, "geometry": {"type": "LineString", "coordinates": [[2.2618666, 48.8618134], [2.2621405, 48.8619407], [2.2625003, 48.8620609], [2.2628029, 48.8621433], [2.2635535, 48.8623257], [2.2640137, 48.8624136], [2.2641359, 48.862427899999986]]}}, {"type": "Feature", "properties": {"highway": "path", "footway": null, "name": null, "surface": null, "lit": null, "length_m": 3.8, "type_element": "Way", "__fid": 5263}, "geometry": {"type": "LineString", "coordinates": [[2.2618666, 48.8618134], [2.2619177, 48.8618081]]}}, {"type": "Feature", "properties": {"highway": "path", "footway": null, "name": null, "surface": null, "lit": null, "length_m": 206.23, "type_element": "Way", "__fid": 5283}, "geometry": {"type": "LineString", "coordinates": [[2.2619177, 48.8618081], [2.2620757, 48.8617475], [2.2623039, 48.8616978], [2.2624004, 48.8616423], [2.2625479, 48.8614805], [2.263323, 48.8609042], [2.2639132, 48.8605421]]}}, {"type": "Feature", "properties": {"highway": "service", "footway": null, "name": "Chemin de Ceinture du Lac Inférieur", "surface": "asphalt", "lit": null, "length_m": 37.55, "type_element": "Way", "__fid": 5306}, "geometry": {"type": "LineString", "coordinates": [[2.2621352, 48.8640204], [2.2620895, 48.8639649], [2.2619544, 48.8637052]]}}, {"type": "Feature", "properties": {"highway": "footway", "footway": "sidewalk", "name": null, "surface": null, "lit": null, "length_m": 106.1, "type_element": "Way", "__fid": 5320}, "geometry": {"type": "LineString", "coordinates": [[2.2620214, 48.862146], [2.2620839, 48.8624121], [2.2621201, 48.8626816], [2.2620495, 48.8630933]]}}, {"type": "Feature", "properties": {"highway": "footway", "footway": "sidewalk", "name": null, "surface": null, "lit": null, "length_m": 112.92, "type_element": "Way", "__fid": 5321}, "geometry": {"type": "LineString", "coordinates": [[2.2634075, 48.8624431], [2.2629503, 48.8623313], [2.2621389, 48.86209620000001], [2.2620705, 48.862097100000014], [2.2620343, 48.86211029999998], [2.2620214, 48.862146]]}}, {"type": "Feature", "properties": {"highway": "path", "footway": null, "name": null, "surface": null, "lit": null, "length_m": 124.39, "type_element": "Way", "__fid": 5324}, "geometry": {"type": "LineString", "coordinates": [[2.2635584, 48.863301799999974], [2.263525, 48.8633625], [2.2633078, 48.8634362], [2.2630299, 48.8634546], [2.2628, 48.8635379], [2.2624482, 48.8636188], [2.262024, 48.8635434]]}}, {"type": "Feature", "properties": {"highway": "footway", "footway": null, "name": null, "surface": null, "lit": null, "length_m": 53.25, "type_element": "Way", "__fid": 5325}, "geometry": {"type": "LineString", "coordinates": [[2.262024, 48.8635434], [2.2620584, 48.863687], [2.262098, 48.8637769], [2.2621905, 48.8639247], [2.262248, 48.8639951]]}}, {"type": "Feature", "properties": {"highway": "footway", "footway": "sidewalk", "name": null, "surface": null, "lit": null, "length_m": 50.26, "type_element": "Way", "__fid": 5326}, "geometry": {"type": "LineString", "coordinates": [[2.2620495, 48.8630933], [2.2620074, 48.863336900000014], [2.262024, 48.8635434]]}}, {"type": "Feature", "properties": {"highway": "path", "footway": null, "name": null, "surface": null, "lit": null, "length_m": 117.79, "type_element": "Way", "__fid": 5329}, "geometry": {"type": "LineString", "coordinates": [[2.2620495, 48.8630933], [2.2621295, 48.8630883], [2.2623749, 48.86305260000001], [2.2625539, 48.86293220000001], [2.2626673, 48.862874], [2.2628483, 48.8628228], [2.2633284, 48.8627579], [2.2635148, 48.8627437]]}}, {"type": "Feature", "properties": {"highway": "service", "footway": null, "name": "Chemin de Ceinture du Lac Inférieur", "surface": "asphalt", "lit": null, "length_m": 54.77, "type_element": "Way", "__fid": 5362}, "geometry": {"type": "LineString", "coordinates": [[2.2625561, 48.8644266], [2.2623112, 48.8642099], [2.2621352, 48.8640204]]}}, {"type": "Feature", "properties": {"highway": "track", "footway": null, "name": null, "surface": null, "lit": null, "length_m": 8.74, "type_element": "Way", "__fid": 5363}, "geometry": {"type": "LineString", "coordinates": [[2.2621352, 48.8640204], [2.262248, 48.8639951]]}}, {"type": "Feature", "properties": {"highway": "footway", "footway": null, "name": null, "surface": null, "lit": null, "length_m": 52.32, "type_element": "Way", "__fid": 5376}, "geometry": {"type": "LineString", "coordinates": [[2.262248, 48.8639951], [2.2626497, 48.8643839]]}}, {"type": "Feature", "properties": {"highway": "track", "footway": null, "name": null, "surface": null, "lit": null, "length_m": 248.93, "type_element": "Way", "__fid": 5377}, "geometry": {"type": "LineString", "coordinates": [[2.262248, 48.8639951], [2.2637922, 48.8637343], [2.2655396, 48.8634517]]}}, {"type": "Feature", "properties": {"highway": "footway", "footway": null, "name": null, "surface": "compacted", "lit": "no", "length_m": 129.81, "type_element": "Way", "__fid": 5428}, "geometry": {"type": "LineString", "coordinates": [[2.2624267, 48.86448940000003], [2.2625495, 48.8647073], [2.2626535, 48.8649252], [2.2627024, 48.86537869999998], [2.2627581, 48.8655486], [2.2628073, 48.8656195]]}}, {"type": "Feature", "properties": {"highway": "footway", "footway": null, "name": null, "surface": null, "lit": null, "length_m": 5.99, "type_element": "Way", "__fid": 5429}, "geometry": {"type": "LineString", "coordinates": [[2.2624914, 48.8644566], [2.2624267, 48.86448940000003]]}}, {"type": "Feature", "properties": {"highway": "footway", "footway": "sidewalk", "name": null, "surface": null, "lit": null, "length_m": 96.54, "type_element": "Way", "__fid": 5440}, "geometry": {"type": "LineString", "coordinates": [[2.262997, 48.8652443], [2.2629176, 48.8649985], [2.2628096, 48.8647779], [2.2627484, 48.8647001], [2.2626851, 48.86464480000002], [2.2626156, 48.8645622], [2.2624914, 48.8644566]]}}, {"type": "Feature", "properties": {"highway": "footway", "footway": "crossing", "name": null, "surface": null, "lit": null, "length_m": 5.8, "type_element": "Way", "__fid": 5441}, "geometry": {"type": "LineString", "coordinates": [[2.2625561, 48.8644266], [2.2624914, 48.8644566]]}}, {"type": "Feature", "properties": {"highway": "service", "footway": null, "name": "Chemin de Ceinture du Lac Inférieur", "surface": "asphalt", "lit": null, "length_m": 35.8, "type_element": "Way", "__fid": 5451}, "geometry": {"type": "LineString", "coordinates": [[2.2628391, 48.8646889], [2.2625561, 48.8644266]]}}, {"type": "Feature", "properties": {"highway": "footway", "footway": "crossing", "name": null, "surface": null, "lit": null, "length_m": 8.35, "type_element": "Way", "__fid": 5452}, "geometry": {"type": "LineString", "coordinates": [[2.2626497, 48.8643839], [2.2625561, 48.8644266]]}}, {"type": "Feature", "properties": {"highway": "footway", "footway": "sidewalk", "name": null, "surface": null, "lit": null, "length_m": 37.59, "type_element": "Way", "__fid": 5472}, "geometry": {"type": "LineString", "coordinates": [[2.2626497, 48.8643839], [2.2629543, 48.8646557]]}}, {"type": "Feature", "properties": {"highway": "path", "footway": null, "name": null, "surface": null, "lit": null, "length_m": 185.46, "type_element": "Way", "__fid": 5508}, "geometry": {"type": "LineString", "coordinates": [[2.2638977, 48.85950540000001], [2.2629704, 48.8580619], [2.2629194, 48.8579677]]}}, {"type": "Feature", "properties": {"highway": "path", "footway": null, "name": null, "surface": null, "lit": null, "length_m": 245.72, "type_element": "Way", "__fid": 5509}, "geometry": {"type": "LineString", "coordinates": [[2.2629194, 48.8579677], [2.2628394, 48.8584303], [2.262776, 48.8586317], [2.2628148, 48.85875140000001], [2.2628947, 48.8588509], [2.263115, 48.8590416], [2.2633181, 48.8592996], [2.2634563, 48.8595768], [2.2637857, 48.8600061]]}}, {"type": "Feature", "properties": {"highway": "track", "footway": null, "name": "Allée des Dames", "surface": null, "lit": null, "length_m": 75.26, "type_element": "Way", "__fid": 5511}, "geometry": {"type": "LineString", "coordinates": [[2.262888, 48.8605187], [2.2639132, 48.8605421]]}}, {"type": "Feature", "properties": {"highway": "service", "footway": null, "name": "Chemin de Ceinture du Lac Inférieur", "surface": "asphalt", "lit": null, "length_m": 257.69, "type_element": "Way", "__fid": 5514}, "geometry": {"type": "LineString", "coordinates": [[2.2646086, 48.8665772], [2.2637422, 48.8661485], [2.263514, 48.8659876], [2.263337, 48.8657758], [2.2631814, 48.8655288], [2.2630902, 48.8652783], [2.2629883, 48.864936], [2.2628649, 48.864713600000016], [2.2628391, 48.8646889]]}}, {"type": "Feature", "properties": {"highway": "track", "footway": null, "name": null, "surface": null, "lit": null, "length_m": 9.22, "type_element": "Way", "__fid": 5515}, "geometry": {"type": "LineString", "coordinates": [[2.2629543, 48.8646557], [2.2628391, 48.8646889]]}}, {"type": "Feature", "properties": {"highway": "service", "footway": null, "name": "Allée des Fortifications", "surface": null, "lit": null, "length_m": 211.41, "type_element": "Way", "__fid": 5521}, "geometry": {"type": "LineString", "coordinates": [[2.2629816, 48.8579474], [2.2630411, 48.8580444], [2.2630496, 48.85807709999999], [2.2640899, 48.8597014]]}}, {"type": "Feature", "properties": {"highway": "footway", "footway": "sidewalk", "name": null, "surface": null, "lit": null, "length_m": 74.51, "type_element": "Way", "__fid": 5534}, "geometry": {"type": "LineString", "coordinates": [[2.2629543, 48.8646557], [2.26303, 48.8647712], [2.2631145, 48.8649353], [2.2632252, 48.865299]]}}, {"type": "Feature", "properties": {"highway": "track", "footway": null, "name": null, "surface": null, "lit": null, "length_m": 248.63, "type_element": "Way", "__fid": 5535}, "geometry": {"type": "LineString", "coordinates": [[2.2661783, 48.86396640000001], [2.2629543, 48.8646557]]}}, {"type": "Feature", "properties": {"highway": "footway", "footway": null, "name": null, "surface": null, "lit": null, "length_m": 100.02, "type_element": "Way", "__fid": 5574}, "geometry": {"type": "LineString", "coordinates": [[2.264374, 48.8648504], [2.2638733, 48.8649575], [2.2633232, 48.8652096], [2.2632252, 48.865299]]}}, {"type": "Feature", "properties": {"highway": "track", "footway": null, "name": null, "surface": null, "lit": null, "length_m": 34.29, "type_element": "Way", "__fid": 5576}, "geometry": {"type": "LineString", "coordinates": [[2.2635202, 48.8628709], [2.2633043, 48.8630597], [2.2632587, 48.863125]]}}, {"type": "Feature", "properties": {"highway": "track", "footway": null, "name": null, "surface": null, "lit": null, "length_m": 8.7, "type_element": "Way", "__fid": 5594}, "geometry": {"type": "LineString", "coordinates": [[2.2633894, 48.8623658], [2.2634075, 48.8624431]]}}, {"type": "Feature", "properties": {"highway": "footway", "footway": "sidewalk", "name": null, "surface": null, "lit": null, "length_m": 67.56, "type_element": "Way", "__fid": 5600}, "geometry": {"type": "LineString", "coordinates": [[2.2642665, 48.8626614], [2.2641568, 48.8626396], [2.2634075, 48.8624431]]}}, {"type": "Feature", "properties": {"highway": "track", "footway": null, "name": null, "surface": null, "lit": null, "length_m": 35.02, "type_element": "Way", "__fid": 5601}, "geometry": {"type": "LineString", "coordinates": [[2.2634075, 48.8624431], [2.2634143, 48.8624721], [2.2635215, 48.862645], [2.2635148, 48.8627437]]}}, {"type": "Feature", "properties": {"highway": "track", "footway": null, "name": null, "surface": null, "lit": null, "length_m": 14.15, "type_element": "Way", "__fid": 5623}, "geometry": {"type": "LineString", "coordinates": [[2.2635148, 48.8627437], [2.2635202, 48.8628709]]}}, {"type": "Feature", "properties": {"highway": "track", "footway": null, "name": null, "surface": null, "lit": null, "length_m": 48.63, "type_element": "Way", "__fid": 5626}, "geometry": {"type": "LineString", "coordinates": [[2.2635202, 48.8628709], [2.2635537, 48.8629392], [2.2635812, 48.8630645], [2.2635859, 48.8631457], [2.2635578, 48.8632555], [2.2635584, 48.863301799999974]]}}, {"type": "Feature", "properties": {"highway": "path", "footway": null, "name": null, "surface": null, "lit": null, "length_m": 67.63, "type_element": "Way", "__fid": 5627}, "geometry": {"type": "LineString", "coordinates": [[2.2643725, 48.8626909], [2.264347, 48.8627226], [2.2642967, 48.8627513], [2.264056, 48.8628122], [2.2635202, 48.8628709]]}}, {"type": "Feature", "properties": {"highway": "track", "footway": null, "name": null, "surface": null, "lit": null, "length_m": 8.04, "type_element": "Way", "__fid": 5635}, "geometry": {"type": "LineString", "coordinates": [[2.2635584, 48.863301799999974], [2.2636007, 48.8633685]]}}, {"type": "Feature", "properties": {"highway": "path", "footway": null, "name": null, "surface": null, "lit": null, "length_m": 82.34, "type_element": "Way", "__fid": 5639}, "geometry": {"type": "LineString", "coordinates": [[2.2636963, 48.8587823], [2.2637153, 48.8588229], [2.2641491, 48.8594595]]}}, {"type": "Feature", "properties": {"highway": "path", "footway": null, "name": null, "surface": null, "lit": null, "length_m": 120.77, "type_element": "Way", "__fid": 5641}, "geometry": {"type": "LineString", "coordinates": [[2.2637025, 48.85858420000001], [2.2637508, 48.85864069999999], [2.2639279, 48.8587854], [2.2639922, 48.8588489], [2.2640995, 48.8589301], [2.2642444, 48.8591101], [2.2643195, 48.859283], [2.2643731, 48.85949080000001], [2.2643737, 48.8595475]]}}]}