{"type": "FeatureCollection", "features": [{"type": "Feature", "properties": {"@id": "node/2831552800", "amenity": "drinking_water", "type_element": "Fontaines à boire", "__fid": 378}, "geometry": {"type": "Point", "coordinates": [2.2552546, 48.8737508]}, "id": "node/2831552800"}, {"type": "Feature", "properties": {"highway": "path", "footway": null, "name": null, "surface": "dirt", "lit": "yes", "length_m": 229.16, "type_element": "Way", "__fid": 3679}, "geometry": {"type": "LineString", "coordinates": [[2.2538322, 48.8718929], [2.2549609, 48.87360670000001], [2.255103, 48.8737047], [2.2551159, 48.8737608]]}}, {"type": "Feature", "properties": {"highway": "footway", "footway": null, "name": null, "surface": "dirt", "lit": null, "length_m": 112.03, "type_element": "Way", "__fid": 3744}, "geometry": {"type": "LineString", "coordinates": [[2.254225, 48.8717849], [2.2542787, 48.8718162], [2.254502, 48.8720231], [2.2546193, 48.8720967], [2.2549559, 48.87235920000001], [2.2550505, 48.8724068], [2.2553071, 48.8724591]]}}, {"type": "Feature", "properties": {"highway": "track", "footway": null, "name": null, "surface": null, "lit": null, "length_m": 162.91, "type_element": "Way", "__fid": 3745}, "geometry": {"type": "LineString", "coordinates": [[2.254225, 48.8717849], [2.2543817, 48.8716208], [2.2544311, 48.8714733], [2.2544338, 48.871345], [2.2545726, 48.8712757], [2.2546687, 48.87126780000001], [2.254885, 48.87126689999999], [2.2549665, 48.8712748], [2.2554017, 48.871288], [2.2557045, 48.87127250000001], [2.2558854, 48.8712256]]}}, {"type": "Feature", "properties": {"highway": "footway", "footway": "sidewalk", "name": null, "surface": "unpaved", "lit": null, "length_m": 22.94, "type_element": "Way", "__fid": 3819}, "geometry": {"type": "LineString", "coordinates": [[2.2545486, 48.8741285], [2.2546244, 48.8741152], [2.2547536, 48.8741058], [2.2548521, 48.874083]]}}, {"type": "Feature", "properties": {"highway": "footway", "footway": "sidewalk", "name": null, "surface": "unpaved", "lit": null, "length_m": 41.54, "type_element": "Way", "__fid": 3856}, "geometry": {"type": "LineString", "coordinates": [[2.2548521, 48.874083], [2.2548886, 48.8740461], [2.2549101, 48.87400559999998], [2.2549086, 48.8739775], [2.254891, 48.8739431], [2.2548396, 48.8738998], [2.2547663, 48.8737398]]}}, {"type": "Feature", "properties": {"highway": "footway", "footway": "crossing", "name": null, "surface": null, "lit": "yes", "length_m": 25.83, "type_element": "Way", "__fid": 3857}, "geometry": {"type": "LineString", "coordinates": [[2.2547663, 48.8737398], [2.2548138, 48.8737387], [2.2550197, 48.8737598], [2.2551159, 48.8737608]]}}, {"type": "Feature", "properties": {"highway": "footway", "footway": "sidewalk", "name": null, "surface": "unpaved", "lit": null, "length_m": 1.99, "type_element": "Way", "__fid": 3869}, "geometry": {"type": "LineString", "coordinates": [[2.2548589, 48.87410029999999], [2.2548521, 48.874083]]}}, {"type": "Feature", "properties": {"highway": "footway", "footway": "sidewalk", "name": null, "surface": null, "lit": "yes", "length_m": 10.65, "type_element": "Way", "__fid": 3926}, "geometry": {"type": "LineString", "coordinates": [[2.2551159, 48.8737608], [2.255261, 48.8737632]]}}, {"type": "Feature", "properties": {"highway": "footway", "footway": "crossing", "name": null, "surface": null, "lit": "yes", "length_m": 26.33, "type_element": "Way", "__fid": 3954}, "geometry": {"type": "LineString", "coordinates": [[2.255261, 48.8737632], [2.2553185, 48.8737785], [2.2554081, 48.87381720000002], [2.2555167, 48.873874], [2.2555331, 48.873906]]}}, {"type": "Feature", "properties": {"highway": "path", "footway": null, "name": null, "surface": "compacted", "lit": null, "length_m": 102.5, "type_element": "Way", "__fid": 3955}, "geometry": {"type": "LineString", "coordinates": [[2.255261, 48.8737632], [2.2553924, 48.87370330000001], [2.2555378, 48.8736064], [2.2556426, 48.8735164], [2.2557795, 48.8734195], [2.2560552, 48.8731978], [2.2562091, 48.8730909]]}}, {"type": "Feature", "properties": {"highway": "footway", "footway": null, "name": null, "surface": "dirt", "lit": null, "length_m": 101.98, "type_element": "Way", "__fid": 3968}, "geometry": {"type": "LineString", "coordinates": [[2.2553071, 48.8724591], [2.2555098, 48.8724941], [2.2556587, 48.8725444], [2.2558364, 48.8726613], [2.2560408, 48.8728128], [2.2561003, 48.8729016], [2.2561371, 48.8729891], [2.2562091, 48.8730909]]}}, {"type": "Feature", "properties": {"highway": "footway", "footway": null, "name": null, "surface": "grass", "lit": null, "length_m": 100.71, "type_element": "Way", "__fid": 3969}, "geometry": {"type": "LineString", "coordinates": [[2.2563433, 48.871879], [2.2560817, 48.872057200000015], [2.2559056, 48.872133200000015], [2.2556772, 48.872297], [2.2554951, 48.8724029], [2.2553071, 48.8724591]]}}, {"type": "Feature", "properties": {"highway": "footway", "footway": "sidewalk", "name": null, "surface": "unpaved", "lit": null, "length_m": 60.91, "type_element": "Way", "__fid": 3982}, "geometry": {"type": "LineString", "coordinates": [[2.2560238, 48.87428040000001], [2.255925, 48.87425440000001], [2.2558147, 48.874207200000015], [2.2557086, 48.8741769], [2.2556245, 48.8741618], [2.2555305, 48.87415520000001], [2.2554866, 48.874157699999984], [2.2554503, 48.8741745], [2.2553944, 48.874230300000015], [2.2553697, 48.8742801], [2.2553449, 48.8742852]]}}, {"type": "Feature", "properties": {"highway": "path", "footway": null, "name": null, "surface": "dirt", "lit": null, "length_m": 32.37, "type_element": "Way", "__fid": 4000}, "geometry": {"type": "LineString", "coordinates": [[2.2554095, 48.8743473], [2.2555282, 48.8744367], [2.2556131, 48.8745996]]}}, {"type": "Feature", "properties": {"highway": "footway", "footway": "sidewalk", "name": null, "surface": "compacted", "lit": null, "length_m": 7.54, "type_element": "Way", "__fid": 4030}, "geometry": {"type": "LineString", "coordinates": [[2.2555555, 48.8739722], [2.2555331, 48.873906]]}}, {"type": "Feature", "properties": {"highway": "path", "footway": null, "name": null, "surface": null, "lit": null, "length_m": 20.98, "type_element": "Way", "__fid": 4031}, "geometry": {"type": "LineString", "coordinates": [[2.2555331, 48.873906], [2.2556871, 48.873747]]}}, {"type": "Feature", "properties": {"highway": "footway", "footway": "traffic_island", "name": null, "surface": null, "lit": null, "length_m": 19.84, "type_element": "Way", "__fid": 4032}, "geometry": {"type": "LineString", "coordinates": [[2.2555555, 48.8739722], [2.2555356, 48.8740584], [2.255530766666682, 48.87414960000002]]}}, {"type": "Feature", "properties": {"highway": "footway", "footway": null, "name": null, "surface": null, "lit": null, "length_m": 27.08, "type_element": "Way", "__fid": 4041}, "geometry": {"type": "LineString", "coordinates": [[2.2558945, 48.87406870000002], [2.2555555, 48.8739722]]}}, {"type": "Feature", "properties": {"highway": "path", "footway": null, "name": null, "surface": "dirt", "lit": null, "length_m": 45.02, "type_element": "Way", "__fid": 4061}, "geometry": {"type": "LineString", "coordinates": [[2.256194, 48.874663800000015], [2.2559617, 48.87467370000001], [2.2559054, 48.8746618], [2.255886, 48.8746398], [2.2557552, 48.87463360000001], [2.2556412, 48.8746115], [2.2556131, 48.8745996]]}}, {"type": "Feature", "properties": {"highway": "path", "footway": null, "name": null, "surface": "dirt", "lit": null, "length_m": 84.13, "type_element": "Way", "__fid": 4062}, "geometry": {"type": "LineString", "coordinates": [[2.2556131, 48.8745996], [2.2559828, 48.87531579999999]]}}, {"type": "Feature", "properties": {"highway": "path", "footway": null, "name": null, "surface": "compacted", "lit": null, "length_m": 6.81, "type_element": "Way", "__fid": 4064}, "geometry": {"type": "LineString", "coordinates": [[2.2556871, 48.873747], [2.2556341, 48.8736967]]}}, {"type": "Feature", "properties": {"highway": "path", "footway": null, "name": null, "surface": null, "lit": null, "length_m": 38.38, "type_element": "Way", "__fid": 4073}, "geometry": {"type": "LineString", "coordinates": [[2.2556871, 48.873747], [2.255833, 48.8738869], [2.2559493, 48.8739491], [2.2560647, 48.8739577]]}}, {"type": "Feature", "properties": {"highway": "footway", "footway": null, "name": null, "surface": null, "lit": null, "length_m": 88.44, "type_element": "Way", "__fid": 4104}, "geometry": {"type": "LineString", "coordinates": [[2.2558854, 48.8712256], [2.2558561, 48.871253], [2.2558353, 48.8713238], [2.2558495, 48.8715101], [2.255921, 48.871593799999985], [2.2561035, 48.8717684], [2.2561582, 48.8718088], [2.2563433, 48.871879]]}}, {"type": "Feature", "properties": {"highway": "footway", "footway": null, "name": null, "surface": null, "lit": null, "length_m": 20.46, "type_element": "Way", "__fid": 4105}, "geometry": {"type": "LineString", "coordinates": [[2.2561589, 48.8711976], [2.2560676, 48.871207], [2.2560244, 48.87120339999997], [2.2558854, 48.8712256]]}}, {"type": "Feature", "properties": {"highway": "footway", "footway": null, "name": null, "surface": null, "lit": null, "length_m": 207.66, "type_element": "Way", "__fid": 4120}, "geometry": {"type": "LineString", "coordinates": [[2.2583429, 48.8748168], [2.2581892, 48.8748756], [2.2580709, 48.87490140000001], [2.2579408, 48.874882], [2.2574345, 48.8747059], [2.2570965, 48.87456260000001], [2.256613, 48.8743186], [2.2562929, 48.8741996], [2.2558945, 48.87406870000002]]}}, {"type": "Feature", "properties": {"highway": "path", "footway": null, "name": null, "surface": null, "lit": null, "length_m": 17.56, "type_element": "Way", "__fid": 4121}, "geometry": {"type": "LineString", "coordinates": [[2.2560647, 48.8739577], [2.2558945, 48.87406870000002]]}}, {"type": "Feature", "properties": {"highway": "footway", "footway": null, "name": null, "surface": "compacted", "lit": null, "length_m": 37.59, "type_element": "Way", "__fid": 4134}, "geometry": {"type": "LineString", "coordinates": [[2.2564529, 48.8754446], [2.2562581, 48.875410700000025], [2.2560744, 48.8753529], [2.2559828, 48.87531579999999]]}}, {"type": "Feature", "properties": {"highway": "path", "footway": null, "name": null, "surface": "dirt", "lit": null, "length_m": 125.36, "type_element": "Way", "__fid": 4135}, "geometry": {"type": "LineString", "coordinates": [[2.2559828, 48.87531579999999], [2.2565338, 48.876383]]}}, {"type": "Feature", "properties": {"highway": "footway", "footway": "sidewalk", "name": null, "surface": "unpaved", "lit": null, "length_m": 434.72, "type_element": "Way", "__fid": 4142}, "geometry": {"type": "LineString", "coordinates": [[2.2614689, 48.8757239], [2.2606365, 48.8755278], [2.2605339, 48.8755117], [2.26027, 48.8754528], [2.2599413, 48.87539490000001], [2.2591808, 48.8752775], [2.2582599, 48.875107], [2.2579226, 48.8750357], [2.2578628, 48.8750066], [2.2575462, 48.8749257], [2.2574004, 48.8748717], [2.2566346, 48.8745129], [2.256428, 48.8744242], [2.2560814, 48.874294], [2.2560238, 48.87428040000001]]}}, {"type": "Feature", "properties": {"highway": "service", "footway": null, "name": "Allée de Madrid à Neuilly", "surface": "asphalt", "lit": null, "length_m": 44.51, "type_element": "Way", "__fid": 4143}, "geometry": {"type": "LineString", "coordinates": [[2.256194, 48.874663800000015], [2.2560282, 48.874314799999986], [2.2560238, 48.87428040000001]]}}, {"type": "Feature", "properties": {"highway": "service", "footway": null, "name": "Allée de Madrid à Neuilly", "surface": "asphalt", "lit": null, "length_m": 8.69, "type_element": "Way", "__fid": 4144}, "geometry": {"type": "LineString", "coordinates": [[2.2560238, 48.87428040000001], [2.2560458, 48.8742036]]}}, {"type": "Feature", "properties": {"highway": "path", "footway": null, "name": null, "surface": null, "lit": null, "length_m": 143.07, "type_element": "Way", "__fid": 4151}, "geometry": {"type": "LineString", "coordinates": [[2.2560647, 48.8739577], [2.25694, 48.8741974], [2.2571218, 48.8742843], [2.2572707, 48.87438749999998], [2.2578128, 48.8744861]]}}, {"type": "Feature", "properties": {"highway": "footway", "footway": null, "name": null, "surface": null, "lit": null, "length_m": 58.77, "type_element": "Way", "__fid": 4163}, "geometry": {"type": "LineString", "coordinates": [[2.2568799, 48.87142149999998], [2.2568231, 48.8714071], [2.256703, 48.87135170000001], [2.2566313, 48.8713294], [2.2564538, 48.87128340000002], [2.2563027, 48.87122810000002], [2.2561589, 48.8711976]]}}, {"type": "Feature", "properties": {"highway": "footway", "footway": null, "name": null, "surface": "dirt", "lit": "no", "length_m": 109.06, "type_element": "Way", "__fid": 4164}, "geometry": {"type": "LineString", "coordinates": [[2.2561589, 48.8711976], [2.2562461, 48.8711492], [2.2563189, 48.8709852], [2.2563965, 48.870916], [2.2564761, 48.8707491], [2.2565374, 48.8706971], [2.2566467, 48.8704744], [2.2566803, 48.87030209999999]]}}, {"type": "Feature", "properties": {"highway": "footway", "footway": null, "name": null, "surface": "dirt", "lit": null, "length_m": 13.8, "type_element": "Way", "__fid": 4173}, "geometry": {"type": "LineString", "coordinates": [[2.2562091, 48.8730909], [2.256272, 48.87315730000001], [2.2563241, 48.8731876]]}}, {"type": "Feature", "properties": {"highway": "footway", "footway": null, "name": null, "surface": null, "lit": null, "length_m": 147.19, "type_element": "Way", "__fid": 4174}, "geometry": {"type": "LineString", "coordinates": [[2.2569407, 48.8755063], [2.2569969, 48.8753758], [2.2571508, 48.8752276], [2.2571651, 48.8750111], [2.2571919, 48.8749381], [2.2567833, 48.874824], [2.2564809, 48.8747499], [2.2562967, 48.8746757], [2.256194, 48.874663800000015]]}}, {"type": "Feature", "properties": {"highway": "service", "footway": null, "name": "Allée de Madrid à Neuilly", "surface": "asphalt", "lit": null, "length_m": 89.06, "type_element": "Way", "__fid": 4175}, "geometry": {"type": "LineString", "coordinates": [[2.2564529, 48.8754446], [2.2562911, 48.8748535], [2.256194, 48.874663800000015]]}}, {"type": "Feature", "properties": {"highway": "footway", "footway": null, "name": null, "surface": null, "lit": null, "length_m": 81.4, "type_element": "Way", "__fid": 4196}, "geometry": {"type": "LineString", "coordinates": [[2.2563433, 48.871879], [2.2565265, 48.87198950000001], [2.2566655, 48.8721007], [2.2568182, 48.8721994], [2.2570694, 48.872429]]}}, {"type": "Feature", "properties": {"highway": "footway", "footway": null, "name": null, "surface": "grass", "lit": null, "length_m": 64.55, "type_element": "Way", "__fid": 4197}, "geometry": {"type": "LineString", "coordinates": [[2.2568799, 48.87142149999998], [2.2565707, 48.871724], [2.2563433, 48.871879]]}}, {"type": "Feature", "properties": {"highway": "service", "footway": null, "name": "Allée de Madrid à Neuilly", "surface": "asphalt", "lit": null, "length_m": 87.53, "type_element": "Way", "__fid": 4217}, "geometry": {"type": "LineString", "coordinates": [[2.2567694, 48.8761988], [2.2566616, 48.87605840000001], [2.2565558, 48.87581630000001], [2.2564529, 48.8754446]]}}, {"type": "Feature", "properties": {"highway": "footway", "footway": null, "name": null, "surface": "compacted", "lit": null, "length_m": 37.12, "type_element": "Way", "__fid": 4218}, "geometry": {"type": "LineString", "coordinates": [[2.2569407, 48.8755063], [2.2568421, 48.8754724], [2.2565873, 48.875438], [2.2564529, 48.8754446]]}}, {"type": "Feature", "properties": {"highway": "footway", "footway": null, "name": null, "surface": "dirt", "lit": null, "length_m": 5.76, "type_element": "Way", "__fid": 4231}, "geometry": {"type": "LineString", "coordinates": [[2.2565338, 48.876383], [2.2564908, 48.8764263]]}}, {"type": "Feature", "properties": {"highway": "footway", "footway": null, "name": null, "surface": "dirt", "lit": null, "length_m": 27.04, "type_element": "Way", "__fid": 4236}, "geometry": {"type": "LineString", "coordinates": [[2.2567694, 48.8761988], [2.2566611, 48.8763042], [2.2565498, 48.8763668], [2.2565338, 48.876383]]}}, {"type": "Feature", "properties": {"highway": "service", "footway": null, "name": "Route de la Porte Saint-James", "surface": "asphalt", "lit": null, "length_m": 39.49, "type_element": "Way", "__fid": 4248}, "geometry": {"type": "LineString", "coordinates": [[2.2570987, 48.8766227], [2.256587, 48.8767332]]}}, {"type": "Feature", "properties": {"highway": "service", "footway": null, "name": "Allée de Madrid à Neuilly", "surface": "asphalt", "lit": null, "length_m": 15.19, "type_element": "Way", "__fid": 4282}, "geometry": {"type": "LineString", "coordinates": [[2.2568609, 48.8763213], [2.2567694, 48.8761988]]}}, {"type": "Feature", "properties": {"highway": "footway", "footway": null, "name": null, "surface": "compacted", "lit": "no", "length_m": 80.5, "type_element": "Way", "__fid": 4283}, "geometry": {"type": "LineString", "coordinates": [[2.257109, 48.8755641], [2.2569683, 48.8756206], [2.2568947, 48.8756734], [2.2568464, 48.8757242], [2.256801, 48.8757997], [2.2567507, 48.8759865], [2.2567694, 48.8761988]]}}, {"type": "Feature", "properties": {"highway": "footway", "footway": null, "name": null, "surface": null, "lit": null, "length_m": 102.93, "type_element": "Way", "__fid": 4296}, "geometry": {"type": "LineString", "coordinates": [[2.2568799, 48.87142149999998], [2.2571827, 48.8715015], [2.2573384, 48.8715585], [2.2574838, 48.8716337], [2.2576559, 48.8717098], [2.2577926, 48.8717847], [2.2579785, 48.871764], [2.2580975, 48.87181360000001]]}}, {"type": "Feature", "properties": {"highway": "footway", "footway": null, "name": null, "surface": "paved", "lit": null, "length_m": 34.18, "type_element": "Way", "__fid": 4306}, "geometry": {"type": "LineString", "coordinates": [[2.2568609, 48.8763213], [2.2571415, 48.8764189], [2.2572832, 48.8764487]]}}, {"type": "Feature", "properties": {"highway": "service", "footway": null, "name": "Allée de Madrid à Neuilly", "surface": "asphalt", "lit": null, "length_m": 37.78, "type_element": "Way", "__fid": 4307}, "geometry": {"type": "LineString", "coordinates": [[2.2570987, 48.8766227], [2.2568609, 48.8763213]]}}, {"type": "Feature", "properties": {"highway": "footway", "footway": null, "name": null, "surface": "compacted", "lit": null, "length_m": 13.92, "type_element": "Way", "__fid": 4317}, "geometry": {"type": "LineString", "coordinates": [[2.257109, 48.8755641], [2.2569407, 48.8755063]]}}, {"type": "Feature", "properties": {"highway": "footway", "footway": null, "name": null, "surface": "compacted", "lit": "no", "length_m": 215.85, "type_element": "Way", "__fid": 4337}, "geometry": {"type": "LineString", "coordinates": [[2.2599897, 48.8756047], [2.2598227, 48.8755916], [2.2595445, 48.8756047], [2.259413, 48.8756029], [2.2592568, 48.8755774], [2.2588437, 48.87547510000002], [2.2585976, 48.8754424], [2.2584474, 48.8754318], [2.2580337, 48.8754734], [2.257632, 48.875483], [2.2573471, 48.87551040000001], [2.257109, 48.8755641]]}}, {"type": "Feature", "properties": {"highway": "service", "footway": null, "name": "Allée de Madrid à Neuilly", "surface": "asphalt", "lit": null, "length_m": 66.2, "type_element": "Way", "__fid": 4338}, "geometry": {"type": "LineString", "coordinates": [[2.2574506, 48.8771708], [2.2573029, 48.876928], [2.2570987, 48.8766227]]}}, {"type": "Feature", "properties": {"highway": "footway", "footway": null, "name": null, "surface": "compacted", "lit": null, "length_m": 23.61, "type_element": "Way", "__fid": 4339}, "geometry": {"type": "LineString", "coordinates": [[2.2570987, 48.8766227], [2.2572832, 48.8764487]]}}, {"type": "Feature", "properties": {"highway": "service", "footway": null, "name": "Route de la Porte Saint-James", "surface": "asphalt", "lit": null, "length_m": 39.43, "type_element": "Way", "__fid": 4340}, "geometry": {"type": "LineString", "coordinates": [[2.2576197, 48.876535299999986], [2.2570987, 48.8766227]]}}, {"type": "Feature", "properties": {"highway": "footway", "footway": null, "name": null, "surface": "paved", "lit": null, "length_m": 27.87, "type_element": "Way", "__fid": 4383}, "geometry": {"type": "LineString", "coordinates": [[2.2572832, 48.8764487], [2.2573886, 48.876453099999985], [2.2575378, 48.87647650000001], [2.2576197, 48.876535299999986]]}}, {"type": "Feature", "properties": {"highway": "footway", "footway": null, "name": null, "surface": "dirt", "lit": null, "length_m": 95.56, "type_element": "Way", "__fid": 4444}, "geometry": {"type": "LineString", "coordinates": [[2.2585166, 48.8771256], [2.2585099, 48.8770662], [2.2584438, 48.87700250000001], [2.2581511, 48.8768841], [2.2580792, 48.8768462], [2.2579593, 48.8767611], [2.2576945, 48.876602], [2.2576197, 48.876535299999986]]}}, {"type": "Feature", "properties": {"highway": "service", "footway": null, "name": "Route de la Porte Saint-James", "surface": "asphalt", "lit": null, "length_m": 23.48, "type_element": "Way", "__fid": 4445}, "geometry": {"type": "LineString", "coordinates": [[2.2579296, 48.8764825], [2.2576197, 48.876535299999986]]}}, {"type": "Feature", "properties": {"highway": "path", "footway": null, "name": null, "surface": null, "lit": null, "length_m": 55.29, "type_element": "Way", "__fid": 4480}, "geometry": {"type": "LineString", "coordinates": [[2.2578128, 48.8744861], [2.2582205, 48.8746582], [2.2583429, 48.8748168]]}}, {"type": "Feature", "properties": {"highway": "path", "footway": null, "name": null, "surface": null, "lit": null, "length_m": 86.71, "type_element": "Way", "__fid": 4481}, "geometry": {"type": "LineString", "coordinates": [[2.2578128, 48.8744861], [2.2579211, 48.8744783], [2.2585179, 48.8745269], [2.2586949, 48.874526], [2.2588263, 48.87448280000001], [2.2589305, 48.8744134]]}}, {"type": "Feature", "properties": {"highway": "footway", "footway": null, "name": null, "surface": "compacted", "lit": "no", "length_m": 200.53, "type_element": "Way", "__fid": 4529}, "geometry": {"type": "LineString", "coordinates": [[2.2579296, 48.8764825], [2.258153, 48.8764031], [2.258508, 48.8763182], [2.258561, 48.876286200000024], [2.2586678, 48.8762608], [2.2589322, 48.8762362], [2.2590657, 48.8762397], [2.2593996, 48.8762818], [2.2595825, 48.8763091], [2.2598996, 48.8763784], [2.2602315, 48.8763916], [2.260549, 48.8763538]]}}, {"type": "Feature", "properties": {"highway": "service", "footway": null, "name": "Route de la Porte Saint-James", "surface": "asphalt", "lit": "no", "length_m": 81.74, "type_element": "Way", "__fid": 4530}, "geometry": {"type": "LineString", "coordinates": [[2.2590398, 48.8764661], [2.258756, 48.876445], [2.2583392, 48.8764549], [2.2579296, 48.8764825]]}}, {"type": "Feature", "properties": {"highway": "service", "footway": null, "name": null, "surface": null, "lit": null, "length_m": 1.73, "type_element": "Way", "__fid": 4548}, "geometry": {"type": "LineString", "coordinates": [[2.2580815, 48.8718895], [2.2580679, 48.8719022]]}}, {"type": "Feature", "properties": {"highway": "footway", "footway": null, "name": null, "surface": null, "lit": null, "length_m": 46.2, "type_element": "Way", "__fid": 4549}, "geometry": {"type": "LineString", "coordinates": [[2.2580815, 48.8718895], [2.2581759, 48.871926], [2.2584193, 48.87205310000002], [2.2584408, 48.8720782], [2.2584602, 48.8720844], [2.258595, 48.8720496]]}}, {"type": "Feature", "properties": {"highway": "service", "footway": null, "name": null, "surface": null, "lit": null, "length_m": 8.75, "type_element": "Way", "__fid": 4550}, "geometry": {"type": "LineString", "coordinates": [[2.2580975, 48.87181360000001], [2.2580948, 48.8718771], [2.2580815, 48.8718895]]}}, {"type": "Feature", "properties": {"highway": "service", "footway": null, "name": null, "surface": null, "lit": null, "length_m": 58.59, "type_element": "Way", "__fid": 4559}, "geometry": {"type": "LineString", "coordinates": [[2.2580975, 48.87181360000001], [2.2581699, 48.8717801], [2.2583221, 48.8716702], [2.2586138, 48.8714149]]}}, {"type": "Feature", "properties": {"highway": "path", "footway": null, "name": "Route des Lacs à Madrid", "surface": "compacted", "lit": "yes", "length_m": 127.7, "type_element": "Way", "__fid": 4571}, "geometry": {"type": "LineString", "coordinates": [[2.258162, 48.871623], [2.258184, 48.871639], [2.2583147, 48.8714969], [2.2585298, 48.871287500000015], [2.2586196, 48.8712206], [2.2587916, 48.8710618], [2.2592365, 48.870757]]}}, {"type": "Feature", "properties": {"highway": "path", "footway": null, "name": null, "surface": null, "lit": null, "length_m": 4.54, "type_element": "Way", "__fid": 4598}, "geometry": {"type": "LineString", "coordinates": [[2.2583429, 48.8748168], [2.258371, 48.8748532]]}}, {"type": "Feature", "properties": {"highway": "service", "footway": null, "name": null, "surface": null, "lit": null, "length_m": 13.05, "type_element": "Way", "__fid": 4633}, "geometry": {"type": "LineString", "coordinates": [[2.2585031, 48.872148], [2.258591, 48.8720676], [2.258595, 48.8720496]]}}, {"type": "Feature", "properties": {"highway": "service", "footway": null, "name": null, "surface": null, "lit": null, "length_m": 86.12, "type_element": "Way", "__fid": 4649}, "geometry": {"type": "LineString", "coordinates": [[2.258595, 48.8720496], [2.2586044, 48.8719503], [2.2586976, 48.8718599], [2.2590919, 48.8715238], [2.2589216, 48.87143910000001]]}}, {"type": "Feature", "properties": {"highway": "footway", "footway": null, "name": null, "surface": "dirt", "lit": "no", "length_m": 80.7, "type_element": "Way", "__fid": 4682}, "geometry": {"type": "LineString", "coordinates": [[2.2590398, 48.8764661], [2.2588368, 48.8769249], [2.2586701, 48.877147]]}}, {"type": "Feature", "properties": {"highway": "service", "footway": null, "name": "Route de la Porte Saint-James", "surface": "asphalt", "lit": "no", "length_m": 97.22, "type_element": "Way", "__fid": 4771}, "geometry": {"type": "LineString", "coordinates": [[2.2603229, 48.8766718], [2.2602322, 48.876641], [2.25953, 48.8765154], [2.2590398, 48.8764661]]}}, {"type": "Feature", "properties": {"highway": "path", "footway": null, "name": null, "surface": "compacted", "lit": "yes", "length_m": 125.0, "type_element": "Way", "__fid": 4797}, "geometry": {"type": "LineString", "coordinates": [[2.2607324, 48.8712954], [2.2592365, 48.870757]]}}, {"type": "Feature", "properties": {"highway": "path", "footway": null, "name": null, "surface": "ground", "lit": null, "length_m": 171.0, "type_element": "Way", "__fid": 4839}, "geometry": {"type": "LineString", "coordinates": [[2.261562, 48.8713119], [2.2595164, 48.87057440000002]]}}, {"type": "Feature", "properties": {"highway": "footway", "footway": null, "name": null, "surface": "dirt", "lit": "no", "length_m": 79.07, "type_element": "Way", "__fid": 4859}, "geometry": {"type": "LineString", "coordinates": [[2.2603229, 48.8766718], [2.260212, 48.876715], [2.2599356, 48.8768634], [2.2596473, 48.8770337], [2.2595298, 48.8771452]]}}, {"type": "Feature", "properties": {"highway": "path", "footway": null, "name": null, "surface": "compacted", "lit": "yes", "length_m": 147.87, "type_element": "Way", "__fid": 4860}, "geometry": {"type": "LineString", "coordinates": [[2.2595389, 48.87786349999999], [2.2595806, 48.8778651], [2.2600577, 48.87723730000002], [2.2604681, 48.87674890000002], [2.2605058, 48.8767156]]}}, {"type": "Feature", "properties": {"highway": "footway", "footway": null, "name": null, "surface": "compacted", "lit": null, "length_m": 116.35, "type_element": "Way", "__fid": 4943}, "geometry": {"type": "LineString", "coordinates": [[2.2613496, 48.875741], [2.2611401, 48.8758575], [2.2611048, 48.87588609999999], [2.2610667, 48.8759006], [2.2610267, 48.875905], [2.2607175, 48.875836599999985], [2.2605132, 48.8757663], [2.2603503, 48.8757365], [2.2601372, 48.875708799999984], [2.2600675, 48.8756859], [2.2600105, 48.8756515], [2.2599897, 48.8756047]]}}, {"type": "Feature", "properties": {"highway": "service", "footway": null, "name": "Route de la Porte Saint-James", "surface": "asphalt", "lit": "no", "length_m": 14.27, "type_element": "Way", "__fid": 5003}, "geometry": {"type": "LineString", "coordinates": [[2.2605058, 48.8767156], [2.2603229, 48.8766718]]}}, {"type": "Feature", "properties": {"highway": "footway", "footway": null, "name": null, "surface": "dirt", "lit": "no", "length_m": 39.22, "type_element": "Way", "__fid": 5004}, "geometry": {"type": "LineString", "coordinates": [[2.260549, 48.8763538], [2.2604385, 48.8764768], [2.2603917, 48.87657340000001], [2.2603229, 48.8766718]]}}, {"type": "Feature", "properties": {"highway": "service", "footway": null, "name": "Route de la Porte Saint-James", "surface": "asphalt", "lit": "no", "length_m": 7.77, "type_element": "Way", "__fid": 5034}, "geometry": {"type": "LineString", "coordinates": [[2.2606013, 48.8767459], [2.2605058, 48.8767156]]}}, {"type": "Feature", "properties": {"highway": "path", "footway": null, "name": null, "surface": "compacted", "lit": "yes", "length_m": 75.86, "type_element": "Way", "__fid": 5035}, "geometry": {"type": "LineString", "coordinates": [[2.2605058, 48.8767156], [2.2607474, 48.87649020000001], [2.2611938, 48.8762104]]}}, {"type": "Feature", "properties": {"highway": "footway", "footway": null, "name": null, "surface": "compacted", "lit": "no", "length_m": 78.9, "type_element": "Way", "__fid": 5040}, "geometry": {"type": "LineString", "coordinates": [[2.260549, 48.8763538], [2.2607196, 48.8763053], [2.2609004, 48.87623270000001], [2.2609926, 48.8761573], [2.2610412, 48.8760713], [2.2610844, 48.8760314], [2.2613386, 48.875905500000016]]}}, {"type": "Feature", "properties": {"highway": "service", "footway": null, "name": "Route de la Porte Saint-James", "surface": "concrete", "lit": "yes", "length_m": 288.4, "type_element": "Way", "__fid": 5042}, "geometry": {"type": "LineString", "coordinates": [[2.2605586, 48.876792399999985], [2.260606, 48.8768077], [2.2606581, 48.8767935], [2.2610435, 48.87679629999999], [2.2611922, 48.87678780000002], [2.261462, 48.8767483], [2.2617141, 48.8766977], [2.2627404, 48.87644119999999], [2.2633404, 48.8763041], [2.2634882, 48.87629310000001], [2.2637683, 48.87634830000001], [2.2638323, 48.8762805], [2.263867, 48.87598209999999]]}}, {"type": "Feature", "properties": {"highway": "track", "footway": null, "name": null, "surface": "dirt", "lit": null, "length_m": 22.23, "type_element": "Way", "__fid": 5053}, "geometry": {"type": "LineString", "coordinates": [[2.2607039, 48.8714909], [2.2606945, 48.8714007], [2.2607052, 48.8713355], [2.2607324, 48.8712954]]}}, {"type": "Feature", "properties": {"highway": "path", "footway": null, "name": null, "surface": "compacted", "lit": "yes", "length_m": 192.65, "type_element": "Way", "__fid": 5057}, "geometry": {"type": "LineString", "coordinates": [[2.26303735, 48.8721258], [2.2607324, 48.8712954]]}}, {"type": "Feature", "properties": {"highway": "footway", "footway": null, "name": null, "surface": "compacted", "lit": null, "length_m": 35.56, "type_element": "Way", "__fid": 5148}, "geometry": {"type": "LineString", "coordinates": [[2.2613386, 48.875905500000016], [2.261281, 48.8760504], [2.2611938, 48.8762104]]}}, {"type": "Feature", "properties": {"highway": "path", "footway": null, "name": null, "surface": "compacted", "lit": null, "length_m": 66.45, "type_element": "Way", "__fid": 5149}, "geometry": {"type": "LineString", "coordinates": [[2.2611938, 48.8762104], [2.2613642, 48.8761077], [2.2615404, 48.8760191], [2.261914, 48.8758495]]}}, {"type": "Feature", "properties": {"highway": "footway", "footway": null, "name": null, "surface": "compacted", "lit": null, "length_m": 23.26, "type_element": "Way", "__fid": 5187}, "geometry": {"type": "LineString", "coordinates": [[2.2613386, 48.875905500000016], [2.2614063, 48.875867700000015], [2.2614453, 48.87581019999999], [2.2614689, 48.8757239]]}}, {"type": "Feature", "properties": {"highway": "footway", "footway": null, "name": null, "surface": "compacted", "lit": null, "length_m": 8.95, "type_element": "Way", "__fid": 5188}, "geometry": {"type": "LineString", "coordinates": [[2.2614689, 48.8757239], [2.2613496, 48.875741]]}}, {"type": "Feature", "properties": {"highway": "footway", "footway": null, "name": null, "surface": null, "lit": null, "length_m": 35.51, "type_element": "Way", "__fid": 5214}, "geometry": {"type": "LineString", "coordinates": [[2.261914, 48.8758495], [2.2614689, 48.8757239]]}}, {"type": "Feature", "properties": {"highway": "path", "footway": null, "name": null, "surface": "dirt", "lit": null, "length_m": 118.5, "type_element": "Way", "__fid": 5215}, "geometry": {"type": "LineString", "coordinates": [[2.2626153, 48.8751159], [2.2624004, 48.8751031], [2.2622771, 48.8751127], [2.2622218, 48.8751397], [2.2620776, 48.8751871], [2.261904, 48.8752636], [2.2617963, 48.87532130000001], [2.2616296, 48.8754686], [2.2615027, 48.87565580000001], [2.2614689, 48.8757239]]}}, {"type": "Feature", "properties": {"highway": "path", "footway": null, "name": null, "surface": "ground", "lit": null, "length_m": 127.11, "type_element": "Way", "__fid": 5219}, "geometry": {"type": "LineString", "coordinates": [[2.2630826, 48.8718601], [2.261562, 48.8713119]]}}, {"type": "Feature", "properties": {"highway": "path", "footway": null, "name": null, "surface": "dirt", "lit": null, "length_m": 111.86, "type_element": "Way", "__fid": 5220}, "geometry": {"type": "LineString", "coordinates": [[2.2622491, 48.8704361], [2.2622697, 48.8704997], [2.2622291, 48.8705757], [2.2620486, 48.87075710000001], [2.2619554, 48.8709118], [2.261562, 48.8713119]]}}, {"type": "Feature", "properties": {"highway": "path", "footway": null, "name": null, "surface": "dirt", "lit": null, "length_m": 106.48, "type_element": "Way", "__fid": 5341}, "geometry": {"type": "LineString", "coordinates": [[2.261914, 48.8758495], [2.2622044, 48.8757155], [2.2624849, 48.8756091], [2.2626995, 48.8754856], [2.2627885, 48.8754237], [2.2629856, 48.87527280000002], [2.2629921, 48.875235]]}}, {"type": "Feature", "properties": {"highway": "path", "footway": null, "name": null, "surface": null, "lit": null, "length_m": 151.39, "type_element": "Way", "__fid": 5436}, "geometry": {"type": "LineString", "coordinates": [[2.2623418, 48.8731678], [2.2624299, 48.87315169999999], [2.262562, 48.8730904], [2.2629838, 48.8730194], [2.2631085, 48.8729506], [2.2631876, 48.8728395], [2.2631721, 48.8724262], [2.2631297, 48.8721636]]}}, {"type": "Feature", "properties": {"highway": "path", "footway": null, "name": "Allée des Marronniers", "surface": "gravel", "lit": "no", "length_m": 112.26, "type_element": "Way", "__fid": 5448}, "geometry": {"type": "LineString", "coordinates": [[2.2623779, 48.8758931], [2.2624805, 48.87584309999998], [2.2628685, 48.875894], [2.263867, 48.87598209999999]]}}, {"type": "Feature", "properties": {"highway": "path", "footway": null, "name": null, "surface": "dirt", "lit": null, "length_m": 31.15, "type_element": "Way", "__fid": 5497}, "geometry": {"type": "LineString", "coordinates": [[2.2629921, 48.875235], [2.2627843, 48.875142], [2.2626153, 48.8751159]]}}, {"type": "Feature", "properties": {"highway": "path", "footway": null, "name": null, "surface": "dirt", "lit": null, "length_m": 60.88, "type_element": "Way", "__fid": 5498}, "geometry": {"type": "LineString", "coordinates": [[2.2626153, 48.8751159], [2.262745, 48.8750451], [2.2627849, 48.8749723], [2.2628026, 48.8747523], [2.2627805, 48.8746143]]}}, {"type": "Feature", "properties": {"highway": "path", "footway": null, "name": null, "surface": null, "lit": null, "length_m": 106.87, "type_element": "Way", "__fid": 5513}, "geometry": {"type": "LineString", "coordinates": [[2.26303735, 48.8721258], [2.2629811, 48.8724209], [2.2630341, 48.8726004], [2.2630495, 48.872777700000015], [2.2630173, 48.8728761], [2.2627222, 48.872932]]}}, {"type": "Feature", "properties": {"highway": "path", "footway": null, "name": null, "surface": "dirt", "lit": null, "length_m": 11.28, "type_element": "Way", "__fid": 5558}, "geometry": {"type": "LineString", "coordinates": [[2.2631229, 48.8752883], [2.2629921, 48.875235]]}}, {"type": "Feature", "properties": {"highway": "path", "footway": null, "name": null, "surface": "dirt", "lit": null, "length_m": 204.73, "type_element": "Way", "__fid": 5559}, "geometry": {"type": "LineString", "coordinates": [[2.2629921, 48.875235], [2.2633677, 48.874871], [2.2638218, 48.8742764], [2.2639306, 48.8741108], [2.2640105, 48.8738658], [2.2640177, 48.87374959999999], [2.264071, 48.87356530000001]]}}, {"type": "Feature", "properties": {"highway": "footway", "footway": null, "name": null, "surface": "dirt", "lit": null, "length_m": 29.83, "type_element": "Way", "__fid": 5560}, "geometry": {"type": "LineString", "coordinates": [[2.26303735, 48.8721258], [2.2630845, 48.87193670000001], [2.2630826, 48.8718601]]}}, {"type": "Feature", "properties": {"highway": "path", "footway": null, "name": null, "surface": "compacted", "lit": "yes", "length_m": 7.97, "type_element": "Way", "__fid": 5561}, "geometry": {"type": "LineString", "coordinates": [[2.2631297, 48.8721636], [2.26303735, 48.8721258]]}}, {"type": "Feature", "properties": {"highway": "path", "footway": null, "name": null, "surface": "ground", "lit": null, "length_m": 100.37, "type_element": "Way", "__fid": 5565}, "geometry": {"type": "LineString", "coordinates": [[2.2642845, 48.8722916], [2.2630826, 48.8718601]]}}, {"type": "Feature", "properties": {"highway": "footway", "footway": null, "name": null, "surface": "dirt", "lit": null, "length_m": 161.34, "type_element": "Way", "__fid": 5566}, "geometry": {"type": "LineString", "coordinates": [[2.2630826, 48.8718601], [2.2630792, 48.871527], [2.2630948, 48.8713995], [2.2631495, 48.87123359999999], [2.263278, 48.870938], [2.2633773, 48.870746], [2.263567, 48.8704626]]}}, {"type": "Feature", "properties": {"highway": "path", "footway": null, "name": null, "surface": "compacted", "lit": "yes", "length_m": 95.96, "type_element": "Way", "__fid": 5575}, "geometry": {"type": "LineString", "coordinates": [[2.2642792, 48.8725753], [2.2632777, 48.8722114], [2.2631297, 48.8721636]]}}, {"type": "Feature", "properties": {"highway": "path", "footway": null, "name": null, "surface": null, "lit": null, "length_m": 137.65, "type_element": "Way", "__fid": 5650}, "geometry": {"type": "LineString", "coordinates": [[2.2635013, 48.8749219], [2.2639383, 48.8748924], [2.2643728, 48.874798], [2.2646967, 48.8747592], [2.2648194, 48.8746771], [2.2652842, 48.8747447]]}}, {"type": "Feature", "properties": {"highway": "track", "footway": null, "name": "Route Sablonneuse", "surface": "asphalt", "lit": "no", "length_m": 25.72, "type_element": "Way", "__fid": 5681}, "geometry": {"type": "LineString", "coordinates": [[2.2636121, 48.876141], [2.263867, 48.87598209999999]]}}, {"type": "Feature", "properties": {"highway": "service", "footway": null, "name": null, "surface": "concrete", "lit": null, "length_m": 25.61, "type_element": "Way", "__fid": 5697}, "geometry": {"type": "LineString", "coordinates": [[2.264071, 48.87356530000001], [2.2639386, 48.8735667], [2.2637246, 48.8735438]]}}, {"type": "Feature", "properties": {"highway": "service", "footway": null, "name": null, "surface": null, "lit": null, "length_m": 19.42, "type_element": "Way", "__fid": 5698}, "geometry": {"type": "LineString", "coordinates": [[2.2637246, 48.8735438], [2.2637254, 48.8737184]]}}, {"type": "Feature", "properties": {"highway": "service", "footway": null, "name": null, "surface": null, "lit": null, "length_m": 56.25, "type_element": "Way", "__fid": 5699}, "geometry": {"type": "LineString", "coordinates": [[2.2640137, 48.8732673], [2.2637495, 48.8732373], [2.2637147, 48.8732434], [2.2636992, 48.8732809], [2.2636852, 48.8734207], [2.2637153, 48.87348820000001], [2.2637246, 48.8735438]]}}]}