{"type": "FeatureCollection", "features": [{"type": "Feature", "properties": {"highway": "footway", "footway": "crossing", "name": null, "surface": "asphalt", "lit": "yes", "length_m": 48.8, "type_element": "Way", "__fid": 3777}, "geometry": {"type": "LineString", "coordinates": [[2.2551283, 48.8352892], [2.2551261, 48.835254], [2.2550038, 48.8350511], [2.254886, 48.8348829]]}}, {"type": "Feature", "properties": {"highway": "footway", "footway": "sidewalk", "name": null, "surface": "asphalt", "lit": null, "length_m": 4.43, "type_element": "Way", "__fid": 3822}, "geometry": {"type": "LineString", "coordinates": [[2.2551204, 48.8348052], [2.2551805, 48.834808500000015]]}}, {"type": "Feature", "properties": {"highway": "footway", "footway": null, "name": null, "surface": "concrete", "lit": "yes", "length_m": 59.72, "type_element": "Way", "__fid": 3824}, "geometry": {"type": "LineString", "coordinates": [[2.2551283, 48.8352892], [2.2551075, 48.83582610000001]]}}, {"type": "Feature", "properties": {"highway": "footway", "footway": "sidewalk", "name": null, "surface": "asphalt", "lit": "yes", "length_m": 3.73, "type_element": "Way", "__fid": 3825}, "geometry": {"type": "LineString", "coordinates": [[2.2551283, 48.8352892], [2.255178, 48.8352961]]}}, {"type": "Feature", "properties": {"highway": "footway", "footway": "crossing", "name": null, "surface": null, "lit": "yes", "length_m": 30.95, "type_element": "Way", "__fid": 3833}, "geometry": {"type": "LineString", "coordinates": [[2.2554147, 48.83504], [2.2551805, 48.834808500000015]]}}, {"type": "Feature", "properties": {"highway": "footway", "footway": "crossing", "name": null, "surface": "asphalt", "lit": null, "length_m": 28.59, "type_element": "Way", "__fid": 3834}, "geometry": {"type": "LineString", "coordinates": [[2.2551805, 48.834808500000015], [2.2554031, 48.8347948], [2.2555662, 48.83477460000001]]}}, {"type": "Feature", "properties": {"highway": "footway", "footway": "crossing", "name": null, "surface": "asphalt", "lit": "yes", "length_m": 24.79, "type_element": "Way", "__fid": 3835}, "geometry": {"type": "LineString", "coordinates": [[2.255178, 48.8352961], [2.2552327, 48.8353036], [2.2554882, 48.835225]]}}, {"type": "Feature", "properties": {"highway": "footway", "footway": "sidewalk", "name": null, "surface": "asphalt", "lit": null, "length_m": 132.99, "type_element": "Way", "__fid": 3836}, "geometry": {"type": "LineString", "coordinates": [[2.255178, 48.8352961], [2.2556898, 48.8360391], [2.2557668, 48.8362392], [2.2557752, 48.8364125]]}}, {"type": "Feature", "properties": {"highway": "footway", "footway": "sidewalk", "name": null, "surface": null, "lit": null, "length_m": 21.84, "type_element": "Way", "__fid": 3870}, "geometry": {"type": "LineString", "coordinates": [[2.2554882, 48.835225], [2.2554102, 48.83511410000002], [2.2554147, 48.83504]]}}, {"type": "Feature", "properties": {"highway": "footway", "footway": "sidewalk", "name": null, "surface": null, "lit": null, "length_m": 45.59, "type_element": "Way", "__fid": 3871}, "geometry": {"type": "LineString", "coordinates": [[2.2555662, 48.83477460000001], [2.2556373, 48.8347659], [2.2556667, 48.834868], [2.2555431, 48.8348948], [2.2554715, 48.834939099999986], [2.2554147, 48.83504]]}}, {"type": "Feature", "properties": {"highway": "footway", "footway": "sidewalk", "name": null, "surface": null, "lit": null, "length_m": 140.08, "type_element": "Way", "__fid": 3883}, "geometry": {"type": "LineString", "coordinates": [[2.2554882, 48.835225], [2.2560061, 48.83591590000002], [2.2560922, 48.83597240000001], [2.2564389, 48.83610750000001], [2.2563113, 48.8362231]]}}, {"type": "Feature", "properties": {"highway": "service", "footway": null, "name": "Parking Indigo", "surface": "asphalt", "lit": null, "length_m": 7.22, "type_element": "Way", "__fid": 3893}, "geometry": {"type": "LineString", "coordinates": [[2.2555662, 48.83477460000001], [2.255526, 48.8348339]]}}, {"type": "Feature", "properties": {"highway": "service", "footway": null, "name": "Parking Indigo", "surface": "asphalt", "lit": null, "length_m": 2.34, "type_element": "Way", "__fid": 3901}, "geometry": {"type": "LineString", "coordinates": [[2.25558, 48.8347556], [2.2555662, 48.83477460000001]]}}, {"type": "Feature", "properties": {"highway": "footway", "footway": "sidewalk", "name": null, "surface": null, "lit": null, "length_m": 144.73, "type_element": "Way", "__fid": 4791}, "geometry": {"type": "LineString", "coordinates": [[2.2614564, 48.83550610000001], [2.2599117, 48.8360799], [2.2597129, 48.8360894]]}}, {"type": "Feature", "properties": {"highway": "service", "footway": null, "name": null, "surface": null, "lit": null, "length_m": 69.52, "type_element": "Way", "__fid": 5069}, "geometry": {"type": "LineString", "coordinates": [[2.2614564, 48.83550610000001], [2.261359, 48.83536010000001], [2.2613362, 48.8352952], [2.2613503, 48.83489619999999]]}}, {"type": "Feature", "properties": {"highway": "service", "footway": null, "name": null, "surface": null, "lit": null, "length_m": 8.19, "type_element": "Way", "__fid": 5097}, "geometry": {"type": "LineString", "coordinates": [[2.2615081, 48.8355714], [2.2614564, 48.83550610000001]]}}, {"type": "Feature", "properties": {"highway": "service", "footway": null, "name": null, "surface": null, "lit": null, "length_m": 110.78, "type_element": "Way", "__fid": 5153}, "geometry": {"type": "LineString", "coordinates": [[2.262617, 48.8350277], [2.262, 48.8343831], [2.2618391, 48.8341748]]}}, {"type": "Feature", "properties": {"highway": "footway", "footway": "sidewalk", "name": null, "surface": "compacted", "lit": "yes", "length_m": 413.34, "type_element": "Way", "__fid": 5218}, "geometry": {"type": "LineString", "coordinates": [[2.2652762, 48.8345975], [2.2650857, 48.8344499], [2.2649485, 48.83432770000002], [2.2643761, 48.8337703], [2.2640059, 48.8333943], [2.2635242, 48.8329426], [2.2628564, 48.8322346], [2.2621243, 48.8315196]]}}, {"type": "Feature", "properties": {"highway": "footway", "footway": "sidewalk", "name": null, "surface": "compacted", "lit": "yes", "length_m": 420.41, "type_element": "Way", "__fid": 5293}, "geometry": {"type": "LineString", "coordinates": [[2.2623709, 48.83138309999999], [2.2653186, 48.834314], [2.2657003, 48.83438870000001]]}}, {"type": "Feature", "properties": {"highway": "service", "footway": null, "name": null, "surface": null, "lit": null, "length_m": 20.23, "type_element": "Way", "__fid": 5302}, "geometry": {"type": "LineString", "coordinates": [[2.262346, 48.83503109999998], [2.262444, 48.835014], [2.262617, 48.8350277]]}}, {"type": "Feature", "properties": {"highway": "service", "footway": null, "name": null, "surface": null, "lit": null, "length_m": 308.74, "type_element": "Way", "__fid": 5370}, "geometry": {"type": "LineString", "coordinates": [[2.262617, 48.8350277], [2.2648754, 48.8371961], [2.2649257, 48.83728090000001], [2.264924, 48.8373122], [2.2649026, 48.8373301]]}}]}