{"type": "FeatureCollection", "features": [{"type": "Feature", "properties": {"@id": "node/503046238", "amenity": "drinking_water", "artist_name": "Charles-Auguste Lebourg", "name": "Petite Fontaine Wallace", "note": "Petit modèle", "type_element": "Fontaines à boire", "__fid": 90}, "geometry": {"type": "Point", "coordinates": [2.2624158, 48.8576458]}, "id": "node/503046238"}, {"type": "Feature", "properties": {"@id": "node/520092790", "amenity": "drinking_water", "artist_name": "Charles-Auguste Lebourg", "man_made": "water_tap", "name": "Petite Fontaine Wallace", "note": "Petit modèle", "type_element": "Fontaines à boire", "__fid": 104}, "geometry": {"type": "Point", "coordinates": [2.2574119, 48.8587344]}, "id": "node/520092790"}, {"type": "Feature", "properties": {"@id": "node/4414970471", "amenity": "drinking_water", "type_element": "Fontaines à boire", "__fid": 496}, "geometry": {"type": "Point", "coordinates": [2.2587665, 48.8555037]}, "id": "node/4414970471"}, {"type": "Feature", "properties": {"@id": "node/6646909084", "amenity": "drinking_water", "type_element": "Fontaines à boire", "__fid": 641}, "geometry": {"type": "Point", "coordinates": [2.2548636, 48.8578854]}, "id": "node/6646909084"}, {"type": "Feature", "properties": {"@id": "node/7179479680", "amenity": "drinking_water", "type_element": "Fontaines à boire", "__fid": 671}, "geometry": {"type": "Point", "coordinates": [2.2602123, 48.8551072]}, "id": "node/7179479680"}, {"type": "Feature", "geometry": {"type": "Point", "coordinates": [2.263347, 48.858495]}, "properties": {"id": 17730, "name": "Square de Passy", "categorie": "Parcs, jardins et bois", "photo_url": "https://cdn.paris.fr/eqpts-prod/2023/10/30/404b74b857143847b511a8bd1492f090.jpg", "photo_credit": "Sonia Yassa / Ville de Paris", "photo_alt": "Allée principale du Square de Passy en automne", "address_street": "Allée des Fortifications", "address_postcode": "75016", "address_city": "Paris", "phone": null, "accessibility": "{\"handicaps\": [{\"name\": \"Personnes déficientes visuelles\", \"status\": \"undefined\"}, {\"name\": \"Personnes déficientes auditives\", \"status\": \"undefined\"}, {\"name\": \"Personnes déficientes mentales\", \"status\": \"undefined\"}, {\"name\": \"Personnes à mobilité réduite\", \"status\": \"undefined\"}, {\"name\": \"Accueil en langue des signes\", \"status\": \"undefined\"}]}", "latitude": 48.858495, "longitude": 2.263347, "url": "https://www.paris.fr/lieux/square-de-passy-17730", "type_element": "Parcs, Jardins et Bois", "__fid": 1124}}, {"type": "Feature", "geometry": {"type": "Point", "coordinates": [2.262603, 48.854917]}, "properties": {"id": 2619, "name": "Square Henry Bataille", "categorie": "Parcs, jardins et bois", "photo_url": "https://cdn.paris.fr/eqpts-prod/2022/05/10/b90d037fbb728aac5811a97cdc82af77.jpg", "photo_credit": "Sonia Yassa  / Ville de Paris", "photo_alt": "Pelouse du square Henry Bataille", "address_street": "1 square Henry Bataille", "address_postcode": "75016", "address_city": "PARIS", "phone": null, "accessibility": "{\"handicaps\": [{\"name\": \"Personnes à mobilité réduite\", \"status\": \"accessible\"}, {\"name\": \"Personnes déficientes visuelles\", \"status\": \"undefined\"}, {\"name\": \"Personnes déficientes auditives\", \"status\": \"undefined\"}, {\"name\": \"Personnes déficientes mentales\", \"status\": \"undefined\"}, {\"name\": \"Accueil en langue des signes\", \"status\": \"undefined\"}]}", "latitude": 48.854917, "longitude": 2.262603, "url": "https://www.paris.fr/lieux/square-henry-bataille-2619", "type_element": "Parcs, Jardins et Bois", "__fid": 1293}}, {"type": "Feature", "geometry": {"type": "Point", "coordinates": [2.261659, 48.858187]}, "properties": {"id": 3324, "name": "Piscine d'Auteuil", "categorie": "Piscines", "photo_url": "https://cdn.paris.fr/eqpts-prod/2025/05/16/61b60010890b2f4ec8ca1c612240b1c0.jpg", "photo_credit": "@", "photo_alt": null, "address_street": "1, Route des Lacs à Passy", "address_postcode": "75016", "address_city": "PARIS", "phone": "0142240759", "accessibility": "{\"handicaps\": [{\"name\": \"Personnes à mobilité réduite\", \"status\": \"accessible\"}, {\"name\": \"Personnes déficientes visuelles\", \"status\": \"undefined\"}, {\"name\": \"Personnes déficientes auditives\", \"status\": \"undefined\"}, {\"name\": \"Personnes déficientes mentales\", \"status\": \"undefined\"}, {\"name\": \"Accueil en langue des signes\", \"status\": \"undefined\"}]}", "latitude": 48.858187, "longitude": 2.261659, "url": "https://www.paris.fr/lieux/piscine-d-auteuil-3324", "type_element": "Piscines", "__fid": 1673}}, {"type": "Feature", "properties": {"highway": "path", "footway": null, "name": null, "surface": "dirt", "lit": null, "length_m": 194.06, "type_element": "Way", "__fid": 3616}, "geometry": {"type": "LineString", "coordinates": [[2.2553542, 48.8555359], [2.2540734, 48.854790499999986], [2.2536388, 48.8544799], [2.2534472, 48.8543307]]}}, {"type": "Feature", "properties": {"highway": "service", "footway": null, "name": "Route d'Auteuil aux Lacs", "surface": "asphalt", "lit": null, "length_m": 182.39, "type_element": "Way", "__fid": 3653}, "geometry": {"type": "LineString", "coordinates": [[2.2554404, 48.8553773], [2.2544514, 48.8547461], [2.2540668, 48.85447280000001], [2.2537165, 48.8541976]]}}, {"type": "Feature", "properties": {"highway": "service", "footway": null, "name": null, "surface": null, "lit": null, "length_m": 182.73, "type_element": "Way", "__fid": 3657}, "geometry": {"type": "LineString", "coordinates": [[2.2537401, 48.854104], [2.2538033, 48.8540243], [2.253965, 48.8539889], [2.254352, 48.85398570000002], [2.2543965, 48.8539971], [2.2544818, 48.8540417], [2.2553303, 48.8546203], [2.2556822, 48.8547714]]}}, {"type": "Feature", "properties": {"highway": "track", "footway": null, "name": null, "surface": null, "lit": null, "length_m": 162.96, "type_element": "Way", "__fid": 3731}, "geometry": {"type": "LineString", "coordinates": [[2.2560737, 48.8577165], [2.2560125, 48.857641499999986], [2.2559374, 48.8574103], [2.2543823, 48.8569048]]}}, {"type": "Feature", "properties": {"highway": "track", "footway": null, "name": null, "surface": null, "lit": null, "length_m": 86.32, "type_element": "Way", "__fid": 3767}, "geometry": {"type": "LineString", "coordinates": [[2.2556406, 48.8560904], [2.2545563, 48.85578930000001]]}}, {"type": "Feature", "properties": {"highway": "track", "footway": null, "name": null, "surface": "compacted", "lit": null, "length_m": 64.97, "type_element": "Way", "__fid": 3768}, "geometry": {"type": "LineString", "coordinates": [[2.2553542, 48.8555359], [2.2545563, 48.85578930000001]]}}, {"type": "Feature", "properties": {"highway": "service", "footway": null, "name": null, "surface": "asphalt", "lit": "no", "length_m": 73.26, "type_element": "Way", "__fid": 3770}, "geometry": {"type": "LineString", "coordinates": [[2.2547795, 48.8583992], [2.2546828, 48.8585026], [2.2546106, 48.85864680000002], [2.2545117, 48.8590267]]}}, {"type": "Feature", "properties": {"highway": "path", "footway": null, "name": null, "surface": "compacted", "lit": "no", "length_m": 179.0, "type_element": "Way", "__fid": 3783}, "geometry": {"type": "LineString", "coordinates": [[2.2558638, 48.860454899999986], [2.2555549, 48.8602011], [2.2551476, 48.85977089999999], [2.2545694, 48.859094]]}}, {"type": "Feature", "properties": {"highway": "path", "footway": null, "name": null, "surface": null, "lit": "no", "length_m": 77.67, "type_element": "Way", "__fid": 3784}, "geometry": {"type": "LineString", "coordinates": [[2.2545694, 48.859094], [2.2547476, 48.8590636], [2.2549547, 48.8590507], [2.2550741, 48.8590516], [2.2554943, 48.8590847], [2.2556164, 48.8590709]]}}, {"type": "Feature", "properties": {"highway": "path", "footway": null, "name": "Avenue de l'Hippodrome", "surface": "concrete", "lit": "yes", "length_m": 17.89, "type_element": "Way", "__fid": 3785}, "geometry": {"type": "LineString", "coordinates": [[2.2545859, 48.8580812], [2.2548274, 48.8581034]]}}, {"type": "Feature", "properties": {"highway": "path", "footway": null, "name": null, "surface": "dirt", "lit": null, "length_m": 4.1, "type_element": "Way", "__fid": 3812}, "geometry": {"type": "LineString", "coordinates": [[2.2547795, 48.8583992], [2.2547238, 48.8583964]]}}, {"type": "Feature", "properties": {"highway": "path", "footway": null, "name": "Avenue de l'Hippodrome", "surface": "concrete", "lit": "yes", "length_m": 12.98, "type_element": "Way", "__fid": 3816}, "geometry": {"type": "LineString", "coordinates": [[2.2549399, 48.8582755], [2.2547661, 48.8582535]]}}, {"type": "Feature", "properties": {"highway": "footway", "footway": "crossing", "name": null, "surface": "asphalt", "lit": "yes", "length_m": 17.29, "type_element": "Way", "__fid": 3817}, "geometry": {"type": "LineString", "coordinates": [[2.2548274, 48.8581034], [2.2547661, 48.8582535]]}}, {"type": "Feature", "properties": {"highway": "path", "footway": null, "name": null, "surface": "dirt", "lit": null, "length_m": 154.6, "type_element": "Way", "__fid": 3820}, "geometry": {"type": "LineString", "coordinates": [[2.2568469, 48.858664], [2.2563565, 48.858619], [2.2554195, 48.858496], [2.2547795, 48.8583992]]}}, {"type": "Feature", "properties": {"highway": "service", "footway": null, "name": null, "surface": "asphalt", "lit": "no", "length_m": 18.1, "type_element": "Way", "__fid": 3821}, "geometry": {"type": "LineString", "coordinates": [[2.2549399, 48.8582755], [2.2547795, 48.8583992]]}}, {"type": "Feature", "properties": {"highway": "path", "footway": null, "name": "Avenue de l'Hippodrome", "surface": "concrete", "lit": "yes", "length_m": 23.13, "type_element": "Way", "__fid": 3831}, "geometry": {"type": "LineString", "coordinates": [[2.2548274, 48.8581034], [2.2551372, 48.8581419]]}}, {"type": "Feature", "properties": {"highway": "path", "footway": null, "name": null, "surface": "dirt", "lit": null, "length_m": 29.22, "type_element": "Way", "__fid": 3832}, "geometry": {"type": "LineString", "coordinates": [[2.2549245, 48.8578504], [2.2548807, 48.8579099], [2.2548274, 48.8581034]]}}, {"type": "Feature", "properties": {"highway": "path", "footway": null, "name": "Avenue de l'Hippodrome", "surface": "concrete", "lit": "yes", "length_m": 12.04, "type_element": "Way", "__fid": 3849}, "geometry": {"type": "LineString", "coordinates": [[2.2551011, 48.8582957], [2.2549399, 48.8582755]]}}, {"type": "Feature", "properties": {"highway": "service", "footway": null, "name": null, "surface": "asphalt", "lit": "no", "length_m": 8.54, "type_element": "Way", "__fid": 3850}, "geometry": {"type": "LineString", "coordinates": [[2.2549812, 48.8582037], [2.2549399, 48.8582755]]}}, {"type": "Feature", "properties": {"highway": "path", "footway": null, "name": "Avenue de l'Hippodrome", "surface": "concrete", "lit": "yes", "length_m": 120.65, "type_element": "Way", "__fid": 3875}, "geometry": {"type": "LineString", "coordinates": [[2.2567162, 48.8584977], [2.2558128, 48.858371300000016], [2.2551011, 48.8582957]]}}, {"type": "Feature", "properties": {"highway": "footway", "footway": "crossing", "name": null, "surface": "asphalt", "lit": "yes", "length_m": 17.31, "type_element": "Way", "__fid": 3876}, "geometry": {"type": "LineString", "coordinates": [[2.2551011, 48.8582957], [2.2551372, 48.8581419]]}}, {"type": "Feature", "properties": {"highway": "path", "footway": null, "name": "Avenue de l'Hippodrome", "surface": "concrete", "lit": "yes", "length_m": 31.06, "type_element": "Way", "__fid": 3878}, "geometry": {"type": "LineString", "coordinates": [[2.2551372, 48.8581419], [2.2555533, 48.8581935]]}}, {"type": "Feature", "properties": {"highway": "service", "footway": null, "name": null, "surface": null, "lit": null, "length_m": 42.34, "type_element": "Way", "__fid": 3891}, "geometry": {"type": "LineString", "coordinates": [[2.2552603, 48.8532347], [2.2552308, 48.8533027], [2.2554494, 48.8535771]]}}, {"type": "Feature", "properties": {"highway": "path", "footway": null, "name": null, "surface": "dirt", "lit": null, "length_m": 71.2, "type_element": "Way", "__fid": 3919}, "geometry": {"type": "LineString", "coordinates": [[2.2558424, 48.8560811], [2.255777, 48.8560552], [2.2554525, 48.8556361], [2.2553542, 48.8555359]]}}, {"type": "Feature", "properties": {"highway": "track", "footway": null, "name": null, "surface": "compacted", "lit": null, "length_m": 17.5, "type_element": "Way", "__fid": 3920}, "geometry": {"type": "LineString", "coordinates": [[2.2555746, 48.8554757], [2.2553542, 48.8555359]]}}, {"type": "Feature", "properties": {"highway": "service", "footway": null, "name": "Route d'Auteuil aux Lacs", "surface": "asphalt", "lit": null, "length_m": 14.72, "type_element": "Way", "__fid": 3935}, "geometry": {"type": "LineString", "coordinates": [[2.2555746, 48.8554757], [2.2554404, 48.8553773]]}}, {"type": "Feature", "properties": {"highway": "service", "footway": null, "name": "Chemin de Ceinture du Lac Supérieur", "surface": "asphalt", "lit": null, "length_m": 74.97, "type_element": "Way", "__fid": 3936}, "geometry": {"type": "LineString", "coordinates": [[2.2554404, 48.8553773], [2.2555731, 48.85530150000001], [2.2556775, 48.855171], [2.2557228, 48.8550833], [2.2557443, 48.855005200000015], [2.2557452, 48.8549408], [2.2556822, 48.8547714]]}}, {"type": "Feature", "properties": {"highway": "service", "footway": null, "name": "Chemin de Ceinture du Lac Supérieur", "surface": "asphalt", "lit": null, "length_m": 71.91, "type_element": "Way", "__fid": 3973}, "geometry": {"type": "LineString", "coordinates": [[2.2559357, 48.85607690000001], [2.2555746, 48.8554757]]}}, {"type": "Feature", "properties": {"highway": "path", "footway": null, "name": "Avenue de l'Hippodrome", "surface": "concrete", "lit": "yes", "length_m": 74.15, "type_element": "Way", "__fid": 3975}, "geometry": {"type": "LineString", "coordinates": [[2.2555533, 48.8581935], [2.2565459, 48.8583188]]}}, {"type": "Feature", "properties": {"highway": "footway", "footway": null, "name": null, "surface": null, "lit": null, "length_m": 20.49, "type_element": "Way", "__fid": 3976}, "geometry": {"type": "LineString", "coordinates": [[2.2556713, 48.8580326], [2.2556026, 48.8580866], [2.2555587, 48.8581453], [2.2555533, 48.8581935]]}}, {"type": "Feature", "properties": {"highway": "path", "footway": null, "name": null, "surface": null, "lit": null, "length_m": 190.8, "type_element": "Way", "__fid": 3989}, "geometry": {"type": "LineString", "coordinates": [[2.2561675, 48.8577341], [2.2561358, 48.8573992], [2.2561385, 48.857307], [2.2558917, 48.857108], [2.2556406, 48.8560904]]}}, {"type": "Feature", "properties": {"highway": "track", "footway": null, "name": null, "surface": null, "lit": null, "length_m": 14.84, "type_element": "Way", "__fid": 3990}, "geometry": {"type": "LineString", "coordinates": [[2.2558424, 48.8560811], [2.2556406, 48.8560904]]}}, {"type": "Feature", "properties": {"highway": "path", "footway": null, "name": null, "surface": null, "lit": null, "length_m": 95.94, "type_element": "Way", "__fid": 3994}, "geometry": {"type": "LineString", "coordinates": [[2.2556164, 48.8590709], [2.2558447, 48.8594083], [2.2559476, 48.8596221], [2.2560776, 48.85971830000001], [2.2562635, 48.859786]]}}, {"type": "Feature", "properties": {"highway": "path", "footway": null, "name": null, "surface": null, "lit": "no", "length_m": 102.76, "type_element": "Way", "__fid": 3995}, "geometry": {"type": "LineString", "coordinates": [[2.2556164, 48.8590709], [2.2560501, 48.859007], [2.2562401, 48.858943199999985], [2.2564363, 48.85884739999999], [2.2567448, 48.8587294], [2.2568469, 48.858664]]}}, {"type": "Feature", "properties": {"highway": "service", "footway": null, "name": "Chemin de Ceinture du Lac Supérieur", "surface": "asphalt", "lit": null, "length_m": 150.5, "type_element": "Way", "__fid": 3996}, "geometry": {"type": "LineString", "coordinates": [[2.2556822, 48.8547714], [2.255684, 48.8546878], [2.2557384, 48.8545847], [2.2558243, 48.8544784], [2.2559161, 48.8544053], [2.2559719, 48.8543728], [2.2560967, 48.8543247], [2.2563238, 48.8542808], [2.2564036, 48.8542768], [2.2565301, 48.8542863], [2.2566374, 48.8543131], [2.2567983, 48.8543814], [2.25684, 48.8544127], [2.2568913, 48.8544819], [2.2569093, 48.85466870000001]]}}, {"type": "Feature", "properties": {"highway": "path", "footway": null, "name": null, "surface": null, "lit": null, "length_m": 72.09, "type_element": "Way", "__fid": 4010}, "geometry": {"type": "LineString", "coordinates": [[2.2556713, 48.8580326], [2.256467, 48.85826740000001], [2.2565459, 48.8583188]]}}, {"type": "Feature", "properties": {"highway": "footway", "footway": null, "name": null, "surface": null, "lit": null, "length_m": 45.9, "type_element": "Way", "__fid": 4011}, "geometry": {"type": "LineString", "coordinates": [[2.2560737, 48.8577165], [2.2556713, 48.8580326]]}}, {"type": "Feature", "properties": {"highway": "service", "footway": null, "name": null, "surface": null, "lit": null, "length_m": 136.63, "type_element": "Way", "__fid": 4034}, "geometry": {"type": "LineString", "coordinates": [[2.2558383, 48.8530591], [2.256285, 48.853661], [2.2564445, 48.8537598], [2.2567476, 48.8541225]]}}, {"type": "Feature", "properties": {"highway": "track", "footway": null, "name": null, "surface": null, "lit": null, "length_m": 6.86, "type_element": "Way", "__fid": 4047}, "geometry": {"type": "LineString", "coordinates": [[2.2559357, 48.85607690000001], [2.2558424, 48.8560811]]}}, {"type": "Feature", "properties": {"highway": "service", "footway": null, "name": "Chemin de Ceinture du Lac Supérieur", "surface": "asphalt", "lit": null, "length_m": 187.34, "type_element": "Way", "__fid": 4072}, "geometry": {"type": "LineString", "coordinates": [[2.2563297, 48.8577235], [2.2562935, 48.8574916], [2.2562796, 48.8572561], [2.2562753, 48.8568391], [2.2562028, 48.85653], [2.2559357, 48.85607690000001]]}}, {"type": "Feature", "properties": {"highway": "track", "footway": null, "name": null, "surface": null, "lit": null, "length_m": 7.16, "type_element": "Way", "__fid": 4103}, "geometry": {"type": "LineString", "coordinates": [[2.2561675, 48.8577341], [2.2560737, 48.8577165]]}}, {"type": "Feature", "properties": {"highway": "path", "footway": null, "name": null, "surface": null, "lit": null, "length_m": 72.57, "type_element": "Way", "__fid": 4125}, "geometry": {"type": "LineString", "coordinates": [[2.2565459, 48.8583188], [2.2565381, 48.8582427], [2.256455, 48.8581545], [2.2563276, 48.8580415], [2.2562484, 48.85794449999999], [2.2561881, 48.8578474], [2.2561572, 48.85776890000002], [2.2561675, 48.8577341]]}}, {"type": "Feature", "properties": {"highway": "track", "footway": null, "name": null, "surface": null, "lit": null, "length_m": 11.96, "type_element": "Way", "__fid": 4126}, "geometry": {"type": "LineString", "coordinates": [[2.2563297, 48.8577235], [2.2561675, 48.8577341]]}}, {"type": "Feature", "properties": {"highway": "path", "footway": null, "name": null, "surface": null, "lit": null, "length_m": 117.38, "type_element": "Way", "__fid": 4150}, "geometry": {"type": "LineString", "coordinates": [[2.2562635, 48.859786], [2.2562635, 48.8597198], [2.2562788, 48.8596417], [2.2563516, 48.8595712], [2.256566, 48.8593167], [2.2567231, 48.8592109], [2.2570103, 48.8589816], [2.2571216, 48.858932]]}}, {"type": "Feature", "properties": {"highway": "service", "footway": null, "name": "Chemin de Ceinture du Lac Supérieur", "surface": "asphalt", "lit": null, "length_m": 3.31, "type_element": "Way", "__fid": 4156}, "geometry": {"type": "LineString", "coordinates": [[2.2563407, 48.8577524], [2.2563297, 48.8577235]]}}, {"type": "Feature", "properties": {"highway": "path", "footway": null, "name": null, "surface": "compacted", "lit": null, "length_m": 152.72, "type_element": "Way", "__fid": 4159}, "geometry": {"type": "LineString", "coordinates": [[2.2581212, 48.8583878], [2.2579209, 48.85836820000003], [2.2577669, 48.8582612], [2.2576605, 48.8582253], [2.2573511, 48.8581618], [2.2571885, 48.8581079], [2.2569655, 48.8580142], [2.2566777, 48.8578334], [2.2565885, 48.85779079999999], [2.2565044, 48.8577642], [2.2563407, 48.8577524]]}}, {"type": "Feature", "properties": {"highway": "service", "footway": null, "name": "Chemin de Ceinture du Lac Supérieur", "surface": "asphalt", "lit": null, "length_m": 87.39, "type_element": "Way", "__fid": 4160}, "geometry": {"type": "LineString", "coordinates": [[2.2570447, 48.8583782], [2.2566517, 48.8581002], [2.2564197, 48.8578774], [2.2563407, 48.8577524]]}}, {"type": "Feature", "properties": {"highway": "path", "footway": null, "name": "Avenue de l'Hippodrome", "surface": "concrete", "lit": "yes", "length_m": 14.85, "type_element": "Way", "__fid": 4198}, "geometry": {"type": "LineString", "coordinates": [[2.2565459, 48.8583188], [2.2567444, 48.8583449]]}}, {"type": "Feature", "properties": {"highway": "path", "footway": null, "name": "Avenue de l'Hippodrome", "surface": "concrete", "lit": "yes", "length_m": 47.17, "type_element": "Way", "__fid": 4223}, "geometry": {"type": "LineString", "coordinates": [[2.2573145, 48.858637], [2.2572333, 48.8585936], [2.2571228, 48.8585627], [2.2567162, 48.8584977]]}}, {"type": "Feature", "properties": {"highway": "path", "footway": null, "name": null, "surface": "compacted", "lit": null, "length_m": 20.83, "type_element": "Way", "__fid": 4224}, "geometry": {"type": "LineString", "coordinates": [[2.2568469, 48.858664], [2.2567162, 48.8584977]]}}, {"type": "Feature", "properties": {"highway": "footway", "footway": "crossing", "name": null, "surface": "asphalt", "lit": "yes", "length_m": 17.12, "type_element": "Way", "__fid": 4225}, "geometry": {"type": "LineString", "coordinates": [[2.2567162, 48.8584977], [2.2567444, 48.8583449]]}}, {"type": "Feature", "properties": {"highway": "track", "footway": null, "name": null, "surface": null, "lit": null, "length_m": 701.56, "type_element": "Way", "__fid": 4226}, "geometry": {"type": "LineString", "coordinates": [[2.2608443, 48.8548668], [2.2606638, 48.85459940000001], [2.2603557, 48.8540946], [2.2600707, 48.8536577], [2.2596548, 48.8530627], [2.2594098, 48.8526836], [2.2591094, 48.8521727], [2.2585086, 48.85129890000001], [2.2581574, 48.8507485], [2.2578, 48.8502436], [2.257555, 48.8498452], [2.2574719, 48.8497337], [2.257116, 48.8493191], [2.256866597611181, 48.84914914250701]]}}, {"type": "Feature", "properties": {"highway": "path", "footway": null, "name": "Avenue de l'Hippodrome", "surface": "concrete", "lit": "yes", "length_m": 22.34, "type_element": "Way", "__fid": 4229}, "geometry": {"type": "LineString", "coordinates": [[2.2567444, 48.8583449], [2.2570447, 48.8583782]]}}, {"type": "Feature", "properties": {"highway": "path", "footway": null, "name": null, "surface": "dirt", "lit": null, "length_m": 36.03, "type_element": "Way", "__fid": 4250}, "geometry": {"type": "LineString", "coordinates": [[2.2571216, 48.858932], [2.2569577, 48.8587882], [2.2568469, 48.858664]]}}, {"type": "Feature", "properties": {"highway": "path", "footway": null, "name": null, "surface": "dirt", "lit": null, "length_m": 34.46, "type_element": "Way", "__fid": 4251}, "geometry": {"type": "LineString", "coordinates": [[2.2573145, 48.858637], [2.2571559, 48.858651500000015], [2.2568469, 48.858664]]}}, {"type": "Feature", "properties": {"highway": "service", "footway": null, "name": "Chemin de Ceinture du Lac Supérieur", "surface": "asphalt", "lit": null, "length_m": 191.11, "type_element": "Way", "__fid": 4252}, "geometry": {"type": "LineString", "coordinates": [[2.2569093, 48.85466870000001], [2.2569212, 48.8549223], [2.2569555, 48.8551651], [2.257007, 48.8552724], [2.2574705, 48.855808900000014], [2.2575933, 48.8559935], [2.2576791, 48.8562307], [2.257681, 48.8562762]]}}, {"type": "Feature", "properties": {"highway": "path", "footway": null, "name": null, "surface": "dirt", "lit": null, "length_m": 213.92, "type_element": "Way", "__fid": 4253}, "geometry": {"type": "LineString", "coordinates": [[2.2569093, 48.85466870000001], [2.2567415, 48.8547658], [2.2566604, 48.85482979999998], [2.2565639, 48.8549829], [2.2565545, 48.85502349999999], [2.2565807, 48.8550755], [2.2568509, 48.8553931], [2.2569387, 48.8554307], [2.2570762, 48.8554717], [2.2573612, 48.8557637], [2.2575006, 48.8559782], [2.2575784, 48.85616350000002], [2.2575918, 48.8562888]]}}, {"type": "Feature", "properties": {"highway": "path", "footway": null, "name": "Avenue de l'Hippodrome", "surface": "concrete", "lit": "yes", "length_m": 51.41, "type_element": "Way", "__fid": 4289}, "geometry": {"type": "LineString", "coordinates": [[2.2570447, 48.8583782], [2.2575744, 48.8584192], [2.2577417, 48.8584217]]}}, {"type": "Feature", "properties": {"highway": "service", "footway": null, "name": "Chemin de Ceinture du Lac Inférieur", "surface": "asphalt", "lit": "no", "length_m": 49.23, "type_element": "Way", "__fid": 4290}, "geometry": {"type": "LineString", "coordinates": [[2.2570447, 48.8583782], [2.2572097, 48.858481], [2.2574901, 48.85870819999999]]}}, {"type": "Feature", "properties": {"highway": "path", "footway": null, "name": null, "surface": null, "lit": null, "length_m": 42.63, "type_element": "Way", "__fid": 4308}, "geometry": {"type": "LineString", "coordinates": [[2.2571216, 48.858932], [2.2574854, 48.8592309]]}}, {"type": "Feature", "properties": {"highway": "path", "footway": null, "name": null, "surface": null, "lit": null, "length_m": 36.29, "type_element": "Way", "__fid": 4309}, "geometry": {"type": "LineString", "coordinates": [[2.2575611, 48.8587822], [2.2571216, 48.858932]]}}, {"type": "Feature", "properties": {"highway": "path", "footway": null, "name": "Avenue de l'Hippodrome", "surface": "concrete", "lit": "yes", "length_m": 15.21, "type_element": "Way", "__fid": 4328}, "geometry": {"type": "LineString", "coordinates": [[2.2574901, 48.85870819999999], [2.2573788, 48.8586713], [2.2573145, 48.858637]]}}, {"type": "Feature", "properties": {"highway": "path", "footway": null, "name": null, "surface": "dirt", "lit": null, "length_m": 16.99, "type_element": "Way", "__fid": 4366}, "geometry": {"type": "LineString", "coordinates": [[2.2574914, 48.8566488], [2.2575623, 48.8566876], [2.257685, 48.8567314]]}}, {"type": "Feature", "properties": {"highway": "path", "footway": null, "name": null, "surface": "compacted", "lit": null, "length_m": 105.5, "type_element": "Way", "__fid": 4367}, "geometry": {"type": "LineString", "coordinates": [[2.2574914, 48.8566488], [2.2574819, 48.8567006], [2.2574094, 48.85684470000001], [2.2574362, 48.8569435], [2.2575972, 48.857229400000016], [2.2578117, 48.8574747], [2.2578812, 48.857507199999986]]}}, {"type": "Feature", "properties": {"highway": "path", "footway": null, "name": null, "surface": "dirt", "lit": null, "length_m": 53.9, "type_element": "Way", "__fid": 4368}, "geometry": {"type": "LineString", "coordinates": [[2.2575918, 48.8562888], [2.2573505, 48.85643790000001], [2.257313, 48.8564762], [2.2573457, 48.8565712], [2.2574914, 48.8566488]]}}, {"type": "Feature", "properties": {"highway": "path", "footway": null, "name": "Avenue de l'Hippodrome", "surface": "concrete", "lit": "yes", "length_m": 44.96, "type_element": "Way", "__fid": 4373}, "geometry": {"type": "LineString", "coordinates": [[2.2580674, 48.8586387], [2.2578209, 48.8587207], [2.2577112, 48.8587353], [2.2574901, 48.85870819999999]]}}, {"type": "Feature", "properties": {"highway": "service", "footway": null, "name": "Chemin de Ceinture du Lac Inférieur", "surface": "asphalt", "lit": "no", "length_m": 9.74, "type_element": "Way", "__fid": 4374}, "geometry": {"type": "LineString", "coordinates": [[2.2574901, 48.85870819999999], [2.2575611, 48.8587822]]}}, {"type": "Feature", "properties": {"highway": "path", "footway": null, "name": null, "surface": "compacted", "lit": null, "length_m": 22.16, "type_element": "Way", "__fid": 4376}, "geometry": {"type": "LineString", "coordinates": [[2.2576619, 48.8590692], [2.2574854, 48.8592309]]}}, {"type": "Feature", "properties": {"highway": "path", "footway": null, "name": null, "surface": null, "lit": null, "length_m": 6.69, "type_element": "Way", "__fid": 4387}, "geometry": {"type": "LineString", "coordinates": [[2.257681, 48.8562762], [2.2575918, 48.8562888]]}}, {"type": "Feature", "properties": {"highway": "service", "footway": null, "name": "Chemin de Ceinture du Lac Inférieur", "surface": "asphalt", "lit": "no", "length_m": 32.83, "type_element": "Way", "__fid": 4388}, "geometry": {"type": "LineString", "coordinates": [[2.2575611, 48.8587822], [2.2576296, 48.85893580000001], [2.2576619, 48.8590692]]}}, {"type": "Feature", "properties": {"highway": "path", "footway": null, "name": null, "surface": null, "lit": null, "length_m": 215.17, "type_element": "Way", "__fid": 4401}, "geometry": {"type": "LineString", "coordinates": [[2.2591724, 48.8579128], [2.2588391, 48.8576395], [2.2585427, 48.8573536], [2.2583536, 48.857070399999984], [2.2581069, 48.856661], [2.2579647, 48.8564457], [2.257848, 48.8563663], [2.257681, 48.8562762]]}}, {"type": "Feature", "properties": {"highway": "service", "footway": null, "name": "Chemin de Ceinture du Lac Supérieur", "surface": "asphalt", "lit": null, "length_m": 50.64, "type_element": "Way", "__fid": 4402}, "geometry": {"type": "LineString", "coordinates": [[2.257681, 48.8562762], [2.2576934, 48.856576099999984], [2.257685, 48.8567314]]}}, {"type": "Feature", "properties": {"highway": "service", "footway": null, "name": "Chemin de Ceinture du Lac Supérieur", "surface": "asphalt", "lit": null, "length_m": 74.88, "type_element": "Way", "__fid": 4403}, "geometry": {"type": "LineString", "coordinates": [[2.257685, 48.8567314], [2.2577156, 48.8569095], [2.257775, 48.85703679999999], [2.2579047, 48.8571927], [2.2580732, 48.8573382]]}}, {"type": "Feature", "properties": {"highway": "service", "footway": null, "name": "Chemin de Ceinture du Lac Inférieur", "surface": "asphalt", "lit": null, "length_m": 39.1, "type_element": "Way", "__fid": 4405}, "geometry": {"type": "LineString", "coordinates": [[2.2576619, 48.8590692], [2.2576959, 48.8594201]]}}, {"type": "Feature", "properties": {"highway": "track", "footway": null, "name": "Chemin de Ceinture du Lac Inférieur", "surface": "compacted", "lit": "no", "length_m": 56.83, "type_element": "Way", "__fid": 4406}, "geometry": {"type": "LineString", "coordinates": [[2.2580674, 48.8586387], [2.257921, 48.858739100000015], [2.2576619, 48.8590692]]}}, {"type": "Feature", "properties": {"highway": "footway", "footway": null, "name": null, "surface": null, "lit": null, "length_m": 24.89, "type_element": "Way", "__fid": 4407}, "geometry": {"type": "LineString", "coordinates": [[2.2579931, 48.8590266], [2.2578808, 48.8590523], [2.2576619, 48.8590692]]}}, {"type": "Feature", "properties": {"highway": "track", "footway": null, "name": "Chemin de Ceinture du Lac Inférieur", "surface": "compacted", "lit": null, "length_m": 38.0, "type_element": "Way", "__fid": 4425}, "geometry": {"type": "LineString", "coordinates": [[2.2577417, 48.8584217], [2.257741, 48.858515099999984], [2.2580674, 48.8586387]]}}, {"type": "Feature", "properties": {"highway": "path", "footway": null, "name": "Avenue de l'Hippodrome", "surface": "concrete", "lit": "yes", "length_m": 28.26, "type_element": "Way", "__fid": 4426}, "geometry": {"type": "LineString", "coordinates": [[2.2577417, 48.8584217], [2.2579375, 48.8584177], [2.2581212, 48.8583878]]}}, {"type": "Feature", "properties": {"highway": "footway", "footway": null, "name": null, "surface": null, "lit": null, "length_m": 51.29, "type_element": "Way", "__fid": 4427}, "geometry": {"type": "LineString", "coordinates": [[2.2582804, 48.8545504], [2.2578383, 48.85419310000002]]}}, {"type": "Feature", "properties": {"highway": "path", "footway": null, "name": null, "surface": "compacted", "lit": null, "length_m": 50.06, "type_element": "Way", "__fid": 4440}, "geometry": {"type": "LineString", "coordinates": [[2.2578812, 48.857507199999986], [2.2579968, 48.8575612], [2.258147, 48.8576512], [2.2582489, 48.85773059999999], [2.2583368, 48.85783429999998]]}}, {"type": "Feature", "properties": {"highway": "path", "footway": null, "name": null, "surface": null, "lit": null, "length_m": 24.84, "type_element": "Way", "__fid": 4441}, "geometry": {"type": "LineString", "coordinates": [[2.2580732, 48.8573382], [2.2578976, 48.8574367], [2.2578812, 48.857507199999986]]}}, {"type": "Feature", "properties": {"highway": "footway", "footway": null, "name": null, "surface": "dirt", "lit": "no", "length_m": 267.4, "type_element": "Way", "__fid": 4464}, "geometry": {"type": "LineString", "coordinates": [[2.2583834, 48.8613569], [2.2583952, 48.8613313], [2.2584142, 48.861124899999986], [2.2583961, 48.8610168], [2.2582781, 48.8606251], [2.2582728, 48.860438], [2.2582406, 48.8602192], [2.2582996, 48.8600392], [2.2583425, 48.8598275], [2.2583479, 48.8596792], [2.258321, 48.859527499999984], [2.2582674, 48.8593792], [2.2581882, 48.8592654], [2.2580398, 48.8591467], [2.2580035, 48.8590956], [2.2579931, 48.8590266]]}}, {"type": "Feature", "properties": {"highway": "footway", "footway": null, "name": null, "surface": "concrete", "lit": null, "length_m": 37.23, "type_element": "Way", "__fid": 4465}, "geometry": {"type": "LineString", "coordinates": [[2.2579931, 48.8590266], [2.2579828, 48.8589583], [2.2580126, 48.858906800000014], [2.2581544, 48.8587981], [2.2581548, 48.858730499999986]]}}, {"type": "Feature", "properties": {"highway": "pedestrian", "footway": null, "name": null, "surface": null, "lit": null, "length_m": 130.44, "type_element": "Way", "__fid": 4482}, "geometry": {"type": "LineString", "coordinates": [[2.2590662, 48.8533938], [2.2586426, 48.852861], [2.2584079, 48.8526245], [2.258137, 48.8523978]]}}, {"type": "Feature", "properties": {"highway": "track", "footway": null, "name": null, "surface": null, "lit": null, "length_m": 177.57, "type_element": "Way", "__fid": 4483}, "geometry": {"type": "LineString", "coordinates": [[2.2582027, 48.8538453], [2.2578138, 48.8536014], [2.2577655, 48.85354490000001], [2.2577508, 48.8534929], [2.2577575, 48.8534337], [2.2578688, 48.8531134], [2.258137, 48.8523978]]}}, {"type": "Feature", "properties": {"highway": "service", "footway": null, "name": "Chemin de Ceinture du Lac Supérieur", "surface": "asphalt", "lit": null, "length_m": 70.34, "type_element": "Way", "__fid": 4485}, "geometry": {"type": "LineString", "coordinates": [[2.2580732, 48.8573382], [2.2584266, 48.8576526], [2.2586636, 48.8578362]]}}, {"type": "Feature", "properties": {"highway": "footway", "footway": null, "name": null, "surface": "compacted", "lit": null, "length_m": 12.05, "type_element": "Way", "__fid": 4490}, "geometry": {"type": "LineString", "coordinates": [[2.2581548, 48.858730499999986], [2.2580674, 48.8586387]]}}, {"type": "Feature", "properties": {"highway": "path", "footway": null, "name": "Avenue de l'Hippodrome", "surface": "concrete", "lit": "yes", "length_m": 52.27, "type_element": "Way", "__fid": 4491}, "geometry": {"type": "LineString", "coordinates": [[2.2587498, 48.8585085], [2.2584928, 48.8585399], [2.2580674, 48.8586387]]}}, {"type": "Feature", "properties": {"highway": "track", "footway": null, "name": "Chemin de Ceinture du Lac Inférieur", "surface": "compacted", "lit": "no", "length_m": 90.2, "type_element": "Way", "__fid": 4492}, "geometry": {"type": "LineString", "coordinates": [[2.2591877, 48.85888760000001], [2.2590322, 48.8588379], [2.2586345, 48.858665], [2.2584172, 48.8586173], [2.2580674, 48.8586387]]}}, {"type": "Feature", "properties": {"highway": "path", "footway": null, "name": null, "surface": "compacted", "lit": null, "length_m": 50.88, "type_element": "Way", "__fid": 4504}, "geometry": {"type": "LineString", "coordinates": [[2.2583475, 48.857969400000016], [2.2583294, 48.8580394], [2.2582355, 48.8581277], [2.2581658, 48.8582141], [2.2581068, 48.8583306], [2.2581212, 48.8583878]]}}, {"type": "Feature", "properties": {"highway": "path", "footway": null, "name": "Avenue de l'Hippodrome", "surface": "concrete", "lit": "yes", "length_m": 12.28, "type_element": "Way", "__fid": 4505}, "geometry": {"type": "LineString", "coordinates": [[2.2581212, 48.8583878], [2.258284, 48.8583621]]}}, {"type": "Feature", "properties": {"highway": "track", "footway": null, "name": null, "surface": null, "lit": null, "length_m": 56.11, "type_element": "Way", "__fid": 4517}, "geometry": {"type": "LineString", "coordinates": [[2.258757, 48.8541929], [2.2582027, 48.8538453]]}}, {"type": "Feature", "properties": {"highway": "service", "footway": null, "name": null, "surface": null, "lit": null, "length_m": 48.7, "type_element": "Way", "__fid": 4518}, "geometry": {"type": "LineString", "coordinates": [[2.2586912, 48.8535507], [2.2584951, 48.8536475], [2.2582027, 48.8538453]]}}, {"type": "Feature", "properties": {"highway": "footway", "footway": null, "name": null, "surface": "compacted", "lit": "no", "length_m": 200.72, "type_element": "Way", "__fid": 4521}, "geometry": {"type": "LineString", "coordinates": [[2.2595441, 48.8601445], [2.2594461, 48.8599522], [2.2590965, 48.859486], [2.2590452, 48.8593653], [2.258897, 48.8590761], [2.2588157, 48.8589538], [2.2587478, 48.858892], [2.2586909, 48.858862], [2.2585152, 48.8587743], [2.2583959, 48.85873380000001], [2.2582074, 48.85872590000002], [2.2581548, 48.858730499999986]]}}, {"type": "Feature", "properties": {"highway": "track", "footway": null, "name": null, "surface": "compacted", "lit": null, "length_m": 14.3, "type_element": "Way", "__fid": 4522}, "geometry": {"type": "LineString", "coordinates": [[2.258284, 48.8583621], [2.2581606, 48.8584616]]}}, {"type": "Feature", "properties": {"highway": "footway", "footway": null, "name": null, "surface": null, "lit": null, "length_m": 26.53, "type_element": "Way", "__fid": 4541}, "geometry": {"type": "LineString", "coordinates": [[2.2585092, 48.8547351], [2.2582804, 48.8545504]]}}, {"type": "Feature", "properties": {"highway": "pedestrian", "footway": null, "name": null, "surface": null, "lit": null, "length_m": 122.53, "type_element": "Way", "__fid": 4542}, "geometry": {"type": "LineString", "coordinates": [[2.2588518, 48.8555683], [2.2584615, 48.8550389], [2.2583113, 48.8547944], [2.2582671, 48.8546948], [2.2582645, 48.85459680000001], [2.2582804, 48.8545504]]}}, {"type": "Feature", "properties": {"highway": "pedestrian", "footway": null, "name": null, "surface": null, "lit": null, "length_m": 10.85, "type_element": "Way", "__fid": 4543}, "geometry": {"type": "LineString", "coordinates": [[2.2582804, 48.8545504], [2.2583113, 48.85449], [2.258344, 48.854464]]}}, {"type": "Feature", "properties": {"highway": "track", "footway": null, "name": null, "surface": "compacted", "lit": null, "length_m": 60.67, "type_element": "Way", "__fid": 4555}, "geometry": {"type": "LineString", "coordinates": [[2.2587145, 48.857902], [2.2585949, 48.8580059], [2.2584796, 48.8581965], [2.258284, 48.8583621]]}}, {"type": "Feature", "properties": {"highway": "path", "footway": null, "name": "Avenue de l'Hippodrome", "surface": "concrete", "lit": "yes", "length_m": 32.44, "type_element": "Way", "__fid": 4556}, "geometry": {"type": "LineString", "coordinates": [[2.258284, 48.8583621], [2.258588, 48.8583371], [2.2587238, 48.8583383]]}}, {"type": "Feature", "properties": {"highway": "service", "footway": null, "name": null, "surface": null, "lit": null, "length_m": 265.8, "type_element": "Way", "__fid": 4557}, "geometry": {"type": "LineString", "coordinates": [[2.258344, 48.854464], [2.2585541, 48.8545888], [2.2605322, 48.8558807], [2.2607803, 48.856051], [2.2609024, 48.85615439999999]]}}, {"type": "Feature", "properties": {"highway": "pedestrian", "footway": null, "name": null, "surface": null, "lit": null, "length_m": 42.74, "type_element": "Way", "__fid": 4558}, "geometry": {"type": "LineString", "coordinates": [[2.258344, 48.854464], [2.258757, 48.8541929]]}}, {"type": "Feature", "properties": {"highway": "path", "footway": null, "name": null, "surface": null, "lit": null, "length_m": 24.36, "type_element": "Way", "__fid": 4568}, "geometry": {"type": "LineString", "coordinates": [[2.2583368, 48.85783429999998], [2.2583643, 48.8578435], [2.2584488, 48.857851], [2.2586636, 48.8578362]]}}, {"type": "Feature", "properties": {"highway": "path", "footway": null, "name": null, "surface": "compacted", "lit": null, "length_m": 15.04, "type_element": "Way", "__fid": 4569}, "geometry": {"type": "LineString", "coordinates": [[2.2583368, 48.85783429999998], [2.2583475, 48.857969400000016]]}}, {"type": "Feature", "properties": {"highway": "path", "footway": null, "name": null, "surface": null, "lit": null, "length_m": 28.02, "type_element": "Way", "__fid": 4570}, "geometry": {"type": "LineString", "coordinates": [[2.2583475, 48.857969400000016], [2.2583858, 48.8579564], [2.2587145, 48.857902]]}}, {"type": "Feature", "properties": {"highway": "footway", "footway": null, "name": null, "surface": null, "lit": null, "length_m": 39.01, "type_element": "Way", "__fid": 4579}, "geometry": {"type": "LineString", "coordinates": [[2.2588456, 48.8550068], [2.2585092, 48.8547351]]}}, {"type": "Feature", "properties": {"highway": "footway", "footway": null, "name": null, "surface": null, "lit": null, "length_m": 46.61, "type_element": "Way", "__fid": 4580}, "geometry": {"type": "LineString", "coordinates": [[2.2585092, 48.8547351], [2.2585155, 48.8547755], [2.2585558, 48.8548258], [2.2587409, 48.8551234]]}}, {"type": "Feature", "properties": {"highway": "footway", "footway": null, "name": null, "surface": null, "lit": null, "length_m": 53.35, "type_element": "Way", "__fid": 4607}, "geometry": {"type": "LineString", "coordinates": [[2.2586912, 48.8535507], [2.259106, 48.8539447]]}}, {"type": "Feature", "properties": {"highway": "service", "footway": null, "name": null, "surface": null, "lit": null, "length_m": 2.4, "type_element": "Way", "__fid": 4608}, "geometry": {"type": "LineString", "coordinates": [[2.258718, 48.8535383], [2.2586912, 48.8535507]]}}, {"type": "Feature", "properties": {"highway": "footway", "footway": null, "name": null, "surface": null, "lit": null, "length_m": 52.53, "type_element": "Way", "__fid": 4619}, "geometry": {"type": "LineString", "coordinates": [[2.2591276, 48.8539257], [2.258718, 48.8535383]]}}, {"type": "Feature", "properties": {"highway": "service", "footway": null, "name": null, "surface": null, "lit": null, "length_m": 30.18, "type_element": "Way", "__fid": 4620}, "geometry": {"type": "LineString", "coordinates": [[2.2590662, 48.8533938], [2.258718, 48.8535383]]}}, {"type": "Feature", "properties": {"highway": "service", "footway": null, "name": "Chemin de Ceinture du Lac Supérieur", "surface": "asphalt", "lit": null, "length_m": 8.21, "type_element": "Way", "__fid": 4621}, "geometry": {"type": "LineString", "coordinates": [[2.2586636, 48.8578362], [2.2587145, 48.857902]]}}, {"type": "Feature", "properties": {"highway": "footway", "footway": null, "name": null, "surface": null, "lit": null, "length_m": 62.88, "type_element": "Way", "__fid": 4627}, "geometry": {"type": "LineString", "coordinates": [[2.2587409, 48.8551234], [2.2587757, 48.8551461], [2.2588589, 48.855254600000016], [2.2589447, 48.85542760000001], [2.2591485, 48.8556137]]}}, {"type": "Feature", "properties": {"highway": "footway", "footway": null, "name": null, "surface": null, "lit": null, "length_m": 50.72, "type_element": "Way", "__fid": 4628}, "geometry": {"type": "LineString", "coordinates": [[2.2587409, 48.8551234], [2.2588186, 48.8554355], [2.2588682, 48.8555414], [2.2588518, 48.8555683]]}}, {"type": "Feature", "properties": {"highway": "track", "footway": null, "name": null, "surface": null, "lit": null, "length_m": 145.72, "type_element": "Way", "__fid": 4631}, "geometry": {"type": "LineString", "coordinates": [[2.2602291, 48.8550583], [2.2601634, 48.855053], [2.2600695, 48.855015], [2.258757, 48.8541929]]}}, {"type": "Feature", "properties": {"highway": "pedestrian", "footway": null, "name": null, "surface": null, "lit": null, "length_m": 37.67, "type_element": "Way", "__fid": 4632}, "geometry": {"type": "LineString", "coordinates": [[2.258757, 48.8541929], [2.2589765, 48.85404530000001], [2.259106, 48.8539447]]}}, {"type": "Feature", "properties": {"highway": "path", "footway": null, "name": null, "surface": null, "lit": null, "length_m": 33.62, "type_element": "Way", "__fid": 4634}, "geometry": {"type": "LineString", "coordinates": [[2.2591724, 48.8579128], [2.2587145, 48.857902]]}}, {"type": "Feature", "properties": {"highway": "service", "footway": null, "name": "Chemin de Ceinture du Lac Supérieur", "surface": "asphalt", "lit": null, "length_m": 52.25, "type_element": "Way", "__fid": 4635}, "geometry": {"type": "LineString", "coordinates": [[2.2587145, 48.857902], [2.2588372, 48.8580509], [2.2589176, 48.85820250000001], [2.2589474, 48.8582885], [2.2589494, 48.8583401]]}}, {"type": "Feature", "properties": {"highway": "path", "footway": null, "name": "Route des Lacs à Passy", "surface": "concrete", "lit": "yes", "length_m": 16.55, "type_element": "Way", "__fid": 4636}, "geometry": {"type": "LineString", "coordinates": [[2.2587238, 48.8583383], [2.2589494, 48.8583401]]}}, {"type": "Feature", "properties": {"highway": "footway", "footway": "crossing", "name": null, "surface": "asphalt", "lit": "yes", "length_m": 19.02, "type_element": "Way", "__fid": 4637}, "geometry": {"type": "LineString", "coordinates": [[2.2587238, 48.8583383], [2.2587498, 48.8585085]]}}, {"type": "Feature", "properties": {"highway": "path", "footway": null, "name": "Avenue de l'Hippodrome", "surface": "concrete", "lit": "yes", "length_m": 13.38, "type_element": "Way", "__fid": 4641}, "geometry": {"type": "LineString", "coordinates": [[2.2589311, 48.8584956], [2.2587498, 48.8585085]]}}, {"type": "Feature", "properties": {"highway": "pedestrian", "footway": null, "name": null, "surface": null, "lit": null, "length_m": 156.15, "type_element": "Way", "__fid": 4652}, "geometry": {"type": "LineString", "coordinates": [[2.2601771, 48.8565932], [2.2599502, 48.8565645], [2.2598281, 48.8565239], [2.2596994, 48.8564577], [2.2595519, 48.8563536], [2.2591348, 48.8559089], [2.2588518, 48.8555683]]}}, {"type": "Feature", "properties": {"highway": "service", "footway": null, "name": "Chemin de Ceinture du Lac Inférieur", "surface": "concrete", "lit": "no", "length_m": 47.65, "type_element": "Way", "__fid": 4676}, "geometry": {"type": "LineString", "coordinates": [[2.2589311, 48.8584956], [2.2590041, 48.8586399], [2.2591568, 48.85882729999999], [2.2591877, 48.85888760000001]]}}, {"type": "Feature", "properties": {"highway": "service", "footway": null, "name": "Chemin de Ceinture du Lac Supérieur", "surface": "asphalt", "lit": null, "length_m": 17.38, "type_element": "Way", "__fid": 4677}, "geometry": {"type": "LineString", "coordinates": [[2.2589494, 48.8583401], [2.258932, 48.8584182], [2.2589311, 48.8584956]]}}, {"type": "Feature", "properties": {"highway": "path", "footway": null, "name": "Route des Lacs à Passy", "surface": "concrete", "lit": "yes", "length_m": 44.67, "type_element": "Way", "__fid": 4678}, "geometry": {"type": "LineString", "coordinates": [[2.2595386, 48.85848280000001], [2.2593299, 48.858498], [2.2589311, 48.8584956]]}}, {"type": "Feature", "properties": {"highway": "path", "footway": null, "name": "Route des Lacs à Passy", "surface": "concrete", "lit": "yes", "length_m": 72.45, "type_element": "Way", "__fid": 4685}, "geometry": {"type": "LineString", "coordinates": [[2.2589494, 48.8583401], [2.2591174, 48.8583252], [2.2592649, 48.8582882], [2.2599244, 48.8582687]]}}, {"type": "Feature", "properties": {"highway": "pedestrian", "footway": null, "name": null, "surface": null, "lit": null, "length_m": 25.35, "type_element": "Way", "__fid": 4695}, "geometry": {"type": "LineString", "coordinates": [[2.2591965, 48.8536049], [2.2590662, 48.8533938]]}}, {"type": "Feature", "properties": {"highway": "footway", "footway": null, "name": null, "surface": null, "lit": null, "length_m": 148.94, "type_element": "Way", "__fid": 4703}, "geometry": {"type": "LineString", "coordinates": [[2.259106, 48.8539447], [2.2601141, 48.8549025], [2.2602291, 48.8550583]]}}, {"type": "Feature", "properties": {"highway": "pedestrian", "footway": null, "name": null, "surface": null, "lit": null, "length_m": 2.64, "type_element": "Way", "__fid": 4704}, "geometry": {"type": "LineString", "coordinates": [[2.259106, 48.8539447], [2.2591276, 48.8539257]]}}, {"type": "Feature", "properties": {"highway": "footway", "footway": null, "name": null, "surface": null, "lit": null, "length_m": 148.69, "type_element": "Way", "__fid": 4710}, "geometry": {"type": "LineString", "coordinates": [[2.2603082, 48.8550115], [2.2601396, 48.8548831], [2.2591276, 48.8539257]]}}, {"type": "Feature", "properties": {"highway": "pedestrian", "footway": null, "name": null, "surface": null, "lit": null, "length_m": 36.68, "type_element": "Way", "__fid": 4711}, "geometry": {"type": "LineString", "coordinates": [[2.2591276, 48.8539257], [2.2591924, 48.8538088], [2.2592126, 48.85372049999999], [2.2591965, 48.8536049]]}}, {"type": "Feature", "properties": {"highway": "track", "footway": null, "name": null, "surface": null, "lit": null, "length_m": 179.41, "type_element": "Way", "__fid": 4727}, "geometry": {"type": "LineString", "coordinates": [[2.2591965, 48.8536049], [2.2592904, 48.8536526], [2.2593655, 48.85370640000002], [2.2594593, 48.8538079], [2.2598496, 48.8542906], [2.260319, 48.854903], [2.2603243, 48.854965600000014], [2.2603082, 48.8550115]]}}, {"type": "Feature", "properties": {"highway": "path", "footway": null, "name": null, "surface": null, "lit": null, "length_m": 30.35, "type_element": "Way", "__fid": 4739}, "geometry": {"type": "LineString", "coordinates": [[2.259507, 48.8580732], [2.2591724, 48.8579128]]}}, {"type": "Feature", "properties": {"highway": "footway", "footway": null, "name": null, "surface": null, "lit": null, "length_m": 129.59, "type_element": "Way", "__fid": 4749}, "geometry": {"type": "LineString", "coordinates": [[2.2591877, 48.85888760000001], [2.2590857, 48.858962800000015], [2.2590447, 48.8591068], [2.2591364, 48.8593122], [2.2592817, 48.8595761], [2.259382, 48.8596851], [2.2595432, 48.8597924], [2.2597367, 48.85986010000001]]}}, {"type": "Feature", "properties": {"highway": "path", "footway": null, "name": null, "surface": "concrete", "lit": null, "length_m": 106.49, "type_element": "Way", "__fid": 4814}, "geometry": {"type": "LineString", "coordinates": [[2.2609461, 48.8581762], [2.2600119, 48.8581386], [2.2597779, 48.8581183], [2.259507, 48.8580732]]}}, {"type": "Feature", "properties": {"highway": "path", "footway": null, "name": null, "surface": null, "lit": null, "length_m": 37.56, "type_element": "Way", "__fid": 4815}, "geometry": {"type": "LineString", "coordinates": [[2.2599244, 48.8582687], [2.259507, 48.8580732]]}}, {"type": "Feature", "properties": {"highway": "path", "footway": null, "name": "Route des Lacs à Passy", "surface": "concrete", "lit": "yes", "length_m": 44.44, "type_element": "Way", "__fid": 4819}, "geometry": {"type": "LineString", "coordinates": [[2.2601436, 48.8584761], [2.259962, 48.858486], [2.2595386, 48.85848280000001]]}}, {"type": "Feature", "properties": {"highway": "path", "footway": null, "name": null, "surface": null, "lit": null, "length_m": 79.75, "type_element": "Way", "__fid": 4820}, "geometry": {"type": "LineString", "coordinates": [[2.2599058, 48.8591454], [2.2598293, 48.8588477], [2.25968, 48.8586636], [2.2595673, 48.8585564], [2.2595386, 48.85848280000001]]}}, {"type": "Feature", "properties": {"highway": "track", "footway": null, "name": null, "surface": null, "lit": null, "length_m": 63.79, "type_element": "Way", "__fid": 4883}, "geometry": {"type": "LineString", "coordinates": [[2.2599322, 48.8597188], [2.2599058, 48.8591454]]}}, {"type": "Feature", "properties": {"highway": "track", "footway": null, "name": null, "surface": null, "lit": null, "length_m": 8.04, "type_element": "Way", "__fid": 4884}, "geometry": {"type": "LineString", "coordinates": [[2.2599688, 48.8590862], [2.2599058, 48.8591454]]}}, {"type": "Feature", "properties": {"highway": "path", "footway": null, "name": "Route des Lacs à Passy", "surface": "concrete", "lit": "yes", "length_m": 75.7, "type_element": "Way", "__fid": 4885}, "geometry": {"type": "LineString", "coordinates": [[2.2599244, 48.8582687], [2.2607562, 48.8582019], [2.2609461, 48.8581762]]}}, {"type": "Feature", "properties": {"highway": "path", "footway": null, "name": null, "surface": null, "lit": null, "length_m": 58.86, "type_element": "Way", "__fid": 4896}, "geometry": {"type": "LineString", "coordinates": [[2.2603377, 48.8586235], [2.2602182, 48.8587091], [2.2600654, 48.8589173], [2.2599949, 48.85906160000002], [2.2599688, 48.8590862]]}}, {"type": "Feature", "properties": {"highway": "track", "footway": null, "name": null, "surface": null, "lit": null, "length_m": 9.3, "type_element": "Way", "__fid": 4897}, "geometry": {"type": "LineString", "coordinates": [[2.2600948, 48.859088300000025], [2.2600293, 48.859082700000016], [2.2599688, 48.8590862]]}}, {"type": "Feature", "properties": {"highway": "path", "footway": null, "name": null, "surface": null, "lit": null, "length_m": 21.71, "type_element": "Way", "__fid": 4927}, "geometry": {"type": "LineString", "coordinates": [[2.2601436, 48.8584761], [2.2603377, 48.8586235]]}}, {"type": "Feature", "properties": {"highway": "path", "footway": null, "name": "Route des Lacs à Passy", "surface": "concrete", "lit": "yes", "length_m": 37.72, "type_element": "Way", "__fid": 4928}, "geometry": {"type": "LineString", "coordinates": [[2.2601436, 48.8584761], [2.2606176, 48.8584504], [2.2606191, 48.8584758]]}}, {"type": "Feature", "properties": {"highway": "pedestrian", "footway": null, "name": null, "surface": null, "lit": null, "length_m": 71.12, "type_element": "Way", "__fid": 4929}, "geometry": {"type": "LineString", "coordinates": [[2.2610489, 48.8568099], [2.2610097, 48.856774], [2.2608568, 48.8566942], [2.2607307, 48.8566422], [2.2601771, 48.8565932]]}}, {"type": "Feature", "properties": {"highway": "path", "footway": null, "name": null, "surface": null, "lit": null, "length_m": 72.2, "type_element": "Way", "__fid": 4930}, "geometry": {"type": "LineString", "coordinates": [[2.2609024, 48.85615439999999], [2.2601771, 48.8565932]]}}, {"type": "Feature", "properties": {"highway": "track", "footway": null, "name": null, "surface": null, "lit": null, "length_m": 7.99, "type_element": "Way", "__fid": 4933}, "geometry": {"type": "LineString", "coordinates": [[2.2603082, 48.8550115], [2.2602855, 48.8550353], [2.2602291, 48.8550583]]}}, {"type": "Feature", "properties": {"highway": "track", "footway": null, "name": null, "surface": null, "lit": null, "length_m": 42.52, "type_element": "Way", "__fid": 4947}, "geometry": {"type": "LineString", "coordinates": [[2.2608443, 48.8548668], [2.2604062, 48.8549797], [2.2603082, 48.8550115]]}}, {"type": "Feature", "properties": {"highway": "footway", "footway": null, "name": null, "surface": "dirt", "lit": null, "length_m": 52.43, "type_element": "Way", "__fid": 4956}, "geometry": {"type": "LineString", "coordinates": [[2.2603737, 48.8529834], [2.2606728, 48.8534116]]}}, {"type": "Feature", "properties": {"highway": "path", "footway": null, "name": null, "surface": null, "lit": null, "length_m": 298.82, "type_element": "Way", "__fid": 4967}, "geometry": {"type": "LineString", "coordinates": [[2.2603377, 48.8586235], [2.2607751, 48.85894570000002], [2.2609122, 48.8590653], [2.2610693, 48.8592731], [2.2612141, 48.8595224], [2.2613374, 48.8596268], [2.2614529, 48.8596856], [2.2615654, 48.85972], [2.2616886, 48.8597403], [2.2618735, 48.85974330000001], [2.2621992, 48.8598288], [2.262405, 48.8599113], [2.2625067, 48.8599953], [2.2625327, 48.86004669999998], [2.2625398, 48.8601354], [2.262632, 48.8602707], [2.2627621, 48.8604077], [2.262888, 48.8605187]]}}, {"type": "Feature", "properties": {"highway": "path", "footway": null, "name": null, "surface": null, "lit": null, "length_m": 26.49, "type_element": "Way", "__fid": 4968}, "geometry": {"type": "LineString", "coordinates": [[2.2606191, 48.8584758], [2.260398, 48.8585803], [2.2603377, 48.8586235]]}}, {"type": "Feature", "properties": {"highway": "pedestrian", "footway": null, "name": "Avenue du Maréchal Franchet d'Esperey", "surface": "sett", "lit": null, "length_m": 54.81, "type_element": "Way", "__fid": 4992}, "geometry": {"type": "LineString", "coordinates": [[2.2605588, 48.852976499999976], [2.2605705, 48.8530322], [2.2607738, 48.8533537], [2.2606728, 48.8534116]]}}, {"type": "Feature", "properties": {"highway": "footway", "footway": "sidewalk", "name": null, "surface": null, "lit": null, "length_m": 34.51, "type_element": "Way", "__fid": 5001}, "geometry": {"type": "LineString", "coordinates": [[2.2606496, 48.8530115], [2.2606422, 48.8530256], [2.2606704, 48.8530834], [2.2608045, 48.853285], [2.2608253, 48.8532899]]}}, {"type": "Feature", "properties": {"highway": "footway", "footway": null, "name": null, "surface": null, "lit": null, "length_m": 1.58, "type_element": "Way", "__fid": 5010}, "geometry": {"type": "LineString", "coordinates": [[2.2606728, 48.8534116], [2.2606809, 48.85342480000001]]}}, {"type": "Feature", "properties": {"highway": "footway", "footway": null, "name": null, "surface": null, "lit": null, "length_m": 209.26, "type_element": "Way", "__fid": 5013}, "geometry": {"type": "LineString", "coordinates": [[2.2606809, 48.85342480000001], [2.2617749, 48.8551627]]}}, {"type": "Feature", "properties": {"highway": "footway", "footway": "crossing", "name": null, "surface": null, "lit": null, "length_m": 14.68, "type_element": "Way", "__fid": 5014}, "geometry": {"type": "LineString", "coordinates": [[2.2606809, 48.85342480000001], [2.2608695, 48.8533808]]}}, {"type": "Feature", "properties": {"highway": "path", "footway": null, "name": "Route des Lacs à Passy", "surface": null, "lit": "yes", "length_m": 179.15, "type_element": "Way", "__fid": 5015}, "geometry": {"type": "LineString", "coordinates": [[2.2628965, 48.857932900000016], [2.2616648, 48.8582648], [2.2614388, 48.8583557], [2.2612162, 48.858419200000014], [2.261076, 48.85842920000001], [2.2608084, 48.8584647], [2.2606191, 48.8584758]]}}, {"type": "Feature", "properties": {"highway": "footway", "footway": "crossing", "name": null, "surface": null, "lit": null, "length_m": 9.46, "type_element": "Way", "__fid": 5032}, "geometry": {"type": "LineString", "coordinates": [[2.2608809, 48.85336489999999], [2.2608266, 48.8533058], [2.2608253, 48.8532899]]}}, {"type": "Feature", "properties": {"highway": "footway", "footway": "sidewalk", "name": null, "surface": null, "lit": null, "length_m": 68.87, "type_element": "Way", "__fid": 5033}, "geometry": {"type": "LineString", "coordinates": [[2.2608253, 48.8532899], [2.2609339, 48.85326960000001], [2.2616862, 48.853045]]}}, {"type": "Feature", "properties": {"highway": "track", "footway": null, "name": null, "surface": null, "lit": null, "length_m": 90.99, "type_element": "Way", "__fid": 5036}, "geometry": {"type": "LineString", "coordinates": [[2.2613254, 48.855621], [2.2608443, 48.8548668]]}}, {"type": "Feature", "properties": {"highway": "track", "footway": null, "name": null, "surface": null, "lit": null, "length_m": 28.52, "type_element": "Way", "__fid": 5037}, "geometry": {"type": "LineString", "coordinates": [[2.2612048, 48.854771], [2.2608443, 48.8548668]]}}, {"type": "Feature", "properties": {"highway": "footway", "footway": "sidewalk", "name": null, "surface": null, "lit": null, "length_m": 132.27, "type_element": "Way", "__fid": 5038}, "geometry": {"type": "LineString", "coordinates": [[2.2608695, 48.8533808], [2.2608937, 48.8534306], [2.2615663, 48.85447760000001]]}}, {"type": "Feature", "properties": {"highway": "footway", "footway": "sidewalk", "name": null, "surface": null, "lit": null, "length_m": 1.96, "type_element": "Way", "__fid": 5039}, "geometry": {"type": "LineString", "coordinates": [[2.2608809, 48.85336489999999], [2.2608695, 48.8533808]]}}, {"type": "Feature", "properties": {"highway": "footway", "footway": "sidewalk", "name": null, "surface": null, "lit": null, "length_m": 68.43, "type_element": "Way", "__fid": 5041}, "geometry": {"type": "LineString", "coordinates": [[2.2617453, 48.85313940000001], [2.261646, 48.8531487], [2.2608809, 48.85336489999999]]}}, {"type": "Feature", "properties": {"highway": "service", "footway": null, "name": null, "surface": null, "lit": null, "length_m": 38.07, "type_element": "Way", "__fid": 5046}, "geometry": {"type": "LineString", "coordinates": [[2.2610489, 48.8568099], [2.2609895, 48.8568657], [2.2609714, 48.8570608], [2.2608527, 48.8570687]]}}, {"type": "Feature", "properties": {"highway": "service", "footway": null, "name": null, "surface": null, "lit": null, "length_m": 83.42, "type_element": "Way", "__fid": 5050}, "geometry": {"type": "LineString", "coordinates": [[2.2609024, 48.85615439999999], [2.2609573, 48.856201], [2.2611035, 48.8563563], [2.2611947, 48.8564922], [2.2612282, 48.8566104], [2.2612095, 48.856678299999984], [2.2611585, 48.8567375], [2.2610489, 48.8568099]]}}, {"type": "Feature", "properties": {"highway": "path", "footway": null, "name": "Route des Lacs à Passy", "surface": "concrete", "lit": "yes", "length_m": 117.05, "type_element": "Way", "__fid": 5059}, "geometry": {"type": "LineString", "coordinates": [[2.262437266666784, 48.857862], [2.2623543, 48.8579341], [2.2620466, 48.8580106], [2.261431, 48.8580922], [2.2609461, 48.8581762]]}}, {"type": "Feature", "properties": {"highway": "pedestrian", "footway": null, "name": null, "surface": null, "lit": null, "length_m": 139.6, "type_element": "Way", "__fid": 5073}, "geometry": {"type": "LineString", "coordinates": [[2.2623647, 48.85771510000002], [2.2618921, 48.8573582], [2.2612871, 48.8569511], [2.2610489, 48.8568099]]}}, {"type": "Feature", "properties": {"highway": "service", "footway": null, "name": null, "surface": null, "lit": null, "length_m": 5.3, "type_element": "Way", "__fid": 5147}, "geometry": {"type": "LineString", "coordinates": [[2.2614981, 48.85449340000001], [2.2615663, 48.85447760000001]]}}, {"type": "Feature", "properties": {"highway": "service", "footway": null, "name": null, "surface": null, "lit": null, "length_m": 22.48, "type_element": "Way", "__fid": 5159}, "geometry": {"type": "LineString", "coordinates": [[2.2615706, 48.8541645], [2.2616675, 48.8541862], [2.2617319, 48.8541865], [2.2618673, 48.85416390000001]]}}, {"type": "Feature", "properties": {"highway": "service", "footway": null, "name": null, "surface": null, "lit": null, "length_m": 46.93, "type_element": "Way", "__fid": 5160}, "geometry": {"type": "LineString", "coordinates": [[2.2615663, 48.85447760000001], [2.2617479, 48.854435299999984], [2.2615706, 48.8541645]]}}, {"type": "Feature", "properties": {"highway": "footway", "footway": null, "name": null, "surface": null, "lit": null, "length_m": 129.56, "type_element": "Way", "__fid": 5161}, "geometry": {"type": "LineString", "coordinates": [[2.2616403, 48.85329670000003], [2.2611066, 48.853443], [2.2615706, 48.8541645]]}}, {"type": "Feature", "properties": {"highway": "footway", "footway": "sidewalk", "name": null, "surface": null, "lit": null, "length_m": 76.3, "type_element": "Way", "__fid": 5162}, "geometry": {"type": "LineString", "coordinates": [[2.2615663, 48.85447760000001], [2.2619665, 48.8551109]]}}, {"type": "Feature", "properties": {"highway": "footway", "footway": "sidewalk", "name": null, "surface": null, "lit": null, "length_m": 207.02, "type_element": "Way", "__fid": 5212}, "geometry": {"type": "LineString", "coordinates": [[2.262859, 48.85486369999999], [2.2628671, 48.8548434], [2.2628403, 48.8547975], [2.2617748, 48.8531496]]}}, {"type": "Feature", "properties": {"highway": "footway", "footway": null, "name": null, "surface": null, "lit": null, "length_m": 53.9, "type_element": "Way", "__fid": 5216}, "geometry": {"type": "LineString", "coordinates": [[2.2617749, 48.8551627], [2.2620726, 48.8556058]]}}, {"type": "Feature", "properties": {"highway": "footway", "footway": "crossing", "name": null, "surface": null, "lit": null, "length_m": 15.19, "type_element": "Way", "__fid": 5217}, "geometry": {"type": "LineString", "coordinates": [[2.2619665, 48.8551109], [2.2617749, 48.8551627]]}}, {"type": "Feature", "properties": {"highway": "footway", "footway": null, "name": null, "surface": null, "lit": null, "length_m": 22.73, "type_element": "Way", "__fid": 5230}, "geometry": {"type": "LineString", "coordinates": [[2.2618375, 48.854792], [2.262124049999973, 48.85471435000002]]}}, {"type": "Feature", "properties": {"highway": "service", "footway": null, "name": null, "surface": null, "lit": null, "length_m": 37.13, "type_element": "Way", "__fid": 5237}, "geometry": {"type": "LineString", "coordinates": [[2.2618673, 48.85416390000001], [2.2620666, 48.854470800000016]]}}, {"type": "Feature", "properties": {"highway": "service", "footway": null, "name": null, "surface": null, "lit": null, "length_m": 25.25, "type_element": "Way", "__fid": 5238}, "geometry": {"type": "LineString", "coordinates": [[2.2618673, 48.85416390000001], [2.2621778, 48.854066]]}}, {"type": "Feature", "properties": {"highway": "footway", "footway": null, "name": null, "surface": null, "lit": null, "length_m": 8.26, "type_element": "Way", "__fid": 5247}, "geometry": {"type": "LineString", "coordinates": [[2.2619716, 48.8544768], [2.2619276, 48.8544084]]}}, {"type": "Feature", "properties": {"highway": "footway", "footway": null, "name": null, "surface": null, "lit": null, "length_m": 15.49, "type_element": "Way", "__fid": 5264}, "geometry": {"type": "LineString", "coordinates": [[2.2620539, 48.8546051], [2.2619716, 48.8544768]]}}, {"type": "Feature", "properties": {"highway": "footway", "footway": null, "name": null, "surface": null, "lit": null, "length_m": 7.0, "type_element": "Way", "__fid": 5265}, "geometry": {"type": "LineString", "coordinates": [[2.2619716, 48.8544768], [2.2620666, 48.854470800000016]]}}, {"type": "Feature", "properties": {"highway": "footway", "footway": "sidewalk", "name": null, "surface": null, "lit": null, "length_m": 2.18, "type_element": "Way", "__fid": 5266}, "geometry": {"type": "LineString", "coordinates": [[2.2619665, 48.8551109], [2.2619931, 48.8551196]]}}, {"type": "Feature", "properties": {"highway": "footway", "footway": "crossing", "name": null, "surface": null, "lit": null, "length_m": 7.53, "type_element": "Way", "__fid": 5274}, "geometry": {"type": "LineString", "coordinates": [[2.2620303, 48.855182700000015], [2.2619931, 48.8551196]]}}, {"type": "Feature", "properties": {"highway": "footway", "footway": "sidewalk", "name": null, "surface": null, "lit": null, "length_m": 33.4, "type_element": "Way", "__fid": 5275}, "geometry": {"type": "LineString", "coordinates": [[2.2619931, 48.8551196], [2.2620926, 48.855083399999984], [2.2624068, 48.85499489999999]]}}, {"type": "Feature", "properties": {"highway": "footway", "footway": "sidewalk", "name": null, "surface": null, "lit": null, "length_m": 61.85, "type_element": "Way", "__fid": 5291}, "geometry": {"type": "LineString", "coordinates": [[2.2620303, 48.855182700000015], [2.2620473, 48.8552335], [2.2621903, 48.8554528], [2.2622341, 48.8554756], [2.2622812, 48.8555481], [2.2621342, 48.8555824], [2.2620726, 48.8556058]]}}, {"type": "Feature", "properties": {"highway": "footway", "footway": "sidewalk", "name": null, "surface": null, "lit": null, "length_m": 70.05, "type_element": "Way", "__fid": 5292}, "geometry": {"type": "LineString", "coordinates": [[2.2629127, 48.8549484], [2.2628436, 48.85495189999999], [2.2620303, 48.855182700000015]]}}, {"type": "Feature", "properties": {"highway": "footway", "footway": null, "name": null, "surface": null, "lit": null, "length_m": 13.19, "type_element": "Way", "__fid": 5296}, "geometry": {"type": "LineString", "coordinates": [[2.262124049999973, 48.85471435000002], [2.2620539, 48.8546051]]}}, {"type": "Feature", "properties": {"highway": "footway", "footway": null, "name": null, "surface": null, "lit": null, "length_m": 7.12, "type_element": "Way", "__fid": 5297}, "geometry": {"type": "LineString", "coordinates": [[2.2620539, 48.8546051], [2.262126, 48.8545623]]}}, {"type": "Feature", "properties": {"highway": "service", "footway": null, "name": null, "surface": null, "lit": null, "length_m": 11.07, "type_element": "Way", "__fid": 5300}, "geometry": {"type": "LineString", "coordinates": [[2.2620666, 48.854470800000016], [2.262126, 48.8545623]]}}, {"type": "Feature", "properties": {"highway": "footway", "footway": "sidewalk", "name": null, "surface": null, "lit": null, "length_m": 231.84, "type_element": "Way", "__fid": 5301}, "geometry": {"type": "LineString", "coordinates": [[2.2633208, 48.8549837], [2.26302, 48.8544957], [2.2620866, 48.85306439999999]]}}, {"type": "Feature", "properties": {"highway": "footway", "footway": null, "name": null, "surface": null, "lit": null, "length_m": 203.43, "type_element": "Way", "__fid": 5307}, "geometry": {"type": "LineString", "coordinates": [[2.2620726, 48.8556058], [2.2621654, 48.8557452], [2.2628802, 48.8569588], [2.262966, 48.85719880000001], [2.2630223, 48.85732189999999]]}}, {"type": "Feature", "properties": {"highway": "service", "footway": null, "name": null, "surface": null, "lit": null, "length_m": 15.6, "type_element": "Way", "__fid": 5317}, "geometry": {"type": "LineString", "coordinates": [[2.262126, 48.8545623], [2.2622097, 48.8546913]]}}, {"type": "Feature", "properties": {"highway": "footway", "footway": null, "name": null, "surface": null, "lit": null, "length_m": 23.51, "type_element": "Way", "__fid": 5318}, "geometry": {"type": "LineString", "coordinates": [[2.2622497, 48.8549088], [2.262124049999973, 48.85471435000002]]}}, {"type": "Feature", "properties": {"highway": "footway", "footway": null, "name": null, "surface": null, "lit": null, "length_m": 6.79, "type_element": "Way", "__fid": 5319}, "geometry": {"type": "LineString", "coordinates": [[2.262124049999973, 48.85471435000002], [2.2622097, 48.8546913]]}}, {"type": "Feature", "properties": {"highway": "service", "footway": null, "name": null, "surface": null, "lit": null, "length_m": 23.45, "type_element": "Way", "__fid": 5340}, "geometry": {"type": "LineString", "coordinates": [[2.2622097, 48.8546913], [2.2623356, 48.8548851]]}}, {"type": "Feature", "properties": {"highway": "path", "footway": null, "name": "Sentier Nature (Petite Ceinture)", "surface": "dirt", "lit": null, "length_m": 519.75, "type_element": "Way", "__fid": 5348}, "geometry": {"type": "LineString", "coordinates": [[2.262259780770246, 48.85290118299895], [2.262268, 48.8529544], [2.2623615, 48.8532003], [2.2627435, 48.853869], [2.2633899, 48.854842], [2.2637124, 48.8552031], [2.2640187, 48.8554968], [2.2642606, 48.8556948], [2.2646897, 48.8559905], [2.2650245, 48.85618920000001], [2.2655077, 48.8564308], [2.2657887, 48.8565521], [2.2660931, 48.8566682]]}}, {"type": "Feature", "properties": {"highway": "service", "footway": null, "name": null, "surface": null, "lit": null, "length_m": 9.14, "type_element": "Way", "__fid": 5357}, "geometry": {"type": "LineString", "coordinates": [[2.2622609, 48.8549746], [2.2622236, 48.854916], [2.2622497, 48.8549088]]}}, {"type": "Feature", "properties": {"highway": "service", "footway": null, "name": null, "surface": null, "lit": null, "length_m": 6.83, "type_element": "Way", "__fid": 5358}, "geometry": {"type": "LineString", "coordinates": [[2.2622497, 48.8549088], [2.2623356, 48.8548851]]}}, {"type": "Feature", "properties": {"highway": "footway", "footway": null, "name": null, "surface": "compacted", "lit": null, "length_m": 51.35, "type_element": "Way", "__fid": 5360}, "geometry": {"type": "LineString", "coordinates": [[2.2623695, 48.8574322], [2.2622562, 48.8574207], [2.2621623, 48.8573792], [2.2621154, 48.8573201], [2.2620832, 48.8572442], [2.2620987, 48.8571917], [2.262161, 48.85714319999999], [2.26223, 48.8571251]]}}, {"type": "Feature", "properties": {"highway": "footway", "footway": null, "name": null, "surface": null, "lit": null, "length_m": 121.48, "type_element": "Way", "__fid": 5361}, "geometry": {"type": "LineString", "coordinates": [[2.26223, 48.8571251], [2.2622254, 48.8570608], [2.2622522, 48.85702729999998], [2.2623327, 48.85698570000001], [2.2624708, 48.8569506], [2.2625306, 48.85733289999999], [2.262556, 48.85740770000001], [2.2627668, 48.8577442]]}}, {"type": "Feature", "properties": {"highway": "service", "footway": null, "name": null, "surface": null, "lit": null, "length_m": 13.28, "type_element": "Way", "__fid": 5369}, "geometry": {"type": "LineString", "coordinates": [[2.2623356, 48.8548851], [2.2624068, 48.85499489999999]]}}, {"type": "Feature", "properties": {"highway": "pedestrian", "footway": null, "name": null, "surface": null, "lit": null, "length_m": 13.1, "type_element": "Way", "__fid": 5385}, "geometry": {"type": "LineString", "coordinates": [[2.2624755, 48.8578075], [2.2623647, 48.85771510000002]]}}, {"type": "Feature", "properties": {"highway": "footway", "footway": null, "name": null, "surface": "compacted", "lit": null, "length_m": 39.13, "type_element": "Way", "__fid": 5386}, "geometry": {"type": "LineString", "coordinates": [[2.2623695, 48.8574322], [2.2624809, 48.8575478], [2.2625065, 48.8575892], [2.2625097, 48.8576245], [2.2624715, 48.85766730000001], [2.2623647, 48.85771510000002]]}}, {"type": "Feature", "properties": {"highway": "service", "footway": null, "name": null, "surface": null, "lit": null, "length_m": 3.89, "type_element": "Way", "__fid": 5388}, "geometry": {"type": "LineString", "coordinates": [[2.2624068, 48.85499489999999], [2.2624278, 48.855027]]}}, {"type": "Feature", "properties": {"highway": "footway", "footway": "sidewalk", "name": null, "surface": null, "lit": null, "length_m": 36.25, "type_element": "Way", "__fid": 5389}, "geometry": {"type": "LineString", "coordinates": [[2.2624068, 48.85499489999999], [2.262859, 48.85486369999999]]}}, {"type": "Feature", "properties": {"highway": "footway", "footway": "sidewalk", "name": null, "surface": null, "lit": null, "length_m": 266.74, "type_element": "Way", "__fid": 5396}, "geometry": {"type": "LineString", "coordinates": [[2.2624782, 48.8528756], [2.2626927, 48.8534474], [2.2628054, 48.8536495], [2.2631997, 48.8542901], [2.2634625, 48.85469509999999], [2.2638005, 48.85510020000002]]}}, {"type": "Feature", "properties": {"highway": "footway", "footway": null, "name": null, "surface": null, "lit": null, "length_m": 7.92, "type_element": "Way", "__fid": 5402}, "geometry": {"type": "LineString", "coordinates": [[2.262437266666784, 48.857862], [2.2625419, 48.8578795]]}}, {"type": "Feature", "properties": {"highway": "footway", "footway": null, "name": null, "surface": null, "lit": null, "length_m": 6.68, "type_element": "Way", "__fid": 5403}, "geometry": {"type": "LineString", "coordinates": [[2.2624755, 48.8578075], [2.262437266666784, 48.857862]]}}, {"type": "Feature", "properties": {"highway": "pedestrian", "footway": null, "name": null, "surface": null, "lit": null, "length_m": 14.9, "type_element": "Way", "__fid": 5410}, "geometry": {"type": "LineString", "coordinates": [[2.2626015, 48.8579126], [2.2624755, 48.8578075]]}}, {"type": "Feature", "properties": {"highway": "footway", "footway": null, "name": null, "surface": null, "lit": null, "length_m": 22.5, "type_element": "Way", "__fid": 5411}, "geometry": {"type": "LineString", "coordinates": [[2.2627668, 48.8577442], [2.2624755, 48.8578075]]}}, {"type": "Feature", "properties": {"highway": "footway", "footway": null, "name": null, "surface": null, "lit": null, "length_m": 129.63, "type_element": "Way", "__fid": 5422}, "geometry": {"type": "LineString", "coordinates": [[2.2625241, 48.8566105], [2.262627, 48.856793], [2.2626813, 48.8569399], [2.2627625, 48.8572986], [2.262845, 48.85746850000001], [2.262959, 48.857656], [2.2630166, 48.857722700000025]]}}, {"type": "Feature", "properties": {"highway": "footway", "footway": "sidewalk", "name": null, "surface": null, "lit": null, "length_m": 461.29, "type_element": "Way", "__fid": 5431}, "geometry": {"type": "LineString", "coordinates": [[2.265987059999861, 48.85552702000003], [2.2647587, 48.8557954], [2.2644536, 48.855566], [2.2643262, 48.8554557], [2.263944, 48.855084], [2.2637545, 48.8548766], [2.2634561, 48.8544718], [2.2628895, 48.8535718], [2.2627822, 48.8533346], [2.2626088, 48.85286110000001]]}}, {"type": "Feature", "properties": {"highway": "footway", "footway": null, "name": null, "surface": null, "lit": null, "length_m": 4.04, "type_element": "Way", "__fid": 5480}, "geometry": {"type": "LineString", "coordinates": [[2.2627887, 48.8577775], [2.2627668, 48.8577442]]}}, {"type": "Feature", "properties": {"highway": "path", "footway": null, "name": null, "surface": "asphalt", "lit": "yes", "length_m": 19.0, "type_element": "Way", "__fid": 5484}, "geometry": {"type": "LineString", "coordinates": [[2.2628965, 48.857932900000016], [2.2627887, 48.8577775]]}}, {"type": "Feature", "properties": {"highway": "footway", "footway": "crossing", "name": null, "surface": null, "lit": null, "length_m": 17.8, "type_element": "Way", "__fid": 5485}, "geometry": {"type": "LineString", "coordinates": [[2.2630166, 48.857722700000025], [2.2627887, 48.8577775]]}}, {"type": "Feature", "properties": {"highway": "footway", "footway": "crossing", "name": null, "surface": null, "lit": null, "length_m": 10.21, "type_element": "Way", "__fid": 5486}, "geometry": {"type": "LineString", "coordinates": [[2.2629127, 48.8549484], [2.262859, 48.85486369999999]]}}, {"type": "Feature", "properties": {"highway": "footway", "footway": "sidewalk", "name": null, "surface": null, "lit": null, "length_m": 16.67, "type_element": "Way", "__fid": 5501}, "geometry": {"type": "LineString", "coordinates": [[2.2630146, 48.8550808], [2.2629382, 48.8549652], [2.2629127, 48.8549484]]}}, {"type": "Feature", "properties": {"highway": "footway", "footway": null, "name": null, "surface": null, "lit": null, "length_m": 4.22, "type_element": "Way", "__fid": 5503}, "geometry": {"type": "LineString", "coordinates": [[2.2629194, 48.8579677], [2.2628965, 48.857932900000016]]}}, {"type": "Feature", "properties": {"highway": "path", "footway": null, "name": null, "surface": null, "lit": null, "length_m": 185.46, "type_element": "Way", "__fid": 5508}, "geometry": {"type": "LineString", "coordinates": [[2.2638977, 48.85950540000001], [2.2629704, 48.8580619], [2.2629194, 48.8579677]]}}, {"type": "Feature", "properties": {"highway": "path", "footway": null, "name": null, "surface": null, "lit": null, "length_m": 245.72, "type_element": "Way", "__fid": 5509}, "geometry": {"type": "LineString", "coordinates": [[2.2629194, 48.8579677], [2.2628394, 48.8584303], [2.262776, 48.8586317], [2.2628148, 48.85875140000001], [2.2628947, 48.8588509], [2.263115, 48.8590416], [2.2633181, 48.8592996], [2.2634563, 48.8595768], [2.2637857, 48.8600061]]}}, {"type": "Feature", "properties": {"highway": "footway", "footway": "crossing", "name": null, "surface": null, "lit": null, "length_m": 5.09, "type_element": "Way", "__fid": 5510}, "geometry": {"type": "LineString", "coordinates": [[2.2629816, 48.8579474], [2.2629194, 48.8579677]]}}, {"type": "Feature", "properties": {"highway": "service", "footway": null, "name": "Allée des Fortifications", "surface": null, "lit": null, "length_m": 8.68, "type_element": "Way", "__fid": 5517}, "geometry": {"type": "LineString", "coordinates": [[2.2629378, 48.8578749], [2.2629816, 48.8579474]]}}, {"type": "Feature", "properties": {"highway": "footway", "footway": "sidewalk", "name": null, "surface": null, "lit": null, "length_m": 21.65, "type_element": "Way", "__fid": 5519}, "geometry": {"type": "LineString", "coordinates": [[2.2631171, 48.8552634], [2.2630146, 48.8550808]]}}, {"type": "Feature", "properties": {"highway": "footway", "footway": "crossing", "name": null, "surface": null, "lit": "yes", "length_m": 24.93, "type_element": "Way", "__fid": 5520}, "geometry": {"type": "LineString", "coordinates": [[2.2630146, 48.8550808], [2.2633208, 48.8549837]]}}, {"type": "Feature", "properties": {"highway": "service", "footway": null, "name": "Allée des Fortifications", "surface": null, "lit": null, "length_m": 211.41, "type_element": "Way", "__fid": 5521}, "geometry": {"type": "LineString", "coordinates": [[2.2629816, 48.8579474], [2.2630411, 48.8580444], [2.2630496, 48.85807709999999], [2.2640899, 48.8597014]]}}, {"type": "Feature", "properties": {"highway": "footway", "footway": "crossing", "name": null, "surface": null, "lit": null, "length_m": 11.43, "type_element": "Way", "__fid": 5522}, "geometry": {"type": "LineString", "coordinates": [[2.2631212, 48.85790170000001], [2.2629816, 48.8579474]]}}, {"type": "Feature", "properties": {"highway": "footway", "footway": "crossing", "name": null, "surface": null, "lit": "yes", "length_m": 21.33, "type_element": "Way", "__fid": 5524}, "geometry": {"type": "LineString", "coordinates": [[2.2630166, 48.857722700000025], [2.2631212, 48.85790170000001]]}}, {"type": "Feature", "properties": {"highway": "footway", "footway": null, "name": null, "surface": null, "lit": null, "length_m": 46.03, "type_element": "Way", "__fid": 5525}, "geometry": {"type": "LineString", "coordinates": [[2.2630223, 48.85732189999999], [2.2630572, 48.85739830000002], [2.2630921, 48.85753769999999], [2.2630733, 48.8576259], [2.2630166, 48.857722700000025]]}}, {"type": "Feature", "properties": {"highway": "path", "footway": null, "name": null, "surface": "dirt", "lit": null, "length_m": 39.75, "type_element": "Way", "__fid": 5526}, "geometry": {"type": "LineString", "coordinates": [[2.2630223, 48.85732189999999], [2.2631682, 48.8574151], [2.2633794, 48.85753069999997], [2.2634364, 48.8575503]]}}, {"type": "Feature", "properties": {"highway": "path", "footway": null, "name": null, "surface": null, "lit": null, "length_m": 1.38, "type_element": "Way", "__fid": 5549}, "geometry": {"type": "LineString", "coordinates": [[2.2631212, 48.85790170000001], [2.263134, 48.8579108]]}}, {"type": "Feature", "properties": {"highway": "path", "footway": null, "name": null, "surface": null, "lit": null, "length_m": 58.06, "type_element": "Way", "__fid": 5550}, "geometry": {"type": "LineString", "coordinates": [[2.263134, 48.8579108], [2.2632412, 48.8579489], [2.2634075, 48.85805830000001], [2.2634933, 48.858143], [2.2636274, 48.8583054]]}}, {"type": "Feature", "properties": {"highway": "path", "footway": null, "name": null, "surface": null, "lit": null, "length_m": 105.32, "type_element": "Way", "__fid": 5551}, "geometry": {"type": "LineString", "coordinates": [[2.263134, 48.8579108], [2.2636963, 48.8587823]]}}, {"type": "Feature", "properties": {"highway": "footway", "footway": "sidewalk", "name": null, "surface": null, "lit": null, "length_m": 259.29, "type_element": "Way", "__fid": 5564}, "geometry": {"type": "LineString", "coordinates": [[2.2647183, 48.8571255], [2.2633208, 48.8549837]]}}, {"type": "Feature", "properties": {"highway": "footway", "footway": "crossing", "name": null, "surface": null, "lit": "yes", "length_m": 21.3, "type_element": "Way", "__fid": 5585}, "geometry": {"type": "LineString", "coordinates": [[2.2635045, 48.8577901], [2.2634042, 48.8576485], [2.263374, 48.8576194]]}}, {"type": "Feature", "properties": {"highway": "footway", "footway": "crossing", "name": null, "surface": null, "lit": null, "length_m": 15.55, "type_element": "Way", "__fid": 5586}, "geometry": {"type": "LineString", "coordinates": [[2.263389, 48.857602800000016], [2.2635819, 48.8575448]]}}, {"type": "Feature", "properties": {"highway": "footway", "footway": "sidewalk", "name": null, "surface": null, "lit": null, "length_m": 3.07, "type_element": "Way", "__fid": 5599}, "geometry": {"type": "LineString", "coordinates": [[2.2634691, 48.85780479999998], [2.2635045, 48.8577901]]}}, {"type": "Feature", "properties": {"highway": "footway", "footway": "sidewalk", "name": null, "surface": null, "lit": null, "length_m": 1.54, "type_element": "Way", "__fid": 5605}, "geometry": {"type": "LineString", "coordinates": [[2.2635247, 48.8577865], [2.2635045, 48.8577901]]}}, {"type": "Feature", "properties": {"highway": "path", "footway": null, "name": null, "surface": null, "lit": null, "length_m": 59.78, "type_element": "Way", "__fid": 5612}, "geometry": {"type": "LineString", "coordinates": [[2.2635247, 48.8577865], [2.2635913, 48.8578766], [2.263547, 48.8579877], [2.2635792, 48.8580724], [2.2636274, 48.8583054]]}}, {"type": "Feature", "properties": {"highway": "footway", "footway": "sidewalk", "name": null, "surface": null, "lit": null, "length_m": 37.38, "type_element": "Way", "__fid": 5613}, "geometry": {"type": "LineString", "coordinates": [[2.2635247, 48.8577865], [2.2636966, 48.8577473], [2.2635819, 48.8575448]]}}, {"type": "Feature", "properties": {"highway": "footway", "footway": "sidewalk", "name": null, "surface": null, "lit": null, "length_m": 67.48, "type_element": "Way", "__fid": 5622}, "geometry": {"type": "LineString", "coordinates": [[2.2635819, 48.8575448], [2.2644322, 48.8573136]]}}, {"type": "Feature", "properties": {"highway": "path", "footway": null, "name": null, "surface": null, "lit": null, "length_m": 31.49, "type_element": "Way", "__fid": 5634}, "geometry": {"type": "LineString", "coordinates": [[2.2636274, 48.8583054], [2.2637025, 48.85858420000001]]}}, {"type": "Feature", "properties": {"highway": "path", "footway": null, "name": null, "surface": null, "lit": null, "length_m": 82.34, "type_element": "Way", "__fid": 5639}, "geometry": {"type": "LineString", "coordinates": [[2.2636963, 48.8587823], [2.2637153, 48.8588229], [2.2641491, 48.8594595]]}}, {"type": "Feature", "properties": {"highway": "footway", "footway": null, "name": null, "surface": null, "lit": null, "length_m": 22.21, "type_element": "Way", "__fid": 5640}, "geometry": {"type": "LineString", "coordinates": [[2.2636963, 48.8587823], [2.2637186, 48.8586689], [2.2637025, 48.85858420000001]]}}, {"type": "Feature", "properties": {"highway": "path", "footway": null, "name": null, "surface": null, "lit": null, "length_m": 120.77, "type_element": "Way", "__fid": 5641}, "geometry": {"type": "LineString", "coordinates": [[2.2637025, 48.85858420000001], [2.2637508, 48.85864069999999], [2.2639279, 48.8587854], [2.2639922, 48.8588489], [2.2640995, 48.8589301], [2.2642444, 48.8591101], [2.2643195, 48.859283], [2.2643731, 48.85949080000001], [2.2643737, 48.8595475]]}}]}