{"type": "FeatureCollection", "features": [{"type": "Feature", "properties": {"@id": "node/918205104", "amenity": "drinking_water", "check_date": "2025-04", "fountain": "drinking", "indoor": "no", "seasonal": "yes", "source": "survey", "type_element": "Fontaines à boire", "__fid": 211}, "geometry": {"type": "Point", "coordinates": [2.2623901, 48.8683898]}, "id": "node/918205104"}, {"type": "Feature", "properties": {"@id": "node/7707855432", "amenity": "drinking_water", "type_element": "Fontaines à boire", "__fid": 688}, "geometry": {"type": "Point", "coordinates": [2.2612419, 48.8672955]}, "id": "node/7707855432"}, {"type": "Feature", "properties": {"@id": "node/8145701603", "amenity": "drinking_water", "man_made": "water_tap", "type_element": "Fontaines à boire", "__fid": 739}, "geometry": {"type": "Point", "coordinates": [2.2589761, 48.8707011]}, "id": "node/8145701603"}, {"type": "Feature", "properties": {"highway": "footway", "footway": null, "name": null, "surface": "dirt", "lit": null, "length_m": 239.05, "type_element": "Way", "__fid": 3444}, "geometry": {"type": "LineString", "coordinates": [[2.2548791, 48.868173099999986], [2.2547833, 48.86816910000001], [2.2546114, 48.8681812], [2.2545131, 48.8681787], [2.2544333, 48.8681569], [2.2543081, 48.8681077], [2.2541865, 48.8680398], [2.2540355, 48.8679389], [2.2539409, 48.8679025], [2.253898, 48.867896], [2.2536119, 48.867937199999986], [2.2534485, 48.8679187], [2.2533343, 48.86788880000002], [2.2532238, 48.8678282], [2.2528923, 48.86760039999998], [2.2526983, 48.8674962], [2.2525509, 48.867447800000015], [2.252465, 48.86741140000004], [2.2523692, 48.8673565], [2.2522955, 48.8673024], [2.2522145, 48.8672563], [2.2521567, 48.8672343]]}}, {"type": "Feature", "properties": {"highway": "track", "footway": null, "name": null, "surface": "asphalt", "lit": "no", "length_m": 182.91, "type_element": "Way", "__fid": 3552}, "geometry": {"type": "LineString", "coordinates": [[2.2526863, 48.8670922], [2.2528484, 48.86719930000002], [2.2530448, 48.867282], [2.253405, 48.8673907], [2.2536993, 48.8674954], [2.2539273, 48.8675375], [2.2541248, 48.8675832], [2.2544268, 48.8675986], [2.2545091, 48.8676283], [2.2546797, 48.8677482], [2.254762, 48.867820500000015], [2.2548231, 48.8678449]]}}, {"type": "Feature", "properties": {"highway": "path", "footway": null, "name": null, "surface": "dirt", "lit": null, "length_m": 158.17, "type_element": "Way", "__fid": 3575}, "geometry": {"type": "LineString", "coordinates": [[2.254862, 48.8674817], [2.2545332, 48.867489], [2.2539149, 48.8674325], [2.2536947, 48.867371099999986], [2.2533881, 48.8672464], [2.2531801, 48.8671844], [2.2528669, 48.8670478]]}}, {"type": "Feature", "properties": {"highway": "track", "footway": null, "name": "Route des Lacs à Bagatelle", "surface": "asphalt", "lit": null, "length_m": 181.2, "type_element": "Way", "__fid": 3576}, "geometry": {"type": "LineString", "coordinates": [[2.2528669, 48.8670478], [2.2534699, 48.8669664], [2.2536972, 48.8669088], [2.2539015, 48.8668359], [2.254116, 48.86673060000001], [2.2543354, 48.8665584], [2.2550579, 48.8667348]]}}, {"type": "Feature", "properties": {"highway": "footway", "footway": null, "name": null, "surface": null, "lit": null, "length_m": 129.9, "type_element": "Way", "__fid": 3659}, "geometry": {"type": "LineString", "coordinates": [[2.2535779, 48.8660849], [2.2536647, 48.8661374], [2.2540134, 48.8662962], [2.2541958, 48.8663491], [2.2543165, 48.8663642], [2.2544163, 48.86636720000003], [2.2545053, 48.8663592], [2.2546034, 48.8663333], [2.2546825, 48.8662826], [2.2547314, 48.86620579999999], [2.2547803, 48.865960399999985]]}}, {"type": "Feature", "properties": {"highway": "path", "footway": null, "name": null, "surface": null, "lit": null, "length_m": 201.33, "type_element": "Way", "__fid": 3708}, "geometry": {"type": "LineString", "coordinates": [[2.2540338, 48.8698524], [2.2544784, 48.869879800000014], [2.2547187, 48.8699026], [2.2550138, 48.8699448], [2.2553823, 48.8700203], [2.2556426, 48.8700827], [2.2559177, 48.8701301], [2.2565465, 48.87027759999999], [2.2566803, 48.87030209999999]]}}, {"type": "Feature", "properties": {"highway": "service", "footway": null, "name": null, "surface": "asphalt", "lit": null, "length_m": 70.19, "type_element": "Way", "__fid": 3713}, "geometry": {"type": "LineString", "coordinates": [[2.2541417, 48.8654963], [2.2542173, 48.86551990000001], [2.2544533, 48.8656575], [2.2546196, 48.865788], [2.2547001, 48.8658622], [2.2548201, 48.8659335]]}}, {"type": "Feature", "properties": {"highway": "path", "footway": null, "name": null, "surface": "compacted", "lit": "yes", "length_m": 52.54, "type_element": "Way", "__fid": 3735}, "geometry": {"type": "LineString", "coordinates": [[2.2548498, 48.8691782], [2.254221, 48.8689519]]}}, {"type": "Feature", "properties": {"highway": "footway", "footway": null, "name": null, "surface": "compacted", "lit": "no", "length_m": 33.94, "type_element": "Way", "__fid": 3747}, "geometry": {"type": "LineString", "coordinates": [[2.2547979, 48.865094], [2.2543366, 48.8650705]]}}, {"type": "Feature", "properties": {"highway": "path", "footway": null, "name": null, "surface": null, "lit": null, "length_m": 67.01, "type_element": "Way", "__fid": 3794}, "geometry": {"type": "LineString", "coordinates": [[2.2545209, 48.86650909999999], [2.2548136, 48.8664648], [2.2553861, 48.8663201]]}}, {"type": "Feature", "properties": {"highway": "service", "footway": null, "name": null, "surface": null, "lit": null, "length_m": 95.18, "type_element": "Way", "__fid": 3795}, "geometry": {"type": "LineString", "coordinates": [[2.2545638, 48.8643372], [2.2546349, 48.864451], [2.2547616, 48.8647246], [2.2550045, 48.86514170000002]]}}, {"type": "Feature", "properties": {"highway": "footway", "footway": null, "name": null, "surface": "compacted", "lit": "no", "length_m": 26.4, "type_element": "Way", "__fid": 3798}, "geometry": {"type": "LineString", "coordinates": [[2.2545759, 48.8649398], [2.2546886, 48.86495], [2.2547458, 48.8650026], [2.2547979, 48.865094]]}}, {"type": "Feature", "properties": {"highway": "footway", "footway": null, "name": null, "surface": null, "lit": null, "length_m": 38.57, "type_element": "Way", "__fid": 3827}, "geometry": {"type": "LineString", "coordinates": [[2.2546979, 48.8655785], [2.2549138, 48.8658948]]}}, {"type": "Feature", "properties": {"highway": "footway", "footway": null, "name": null, "surface": null, "lit": null, "length_m": 55.85, "type_element": "Way", "__fid": 3828}, "geometry": {"type": "LineString", "coordinates": [[2.2546979, 48.8655785], [2.2547717, 48.86546469999998], [2.2548307, 48.8652883], [2.2548307, 48.8651577], [2.2547979, 48.865094]]}}, {"type": "Feature", "properties": {"highway": "footway", "footway": null, "name": null, "surface": null, "lit": null, "length_m": 4.18, "type_element": "Way", "__fid": 3839}, "geometry": {"type": "LineString", "coordinates": [[2.2547803, 48.865960399999985], [2.2548201, 48.8659335]]}}, {"type": "Feature", "properties": {"highway": "footway", "footway": null, "name": null, "surface": null, "lit": null, "length_m": 16.06, "type_element": "Way", "__fid": 3840}, "geometry": {"type": "LineString", "coordinates": [[2.2547979, 48.865094], [2.2550045, 48.86514170000002]]}}, {"type": "Feature", "properties": {"highway": "path", "footway": null, "name": null, "surface": "ground", "lit": null, "length_m": 24.78, "type_element": "Way", "__fid": 3843}, "geometry": {"type": "LineString", "coordinates": [[2.2550645, 48.868968], [2.2547681, 48.8688611]]}}, {"type": "Feature", "properties": {"highway": "footway", "footway": null, "name": null, "surface": "dirt", "lit": null, "length_m": 78.33, "type_element": "Way", "__fid": 3844}, "geometry": {"type": "LineString", "coordinates": [[2.2547681, 48.8688611], [2.2547894, 48.8687336], [2.2548214, 48.8686432], [2.2548177, 48.8685955], [2.2547956, 48.8685487], [2.2547943, 48.8685034], [2.2548778, 48.8683556], [2.2548926, 48.868245], [2.2548791, 48.868173099999986]]}}, {"type": "Feature", "properties": {"highway": "service", "footway": null, "name": null, "surface": "asphalt", "lit": null, "length_m": 5.39, "type_element": "Way", "__fid": 3848}, "geometry": {"type": "LineString", "coordinates": [[2.2548201, 48.8659335], [2.2548747, 48.8659659]]}}, {"type": "Feature", "properties": {"highway": "track", "footway": null, "name": null, "surface": "asphalt", "lit": "no", "length_m": 123.26, "type_element": "Way", "__fid": 3851}, "geometry": {"type": "LineString", "coordinates": [[2.2548231, 48.8678449], [2.2548718, 48.8678643], [2.255064, 48.8678901], [2.2552634, 48.8679003], [2.2554797, 48.8678824], [2.2557105, 48.8678809], [2.25596, 48.867909500000025], [2.2564177, 48.8679893], [2.2564646, 48.8680037]]}}, {"type": "Feature", "properties": {"highway": "footway", "footway": null, "name": null, "surface": null, "lit": null, "length_m": 36.73, "type_element": "Way", "__fid": 3852}, "geometry": {"type": "LineString", "coordinates": [[2.2548231, 48.8678449], [2.2548791, 48.868173099999986]]}}, {"type": "Feature", "properties": {"highway": "track", "footway": null, "name": null, "surface": null, "lit": null, "length_m": 54.48, "type_element": "Way", "__fid": 3854}, "geometry": {"type": "LineString", "coordinates": [[2.2548747, 48.8659659], [2.2551367, 48.86612739999999], [2.2553861, 48.8663201]]}}, {"type": "Feature", "properties": {"highway": "service", "footway": null, "name": null, "surface": null, "lit": null, "length_m": 8.41, "type_element": "Way", "__fid": 3855}, "geometry": {"type": "LineString", "coordinates": [[2.2549138, 48.8658948], [2.2548747, 48.8659659]]}}, {"type": "Feature", "properties": {"highway": "path", "footway": null, "name": null, "surface": "dirt", "lit": null, "length_m": 85.2, "type_element": "Way", "__fid": 3858}, "geometry": {"type": "LineString", "coordinates": [[2.2550579, 48.8667348], [2.2550617, 48.8669326], [2.2550483, 48.8670632], [2.2549732, 48.8671779], [2.254862, 48.8674817]]}}, {"type": "Feature", "properties": {"highway": "path", "footway": null, "name": null, "surface": "dirt", "lit": null, "length_m": 255.57, "type_element": "Way", "__fid": 3859}, "geometry": {"type": "LineString", "coordinates": [[2.254862, 48.8674817], [2.2552209, 48.8674854], [2.2554427, 48.867505399999985], [2.2555918, 48.8675589], [2.2558165, 48.867598], [2.2559583, 48.8675968], [2.2561671, 48.8675467], [2.2562174, 48.8675439], [2.2562543, 48.86755040000001], [2.2563519, 48.8675928], [2.2564106, 48.8676484], [2.2565683, 48.8677652], [2.2565938, 48.86780239999998], [2.2566529, 48.867833300000015], [2.2567724, 48.8678601], [2.2568938, 48.8678491], [2.2569702, 48.8678117], [2.2572741, 48.8675821], [2.2573643, 48.8675331], [2.2574722, 48.867515], [2.2575859, 48.8675215], [2.2578008, 48.8675715], [2.2578581, 48.86760470000003]]}}, {"type": "Feature", "properties": {"highway": "path", "footway": null, "name": null, "surface": "compacted", "lit": "yes", "length_m": 168.73, "type_element": "Way", "__fid": 3860}, "geometry": {"type": "LineString", "coordinates": [[2.256869, 48.8699049], [2.2548498, 48.8691782]]}}, {"type": "Feature", "properties": {"highway": "footway", "footway": "crossing", "name": null, "surface": "asphalt", "lit": "yes", "length_m": 28.27, "type_element": "Way", "__fid": 3861}, "geometry": {"type": "LineString", "coordinates": [[2.2548498, 48.8691782], [2.2549043, 48.8691388], [2.2550645, 48.868968]]}}, {"type": "Feature", "properties": {"highway": "footway", "footway": null, "name": null, "surface": null, "lit": null, "length_m": 127.06, "type_element": "Way", "__fid": 3863}, "geometry": {"type": "LineString", "coordinates": [[2.2548791, 48.868173099999986], [2.2551582, 48.8682009], [2.255614, 48.86829620000002], [2.2557069, 48.8683117], [2.2558459, 48.86831680000002], [2.2562982, 48.8683962], [2.256405, 48.8684065], [2.2565561, 48.8684425]]}}, {"type": "Feature", "properties": {"highway": "service", "footway": null, "name": null, "surface": null, "lit": null, "length_m": 86.3, "type_element": "Way", "__fid": 3864}, "geometry": {"type": "LineString", "coordinates": [[2.2550045, 48.86514170000002], [2.2550882, 48.8654391], [2.2550747, 48.8655838], [2.2549138, 48.8658948]]}}, {"type": "Feature", "properties": {"highway": "service", "footway": null, "name": "Route de Suresnes", "surface": "asphalt", "lit": "no", "length_m": 89.49, "type_element": "Way", "__fid": 3888}, "geometry": {"type": "LineString", "coordinates": [[2.2550579, 48.8667348], [2.2554003, 48.8668212], [2.2562242, 48.8669676]]}}, {"type": "Feature", "properties": {"highway": "path", "footway": null, "name": null, "surface": "ground", "lit": null, "length_m": 372.23, "type_element": "Way", "__fid": 3899}, "geometry": {"type": "LineString", "coordinates": [[2.2595164, 48.87057440000002], [2.2550645, 48.868968]]}}, {"type": "Feature", "properties": {"highway": "path", "footway": null, "name": "Route de Longchamp au Bout des Lacs", "surface": "dirt", "lit": null, "length_m": 105.06, "type_element": "Way", "__fid": 3900}, "geometry": {"type": "LineString", "coordinates": [[2.2550645, 48.868968], [2.2551477, 48.8689096], [2.255257, 48.8688708], [2.2553572, 48.8688523], [2.2556663, 48.8688397], [2.2560528, 48.86887490000002], [2.2564139, 48.8689585]]}}, {"type": "Feature", "properties": {"highway": "track", "footway": null, "name": null, "surface": null, "lit": null, "length_m": 94.68, "type_element": "Way", "__fid": 3966}, "geometry": {"type": "LineString", "coordinates": [[2.2553861, 48.8663201], [2.2562242, 48.8669676]]}}, {"type": "Feature", "properties": {"highway": "path", "footway": null, "name": null, "surface": null, "lit": null, "length_m": 98.07, "type_element": "Way", "__fid": 3967}, "geometry": {"type": "LineString", "coordinates": [[2.2553861, 48.8663201], [2.25576, 48.8662419], [2.2560174, 48.8662314], [2.2566981, 48.8662909]]}}, {"type": "Feature", "properties": {"highway": "footway", "footway": null, "name": null, "surface": "dirt", "lit": "no", "length_m": 109.06, "type_element": "Way", "__fid": 4164}, "geometry": {"type": "LineString", "coordinates": [[2.2561589, 48.8711976], [2.2562461, 48.8711492], [2.2563189, 48.8709852], [2.2563965, 48.870916], [2.2564761, 48.8707491], [2.2565374, 48.8706971], [2.2566467, 48.8704744], [2.2566803, 48.87030209999999]]}}, {"type": "Feature", "properties": {"highway": "service", "footway": null, "name": "Route de Suresnes", "surface": "asphalt", "lit": "no", "length_m": 52.72, "type_element": "Way", "__fid": 4165}, "geometry": {"type": "LineString", "coordinates": [[2.2562242, 48.8669676], [2.2569143, 48.8670999]]}}, {"type": "Feature", "properties": {"highway": "path", "footway": null, "name": "Route de Longchamp au Bout des Lacs", "surface": "dirt", "lit": null, "length_m": 88.41, "type_element": "Way", "__fid": 4199}, "geometry": {"type": "LineString", "coordinates": [[2.2564139, 48.8689585], [2.2566862, 48.8690137], [2.2571183, 48.8691215], [2.2574626, 48.8691984], [2.2575562, 48.8692084]]}}, {"type": "Feature", "properties": {"highway": "path", "footway": null, "name": null, "surface": null, "lit": null, "length_m": 59.97, "type_element": "Way", "__fid": 4200}, "geometry": {"type": "LineString", "coordinates": [[2.2565561, 48.8684425], [2.2565517, 48.8684796], [2.2565283, 48.8685176], [2.2565075, 48.8685992], [2.2565332, 48.868747], [2.2565259, 48.8688019], [2.2565075, 48.8688504], [2.2564139, 48.8689585]]}}, {"type": "Feature", "properties": {"highway": "track", "footway": null, "name": null, "surface": "asphalt", "lit": "no", "length_m": 51.23, "type_element": "Way", "__fid": 4202}, "geometry": {"type": "LineString", "coordinates": [[2.2564646, 48.8680037], [2.256607, 48.8680475], [2.2570344, 48.8682666]]}}, {"type": "Feature", "properties": {"highway": "path", "footway": null, "name": null, "surface": "dirt", "lit": null, "length_m": 65.77, "type_element": "Way", "__fid": 4203}, "geometry": {"type": "LineString", "coordinates": [[2.25728, 48.8679935], [2.2571957, 48.8679613], [2.2567075, 48.8679329], [2.2565251, 48.8679303], [2.2564646, 48.8680037]]}}, {"type": "Feature", "properties": {"highway": "footway", "footway": null, "name": null, "surface": null, "lit": null, "length_m": 18.97, "type_element": "Way", "__fid": 4221}, "geometry": {"type": "LineString", "coordinates": [[2.2565561, 48.8684425], [2.2568017, 48.8684958]]}}, {"type": "Feature", "properties": {"highway": "path", "footway": null, "name": null, "surface": null, "lit": null, "length_m": 9.19, "type_element": "Way", "__fid": 4239}, "geometry": {"type": "LineString", "coordinates": [[2.2566981, 48.8662909], [2.2566972, 48.8662083]]}}, {"type": "Feature", "properties": {"highway": "path", "footway": null, "name": null, "surface": null, "lit": null, "length_m": 91.71, "type_element": "Way", "__fid": 4240}, "geometry": {"type": "LineString", "coordinates": [[2.2569143, 48.8670999], [2.2567415, 48.8666598], [2.2567094, 48.8664549], [2.2566981, 48.8662909]]}}, {"type": "Feature", "properties": {"highway": "path", "footway": null, "name": null, "surface": null, "lit": null, "length_m": 136.12, "type_element": "Way", "__fid": 4241}, "geometry": {"type": "LineString", "coordinates": [[2.2566981, 48.8662909], [2.2568426, 48.8662822], [2.2571796, 48.8662232], [2.2572967, 48.8661885], [2.2577289, 48.866029], [2.2579652, 48.8659772], [2.2582162, 48.8659034], [2.2584167, 48.86585349999998]]}}, {"type": "Feature", "properties": {"highway": "path", "footway": null, "name": null, "surface": "dirt", "lit": null, "length_m": 46.29, "type_element": "Way", "__fid": 4249}, "geometry": {"type": "LineString", "coordinates": [[2.256869, 48.8699049], [2.2566803, 48.87030209999999]]}}, {"type": "Feature", "properties": {"highway": "footway", "footway": null, "name": null, "surface": null, "lit": null, "length_m": 57.55, "type_element": "Way", "__fid": 4265}, "geometry": {"type": "LineString", "coordinates": [[2.2573275, 48.865269], [2.2567932, 48.8656479]]}}, {"type": "Feature", "properties": {"highway": "footway", "footway": null, "name": null, "surface": null, "lit": null, "length_m": 33.93, "type_element": "Way", "__fid": 4275}, "geometry": {"type": "LineString", "coordinates": [[2.2568017, 48.8684958], [2.2568817, 48.8685116], [2.257046, 48.86858270000001], [2.2572239, 48.8686098]]}}, {"type": "Feature", "properties": {"highway": "path", "footway": null, "name": null, "surface": "dirt", "lit": null, "length_m": 30.67, "type_element": "Way", "__fid": 4276}, "geometry": {"type": "LineString", "coordinates": [[2.2568017, 48.8684958], [2.2570344, 48.8682666]]}}, {"type": "Feature", "properties": {"highway": "path", "footway": null, "name": null, "surface": "compacted", "lit": "yes", "length_m": 197.83, "type_element": "Way", "__fid": 4284}, "geometry": {"type": "LineString", "coordinates": [[2.2592365, 48.870757], [2.256869, 48.8699049]]}}, {"type": "Feature", "properties": {"highway": "service", "footway": null, "name": "Route de Suresnes", "surface": "asphalt", "lit": "no", "length_m": 82.57, "type_element": "Way", "__fid": 4285}, "geometry": {"type": "LineString", "coordinates": [[2.2569143, 48.8670999], [2.2577212, 48.867239], [2.2579998, 48.8672958]]}}, {"type": "Feature", "properties": {"highway": "pedestrian", "footway": null, "name": null, "surface": null, "lit": null, "length_m": 33.69, "type_element": "Way", "__fid": 4303}, "geometry": {"type": "LineString", "coordinates": [[2.2573275, 48.865269], [2.2569908, 48.8650629]]}}, {"type": "Feature", "properties": {"highway": "track", "footway": null, "name": null, "surface": "asphalt", "lit": "no", "length_m": 57.97, "type_element": "Way", "__fid": 4315}, "geometry": {"type": "LineString", "coordinates": [[2.2570344, 48.8682666], [2.2571246, 48.8682991], [2.2571963, 48.8683393], [2.2572683, 48.8683626], [2.2573535, 48.868379], [2.2573995, 48.8683795], [2.2574656, 48.8683622], [2.2575659, 48.86831620000001], [2.2577283, 48.86825750000001]]}}, {"type": "Feature", "properties": {"highway": "path", "footway": null, "name": null, "surface": "dirt", "lit": null, "length_m": 35.31, "type_element": "Way", "__fid": 4316}, "geometry": {"type": "LineString", "coordinates": [[2.2570344, 48.8682666], [2.25728, 48.8679935]]}}, {"type": "Feature", "properties": {"highway": "path", "footway": null, "name": null, "surface": null, "lit": null, "length_m": 14.95, "type_element": "Way", "__fid": 4334}, "geometry": {"type": "LineString", "coordinates": [[2.2572264, 48.8687061], [2.2571956, 48.868839]]}}, {"type": "Feature", "properties": {"highway": "path", "footway": null, "name": null, "surface": null, "lit": null, "length_m": 10.71, "type_element": "Way", "__fid": 4346}, "geometry": {"type": "LineString", "coordinates": [[2.2572239, 48.8686098], [2.2572264, 48.8687061]]}}, {"type": "Feature", "properties": {"highway": "path", "footway": null, "name": null, "surface": "compacted", "lit": null, "length_m": 49.87, "type_element": "Way", "__fid": 4347}, "geometry": {"type": "LineString", "coordinates": [[2.2578568, 48.8687395], [2.2577637, 48.8686985], [2.2576229, 48.8686558], [2.2573872, 48.868602299999985], [2.2572239, 48.8686098]]}}, {"type": "Feature", "properties": {"highway": "path", "footway": null, "name": null, "surface": null, "lit": null, "length_m": 54.32, "type_element": "Way", "__fid": 4350}, "geometry": {"type": "LineString", "coordinates": [[2.257848, 48.8689519], [2.257732, 48.8689228], [2.2576113, 48.86887520000002], [2.2575141, 48.8688523], [2.2574886, 48.8688377], [2.2574531, 48.868798], [2.2573216, 48.8687473], [2.2572955, 48.8687442], [2.2572264, 48.8687061]]}}, {"type": "Feature", "properties": {"highway": "path", "footway": null, "name": null, "surface": "dirt", "lit": null, "length_m": 37.52, "type_element": "Way", "__fid": 4356}, "geometry": {"type": "LineString", "coordinates": [[2.257718, 48.8681273], [2.2575294, 48.86811919999999], [2.257371, 48.86807010000001], [2.25728, 48.8679935]]}}, {"type": "Feature", "properties": {"highway": "path", "footway": null, "name": null, "surface": "dirt", "lit": null, "length_m": 14.01, "type_element": "Way", "__fid": 4357}, "geometry": {"type": "LineString", "coordinates": [[2.25728, 48.8679935], [2.2574146, 48.8679041]]}}, {"type": "Feature", "properties": {"highway": "pedestrian", "footway": null, "name": null, "surface": null, "lit": null, "length_m": 54.22, "type_element": "Way", "__fid": 4358}, "geometry": {"type": "LineString", "coordinates": [[2.2578679, 48.8656017], [2.2573275, 48.865269]]}}, {"type": "Feature", "properties": {"highway": "footway", "footway": null, "name": null, "surface": null, "lit": null, "length_m": 68.23, "type_element": "Way", "__fid": 4359}, "geometry": {"type": "LineString", "coordinates": [[2.2580153, 48.8648732], [2.2577571, 48.86495], [2.2573275, 48.865269]]}}, {"type": "Feature", "properties": {"highway": "footway", "footway": null, "name": null, "surface": null, "lit": null, "length_m": 44.95, "type_element": "Way", "__fid": 4384}, "geometry": {"type": "LineString", "coordinates": [[2.2574352, 48.8658879], [2.2578679, 48.8656017]]}}, {"type": "Feature", "properties": {"highway": "path", "footway": null, "name": null, "surface": "dirt", "lit": null, "length_m": 46.81, "type_element": "Way", "__fid": 4385}, "geometry": {"type": "LineString", "coordinates": [[2.2574146, 48.8679041], [2.2575467, 48.8677872], [2.2577951, 48.8676495], [2.2578581, 48.86760470000003]]}}, {"type": "Feature", "properties": {"highway": "path", "footway": null, "name": null, "surface": "dirt", "lit": null, "length_m": 35.52, "type_element": "Way", "__fid": 4386}, "geometry": {"type": "LineString", "coordinates": [[2.2574146, 48.8679041], [2.257646, 48.8678731], [2.2577823, 48.8678874], [2.2578862, 48.86791130000002]]}}, {"type": "Feature", "properties": {"highway": "path", "footway": null, "name": "Route de Longchamp au Bout des Lacs", "surface": "dirt", "lit": null, "length_m": 39.71, "type_element": "Way", "__fid": 4416}, "geometry": {"type": "LineString", "coordinates": [[2.2575562, 48.8692084], [2.258092, 48.8692593]]}}, {"type": "Feature", "properties": {"highway": "path", "footway": null, "name": null, "surface": null, "lit": null, "length_m": 35.9, "type_element": "Way", "__fid": 4417}, "geometry": {"type": "LineString", "coordinates": [[2.2575562, 48.8692084], [2.2577293, 48.8690869], [2.257848, 48.8689519]]}}, {"type": "Feature", "properties": {"highway": "steps", "footway": null, "name": null, "surface": "unhewn_cobblestone", "lit": null, "length_m": 14.5, "type_element": "Way", "__fid": 4435}, "geometry": {"type": "LineString", "coordinates": [[2.257718, 48.8681273], [2.2577283, 48.86825750000001]]}}, {"type": "Feature", "properties": {"highway": "path", "footway": null, "name": null, "surface": "dirt", "lit": null, "length_m": 30.73, "type_element": "Way", "__fid": 4436}, "geometry": {"type": "LineString", "coordinates": [[2.2580258, 48.8679451], [2.2579812, 48.867963500000016], [2.257778, 48.8681096], [2.257718, 48.8681273]]}}, {"type": "Feature", "properties": {"highway": "path", "footway": null, "name": null, "surface": "compacted", "lit": null, "length_m": 54.92, "type_element": "Way", "__fid": 4442}, "geometry": {"type": "LineString", "coordinates": [[2.2577283, 48.86825750000001], [2.2577528, 48.8682799], [2.25781, 48.8684202], [2.2578555, 48.8686799], [2.2578568, 48.8687395]]}}, {"type": "Feature", "properties": {"highway": "track", "footway": null, "name": null, "surface": "asphalt", "lit": "no", "length_m": 136.77, "type_element": "Way", "__fid": 4443}, "geometry": {"type": "LineString", "coordinates": [[2.2577283, 48.86825750000001], [2.2579169, 48.8682078], [2.2580873, 48.86817880000002], [2.2582559, 48.86818510000001], [2.2584091, 48.86821029999999], [2.2586848, 48.868291], [2.258882, 48.8683161], [2.258951, 48.8683086], [2.2590295, 48.8682821], [2.2591789, 48.8682532], [2.2593731, 48.8682279], [2.2595117, 48.8682012]]}}, {"type": "Feature", "properties": {"highway": "pedestrian", "footway": null, "name": null, "surface": null, "lit": null, "length_m": 33.19, "type_element": "Way", "__fid": 4458}, "geometry": {"type": "LineString", "coordinates": [[2.2581819, 48.8658164], [2.2580301, 48.8657054], [2.2578679, 48.8656017]]}}, {"type": "Feature", "properties": {"highway": "footway", "footway": null, "name": null, "surface": null, "lit": null, "length_m": 35.89, "type_element": "Way", "__fid": 4459}, "geometry": {"type": "LineString", "coordinates": [[2.2578679, 48.8656017], [2.2581933, 48.8653607]]}}, {"type": "Feature", "properties": {"highway": "path", "footway": null, "name": null, "surface": "dirt", "lit": null, "length_m": 40.72, "type_element": "Way", "__fid": 4461}, "geometry": {"type": "LineString", "coordinates": [[2.2578581, 48.86760470000003], [2.2579349, 48.8676685], [2.257978, 48.86774590000001], [2.2579898, 48.8678426], [2.2580258, 48.8679451]]}}, {"type": "Feature", "properties": {"highway": "path", "footway": null, "name": null, "surface": "dirt", "lit": null, "length_m": 37.56, "type_element": "Way", "__fid": 4462}, "geometry": {"type": "LineString", "coordinates": [[2.2578581, 48.86760470000003], [2.2578565, 48.8674841], [2.2578719, 48.86740769999999], [2.2579998, 48.8672958]]}}, {"type": "Feature", "properties": {"highway": "path", "footway": null, "name": null, "surface": null, "lit": null, "length_m": 5.42, "type_element": "Way", "__fid": 4463}, "geometry": {"type": "LineString", "coordinates": [[2.257848, 48.8689519], [2.2579142, 48.8689302]]}}, {"type": "Feature", "properties": {"highway": "path", "footway": null, "name": null, "surface": "compacted", "lit": null, "length_m": 21.77, "type_element": "Way", "__fid": 4467}, "geometry": {"type": "LineString", "coordinates": [[2.2578568, 48.8687395], [2.2578673, 48.8688337], [2.2579142, 48.8689302]]}}, {"type": "Feature", "properties": {"highway": "path", "footway": null, "name": null, "surface": "compacted", "lit": null, "length_m": 11.05, "type_element": "Way", "__fid": 4488}, "geometry": {"type": "LineString", "coordinates": [[2.2579142, 48.8689302], [2.2580223, 48.8689994]]}}, {"type": "Feature", "properties": {"highway": "service", "footway": null, "name": "Route de Suresnes", "surface": "asphalt", "lit": "no", "length_m": 38.53, "type_element": "Way", "__fid": 4508}, "geometry": {"type": "LineString", "coordinates": [[2.2579998, 48.8672958], [2.258501, 48.8673994]]}}, {"type": "Feature", "properties": {"highway": "path", "footway": null, "name": null, "surface": "ground", "lit": null, "length_m": 180.18, "type_element": "Way", "__fid": 4523}, "geometry": {"type": "LineString", "coordinates": [[2.2580258, 48.8679451], [2.2581965, 48.8680115], [2.2583976, 48.8680477], [2.2587446, 48.8681651], [2.2588866, 48.86816750000002], [2.259114, 48.8681256], [2.2595544, 48.8680717], [2.2596707, 48.8680762], [2.259906, 48.8681313], [2.2601704, 48.868131100000014], [2.2603709, 48.8681102]]}}, {"type": "Feature", "properties": {"highway": "path", "footway": null, "name": null, "surface": null, "lit": null, "length_m": 11.14, "type_element": "Way", "__fid": 4526}, "geometry": {"type": "LineString", "coordinates": [[2.258169, 48.8690254], [2.2580223, 48.8689994]]}}, {"type": "Feature", "properties": {"highway": "path", "footway": null, "name": null, "surface": "compacted", "lit": null, "length_m": 29.79, "type_element": "Way", "__fid": 4527}, "geometry": {"type": "LineString", "coordinates": [[2.2580223, 48.8689994], [2.2580475, 48.8690538], [2.2580808, 48.86909580000001], [2.258092, 48.8692593]]}}, {"type": "Feature", "properties": {"highway": "path", "footway": null, "name": "Route de Longchamp au Bout des Lacs", "surface": "dirt", "lit": null, "length_m": 54.56, "type_element": "Way", "__fid": 4547}, "geometry": {"type": "LineString", "coordinates": [[2.258092, 48.8692593], [2.2583047, 48.86929030000001], [2.2585559, 48.869315], [2.258827, 48.86932950000002]]}}, {"type": "Feature", "properties": {"highway": "footway", "footway": null, "name": null, "surface": null, "lit": null, "length_m": 42.27, "type_element": "Way", "__fid": 4560}, "geometry": {"type": "LineString", "coordinates": [[2.2581933, 48.8653607], [2.2585246, 48.865571400000015], [2.2585823, 48.86563779999998]]}}, {"type": "Feature", "properties": {"highway": "footway", "footway": null, "name": null, "surface": null, "lit": null, "length_m": 1.24, "type_element": "Way", "__fid": 4561}, "geometry": {"type": "LineString", "coordinates": [[2.2581933, 48.8653607], [2.2582045, 48.86535240000001]]}}, {"type": "Feature", "properties": {"highway": "path", "footway": null, "name": null, "surface": "compacted", "lit": null, "length_m": 60.95, "type_element": "Way", "__fid": 4566}, "geometry": {"type": "LineString", "coordinates": [[2.258169, 48.8690254], [2.2583109, 48.86916320000002], [2.2584514, 48.8691923], [2.2587588, 48.86929259999999], [2.258827, 48.86932950000002]]}}, {"type": "Feature", "properties": {"highway": "path", "footway": null, "name": null, "surface": null, "lit": null, "length_m": 63.51, "type_element": "Way", "__fid": 4567}, "geometry": {"type": "LineString", "coordinates": [[2.2589757, 48.8688184], [2.2585787, 48.8689278], [2.258169, 48.8690254]]}}, {"type": "Feature", "properties": {"highway": "path", "footway": null, "name": "Route des Lacs à Madrid", "surface": "compacted", "lit": "yes", "length_m": 127.7, "type_element": "Way", "__fid": 4571}, "geometry": {"type": "LineString", "coordinates": [[2.258162, 48.871623], [2.258184, 48.871639], [2.2583147, 48.8714969], [2.2585298, 48.871287500000015], [2.2586196, 48.8712206], [2.2587916, 48.8710618], [2.2592365, 48.870757]]}}, {"type": "Feature", "properties": {"highway": "footway", "footway": null, "name": null, "surface": "compacted", "lit": "no", "length_m": 146.58, "type_element": "Way", "__fid": 4572}, "geometry": {"type": "LineString", "coordinates": [[2.2582769, 48.8640562], [2.2586614, 48.86452879999999], [2.2590604, 48.8649173], [2.2593688, 48.8651546]]}}, {"type": "Feature", "properties": {"highway": "path", "footway": null, "name": null, "surface": null, "lit": null, "length_m": 15.79, "type_element": "Way", "__fid": 4588}, "geometry": {"type": "LineString", "coordinates": [[2.2584167, 48.86585349999998], [2.258398, 48.865779], [2.2584375, 48.8657178]]}}, {"type": "Feature", "properties": {"highway": "path", "footway": null, "name": null, "surface": null, "lit": "no", "length_m": 138.02, "type_element": "Way", "__fid": 4589}, "geometry": {"type": "LineString", "coordinates": [[2.2584167, 48.86585349999998], [2.2590047, 48.8658056], [2.2594191, 48.8658056], [2.2598617, 48.8658317], [2.2602843, 48.86588490000001]]}}, {"type": "Feature", "properties": {"highway": "service", "footway": null, "name": null, "surface": null, "lit": null, "length_m": 15.01, "type_element": "Way", "__fid": 4593}, "geometry": {"type": "LineString", "coordinates": [[2.2584375, 48.8657178], [2.2585035, 48.8656235], [2.258538, 48.8656023]]}}, {"type": "Feature", "properties": {"highway": "path", "footway": null, "name": null, "surface": null, "lit": "no", "length_m": 39.5, "type_element": "Way", "__fid": 4594}, "geometry": {"type": "LineString", "coordinates": [[2.2584375, 48.8657178], [2.2587583, 48.8656889], [2.2589722, 48.8656775]]}}, {"type": "Feature", "properties": {"highway": "path", "footway": null, "name": "Allée Saint-Denis", "surface": null, "lit": null, "length_m": 109.43, "type_element": "Way", "__fid": 4597}, "geometry": {"type": "LineString", "coordinates": [[2.2584607, 48.8665203], [2.2585519, 48.8665942], [2.2588131, 48.8666901], [2.2590559, 48.8667497], [2.2592936, 48.8668377], [2.2594152, 48.8668839], [2.2597168, 48.8670325]]}}, {"type": "Feature", "properties": {"highway": "service", "footway": null, "name": "Chemin de Ceinture du Lac Inférieur", "surface": "asphalt", "lit": "no", "length_m": 212.1, "type_element": "Way", "__fid": 4609}, "geometry": {"type": "LineString", "coordinates": [[2.2585462, 48.8641961], [2.2587338, 48.8644205], [2.2589591, 48.864657399999984], [2.2592987, 48.86496420000001], [2.2600022, 48.8654898], [2.2603039, 48.8657013]]}}, {"type": "Feature", "properties": {"highway": "service", "footway": null, "name": "Route de Suresnes", "surface": "asphalt", "lit": "no", "length_m": 159.52, "type_element": "Way", "__fid": 4611}, "geometry": {"type": "LineString", "coordinates": [[2.258501, 48.8673994], [2.2589102, 48.867499], [2.2594147, 48.867651], [2.2599759, 48.8679099], [2.2601968, 48.8680332], [2.2603709, 48.8681102]]}}, {"type": "Feature", "properties": {"highway": "path", "footway": null, "name": null, "surface": "dirt", "lit": "no", "length_m": 98.08, "type_element": "Way", "__fid": 4612}, "geometry": {"type": "LineString", "coordinates": [[2.258501, 48.8673994], [2.2597168, 48.8670325]]}}, {"type": "Feature", "properties": {"highway": "footway", "footway": null, "name": null, "surface": "dirt", "lit": "no", "length_m": 241.55, "type_element": "Way", "__fid": 4640}, "geometry": {"type": "LineString", "coordinates": [[2.2606336, 48.8657922], [2.260381, 48.86559750000002], [2.2603287, 48.8654916], [2.2602146, 48.8653249], [2.2600484, 48.8652023], [2.2598177, 48.8650576], [2.259638, 48.8649715], [2.2595398, 48.864885700000016], [2.2590399, 48.8645071], [2.2589218, 48.86444], [2.2588621, 48.8642953], [2.2588199, 48.8642283], [2.2586654, 48.8640976]]}}, {"type": "Feature", "properties": {"highway": "path", "footway": null, "name": null, "surface": "compacted", "lit": null, "length_m": 54.23, "type_element": "Way", "__fid": 4690}, "geometry": {"type": "LineString", "coordinates": [[2.258827, 48.86932950000002], [2.2590382, 48.8695106], [2.259153, 48.869643199999985], [2.2592829, 48.869706399999984]]}}, {"type": "Feature", "properties": {"highway": "path", "footway": null, "name": "Route de Longchamp au Bout des Lacs", "surface": "dirt", "lit": null, "length_m": 184.15, "type_element": "Way", "__fid": 4691}, "geometry": {"type": "LineString", "coordinates": [[2.258827, 48.86932950000002], [2.2590647, 48.8693194], [2.259543, 48.8692825], [2.2596842, 48.869253700000016], [2.2606159, 48.8688924], [2.2608623, 48.8688046], [2.261126, 48.8687386]]}}, {"type": "Feature", "properties": {"highway": "service", "footway": null, "name": null, "surface": null, "lit": null, "length_m": 12.0, "type_element": "Way", "__fid": 4696}, "geometry": {"type": "LineString", "coordinates": [[2.2588974, 48.8655815], [2.2589722, 48.8656775]]}}, {"type": "Feature", "properties": {"highway": "service", "footway": null, "name": null, "surface": null, "lit": null, "length_m": 5.81, "type_element": "Way", "__fid": 4713}, "geometry": {"type": "LineString", "coordinates": [[2.2589722, 48.8656775], [2.2590083, 48.865724]]}}, {"type": "Feature", "properties": {"highway": "path", "footway": null, "name": null, "surface": null, "lit": "no", "length_m": 9.77, "type_element": "Way", "__fid": 4714}, "geometry": {"type": "LineString", "coordinates": [[2.2589722, 48.8656775], [2.2590977, 48.865648]]}}, {"type": "Feature", "properties": {"highway": "path", "footway": null, "name": null, "surface": null, "lit": null, "length_m": 147.23, "type_element": "Way", "__fid": 4724}, "geometry": {"type": "LineString", "coordinates": [[2.260954, 48.868701499999986], [2.2608505, 48.86874430000001], [2.2607003, 48.8687743], [2.2603168, 48.8688026], [2.2595631, 48.8688026], [2.2591903, 48.8688202], [2.2589757, 48.8688184]]}}, {"type": "Feature", "properties": {"highway": "path", "footway": null, "name": null, "surface": null, "lit": null, "length_m": 80.03, "type_element": "Way", "__fid": 4725}, "geometry": {"type": "LineString", "coordinates": [[2.2595117, 48.8682012], [2.2594909, 48.8682466], [2.2593366, 48.8684738], [2.2593272, 48.868502499999984], [2.25923, 48.8686163], [2.2591147, 48.8687226], [2.2589757, 48.8688184]]}}, {"type": "Feature", "properties": {"highway": "path", "footway": null, "name": null, "surface": null, "lit": "no", "length_m": 73.06, "type_element": "Way", "__fid": 4750}, "geometry": {"type": "LineString", "coordinates": [[2.2590977, 48.865648], [2.2598295, 48.8656739], [2.2600098, 48.8656982], [2.2600884, 48.8656927]]}}, {"type": "Feature", "properties": {"highway": "path", "footway": null, "name": null, "surface": "dirt", "lit": null, "length_m": 61.89, "type_element": "Way", "__fid": 4751}, "geometry": {"type": "LineString", "coordinates": [[2.2593688, 48.8651546], [2.2593708, 48.865320900000015], [2.2593366, 48.8654536], [2.2592662, 48.8655458], [2.259175, 48.8656151], [2.2590977, 48.865648]]}}, {"type": "Feature", "properties": {"highway": "path", "footway": null, "name": null, "surface": "compacted", "lit": "yes", "length_m": 125.0, "type_element": "Way", "__fid": 4797}, "geometry": {"type": "LineString", "coordinates": [[2.2607324, 48.8712954], [2.2592365, 48.870757]]}}, {"type": "Feature", "properties": {"highway": "footway", "footway": "crossing", "name": "Route des Lacs à Madrid", "surface": "asphalt", "lit": "yes", "length_m": 28.91, "type_element": "Way", "__fid": 4798}, "geometry": {"type": "LineString", "coordinates": [[2.2595164, 48.87057440000002], [2.2593709, 48.8706601], [2.2592365, 48.870757]]}}, {"type": "Feature", "properties": {"highway": "path", "footway": null, "name": null, "surface": "dirt", "lit": null, "length_m": 90.66, "type_element": "Way", "__fid": 4802}, "geometry": {"type": "LineString", "coordinates": [[2.2592829, 48.869706399999984], [2.2601688, 48.8698129], [2.2603472, 48.8698067], [2.260496, 48.8697741]]}}, {"type": "Feature", "properties": {"highway": "path", "footway": null, "name": null, "surface": "compacted", "lit": null, "length_m": 105.18, "type_element": "Way", "__fid": 4803}, "geometry": {"type": "LineString", "coordinates": [[2.2592829, 48.869706399999984], [2.2593322, 48.8697478], [2.2595153, 48.8698538], [2.2595948, 48.870029], [2.259576, 48.8701869], [2.2595277, 48.8703219], [2.2595164, 48.87057440000002]]}}, {"type": "Feature", "properties": {"highway": "footway", "footway": null, "name": null, "surface": "compacted", "lit": "no", "length_m": 79.88, "type_element": "Way", "__fid": 4810}, "geometry": {"type": "LineString", "coordinates": [[2.2593688, 48.8651546], [2.2595958, 48.8653478], [2.2600884, 48.8656927]]}}, {"type": "Feature", "properties": {"highway": "track", "footway": null, "name": null, "surface": "asphalt", "lit": "no", "length_m": 90.22, "type_element": "Way", "__fid": 4828}, "geometry": {"type": "LineString", "coordinates": [[2.2595117, 48.8682012], [2.2596748, 48.8681814], [2.2597725, 48.8682091], [2.2598478, 48.8682591], [2.260088, 48.868512], [2.2602105, 48.8685645], [2.2603567, 48.8685905], [2.2604568, 48.8685993]]}}, {"type": "Feature", "properties": {"highway": "path", "footway": null, "name": null, "surface": "ground", "lit": null, "length_m": 171.0, "type_element": "Way", "__fid": 4839}, "geometry": {"type": "LineString", "coordinates": [[2.261562, 48.8713119], [2.2595164, 48.87057440000002]]}}, {"type": "Feature", "properties": {"highway": "path", "footway": null, "name": "Route des Lacs à Madrid", "surface": "dirt", "lit": "no", "length_m": 115.04, "type_element": "Way", "__fid": 4840}, "geometry": {"type": "LineString", "coordinates": [[2.260496, 48.8697741], [2.2603435, 48.8699425], [2.2599284, 48.8703129], [2.2596598, 48.8704975], [2.2595164, 48.87057440000002]]}}, {"type": "Feature", "properties": {"highway": "path", "footway": null, "name": "Allée Saint-Denis", "surface": null, "lit": null, "length_m": 60.86, "type_element": "Way", "__fid": 4864}, "geometry": {"type": "LineString", "coordinates": [[2.2597168, 48.8670325], [2.2598358, 48.8670708], [2.2599564, 48.867169099999984], [2.2601288, 48.867269100000016], [2.2602743, 48.8673979], [2.2602796, 48.867419]]}}, {"type": "Feature", "properties": {"highway": "path", "footway": null, "name": null, "surface": "dirt", "lit": "no", "length_m": 108.4, "type_element": "Way", "__fid": 4865}, "geometry": {"type": "LineString", "coordinates": [[2.2597168, 48.8670325], [2.2601183, 48.8666788], [2.2604456, 48.86650009999999], [2.2607777, 48.866374299999976]]}}, {"type": "Feature", "properties": {"highway": "footway", "footway": "crossing", "name": null, "surface": "compacted", "lit": "no", "length_m": 26.58, "type_element": "Way", "__fid": 4934}, "geometry": {"type": "LineString", "coordinates": [[2.2600884, 48.8656927], [2.2602546, 48.86580569999999], [2.2602843, 48.86588490000001]]}}, {"type": "Feature", "properties": {"highway": "footway", "footway": null, "name": null, "surface": "compacted", "lit": "no", "length_m": 66.43, "type_element": "Way", "__fid": 4971}, "geometry": {"type": "LineString", "coordinates": [[2.2602843, 48.86588490000001], [2.2603227, 48.8659989], [2.2607777, 48.866374299999976]]}}, {"type": "Feature", "properties": {"highway": "service", "footway": null, "name": "Chemin de Ceinture du Lac Inférieur", "surface": "asphalt", "lit": "no", "length_m": 21.07, "type_element": "Way", "__fid": 4974}, "geometry": {"type": "LineString", "coordinates": [[2.2603039, 48.8657013], [2.260266, 48.865736], [2.2604382, 48.8658288]]}}, {"type": "Feature", "properties": {"highway": "path", "footway": null, "name": "Allée Saint-Denis", "surface": null, "lit": null, "length_m": 82.89, "type_element": "Way", "__fid": 4975}, "geometry": {"type": "LineString", "coordinates": [[2.2602796, 48.867419], [2.2604464, 48.8675006], [2.2606456, 48.8676457], [2.2608412, 48.86772079999999], [2.2609559, 48.8677765], [2.2611866, 48.867850900000015]]}}, {"type": "Feature", "properties": {"highway": "path", "footway": null, "name": null, "surface": "dirt", "lit": "no", "length_m": 121.02, "type_element": "Way", "__fid": 4976}, "geometry": {"type": "LineString", "coordinates": [[2.2611715, 48.8666435], [2.2611147, 48.866659800000015], [2.260946, 48.866686], [2.2607395, 48.8667556], [2.2604469, 48.8669019], [2.2603995, 48.8669618], [2.2604165, 48.8671058], [2.2602796, 48.867419]]}}, {"type": "Feature", "properties": {"highway": "service", "footway": null, "name": "Route de Suresnes", "surface": "asphalt", "lit": "no", "length_m": 113.73, "type_element": "Way", "__fid": 4994}, "geometry": {"type": "LineString", "coordinates": [[2.2603709, 48.8681102], [2.2604142, 48.8681294], [2.2607139, 48.8682152], [2.2611487, 48.8683051], [2.261599, 48.8683675], [2.2618523, 48.8683908]]}}, {"type": "Feature", "properties": {"highway": "path", "footway": null, "name": null, "surface": "ground", "lit": null, "length_m": 66.66, "type_element": "Way", "__fid": 4995}, "geometry": {"type": "LineString", "coordinates": [[2.2603709, 48.8681102], [2.2606507, 48.8680247], [2.2609219, 48.867914], [2.2611866, 48.867850900000015]]}}, {"type": "Feature", "properties": {"highway": "service", "footway": null, "name": "Chemin de Ceinture du Lac Inférieur", "surface": "asphalt", "lit": "no", "length_m": 6.88, "type_element": "Way", "__fid": 5000}, "geometry": {"type": "LineString", "coordinates": [[2.2604382, 48.8658288], [2.2605017, 48.865874300000016]]}}, {"type": "Feature", "properties": {"highway": "track", "footway": null, "name": null, "surface": "asphalt", "lit": "no", "length_m": 38.31, "type_element": "Way", "__fid": 5008}, "geometry": {"type": "LineString", "coordinates": [[2.2604568, 48.8685993], [2.260622, 48.8686207], [2.260954, 48.868701499999986]]}}, {"type": "Feature", "properties": {"highway": "path", "footway": null, "name": null, "surface": "dirt", "lit": null, "length_m": 103.51, "type_element": "Way", "__fid": 5009}, "geometry": {"type": "LineString", "coordinates": [[2.2604568, 48.8685993], [2.2605946, 48.8685761], [2.2607495, 48.8685179], [2.2608259, 48.8684787], [2.260899, 48.8684566], [2.2610043, 48.8684323], [2.2611029, 48.8684218], [2.261294, 48.8684381], [2.2614482, 48.8684676], [2.2616152, 48.8685272], [2.2617622, 48.8685669]]}}, {"type": "Feature", "properties": {"highway": "service", "footway": null, "name": "Chemin de Ceinture du Lac Inférieur", "surface": "asphalt", "lit": "no", "length_m": 114.06, "type_element": "Way", "__fid": 5011}, "geometry": {"type": "LineString", "coordinates": [[2.2605017, 48.865874300000016], [2.2611912, 48.86637130000001], [2.2615331, 48.86664160000002]]}}, {"type": "Feature", "properties": {"highway": "footway", "footway": null, "name": null, "surface": "compacted", "lit": "no", "length_m": 8.13, "type_element": "Way", "__fid": 5012}, "geometry": {"type": "LineString", "coordinates": [[2.2605017, 48.865874300000016], [2.2605793, 48.8658221]]}}, {"type": "Feature", "properties": {"highway": "path", "footway": null, "name": null, "surface": null, "lit": null, "length_m": 40.11, "type_element": "Way", "__fid": 5020}, "geometry": {"type": "LineString", "coordinates": [[2.260496, 48.8697741], [2.260857, 48.869836], [2.2610094, 48.8698911]]}}, {"type": "Feature", "properties": {"highway": "path", "footway": null, "name": "Route des Lacs à Madrid", "surface": "dirt", "lit": "no", "length_m": 128.04, "type_element": "Way", "__fid": 5021}, "geometry": {"type": "LineString", "coordinates": [[2.2616011, 48.8688885], [2.261254, 48.8691738], [2.2609247, 48.8693843], [2.2606675, 48.869584700000026], [2.260496, 48.8697741]]}}, {"type": "Feature", "properties": {"highway": "footway", "footway": null, "name": null, "surface": "compacted", "lit": null, "length_m": 377.51, "type_element": "Way", "__fid": 5024}, "geometry": {"type": "LineString", "coordinates": [[2.2637595, 48.8683736], [2.2634481, 48.8682875], [2.2630918, 48.868151800000014], [2.2626627, 48.867926], [2.2624924, 48.8677719], [2.2623309, 48.8675925], [2.2622568, 48.8674311], [2.2620215, 48.86705], [2.2617909, 48.866778300000014], [2.2615386, 48.8665385], [2.2605793, 48.8658221]]}}, {"type": "Feature", "properties": {"highway": "footway", "footway": null, "name": null, "surface": "compacted", "lit": "no", "length_m": 5.19, "type_element": "Way", "__fid": 5025}, "geometry": {"type": "LineString", "coordinates": [[2.2605793, 48.8658221], [2.2606336, 48.8657922]]}}, {"type": "Feature", "properties": {"highway": "footway", "footway": null, "name": null, "surface": "dirt", "lit": "no", "length_m": 397.72, "type_element": "Way", "__fid": 5031}, "geometry": {"type": "LineString", "coordinates": [[2.2637595, 48.8683736], [2.263828, 48.868171099999984], [2.2637415, 48.86813389999999], [2.2634336, 48.8680424], [2.262928, 48.8677862], [2.2626769, 48.867608899999986], [2.2625964, 48.8675383], [2.2624988, 48.8674201], [2.2624349, 48.86720360000001], [2.2624302, 48.867106], [2.262449, 48.8669773], [2.2624295, 48.86690330000001], [2.2623658, 48.86679380000001], [2.2622639, 48.8666808], [2.2621029, 48.86661030000001], [2.2619111, 48.8665457], [2.2616672, 48.8664884], [2.2614767, 48.86638330000001], [2.261316, 48.8662805], [2.2611374, 48.86612330000001], [2.2609324, 48.8659901], [2.260763, 48.86589220000001], [2.2606787, 48.8658096], [2.2606336, 48.8657922]]}}, {"type": "Feature", "properties": {"highway": "footway", "footway": null, "name": null, "surface": "compacted", "lit": "no", "length_m": 41.9, "type_element": "Way", "__fid": 5054}, "geometry": {"type": "LineString", "coordinates": [[2.2607777, 48.866374299999976], [2.2609752, 48.8665414], [2.2611715, 48.8666435]]}}, {"type": "Feature", "properties": {"highway": "track", "footway": null, "name": null, "surface": "asphalt", "lit": "no", "length_m": 13.27, "type_element": "Way", "__fid": 5086}, "geometry": {"type": "LineString", "coordinates": [[2.260954, 48.868701499999986], [2.261126, 48.8687386]]}}, {"type": "Feature", "properties": {"highway": "path", "footway": null, "name": null, "surface": null, "lit": null, "length_m": 110.16, "type_element": "Way", "__fid": 5100}, "geometry": {"type": "LineString", "coordinates": [[2.2610094, 48.8698911], [2.2610979, 48.8699749], [2.2622491, 48.8704361]]}}, {"type": "Feature", "properties": {"highway": "path", "footway": null, "name": null, "surface": "dirt", "lit": null, "length_m": 72.79, "type_element": "Way", "__fid": 5101}, "geometry": {"type": "LineString", "coordinates": [[2.2610094, 48.8698911], [2.2611364, 48.86982980000001], [2.2612755, 48.8697819], [2.2613532, 48.8697714], [2.2614837, 48.8697662], [2.2619019, 48.8696276]]}}, {"type": "Feature", "properties": {"highway": "track", "footway": null, "name": null, "surface": "asphalt", "lit": "no", "length_m": 38.63, "type_element": "Way", "__fid": 5118}, "geometry": {"type": "LineString", "coordinates": [[2.261126, 48.8687386], [2.2616011, 48.8688885]]}}, {"type": "Feature", "properties": {"highway": "path", "footway": null, "name": "Route de Longchamp au Bout des Lacs", "surface": "dirt", "lit": null, "length_m": 50.57, "type_element": "Way", "__fid": 5119}, "geometry": {"type": "LineString", "coordinates": [[2.261126, 48.8687386], [2.2616883, 48.86859910000001], [2.2617622, 48.8685669]]}}, {"type": "Feature", "properties": {"highway": "footway", "footway": null, "name": null, "surface": "compacted", "lit": "no", "length_m": 17.81, "type_element": "Way", "__fid": 5121}, "geometry": {"type": "LineString", "coordinates": [[2.2611715, 48.8666435], [2.2612068, 48.86666180000001], [2.261399, 48.8666929]]}}, {"type": "Feature", "properties": {"highway": "path", "footway": null, "name": "Allée Saint-Denis", "surface": "compacted", "lit": null, "length_m": 69.9, "type_element": "Way", "__fid": 5126}, "geometry": {"type": "LineString", "coordinates": [[2.2611866, 48.867850900000015], [2.2613311, 48.8678908], [2.261502, 48.8679609], [2.261761, 48.8680804], [2.2619686, 48.8682033]]}}, {"type": "Feature", "properties": {"highway": "path", "footway": null, "name": null, "surface": "compacted", "lit": "no", "length_m": 51.93, "type_element": "Way", "__fid": 5127}, "geometry": {"type": "LineString", "coordinates": [[2.2611866, 48.867850900000015], [2.2613071, 48.8677967], [2.2614625, 48.867739], [2.2618162, 48.8676409]]}}, {"type": "Feature", "properties": {"highway": "footway", "footway": null, "name": null, "surface": "compacted", "lit": null, "length_m": 122.54, "type_element": "Way", "__fid": 5132}, "geometry": {"type": "LineString", "coordinates": [[2.261258, 48.8668061], [2.2610633, 48.8669909], [2.2610586, 48.867008099999985], [2.2612725, 48.8672696], [2.2614563, 48.867201700000024], [2.2614609, 48.8671298], [2.2614066, 48.8670085], [2.261258, 48.8668061]]}}, {"type": "Feature", "properties": {"highway": "footway", "footway": null, "name": null, "surface": "compacted", "lit": null, "length_m": 16.38, "type_element": "Way", "__fid": 5133}, "geometry": {"type": "LineString", "coordinates": [[2.261399, 48.8666929], [2.261337, 48.86673110000001], [2.261258, 48.8668061]]}}, {"type": "Feature", "properties": {"highway": "path", "footway": null, "name": null, "surface": "compacted", "lit": "no", "length_m": 109.79, "type_element": "Way", "__fid": 5165}, "geometry": {"type": "LineString", "coordinates": [[2.2618162, 48.8676409], [2.2615176, 48.8669339], [2.261399, 48.8666929]]}}, {"type": "Feature", "properties": {"highway": "path", "footway": null, "name": null, "surface": "compacted", "lit": null, "length_m": 11.37, "type_element": "Way", "__fid": 5166}, "geometry": {"type": "LineString", "coordinates": [[2.2615331, 48.86664160000002], [2.261399, 48.8666929]]}}, {"type": "Feature", "properties": {"highway": "service", "footway": null, "name": "Chemin de Ceinture du Lac Inférieur", "surface": "asphalt", "lit": "no", "length_m": 120.03, "type_element": "Way", "__fid": 5193}, "geometry": {"type": "LineString", "coordinates": [[2.2615331, 48.86664160000002], [2.261676, 48.8667805], [2.261974, 48.8671422], [2.2622494, 48.86760790000001]]}}, {"type": "Feature", "properties": {"highway": "path", "footway": null, "name": null, "surface": "dirt", "lit": null, "length_m": 111.86, "type_element": "Way", "__fid": 5220}, "geometry": {"type": "LineString", "coordinates": [[2.2622491, 48.8704361], [2.2622697, 48.8704997], [2.2622291, 48.8705757], [2.2620486, 48.87075710000001], [2.2619554, 48.8709118], [2.261562, 48.8713119]]}}, {"type": "Feature", "properties": {"highway": "track", "footway": null, "name": null, "surface": "asphalt", "lit": "no", "length_m": 15.38, "type_element": "Way", "__fid": 5221}, "geometry": {"type": "LineString", "coordinates": [[2.2616011, 48.8688885], [2.2618048, 48.8689211]]}}, {"type": "Feature", "properties": {"highway": "path", "footway": null, "name": "Route des Lacs à Madrid", "surface": "dirt", "lit": "no", "length_m": 24.37, "type_element": "Way", "__fid": 5222}, "geometry": {"type": "LineString", "coordinates": [[2.26179, 48.8687082], [2.2616011, 48.8688885]]}}, {"type": "Feature", "properties": {"highway": "path", "footway": null, "name": "Route de Longchamp au Bout des Lacs", "surface": "dirt", "lit": null, "length_m": 3.14, "type_element": "Way", "__fid": 5259}, "geometry": {"type": "LineString", "coordinates": [[2.2617622, 48.8685669], [2.2617979, 48.8685513]]}}, {"type": "Feature", "properties": {"highway": "footway", "footway": null, "name": null, "surface": "dirt", "lit": "no", "length_m": 23.7, "type_element": "Way", "__fid": 5269}, "geometry": {"type": "LineString", "coordinates": [[2.2618048, 48.8689211], [2.26179, 48.8687082]]}}, {"type": "Feature", "properties": {"highway": "footway", "footway": null, "name": null, "surface": "dirt", "lit": "no", "length_m": 17.46, "type_element": "Way", "__fid": 5270}, "geometry": {"type": "LineString", "coordinates": [[2.26179, 48.8687082], [2.2617979, 48.8685513]]}}, {"type": "Feature", "properties": {"highway": "path", "footway": null, "name": "Route des Lacs à Madrid", "surface": "dirt", "lit": "no", "length_m": 50.92, "type_element": "Way", "__fid": 5271}, "geometry": {"type": "LineString", "coordinates": [[2.2624216, 48.868535], [2.2619977, 48.8686163], [2.2618757, 48.8686558], [2.26179, 48.8687082]]}}, {"type": "Feature", "properties": {"highway": "footway", "footway": null, "name": null, "surface": "dirt", "lit": "no", "length_m": 18.46, "type_element": "Way", "__fid": 5272}, "geometry": {"type": "LineString", "coordinates": [[2.2617979, 48.8685513], [2.2618051, 48.868479], [2.2618523, 48.8683908]]}}, {"type": "Feature", "properties": {"highway": "path", "footway": null, "name": null, "surface": "compacted", "lit": "no", "length_m": 64.02, "type_element": "Way", "__fid": 5276}, "geometry": {"type": "LineString", "coordinates": [[2.2619686, 48.8682033], [2.261933, 48.8678715], [2.2618162, 48.8676409]]}}, {"type": "Feature", "properties": {"highway": "path", "footway": null, "name": null, "surface": "compacted", "lit": "no", "length_m": 32.98, "type_element": "Way", "__fid": 5277}, "geometry": {"type": "LineString", "coordinates": [[2.2618162, 48.8676409], [2.2619254, 48.8676017], [2.2620261, 48.8675952], [2.2622494, 48.86760790000001]]}}, {"type": "Feature", "properties": {"highway": "track", "footway": null, "name": null, "surface": "asphalt", "lit": "no", "length_m": 82.28, "type_element": "Way", "__fid": 5279}, "geometry": {"type": "LineString", "coordinates": [[2.2618048, 48.8689211], [2.2620925, 48.8689324], [2.2623702, 48.8689557], [2.2626255, 48.8689546], [2.2628476, 48.86894], [2.2629226, 48.8689411]]}}, {"type": "Feature", "properties": {"highway": "path", "footway": null, "name": null, "surface": "dirt", "lit": null, "length_m": 78.88, "type_element": "Way", "__fid": 5280}, "geometry": {"type": "LineString", "coordinates": [[2.2618048, 48.8689211], [2.2619019, 48.8696276]]}}, {"type": "Feature", "properties": {"highway": "service", "footway": null, "name": "Route de Suresnes", "surface": "asphalt", "lit": "no", "length_m": 30.39, "type_element": "Way", "__fid": 5294}, "geometry": {"type": "LineString", "coordinates": [[2.2618523, 48.8683908], [2.2622628, 48.8684277]]}}, {"type": "Feature", "properties": {"highway": "path", "footway": null, "name": null, "surface": null, "lit": "no", "length_m": 22.53, "type_element": "Way", "__fid": 5295}, "geometry": {"type": "LineString", "coordinates": [[2.2619686, 48.8682033], [2.2618523, 48.8683908]]}}, {"type": "Feature", "properties": {"highway": "path", "footway": null, "name": null, "surface": "dirt", "lit": null, "length_m": 128.01, "type_element": "Way", "__fid": 5315}, "geometry": {"type": "LineString", "coordinates": [[2.2619019, 48.8696276], [2.2629819, 48.86963890000002], [2.2636435, 48.869595400000016]]}}, {"type": "Feature", "properties": {"highway": "path", "footway": null, "name": null, "surface": "dirt", "lit": null, "length_m": 93.44, "type_element": "Way", "__fid": 5316}, "geometry": {"type": "LineString", "coordinates": [[2.2619019, 48.8696276], [2.2622491, 48.8704361]]}}, {"type": "Feature", "properties": {"highway": "path", "footway": null, "name": "Allée Saint-Denis", "surface": "compacted", "lit": null, "length_m": 33.06, "type_element": "Way", "__fid": 5327}, "geometry": {"type": "LineString", "coordinates": [[2.2619686, 48.8682033], [2.2620775, 48.868300799999986], [2.2622628, 48.8684277]]}}, {"type": "Feature", "properties": {"highway": "path", "footway": null, "name": null, "surface": null, "lit": "no", "length_m": 68.21, "type_element": "Way", "__fid": 5328}, "geometry": {"type": "LineString", "coordinates": [[2.2627927, 48.86808030000002], [2.26267, 48.86808520000001], [2.2620936, 48.8680757], [2.2619686, 48.8682033]]}}, {"type": "Feature", "properties": {"highway": "service", "footway": null, "name": "Chemin de Ceinture du Lac Inférieur", "surface": "asphalt", "lit": "no", "length_m": 66.61, "type_element": "Way", "__fid": 5393}, "geometry": {"type": "LineString", "coordinates": [[2.2622494, 48.86760790000001], [2.2622745, 48.8676503], [2.2625624, 48.8679416], [2.2627927, 48.86808030000002]]}}, {"type": "Feature", "properties": {"highway": "service", "footway": null, "name": "Route de Suresnes", "surface": "asphalt", "lit": "no", "length_m": 26.46, "type_element": "Way", "__fid": 5398}, "geometry": {"type": "LineString", "coordinates": [[2.2622628, 48.8684277], [2.2626235, 48.8684317]]}}, {"type": "Feature", "properties": {"highway": "path", "footway": null, "name": null, "surface": null, "lit": null, "length_m": 97.31, "type_element": "Way", "__fid": 5399}, "geometry": {"type": "LineString", "coordinates": [[2.2622491, 48.8704361], [2.2623435, 48.87046330000001], [2.263567, 48.8704626]]}}, {"type": "Feature", "properties": {"highway": "footway", "footway": null, "name": null, "surface": "compacted", "lit": "no", "length_m": 129.81, "type_element": "Way", "__fid": 5428}, "geometry": {"type": "LineString", "coordinates": [[2.2624267, 48.86448940000003], [2.2625495, 48.8647073], [2.2626535, 48.8649252], [2.2627024, 48.86537869999998], [2.2627581, 48.8655486], [2.2628073, 48.8656195]]}}, {"type": "Feature", "properties": {"highway": "footway", "footway": null, "name": null, "surface": "dirt", "lit": "no", "length_m": 58.24, "type_element": "Way", "__fid": 5438}, "geometry": {"type": "LineString", "coordinates": [[2.2629226, 48.8689411], [2.262572, 48.8686478], [2.2624216, 48.868535]]}}, {"type": "Feature", "properties": {"highway": "path", "footway": null, "name": "Route des Lacs à Madrid", "surface": "compacted", "lit": null, "length_m": 18.74, "type_element": "Way", "__fid": 5439}, "geometry": {"type": "LineString", "coordinates": [[2.2626235, 48.8684317], [2.2624216, 48.868535]]}}, {"type": "Feature", "properties": {"highway": "footway", "footway": "sidewalk", "name": null, "surface": null, "lit": null, "length_m": 96.54, "type_element": "Way", "__fid": 5440}, "geometry": {"type": "LineString", "coordinates": [[2.262997, 48.8652443], [2.2629176, 48.8649985], [2.2628096, 48.8647779], [2.2627484, 48.8647001], [2.2626851, 48.86464480000002], [2.2626156, 48.8645622], [2.2624914, 48.8644566]]}}, {"type": "Feature", "properties": {"highway": "service", "footway": null, "name": "Route de Suresnes", "surface": "asphalt", "lit": "no", "length_m": 49.11, "type_element": "Way", "__fid": 5481}, "geometry": {"type": "LineString", "coordinates": [[2.2626235, 48.8684317], [2.263291, 48.8683984]]}}, {"type": "Feature", "properties": {"highway": "footway", "footway": null, "name": null, "surface": "compacted", "lit": "no", "length_m": 107.07, "type_element": "Way", "__fid": 5506}, "geometry": {"type": "LineString", "coordinates": [[2.2628073, 48.8656195], [2.2628627, 48.8657677], [2.26291, 48.86584749999999], [2.2631115, 48.866088], [2.2632778, 48.8662115], [2.2635948, 48.866404500000016]]}}, {"type": "Feature", "properties": {"highway": "footway", "footway": null, "name": null, "surface": null, "lit": null, "length_m": 44.05, "type_element": "Way", "__fid": 5507}, "geometry": {"type": "LineString", "coordinates": [[2.262997, 48.8652443], [2.2628957, 48.8654092], [2.2628073, 48.8656195]]}}, {"type": "Feature", "properties": {"highway": "service", "footway": null, "name": "Chemin de Ceinture du Lac Inférieur", "surface": "asphalt", "lit": null, "length_m": 257.69, "type_element": "Way", "__fid": 5514}, "geometry": {"type": "LineString", "coordinates": [[2.2646086, 48.8665772], [2.2637422, 48.8661485], [2.263514, 48.8659876], [2.263337, 48.8657758], [2.2631814, 48.8655288], [2.2630902, 48.8652783], [2.2629883, 48.864936], [2.2628649, 48.864713600000016], [2.2628391, 48.8646889]]}}, {"type": "Feature", "properties": {"highway": "service", "footway": null, "name": "Chemin de Ceinture du Lac Inférieur", "surface": "asphalt", "lit": "no", "length_m": 60.63, "type_element": "Way", "__fid": 5516}, "geometry": {"type": "LineString", "coordinates": [[2.2627927, 48.86808030000002], [2.2629708, 48.8681876], [2.2632638, 48.86831], [2.2634843, 48.86837]]}}, {"type": "Feature", "properties": {"highway": "footway", "footway": "sidewalk", "name": null, "surface": null, "lit": null, "length_m": 74.51, "type_element": "Way", "__fid": 5534}, "geometry": {"type": "LineString", "coordinates": [[2.2629543, 48.8646557], [2.26303, 48.8647712], [2.2631145, 48.8649353], [2.2632252, 48.865299]]}}, {"type": "Feature", "properties": {"highway": "track", "footway": null, "name": null, "surface": "asphalt", "lit": "no", "length_m": 90.62, "type_element": "Way", "__fid": 5539}, "geometry": {"type": "LineString", "coordinates": [[2.2629226, 48.8689411], [2.2629957, 48.86896619999999], [2.2636435, 48.869595400000016]]}}, {"type": "Feature", "properties": {"highway": "footway", "footway": null, "name": null, "surface": "wood", "lit": "no", "length_m": 25.6, "type_element": "Way", "__fid": 5540}, "geometry": {"type": "LineString", "coordinates": [[2.2629226, 48.8689411], [2.2629481, 48.8688932], [2.2629849, 48.8688628], [2.2631453, 48.8687703]]}}, {"type": "Feature", "properties": {"highway": "footway", "footway": "sidewalk", "name": null, "surface": null, "lit": null, "length_m": 182.05, "type_element": "Way", "__fid": 5543}, "geometry": {"type": "LineString", "coordinates": [[2.2643697, 48.8665362], [2.2636544, 48.8661665], [2.2635547, 48.8661063], [2.2633945, 48.8659708], [2.2632523, 48.8657995], [2.2631485, 48.8656315], [2.2630844, 48.865486099999984], [2.262997, 48.8652443]]}}, {"type": "Feature", "properties": {"highway": "path", "footway": null, "name": null, "surface": "dirt", "lit": "no", "length_m": 33.37, "type_element": "Way", "__fid": 5562}, "geometry": {"type": "LineString", "coordinates": [[2.2630888, 48.8686637], [2.2631486, 48.8685375], [2.263291, 48.8683984]]}}, {"type": "Feature", "properties": {"highway": "footway", "footway": null, "name": null, "surface": "dirt", "lit": null, "length_m": 161.34, "type_element": "Way", "__fid": 5566}, "geometry": {"type": "LineString", "coordinates": [[2.2630826, 48.8718601], [2.2630792, 48.871527], [2.2630948, 48.8713995], [2.2631495, 48.87123359999999], [2.263278, 48.870938], [2.2633773, 48.870746], [2.263567, 48.8704626]]}}, {"type": "Feature", "properties": {"highway": "footway", "footway": null, "name": null, "surface": "dirt", "lit": "no", "length_m": 97.25, "type_element": "Way", "__fid": 5571}, "geometry": {"type": "LineString", "coordinates": [[2.2639419, 48.869454], [2.2638679, 48.8693746], [2.2636211, 48.86918319999999], [2.2631764, 48.8688667], [2.2631453, 48.8687703]]}}, {"type": "Feature", "properties": {"highway": "footway", "footway": null, "name": null, "surface": null, "lit": "no", "length_m": 103.93, "type_element": "Way", "__fid": 5572}, "geometry": {"type": "LineString", "coordinates": [[2.2631453, 48.8687703], [2.2631922, 48.8687292], [2.2632685, 48.86869260000001], [2.2633675, 48.868667299999984], [2.2634743, 48.8686501], [2.263609, 48.8686511], [2.2637537, 48.8686681], [2.2639548, 48.8687037], [2.2640408, 48.868708099999985], [2.2641665, 48.8686816], [2.2643532, 48.8685902], [2.2644117, 48.8685471]]}}, {"type": "Feature", "properties": {"highway": "footway", "footway": "sidewalk", "name": null, "surface": null, "lit": null, "length_m": 75.77, "type_element": "Way", "__fid": 5573}, "geometry": {"type": "LineString", "coordinates": [[2.2632252, 48.865299], [2.2633524, 48.8656398], [2.2634777, 48.8658227], [2.2635881, 48.86593]]}}, {"type": "Feature", "properties": {"highway": "footway", "footway": null, "name": null, "surface": null, "lit": null, "length_m": 100.02, "type_element": "Way", "__fid": 5574}, "geometry": {"type": "LineString", "coordinates": [[2.264374, 48.8648504], [2.2638733, 48.8649575], [2.2633232, 48.8652096], [2.2632252, 48.865299]]}}, {"type": "Feature", "properties": {"highway": "service", "footway": null, "name": "Route de Suresnes", "surface": "asphalt", "lit": "no", "length_m": 14.53, "type_element": "Way", "__fid": 5593}, "geometry": {"type": "LineString", "coordinates": [[2.263291, 48.8683984], [2.2634843, 48.86837]]}}, {"type": "Feature", "properties": {"highway": "service", "footway": null, "name": "Chemin de Ceinture du Lac Inférieur", "surface": "asphalt", "lit": "no", "length_m": 119.54, "type_element": "Way", "__fid": 5632}, "geometry": {"type": "LineString", "coordinates": [[2.2634843, 48.86837], [2.2640093, 48.86845130000001], [2.2642431, 48.868472], [2.2644592, 48.8684817], [2.2646943, 48.8684742], [2.2648567, 48.8684571], [2.2650846, 48.8684119]]}}, {"type": "Feature", "properties": {"highway": "footway", "footway": null, "name": null, "surface": "compacted", "lit": "no", "length_m": 73.14, "type_element": "Way", "__fid": 5633}, "geometry": {"type": "LineString", "coordinates": [[2.2644117, 48.8685471], [2.264022, 48.868523799999984], [2.2636633, 48.868475], [2.2634843, 48.86837]]}}, {"type": "Feature", "properties": {"highway": "footway", "footway": "sidewalk", "name": null, "surface": null, "lit": null, "length_m": 94.35, "type_element": "Way", "__fid": 5637}, "geometry": {"type": "LineString", "coordinates": [[2.2635881, 48.86593], [2.2637356, 48.866047], [2.264086, 48.866233], [2.2644359, 48.86640649999998], [2.2645115, 48.8664353], [2.2645888, 48.8664506]]}}, {"type": "Feature", "properties": {"highway": "footway", "footway": null, "name": null, "surface": null, "lit": null, "length_m": 73.21, "type_element": "Way", "__fid": 5638}, "geometry": {"type": "LineString", "coordinates": [[2.2635881, 48.86593], [2.2638386, 48.8659272], [2.2641564, 48.8659562], [2.2643713, 48.865936], [2.2645735, 48.8658997]]}}, {"type": "Feature", "properties": {"highway": "footway", "footway": null, "name": null, "surface": "compacted", "lit": "no", "length_m": 45.84, "type_element": "Way", "__fid": 5642}, "geometry": {"type": "LineString", "coordinates": [[2.2635948, 48.866404500000016], [2.2637341, 48.86648670000001], [2.2640254, 48.8667025]]}}, {"type": "Feature", "properties": {"highway": "footway", "footway": null, "name": null, "surface": null, "lit": null, "length_m": 51.48, "type_element": "Way", "__fid": 5643}, "geometry": {"type": "LineString", "coordinates": [[2.2642639, 48.8665281], [2.2641096, 48.866516200000014], [2.2640218, 48.8665011], [2.2636637, 48.86640459999999], [2.2635948, 48.866404500000016]]}}, {"type": "Feature", "properties": {"highway": "footway", "footway": null, "name": null, "surface": "dirt", "lit": null, "length_m": 98.1, "type_element": "Way", "__fid": 5653}, "geometry": {"type": "LineString", "coordinates": [[2.263567, 48.8704626], [2.2635886, 48.8703735], [2.2635744, 48.8702058], [2.2635302, 48.86996279999999], [2.2635234, 48.869855], [2.2636435, 48.869595400000016]]}}, {"type": "Feature", "properties": {"highway": "track", "footway": null, "name": null, "surface": "asphalt", "lit": "no", "length_m": 11.62, "type_element": "Way", "__fid": 5663}, "geometry": {"type": "LineString", "coordinates": [[2.2636435, 48.869595400000016], [2.2637595, 48.8696665]]}}]}