{"type": "FeatureCollection", "features": [{"type": "Feature", "properties": {"@id": "node/918204393", "amenity": "drinking_water", "fixme": "verifier la position", "source": "Eau de Paris", "type_element": "Fontaines à boire", "__fid": 178}, "geometry": {"type": "Point", "coordinates": [2.268959, 48.84594]}, "id": "node/918204393"}, {"type": "Feature", "properties": {"@id": "node/5666629442", "amenity": "drinking_water", "type_element": "Fontaines à boire", "__fid": 557}, "geometry": {"type": "Point", "coordinates": [2.2689551, 48.8448484]}, "id": "node/5666629442"}, {"type": "Feature", "properties": {"@id": "node/7179480787", "amenity": "drinking_water", "type_element": "Fontaines à boire", "__fid": 672}, "geometry": {"type": "Point", "coordinates": [2.2690346, 48.8441603]}, "id": "node/7179480787"}, {"type": "Feature", "properties": {"@id": "node/12320188987", "amenity": "drinking_water", "bottle": "yes", "fee": "no", "survey:date": "2024-11-07", "wheelchair": "yes", "type_element": "Fontaines à boire", "__fid": 985}, "geometry": {"type": "Point", "coordinates": [2.2688592, 48.8416219]}, "id": "node/12320188987"}, {"type": "Feature", "properties": {"@id": "node/12431035428", "access": "yes", "amenity": "drinking_water", "bottle": "yes", "fee": "no", "survey:date": "2024-12-18", "wheelchair": "yes", "type_element": "Fontaines à boire", "__fid": 989}, "geometry": {"type": "Point", "coordinates": [2.2684131, 48.843923]}, "id": "node/12431035428"}, {"type": "Feature", "geometry": {"type": "Point", "coordinates": [2.268717, 48.84577]}, "properties": {"id": 1806, "name": "Parc Sainte-Périne", "categorie": "Parcs, jardins et bois", "photo_url": "https://cdn.paris.fr/eqpts-prod/2022/05/10/f407525fba5883f73bd3563b5981cf00.jpg", "photo_credit": "Clement Dorval/ Ville de Paris", "photo_alt": "Sous le feuillage des arbres, une vue sur des bancs publics qui font face à une aire de jeux pour enfants.", "address_street": "41, rue Mirabeau", "address_postcode": "75016", "address_city": "PARIS", "phone": null, "accessibility": "{\"handicaps\": [{\"name\": \"Personnes à mobilité réduite\", \"status\": \"accessible\"}, {\"name\": \"Personnes déficientes visuelles\", \"status\": \"undefined\"}, {\"name\": \"Personnes déficientes auditives\", \"status\": \"undefined\"}, {\"name\": \"Personnes déficientes mentales\", \"status\": \"undefined\"}, {\"name\": \"Accueil en langue des signes\", \"status\": \"undefined\"}], \"additional_info\": \"<p>Espace vert dont l’accessibilité pour les personnes à mobilité réduite est limitée à certaines zones.</p>\"}", "latitude": 48.84577, "longitude": 2.268717, "url": "https://www.paris.fr/lieux/parc-sainte-perine-1806", "type_element": "Parcs, Jardins et Bois", "__fid": 1618}}, {"type": "Feature", "properties": {"highway": "footway", "footway": "sidewalk", "name": null, "surface": null, "lit": "yes", "length_m": 326.39, "type_element": "Way", "__fid": 5201}, "geometry": {"type": "LineString", "coordinates": [[2.2618682, 48.8453306], [2.2639424, 48.84788319999998], [2.2639598, 48.8479203]]}}, {"type": "Feature", "properties": {"highway": "footway", "footway": "sidewalk", "name": null, "surface": null, "lit": null, "length_m": 150.86, "type_element": "Way", "__fid": 5228}, "geometry": {"type": "LineString", "coordinates": [[2.264024, 48.8451223], [2.2639962, 48.84511830000001], [2.2619704, 48.845168]]}}, {"type": "Feature", "properties": {"highway": "footway", "footway": "sidewalk", "name": null, "surface": null, "lit": null, "length_m": 297.79, "type_element": "Way", "__fid": 5248}, "geometry": {"type": "LineString", "coordinates": [[2.2620581, 48.84532630000001], [2.2640089, 48.8476746]]}}, {"type": "Feature", "properties": {"highway": "footway", "footway": "sidewalk", "name": null, "surface": null, "lit": null, "length_m": 83.73, "type_element": "Way", "__fid": 5444}, "geometry": {"type": "LineString", "coordinates": [[2.2628364, 48.8420314], [2.2628456, 48.84201560000001], [2.263778733333299, 48.841612566666704]]}}, {"type": "Feature", "properties": {"highway": "footway", "footway": "sidewalk", "name": null, "surface": null, "lit": null, "length_m": 88.98, "type_element": "Way", "__fid": 5455}, "geometry": {"type": "LineString", "coordinates": [[2.2639904, 48.841885200000014], [2.2639979, 48.8419141], [2.2639399, 48.841929100000016], [2.2629019, 48.8421286], [2.2628782, 48.8421244]]}}, {"type": "Feature", "properties": {"highway": "pedestrian", "footway": null, "name": "Rue de Musset", "surface": "asphalt", "lit": null, "length_m": 86.07, "type_element": "Way", "__fid": 5461}, "geometry": {"type": "LineString", "coordinates": [[2.2628902, 48.842158200000014], [2.2640146, 48.8419383]]}}, {"type": "Feature", "properties": {"highway": "footway", "footway": "sidewalk", "name": null, "surface": null, "lit": null, "length_m": 262.71, "type_element": "Way", "__fid": 5465}, "geometry": {"type": "LineString", "coordinates": [[2.2647044, 48.8431092], [2.2646605, 48.8431312], [2.2632834, 48.84352229999999], [2.2632657, 48.8434973], [2.2629761, 48.8425714], [2.2628955, 48.84221159999998]]}}, {"type": "Feature", "properties": {"highway": "footway", "footway": "sidewalk", "name": null, "surface": null, "lit": null, "length_m": 87.56, "type_element": "Way", "__fid": 5467}, "geometry": {"type": "LineString", "coordinates": [[2.2629111, 48.8421917], [2.2629368, 48.842178], [2.2630588, 48.84215239999998], [2.2639493, 48.8419829], [2.2640535, 48.841992]]}}, {"type": "Feature", "properties": {"highway": "footway", "footway": "sidewalk", "name": null, "surface": null, "lit": null, "length_m": 43.87, "type_element": "Way", "__fid": 5578}, "geometry": {"type": "LineString", "coordinates": [[2.2641124, 48.8452494], [2.2640803, 48.8452441], [2.2635162, 48.8452606]]}}, {"type": "Feature", "properties": {"highway": "footway", "footway": "sidewalk", "name": null, "surface": null, "lit": null, "length_m": 93.41, "type_element": "Way", "__fid": 5579}, "geometry": {"type": "LineString", "coordinates": [[2.2635409, 48.8443437], [2.2636351, 48.8445416], [2.2640501, 48.8450595], [2.2640655, 48.8451051]]}}, {"type": "Feature", "properties": {"highway": "footway", "footway": "sidewalk", "name": null, "surface": null, "lit": null, "length_m": 38.68, "type_element": "Way", "__fid": 5583}, "geometry": {"type": "LineString", "coordinates": [[2.263778733333299, 48.841612566666704], [2.2637865, 48.841587799999985], [2.2636015, 48.8412892]]}}, {"type": "Feature", "properties": {"highway": "footway", "footway": "sidewalk", "name": null, "surface": null, "lit": null, "length_m": 3.28, "type_element": "Way", "__fid": 5617}, "geometry": {"type": "LineString", "coordinates": [[2.263778733333299, 48.841612566666704], [2.2638182, 48.8416265]]}}, {"type": "Feature", "properties": {"highway": "footway", "footway": "sidewalk", "name": null, "surface": null, "lit": null, "length_m": 37.24, "type_element": "Way", "__fid": 5620}, "geometry": {"type": "LineString", "coordinates": [[2.263812, 48.841195700000014], [2.2638119, 48.8412154], [2.2639247, 48.84142], [2.2639712, 48.8414936], [2.2639912, 48.8415054]]}}, {"type": "Feature", "properties": {"highway": "footway", "footway": "sidewalk", "name": null, "surface": null, "lit": null, "length_m": 31.42, "type_element": "Way", "__fid": 5624}, "geometry": {"type": "LineString", "coordinates": [[2.2638182, 48.8416265], [2.2639904, 48.841885200000014]]}}, {"type": "Feature", "properties": {"highway": "footway", "footway": "crossing", "name": null, "surface": null, "lit": null, "length_m": 15.52, "type_element": "Way", "__fid": 5625}, "geometry": {"type": "LineString", "coordinates": [[2.2638182, 48.8416265], [2.2638392, 48.84159970000001], [2.2639492, 48.8415405], [2.2639727, 48.841543]]}}, {"type": "Feature", "properties": {"highway": "footway", "footway": "sidewalk", "name": null, "surface": null, "lit": null, "length_m": 36.12, "type_element": "Way", "__fid": 5648}, "geometry": {"type": "LineString", "coordinates": [[2.2639727, 48.841543], [2.2640312, 48.8416149], [2.2641798, 48.8418375]]}}, {"type": "Feature", "properties": {"highway": "footway", "footway": "sidewalk", "name": null, "surface": null, "lit": null, "length_m": 4.4, "type_element": "Way", "__fid": 5649}, "geometry": {"type": "LineString", "coordinates": [[2.2639912, 48.8415054], [2.2639727, 48.841543]]}}, {"type": "Feature", "properties": {"highway": "footway", "footway": "sidewalk", "name": null, "surface": null, "lit": null, "length_m": 105.28, "type_element": "Way", "__fid": 5655}, "geometry": {"type": "LineString", "coordinates": [[2.265178, 48.8409754], [2.2650659, 48.8410189], [2.2650147, 48.84105270000001], [2.2639912, 48.8415054]]}}, {"type": "Feature", "properties": {"highway": "footway", "footway": "crossing", "name": null, "surface": null, "lit": null, "length_m": 14.88, "type_element": "Way", "__fid": 5656}, "geometry": {"type": "LineString", "coordinates": [[2.2639904, 48.841885200000014], [2.2641798, 48.8418375]]}}, {"type": "Feature", "properties": {"highway": "footway", "footway": "crossing", "name": null, "surface": null, "lit": null, "length_m": 2.31, "type_element": "Way", "__fid": 5657}, "geometry": {"type": "LineString", "coordinates": [[2.2640146, 48.8419383], [2.264002299999787, 48.84191916666671]]}}, {"type": "Feature", "properties": {"highway": "footway", "footway": "sidewalk", "name": null, "surface": null, "lit": null, "length_m": 6.62, "type_element": "Way", "__fid": 5660}, "geometry": {"type": "LineString", "coordinates": [[2.2640535, 48.841992], [2.2640146, 48.8419383]]}}, {"type": "Feature", "properties": {"highway": "pedestrian", "footway": null, "name": "Rue de Musset", "surface": "asphalt", "lit": null, "length_m": 8.53, "type_element": "Way", "__fid": 5661}, "geometry": {"type": "LineString", "coordinates": [[2.2640146, 48.8419383], [2.264126, 48.84191650000001]]}}, {"type": "Feature", "properties": {"highway": "footway", "footway": "sidewalk", "name": null, "surface": null, "lit": null, "length_m": 7.86, "type_element": "Way", "__fid": 5673}, "geometry": {"type": "LineString", "coordinates": [[2.2640535, 48.841992], [2.2641003, 48.8420556]]}}, {"type": "Feature", "properties": {"highway": "footway", "footway": "sidewalk", "name": null, "surface": null, "lit": null, "length_m": 3.6, "type_element": "Way", "__fid": 5674}, "geometry": {"type": "LineString", "coordinates": [[2.2640655, 48.8451051], [2.264024, 48.8451223]]}}, {"type": "Feature", "properties": {"highway": "footway", "footway": "crossing", "name": null, "surface": null, "lit": "yes", "length_m": 16.44, "type_element": "Way", "__fid": 5675}, "geometry": {"type": "LineString", "coordinates": [[2.2641124, 48.8452494], [2.2641227, 48.8452256], [2.2640464, 48.8451353], [2.264024, 48.8451223]]}}, {"type": "Feature", "properties": {"highway": "footway", "footway": "sidewalk", "name": null, "surface": null, "lit": null, "length_m": 120.23, "type_element": "Way", "__fid": 5682}, "geometry": {"type": "LineString", "coordinates": [[2.2641003, 48.8420556], [2.2647117, 48.8430587]]}}, {"type": "Feature", "properties": {"highway": "footway", "footway": "crossing", "name": null, "surface": null, "lit": null, "length_m": 11.9, "type_element": "Way", "__fid": 5683}, "geometry": {"type": "LineString", "coordinates": [[2.2641003, 48.8420556], [2.2642554, 48.8420243]]}}, {"type": "Feature", "properties": {"highway": "footway", "footway": "crossing", "name": null, "surface": null, "lit": null, "length_m": 8.89, "type_element": "Way", "__fid": 5684}, "geometry": {"type": "LineString", "coordinates": [[2.2640655, 48.8451051], [2.264154, 48.8450993], [2.2641806, 48.8450874]]}}, {"type": "Feature", "properties": {"highway": "footway", "footway": "sidewalk", "name": null, "surface": null, "lit": null, "length_m": 4.28, "type_element": "Way", "__fid": 5695}, "geometry": {"type": "LineString", "coordinates": [[2.264169, 48.8452587], [2.2641124, 48.8452494]]}}, {"type": "Feature", "properties": {"highway": "service", "footway": null, "name": null, "surface": null, "lit": null, "length_m": 40.28, "type_element": "Way", "__fid": 5696}, "geometry": {"type": "LineString", "coordinates": [[2.2640944, 48.8472472], [2.2640591, 48.8473325], [2.2642578, 48.84757290000002]]}}, {"type": "Feature", "properties": {"highway": "footway", "footway": "sidewalk", "name": null, "surface": null, "lit": null, "length_m": 8.55, "type_element": "Way", "__fid": 5701}, "geometry": {"type": "LineString", "coordinates": [[2.2641798, 48.8418375], [2.2642289, 48.8419072]]}}, {"type": "Feature", "properties": {"highway": "footway", "footway": "sidewalk", "name": null, "surface": null, "lit": null, "length_m": 88.51, "type_element": "Way", "__fid": 5710}, "geometry": {"type": "LineString", "coordinates": [[2.2647678, 48.8459497], [2.264169, 48.8452587]]}}, {"type": "Feature", "properties": {"highway": "footway", "footway": "crossing", "name": null, "surface": null, "lit": "yes", "length_m": 10.64, "type_element": "Way", "__fid": 5711}, "geometry": {"type": "LineString", "coordinates": [[2.264169, 48.8452587], [2.2643132, 48.84524860000001]]}}, {"type": "Feature", "properties": {"highway": "footway", "footway": "sidewalk", "name": null, "surface": null, "lit": null, "length_m": 15.0, "type_element": "Way", "__fid": 5713}, "geometry": {"type": "LineString", "coordinates": [[2.2643717, 48.8451016], [2.2642037, 48.8451058], [2.2641806, 48.8450874]]}}, {"type": "Feature", "properties": {"highway": "footway", "footway": "sidewalk", "name": null, "surface": null, "lit": null, "length_m": 294.97, "type_element": "Way", "__fid": 5714}, "geometry": {"type": "LineString", "coordinates": [[2.2641806, 48.8450874], [2.2641376, 48.845053], [2.2637057, 48.8445092], [2.2635817, 48.844269], [2.2636061, 48.844243], [2.2635806, 48.84418140000002], [2.2633041, 48.8436118], [2.2633549, 48.8435677], [2.2647373, 48.84317729999999]]}}, {"type": "Feature", "properties": {"highway": "footway", "footway": "sidewalk", "name": null, "surface": null, "lit": null, "length_m": 112.84, "type_element": "Way", "__fid": 5716}, "geometry": {"type": "LineString", "coordinates": [[2.2642289, 48.8419072], [2.2642876, 48.841910099999986], [2.2656268, 48.8415719], [2.265650340000152, 48.84154682000012]]}}, {"type": "Feature", "properties": {"highway": "footway", "footway": "crossing", "name": null, "surface": null, "lit": null, "length_m": 9.04, "type_element": "Way", "__fid": 5717}, "geometry": {"type": "LineString", "coordinates": [[2.2642603, 48.8419837], [2.2642238, 48.8419194], [2.2642289, 48.8419072]]}}, {"type": "Feature", "properties": {"highway": "footway", "footway": "sidewalk", "name": null, "surface": null, "lit": null, "length_m": 109.84, "type_element": "Way", "__fid": 5719}, "geometry": {"type": "LineString", "coordinates": [[2.2642554, 48.8420243], [2.2643165, 48.8420704], [2.2648301, 48.8429327]]}}, {"type": "Feature", "properties": {"highway": "footway", "footway": "sidewalk", "name": null, "surface": null, "lit": null, "length_m": 4.53, "type_element": "Way", "__fid": 5720}, "geometry": {"type": "LineString", "coordinates": [[2.2642603, 48.8419837], [2.2642554, 48.8420243]]}}, {"type": "Feature", "properties": {"highway": "footway", "footway": "sidewalk", "name": null, "surface": null, "lit": null, "length_m": 283.01, "type_element": "Way", "__fid": 5721}, "geometry": {"type": "LineString", "coordinates": [[2.2648832, 48.8429535], [2.2649521, 48.8429283], [2.2656012, 48.8423316], [2.2656656, 48.8422654], [2.2658467, 48.8420253], [2.2658024, 48.8418885], [2.2656912, 48.8416433], [2.2656599, 48.84162769999998], [2.2642603, 48.8419837]]}}, {"type": "Feature", "properties": {"highway": "footway", "footway": "sidewalk", "name": null, "surface": null, "lit": null, "length_m": 154.88, "type_element": "Way", "__fid": 5737}, "geometry": {"type": "LineString", "coordinates": [[2.265332, 48.846465], [2.2643155, 48.8452778], [2.2643132, 48.84524860000001]]}}, {"type": "Feature", "properties": {"highway": "footway", "footway": "sidewalk", "name": null, "surface": null, "lit": null, "length_m": 6.49, "type_element": "Way", "__fid": 5738}, "geometry": {"type": "LineString", "coordinates": [[2.2643132, 48.84524860000001], [2.2643889, 48.8452184]]}}, {"type": "Feature", "properties": {"highway": "footway", "footway": "crossing", "name": null, "surface": null, "lit": "yes", "length_m": 13.05, "type_element": "Way", "__fid": 5747}, "geometry": {"type": "LineString", "coordinates": [[2.2643717, 48.8451016], [2.2643889, 48.8452184]]}}, {"type": "Feature", "properties": {"highway": "footway", "footway": "sidewalk", "name": null, "surface": null, "lit": null, "length_m": 160.36, "type_element": "Way", "__fid": 5748}, "geometry": {"type": "LineString", "coordinates": [[2.2665533, 48.84503749999998], [2.2664458, 48.8450516], [2.2643717, 48.8451016]]}}, {"type": "Feature", "properties": {"highway": "footway", "footway": "sidewalk", "name": null, "surface": null, "lit": null, "length_m": 161.57, "type_element": "Way", "__fid": 5751}, "geometry": {"type": "LineString", "coordinates": [[2.2643889, 48.8452184], [2.2662532, 48.845198], [2.26656, 48.845290099999986]]}}, {"type": "Feature", "properties": {"highway": "service", "footway": null, "name": "Avenue de Rouvray", "surface": "asphalt", "lit": null, "length_m": 29.77, "type_element": "Way", "__fid": 5762}, "geometry": {"type": "LineString", "coordinates": [[2.2647678, 48.8459497], [2.2644197, 48.8460871]]}}, {"type": "Feature", "properties": {"highway": "footway", "footway": "crossing", "name": null, "surface": null, "lit": null, "length_m": 8.31, "type_element": "Way", "__fid": 5822}, "geometry": {"type": "LineString", "coordinates": [[2.2647044, 48.8431092], [2.264744, 48.8431637], [2.2647373, 48.84317729999999]]}}, {"type": "Feature", "properties": {"highway": "footway", "footway": "sidewalk", "name": null, "surface": null, "lit": null, "length_m": 5.64, "type_element": "Way", "__fid": 5823}, "geometry": {"type": "LineString", "coordinates": [[2.2647117, 48.8430587], [2.2647044, 48.8431092]]}}, {"type": "Feature", "properties": {"highway": "footway", "footway": "crossing", "name": null, "surface": null, "lit": null, "length_m": 16.59, "type_element": "Way", "__fid": 5827}, "geometry": {"type": "LineString", "coordinates": [[2.2647117, 48.8430587], [2.2648204, 48.842954], [2.2648301, 48.8429327]]}}, {"type": "Feature", "properties": {"highway": "footway", "footway": "sidewalk", "name": null, "surface": null, "lit": null, "length_m": 5.02, "type_element": "Way", "__fid": 5835}, "geometry": {"type": "LineString", "coordinates": [[2.2647373, 48.84317729999999], [2.2648033, 48.8431891]]}}, {"type": "Feature", "properties": {"highway": "footway", "footway": "sidewalk", "name": null, "surface": null, "lit": null, "length_m": 229.84, "type_element": "Way", "__fid": 5854}, "geometry": {"type": "LineString", "coordinates": [[2.2648033, 48.8431891], [2.264912, 48.843284699999984], [2.2664985, 48.8449267]]}}, {"type": "Feature", "properties": {"highway": "footway", "footway": "crossing", "name": null, "surface": null, "lit": null, "length_m": 15.47, "type_element": "Way", "__fid": 5855}, "geometry": {"type": "LineString", "coordinates": [[2.2648033, 48.8431891], [2.2648205, 48.8431619], [2.2649429, 48.8430877]]}}, {"type": "Feature", "properties": {"highway": "footway", "footway": "sidewalk", "name": null, "surface": null, "lit": null, "length_m": 206.63, "type_element": "Way", "__fid": 5859}, "geometry": {"type": "LineString", "coordinates": [[2.2662337, 48.847521], [2.2659361, 48.8472187], [2.2659104, 48.847223299999975], [2.2649979, 48.84621520000001], [2.2647678, 48.8459497]]}}, {"type": "Feature", "properties": {"highway": "footway", "footway": "sidewalk", "name": null, "surface": null, "lit": null, "length_m": 4.53, "type_element": "Way", "__fid": 5869}, "geometry": {"type": "LineString", "coordinates": [[2.2648301, 48.8429327], [2.2648832, 48.8429535]]}}, {"type": "Feature", "properties": {"highway": "footway", "footway": "crossing", "name": null, "surface": null, "lit": null, "length_m": 12.38, "type_element": "Way", "__fid": 5890}, "geometry": {"type": "LineString", "coordinates": [[2.2648832, 48.8429535], [2.26488, 48.8429698], [2.2649284, 48.8430439], [2.2649449, 48.843053]]}}, {"type": "Feature", "properties": {"highway": "footway", "footway": "sidewalk", "name": null, "surface": null, "lit": null, "length_m": 18.24, "type_element": "Way", "__fid": 5918}, "geometry": {"type": "LineString", "coordinates": [[2.2650799, 48.8432246], [2.2649429, 48.8430877]]}}, {"type": "Feature", "properties": {"highway": "footway", "footway": "sidewalk", "name": null, "surface": null, "lit": null, "length_m": 3.86, "type_element": "Way", "__fid": 5919}, "geometry": {"type": "LineString", "coordinates": [[2.2649429, 48.8430877], [2.2649449, 48.843053]]}}, {"type": "Feature", "properties": {"highway": "footway", "footway": "sidewalk", "name": null, "surface": null, "lit": null, "length_m": 124.96, "type_element": "Way", "__fid": 5920}, "geometry": {"type": "LineString", "coordinates": [[2.2649449, 48.843053], [2.264966, 48.8430122], [2.2657131, 48.8423222], [2.2658402, 48.84217170000002], [2.2658938, 48.8421229]]}}, {"type": "Feature", "properties": {"highway": "living_street", "footway": null, "name": "Grande Avenue de la Villa de la Réunion", "surface": null, "lit": null, "length_m": 8.32, "type_element": "Way", "__fid": 5928}, "geometry": {"type": "LineString", "coordinates": [[2.2649831, 48.8432635], [2.2650799, 48.8432246]]}}, {"type": "Feature", "properties": {"highway": "footway", "footway": "sidewalk", "name": null, "surface": null, "lit": null, "length_m": 159.04, "type_element": "Way", "__fid": 5961}, "geometry": {"type": "LineString", "coordinates": [[2.2662278, 48.8444376], [2.2658518, 48.84404459999998], [2.2652805, 48.843425], [2.2650799, 48.8432246]]}}, {"type": "Feature", "properties": {"highway": "living_street", "footway": null, "name": "Grande Avenue de la Villa de la Réunion", "surface": null, "lit": null, "length_m": 37.98, "type_element": "Way", "__fid": 5962}, "geometry": {"type": "LineString", "coordinates": [[2.2650799, 48.8432246], [2.2651487, 48.8432043], [2.265211, 48.8432029], [2.2655681, 48.8432882]]}}, {"type": "Feature", "properties": {"highway": "footway", "footway": "crossing", "name": null, "surface": "asphalt", "lit": "yes", "length_m": 6.24, "type_element": "Way", "__fid": 6016}, "geometry": {"type": "LineString", "coordinates": [[2.265257833333533, 48.84649240000011], [2.265332, 48.846465]]}}, {"type": "Feature", "properties": {"highway": "footway", "footway": "sidewalk", "name": null, "surface": null, "lit": null, "length_m": 138.12, "type_element": "Way", "__fid": 6031}, "geometry": {"type": "LineString", "coordinates": [[2.266326, 48.8474964], [2.2661892, 48.847385], [2.2659679, 48.847152500000014], [2.2659746, 48.847118], [2.2659008, 48.84704210000001], [2.2657962, 48.8469689], [2.2655495, 48.8466971], [2.2654328, 48.8465947], [2.2654435, 48.8465753], [2.2653738, 48.8464976], [2.265332, 48.846465]]}}, {"type": "Feature", "properties": {"highway": "footway", "footway": "sidewalk", "name": null, "surface": null, "lit": null, "length_m": 52.66, "type_element": "Way", "__fid": 6048}, "geometry": {"type": "LineString", "coordinates": [[2.265650340000152, 48.84154682000012], [2.2654504, 48.841092]]}}, {"type": "Feature", "properties": {"highway": "living_street", "footway": null, "name": "Grande Avenue de la Villa de la Réunion", "surface": null, "lit": null, "length_m": 89.05, "type_element": "Way", "__fid": 6094}, "geometry": {"type": "LineString", "coordinates": [[2.2655681, 48.8432882], [2.2657968, 48.8433096], [2.2660407, 48.84329670000001], [2.2662663, 48.8432425], [2.2666914, 48.8430718]]}}, {"type": "Feature", "properties": {"highway": "living_street", "footway": null, "name": "Avenue de l'Ermitage", "surface": null, "lit": null, "length_m": 132.02, "type_element": "Way", "__fid": 6095}, "geometry": {"type": "LineString", "coordinates": [[2.2655681, 48.8432882], [2.2661527, 48.8436814], [2.266842, 48.8433835], [2.2667994, 48.8432953]]}}, {"type": "Feature", "properties": {"highway": "footway", "footway": "sidewalk", "name": null, "surface": null, "lit": null, "length_m": 95.54, "type_element": "Way", "__fid": 6111}, "geometry": {"type": "LineString", "coordinates": [[2.2659853, 48.84198720000003], [2.2659737, 48.84198779999998], [2.2659259, 48.84196140000002], [2.2659013, 48.841929], [2.2656125, 48.8412426], [2.2656348, 48.8411964], [2.2656548, 48.84119470000002]]}}, {"type": "Feature", "properties": {"highway": "footway", "footway": "crossing", "name": null, "surface": null, "lit": null, "length_m": 6.02, "type_element": "Way", "__fid": 6113}, "geometry": {"type": "LineString", "coordinates": [[2.265650340000152, 48.84154682000012], [2.265728766666763, 48.84153083333343]]}}, {"type": "Feature", "properties": {"highway": "footway", "footway": "sidewalk", "name": null, "surface": null, "lit": null, "length_m": 61.52, "type_element": "Way", "__fid": 6127}, "geometry": {"type": "LineString", "coordinates": [[2.2657172, 48.8411893], [2.2657318, 48.8412218], [2.2663523, 48.8415412]]}}, {"type": "Feature", "properties": {"highway": "footway", "footway": "crossing", "name": null, "surface": null, "lit": null, "length_m": 7.01, "type_element": "Way", "__fid": 6154}, "geometry": {"type": "LineString", "coordinates": [[2.265808999999794, 48.84209383333346], [2.2658938, 48.8421229]]}}, {"type": "Feature", "properties": {"highway": "footway", "footway": "sidewalk", "name": null, "surface": null, "lit": null, "length_m": 13.76, "type_element": "Way", "__fid": 6178}, "geometry": {"type": "LineString", "coordinates": [[2.2658938, 48.8421229], [2.266034, 48.8420647], [2.266041, 48.842051]]}}, {"type": "Feature", "properties": {"highway": "footway", "footway": "crossing", "name": null, "surface": null, "lit": null, "length_m": 8.19, "type_element": "Way", "__fid": 6210}, "geometry": {"type": "LineString", "coordinates": [[2.2659853, 48.84198720000003], [2.266041, 48.842051]]}}, {"type": "Feature", "properties": {"highway": "footway", "footway": "sidewalk", "name": null, "surface": null, "lit": null, "length_m": 13.63, "type_element": "Way", "__fid": 6211}, "geometry": {"type": "LineString", "coordinates": [[2.2661498, 48.841934], [2.2660153, 48.8419857], [2.2659853, 48.84198720000003]]}}, {"type": "Feature", "properties": {"highway": "footway", "footway": "sidewalk", "name": null, "surface": null, "lit": null, "length_m": 64.25, "type_element": "Way", "__fid": 6232}, "geometry": {"type": "LineString", "coordinates": [[2.266041, 48.842051], [2.2661303, 48.84200580000001], [2.2665031, 48.8418599], [2.2665278, 48.8418664], [2.266792, 48.8417686]]}}, {"type": "Feature", "properties": {"highway": "pedestrian", "footway": null, "name": "Villa Alexandre Tansman", "surface": null, "lit": null, "length_m": 11.79, "type_element": "Way", "__fid": 6243}, "geometry": {"type": "LineString", "coordinates": [[2.2661028, 48.84183259999998], [2.2661498, 48.841934]]}}, {"type": "Feature", "properties": {"highway": "pedestrian", "footway": null, "name": "Villa Alexandre Tansman", "surface": null, "lit": null, "length_m": 3.49, "type_element": "Way", "__fid": 6250}, "geometry": {"type": "LineString", "coordinates": [[2.2661498, 48.841934], [2.2661637, 48.841964]]}}, {"type": "Feature", "properties": {"highway": "footway", "footway": "sidewalk", "name": null, "surface": null, "lit": null, "length_m": 46.53, "type_element": "Way", "__fid": 6251}, "geometry": {"type": "LineString", "coordinates": [[2.2666623, 48.8417008], [2.2666192, 48.8417536], [2.2661498, 48.841934]]}}, {"type": "Feature", "properties": {"highway": "service", "footway": null, "name": null, "surface": null, "lit": null, "length_m": 6.21, "type_element": "Way", "__fid": 6261}, "geometry": {"type": "LineString", "coordinates": [[2.2662278, 48.8444376], [2.2661587, 48.8444698]]}}, {"type": "Feature", "properties": {"highway": "footway", "footway": "sidewalk", "name": null, "surface": null, "lit": null, "length_m": 56.07, "type_element": "Way", "__fid": 6289}, "geometry": {"type": "LineString", "coordinates": [[2.2666368, 48.84486349999998], [2.2662278, 48.8444376]]}}, {"type": "Feature", "properties": {"highway": "service", "footway": null, "name": null, "surface": null, "lit": null, "length_m": 209.86, "type_element": "Way", "__fid": 6290}, "geometry": {"type": "LineString", "coordinates": [[2.2677575, 48.8442019], [2.2675167, 48.844023], [2.2675585, 48.84383070000001], [2.2675003, 48.8437463], [2.2674037, 48.8436701], [2.267305, 48.843650299999986], [2.2672621, 48.8436489], [2.2665531, 48.8439335], [2.2665317, 48.8439855], [2.2665921, 48.8441512], [2.266569, 48.8442504], [2.2662278, 48.8444376]]}}, {"type": "Feature", "properties": {"highway": "footway", "footway": "sidewalk", "name": null, "surface": null, "lit": null, "length_m": 28.85, "type_element": "Way", "__fid": 6318}, "geometry": {"type": "LineString", "coordinates": [[2.2663523, 48.8415412], [2.2666623, 48.8417008]]}}, {"type": "Feature", "properties": {"highway": "footway", "footway": "crossing", "name": null, "surface": null, "lit": "yes", "length_m": 20.38, "type_element": "Way", "__fid": 6319}, "geometry": {"type": "LineString", "coordinates": [[2.2663523, 48.8415412], [2.2665248, 48.8413976]]}}, {"type": "Feature", "properties": {"highway": "steps", "footway": null, "name": null, "surface": null, "lit": null, "length_m": 8.33, "type_element": "Way", "__fid": 6360}, "geometry": {"type": "LineString", "coordinates": [[2.2665391, 48.84496879999998], [2.2664858, 48.8450349]]}}, {"type": "Feature", "properties": {"highway": "footway", "footway": "sidewalk", "name": null, "surface": null, "lit": null, "length_m": 5.55, "type_element": "Way", "__fid": 6363}, "geometry": {"type": "LineString", "coordinates": [[2.2664985, 48.8449267], [2.2665391, 48.84496879999998]]}}, {"type": "Feature", "properties": {"highway": "footway", "footway": "crossing", "name": null, "surface": null, "lit": null, "length_m": 12.35, "type_element": "Way", "__fid": 6364}, "geometry": {"type": "LineString", "coordinates": [[2.2664985, 48.8449267], [2.2666368, 48.84486349999998]]}}, {"type": "Feature", "properties": {"highway": "footway", "footway": "crossing", "name": null, "surface": null, "lit": null, "length_m": 16.28, "type_element": "Way", "__fid": 6370}, "geometry": {"type": "LineString", "coordinates": [[2.2665699, 48.8413976], [2.2665689, 48.841414499999985], [2.2666983, 48.8414846], [2.2667264, 48.8414889]]}}, {"type": "Feature", "properties": {"highway": "footway", "footway": "sidewalk", "name": null, "surface": null, "lit": null, "length_m": 8.02, "type_element": "Way", "__fid": 6377}, "geometry": {"type": "LineString", "coordinates": [[2.2665391, 48.84496879999998], [2.2665566, 48.84498679999998], [2.2665533, 48.84503749999998]]}}, {"type": "Feature", "properties": {"highway": "service", "footway": null, "name": null, "surface": null, "lit": null, "length_m": 54.24, "type_element": "Way", "__fid": 6378}, "geometry": {"type": "LineString", "coordinates": [[2.2667272, 48.8449577], [2.2668694, 48.84488730000002], [2.2668694, 48.84479129999998], [2.2668372, 48.8447376], [2.266775, 48.84469390000001], [2.2666913, 48.8446783], [2.2665461, 48.8447045]]}}, {"type": "Feature", "properties": {"highway": "footway", "footway": "traffic_island", "name": null, "surface": null, "lit": null, "length_m": 29.8, "type_element": "Way", "__fid": 6379}, "geometry": {"type": "LineString", "coordinates": [[2.2665533, 48.84503749999998], [2.2666123, 48.845123], [2.2666127, 48.8452065], [2.26656, 48.845290099999986]]}}, {"type": "Feature", "properties": {"highway": "footway", "footway": "sidewalk", "name": null, "surface": null, "lit": null, "length_m": 71.15, "type_element": "Way", "__fid": 6384}, "geometry": {"type": "LineString", "coordinates": [[2.26656, 48.845290099999986], [2.2668711, 48.84538840000001], [2.2670821, 48.8455523], [2.2672375, 48.8457207]]}}, {"type": "Feature", "properties": {"highway": "footway", "footway": "crossing", "name": null, "surface": null, "lit": "yes", "length_m": 12.25, "type_element": "Way", "__fid": 6398}, "geometry": {"type": "LineString", "coordinates": [[2.2666623, 48.8417008], [2.2667071, 48.8417156], [2.266792, 48.8417686]]}}, {"type": "Feature", "properties": {"highway": "footway", "footway": "sidewalk", "name": null, "surface": null, "lit": null, "length_m": 12.4, "type_element": "Way", "__fid": 6403}, "geometry": {"type": "LineString", "coordinates": [[2.2667272, 48.8449577], [2.2666368, 48.84486349999998]]}}, {"type": "Feature", "properties": {"highway": "service", "footway": null, "name": null, "surface": null, "lit": null, "length_m": 6.43, "type_element": "Way", "__fid": 6410}, "geometry": {"type": "LineString", "coordinates": [[2.2666549, 48.8449904], [2.2667272, 48.8449577]]}}, {"type": "Feature", "properties": {"highway": "living_street", "footway": null, "name": "Avenue de l'Ermitage", "surface": null, "lit": null, "length_m": 26.09, "type_element": "Way", "__fid": 6414}, "geometry": {"type": "LineString", "coordinates": [[2.2667994, 48.8432953], [2.2666914, 48.8430718]]}}, {"type": "Feature", "properties": {"highway": "living_street", "footway": null, "name": "Grande Avenue de la Villa de la Réunion", "surface": null, "lit": null, "length_m": 122.33, "type_element": "Way", "__fid": 6415}, "geometry": {"type": "LineString", "coordinates": [[2.2666914, 48.8430718], [2.2669701, 48.8429341], [2.2672154, 48.8427712], [2.2674783, 48.84261210000001], [2.2676952, 48.84251610000001], [2.2679391, 48.8423478]]}}, {"type": "Feature", "properties": {"highway": "footway", "footway": "sidewalk", "name": null, "surface": null, "lit": null, "length_m": 28.92, "type_element": "Way", "__fid": 6424}, "geometry": {"type": "LineString", "coordinates": [[2.2667264, 48.8414889], [2.2667299, 48.8415025], [2.2670237, 48.8416544]]}}, {"type": "Feature", "properties": {"highway": "footway", "footway": "sidewalk", "name": null, "surface": null, "lit": null, "length_m": 109.64, "type_element": "Way", "__fid": 6425}, "geometry": {"type": "LineString", "coordinates": [[2.267931, 48.8409182], [2.2669415, 48.8413495], [2.266724, 48.8414792], [2.2667264, 48.8414889]]}}, {"type": "Feature", "properties": {"highway": "footway", "footway": "sidewalk", "name": null, "surface": null, "lit": null, "length_m": 2.87, "type_element": "Way", "__fid": 6429}, "geometry": {"type": "LineString", "coordinates": [[2.2667481, 48.8449795], [2.2667272, 48.8449577]]}}, {"type": "Feature", "properties": {"highway": "footway", "footway": "sidewalk", "name": null, "surface": null, "lit": null, "length_m": 4.26, "type_element": "Way", "__fid": 6432}, "geometry": {"type": "LineString", "coordinates": [[2.266792, 48.8417686], [2.2668381, 48.8417919]]}}, {"type": "Feature", "properties": {"highway": "footway", "footway": "sidewalk", "name": null, "surface": null, "lit": null, "length_m": 85.85, "type_element": "Way", "__fid": 6433}, "geometry": {"type": "LineString", "coordinates": [[2.2676012, 48.8454701], [2.2671165, 48.8453181], [2.2669448, 48.845184900000014], [2.2667481, 48.8449795]]}}, {"type": "Feature", "properties": {"highway": "footway", "footway": null, "name": null, "surface": null, "lit": null, "length_m": 3.62, "type_element": "Way", "__fid": 6434}, "geometry": {"type": "LineString", "coordinates": [[2.2667481, 48.8449795], [2.26679, 48.8449623]]}}, {"type": "Feature", "properties": {"highway": "footway", "footway": null, "name": null, "surface": null, "lit": null, "length_m": 25.57, "type_element": "Way", "__fid": 6438}, "geometry": {"type": "LineString", "coordinates": [[2.2667994, 48.8432953], [2.2670912, 48.8431697]]}}, {"type": "Feature", "properties": {"highway": "footway", "footway": "sidewalk", "name": null, "surface": null, "lit": null, "length_m": 101.74, "type_element": "Way", "__fid": 6441}, "geometry": {"type": "LineString", "coordinates": [[2.2668381, 48.8417919], [2.2679391, 48.8423478]]}}, {"type": "Feature", "properties": {"highway": "footway", "footway": "crossing", "name": null, "surface": "asphalt", "lit": "yes", "length_m": 20.48, "type_element": "Way", "__fid": 6442}, "geometry": {"type": "LineString", "coordinates": [[2.2668381, 48.8417919], [2.2670237, 48.8416544]]}}, {"type": "Feature", "properties": {"highway": "footway", "footway": "sidewalk", "name": null, "surface": null, "lit": null, "length_m": 73.33, "type_element": "Way", "__fid": 6474}, "geometry": {"type": "LineString", "coordinates": [[2.2670237, 48.8416544], [2.2678111, 48.8420603]]}}, {"type": "Feature", "properties": {"highway": "footway", "footway": "sidewalk", "name": null, "surface": null, "lit": null, "length_m": 266.31, "type_element": "Way", "__fid": 6480}, "geometry": {"type": "LineString", "coordinates": [[2.2672375, 48.8457207], [2.267289, 48.845764], [2.2682742, 48.84680830000002], [2.267592, 48.8472963], [2.2674069, 48.8473907], [2.2673345, 48.84744550000001], [2.2670036, 48.8474344]]}}, {"type": "Feature", "properties": {"highway": "living_street", "footway": null, "name": "Villa Victorien Sardou", "surface": null, "lit": null, "length_m": 14.72, "type_element": "Way", "__fid": 6489}, "geometry": {"type": "LineString", "coordinates": [[2.2672179, 48.843223500000015], [2.2671661, 48.8432464], [2.2670912, 48.8431697]]}}, {"type": "Feature", "properties": {"highway": "living_street", "footway": null, "name": "Villa Victorien Sardou", "surface": null, "lit": null, "length_m": 16.02, "type_element": "Way", "__fid": 6490}, "geometry": {"type": "LineString", "coordinates": [[2.2670912, 48.8431697], [2.2670256, 48.84310390000001], [2.267108, 48.8430677]]}}, {"type": "Feature", "properties": {"highway": "living_street", "footway": null, "name": "Villa Victorien Sardou", "surface": null, "lit": null, "length_m": 31.79, "type_element": "Way", "__fid": 6526}, "geometry": {"type": "LineString", "coordinates": [[2.2674489, 48.8434654], [2.2672179, 48.843223500000015]]}}, {"type": "Feature", "properties": {"highway": "living_street", "footway": null, "name": "Villa Victorien Sardou", "surface": null, "lit": null, "length_m": 9.65, "type_element": "Way", "__fid": 6527}, "geometry": {"type": "LineString", "coordinates": [[2.2672179, 48.843223500000015], [2.267328, 48.843176]]}}, {"type": "Feature", "properties": {"highway": "footway", "footway": "crossing", "name": null, "surface": null, "lit": "yes", "length_m": 14.54, "type_element": "Way", "__fid": 6559}, "geometry": {"type": "LineString", "coordinates": [[2.2672375, 48.8457207], [2.2674069, 48.845652899999976]]}}, {"type": "Feature", "properties": {"highway": "footway", "footway": "sidewalk", "name": null, "surface": null, "lit": null, "length_m": 151.08, "type_element": "Way", "__fid": 6611}, "geometry": {"type": "LineString", "coordinates": [[2.2685096, 48.8468003], [2.2674069, 48.845652899999976]]}}, {"type": "Feature", "properties": {"highway": "footway", "footway": "sidewalk", "name": null, "surface": null, "lit": null, "length_m": 11.62, "type_element": "Way", "__fid": 6612}, "geometry": {"type": "LineString", "coordinates": [[2.2674069, 48.845652899999976], [2.2675306, 48.8455876]]}}, {"type": "Feature", "properties": {"highway": "living_street", "footway": null, "name": "Rue du Buis", "surface": "asphalt", "lit": null, "length_m": 41.9, "type_element": "Way", "__fid": 6615}, "geometry": {"type": "LineString", "coordinates": [[2.267387, 48.847449], [2.2674159, 48.8474101], [2.2674585, 48.8473829], [2.2676124, 48.8473136], [2.2677898, 48.8471884]]}}, {"type": "Feature", "properties": {"highway": "footway", "footway": null, "name": null, "surface": null, "lit": null, "length_m": 12.19, "type_element": "Way", "__fid": 6620}, "geometry": {"type": "LineString", "coordinates": [[2.2674331, 48.8445012], [2.2675797, 48.8444496]]}}, {"type": "Feature", "properties": {"highway": "footway", "footway": "sidewalk", "name": null, "surface": null, "lit": null, "length_m": 16.95, "type_element": "Way", "__fid": 6634}, "geometry": {"type": "LineString", "coordinates": [[2.2676094, 48.8473397], [2.2674783, 48.8474266], [2.2674598, 48.8474538]]}}, {"type": "Feature", "properties": {"highway": "footway", "footway": "sidewalk", "name": null, "surface": null, "lit": null, "length_m": 86.33, "type_element": "Way", "__fid": 6648}, "geometry": {"type": "LineString", "coordinates": [[2.2675306, 48.8455876], [2.2685962, 48.8459164]]}}, {"type": "Feature", "properties": {"highway": "footway", "footway": "crossing", "name": null, "surface": null, "lit": "yes", "length_m": 14.16, "type_element": "Way", "__fid": 6649}, "geometry": {"type": "LineString", "coordinates": [[2.2675306, 48.8455876], [2.2675787, 48.8454908], [2.2676012, 48.8454701]]}}, {"type": "Feature", "properties": {"highway": "footway", "footway": null, "name": null, "surface": null, "lit": null, "length_m": 42.25, "type_element": "Way", "__fid": 6656}, "geometry": {"type": "LineString", "coordinates": [[2.2675797, 48.8444496], [2.2674617, 48.84431819999999], [2.2677575, 48.8442019]]}}, {"type": "Feature", "properties": {"highway": "footway", "footway": "sidewalk", "name": null, "surface": null, "lit": null, "length_m": 87.92, "type_element": "Way", "__fid": 6661}, "geometry": {"type": "LineString", "coordinates": [[2.2686863, 48.8458051], [2.2676012, 48.8454701]]}}, {"type": "Feature", "properties": {"highway": "footway", "footway": "sidewalk", "name": null, "surface": null, "lit": null, "length_m": 16.52, "type_element": "Way", "__fid": 6668}, "geometry": {"type": "LineString", "coordinates": [[2.2677075, 48.8474704], [2.2676876, 48.847462600000014], [2.2676094, 48.8473397]]}}, {"type": "Feature", "properties": {"highway": "footway", "footway": "sidewalk", "name": null, "surface": null, "lit": null, "length_m": 20.36, "type_element": "Way", "__fid": 6669}, "geometry": {"type": "LineString", "coordinates": [[2.2676094, 48.8473397], [2.2678094, 48.847212800000015]]}}, {"type": "Feature", "properties": {"highway": "footway", "footway": "sidewalk", "name": null, "surface": null, "lit": null, "length_m": 5.05, "type_element": "Way", "__fid": 6702}, "geometry": {"type": "LineString", "coordinates": [[2.2678111, 48.8420603], [2.2678653, 48.8420883]]}}, {"type": "Feature", "properties": {"highway": "footway", "footway": "sidewalk", "name": null, "surface": null, "lit": null, "length_m": 5.1, "type_element": "Way", "__fid": 6703}, "geometry": {"type": "LineString", "coordinates": [[2.2678111, 48.8420603], [2.2678353, 48.8420431], [2.2678616, 48.8420572]]}}, {"type": "Feature", "properties": {"highway": "living_street", "footway": null, "name": "Rue Désaugiers", "surface": "paving_stones", "lit": null, "length_m": 3.07, "type_element": "Way", "__fid": 6708}, "geometry": {"type": "LineString", "coordinates": [[2.2678094, 48.847212800000015], [2.2677898, 48.8471884]]}}, {"type": "Feature", "properties": {"highway": "living_street", "footway": null, "name": "Rue du Buis", "surface": "asphalt", "lit": null, "length_m": 39.76, "type_element": "Way", "__fid": 6709}, "geometry": {"type": "LineString", "coordinates": [[2.2677898, 48.8471884], [2.2681594, 48.846927]]}}, {"type": "Feature", "properties": {"highway": "footway", "footway": "sidewalk", "name": null, "surface": null, "lit": null, "length_m": 2.3, "type_element": "Way", "__fid": 6714}, "geometry": {"type": "LineString", "coordinates": [[2.2678653, 48.8420883], [2.26789, 48.842101]]}}, {"type": "Feature", "properties": {"highway": "footway", "footway": "sidewalk", "name": null, "surface": null, "lit": null, "length_m": 2.95, "type_element": "Way", "__fid": 6715}, "geometry": {"type": "LineString", "coordinates": [[2.2678924, 48.8420687], [2.2678653, 48.8420883]]}}, {"type": "Feature", "properties": {"highway": "living_street", "footway": null, "name": "Rue Désaugiers", "surface": "paving_stones", "lit": null, "length_m": 36.19, "type_element": "Way", "__fid": 6716}, "geometry": {"type": "LineString", "coordinates": [[2.2680403, 48.8475004], [2.2678094, 48.847212800000015]]}}, {"type": "Feature", "properties": {"highway": "footway", "footway": "sidewalk", "name": null, "surface": null, "lit": null, "length_m": 36.73, "type_element": "Way", "__fid": 6717}, "geometry": {"type": "LineString", "coordinates": [[2.2678094, 48.847212800000015], [2.2681091, 48.84699629999999], [2.2681453, 48.84697940000002], [2.2681552, 48.8469836]]}}, {"type": "Feature", "properties": {"highway": "footway", "footway": "sidewalk", "name": null, "surface": null, "lit": null, "length_m": 67.92, "type_element": "Way", "__fid": 6721}, "geometry": {"type": "LineString", "coordinates": [[2.26789, 48.842101], [2.268623, 48.8424739]]}}, {"type": "Feature", "properties": {"highway": "footway", "footway": "sidewalk", "name": null, "surface": null, "lit": null, "length_m": 2.97, "type_element": "Way", "__fid": 6722}, "geometry": {"type": "LineString", "coordinates": [[2.2679168, 48.842081], [2.26789, 48.842101]]}}, {"type": "Feature", "properties": {"highway": "footway", "footway": "sidewalk", "name": null, "surface": null, "lit": null, "length_m": 46.89, "type_element": "Way", "__fid": 6734}, "geometry": {"type": "LineString", "coordinates": [[2.2679391, 48.8423478], [2.2684465, 48.842604]]}}, {"type": "Feature", "properties": {"highway": "living_street", "footway": null, "name": "Grande Avenue de la Villa de la Réunion", "surface": null, "lit": null, "length_m": 9.72, "type_element": "Way", "__fid": 6735}, "geometry": {"type": "LineString", "coordinates": [[2.2679391, 48.8423478], [2.2680259, 48.8422818]]}}, {"type": "Feature", "properties": {"highway": "service", "footway": null, "name": null, "surface": null, "lit": null, "length_m": 176.88, "type_element": "Way", "__fid": 6752}, "geometry": {"type": "LineString", "coordinates": [[2.2680563, 48.8410443], [2.2682932, 48.8412816], [2.2682959, 48.8413055], [2.2682758, 48.8413311], [2.267683, 48.8415808], [2.2676495, 48.84157910000001], [2.2676159, 48.8415614], [2.2675771, 48.841512], [2.2675717, 48.8414926], [2.2675878, 48.841474], [2.2678654, 48.8413681], [2.2679083, 48.841377], [2.2679593, 48.8413717], [2.2680384, 48.8413372], [2.2680451, 48.8413169], [2.2680344, 48.8412781], [2.2679995, 48.8412419], [2.2680563, 48.8410443]]}}, {"type": "Feature", "properties": {"highway": "service", "footway": null, "name": "Cité Florentine Estrade", "surface": null, "lit": null, "length_m": 20.79, "type_element": "Way", "__fid": 6762}, "geometry": {"type": "LineString", "coordinates": [[2.2682664, 48.8470901], [2.2680251, 48.84718810000002]]}}, {"type": "Feature", "properties": {"highway": "footway", "footway": "sidewalk", "name": null, "surface": null, "lit": null, "length_m": 38.98, "type_element": "Way", "__fid": 6771}, "geometry": {"type": "LineString", "coordinates": [[2.2684947, 48.8473519], [2.2684477, 48.847392], [2.2683531, 48.84743730000001], [2.2682258, 48.8474795], [2.2681394, 48.8475064], [2.2680403, 48.8475004]]}}, {"type": "Feature", "properties": {"highway": "footway", "footway": "sidewalk", "name": null, "surface": null, "lit": null, "length_m": 14.53, "type_element": "Way", "__fid": 6805}, "geometry": {"type": "LineString", "coordinates": [[2.2681552, 48.8469836], [2.2681745, 48.8469917], [2.2682664, 48.8470901]]}}, {"type": "Feature", "properties": {"highway": "footway", "footway": "crossing", "name": null, "surface": null, "lit": null, "length_m": 3.96, "type_element": "Way", "__fid": 6806}, "geometry": {"type": "LineString", "coordinates": [[2.2681552, 48.8469836], [2.2681862, 48.8469545]]}}, {"type": "Feature", "properties": {"highway": "living_street", "footway": null, "name": "Rue Verderet", "surface": "paving_stones", "lit": null, "length_m": 3.64, "type_element": "Way", "__fid": 6807}, "geometry": {"type": "LineString", "coordinates": [[2.2681862, 48.8469545], [2.2681594, 48.846927]]}}, {"type": "Feature", "properties": {"highway": "living_street", "footway": null, "name": "Rue du Buis", "surface": "asphalt", "lit": null, "length_m": 14.81, "type_element": "Way", "__fid": 6808}, "geometry": {"type": "LineString", "coordinates": [[2.2681594, 48.846927], [2.2682977, 48.84683]]}}, {"type": "Feature", "properties": {"highway": "footway", "footway": "sidewalk", "name": null, "surface": null, "lit": null, "length_m": 206.17, "type_element": "Way", "__fid": 6820}, "geometry": {"type": "LineString", "coordinates": [[2.2697811, 48.8423862], [2.2688082, 48.8413942], [2.2685799, 48.8411368], [2.2682709, 48.8408231]]}}, {"type": "Feature", "properties": {"highway": "footway", "footway": "sidewalk", "name": null, "surface": null, "lit": null, "length_m": 214.52, "type_element": "Way", "__fid": 6821}, "geometry": {"type": "LineString", "coordinates": [[2.2682709, 48.8408231], [2.2683582, 48.84078370000002], [2.2684354, 48.8408222], [2.268597, 48.8409979], [2.2698985, 48.8423359]]}}, {"type": "Feature", "properties": {"highway": "living_street", "footway": null, "name": "Rue Verderet", "surface": "paving_stones", "lit": null, "length_m": 15.93, "type_element": "Way", "__fid": 6822}, "geometry": {"type": "LineString", "coordinates": [[2.2683035, 48.847075], [2.2681862, 48.8469545]]}}, {"type": "Feature", "properties": {"highway": "footway", "footway": "crossing", "name": null, "surface": null, "lit": null, "length_m": 4.56, "type_element": "Way", "__fid": 6823}, "geometry": {"type": "LineString", "coordinates": [[2.2681862, 48.8469545], [2.268214, 48.8469352], [2.2682352, 48.8469318]]}}, {"type": "Feature", "properties": {"highway": "footway", "footway": "sidewalk", "name": null, "surface": null, "lit": null, "length_m": 40.71, "type_element": "Way", "__fid": 6832}, "geometry": {"type": "LineString", "coordinates": [[2.2685263, 48.84724349999998], [2.2682352, 48.8469318]]}}, {"type": "Feature", "properties": {"highway": "footway", "footway": "sidewalk", "name": null, "surface": null, "lit": null, "length_m": 10.1, "type_element": "Way", "__fid": 6833}, "geometry": {"type": "LineString", "coordinates": [[2.2682352, 48.8469318], [2.2683321, 48.84686730000002]]}}, {"type": "Feature", "properties": {"highway": "footway", "footway": "sidewalk", "name": null, "surface": null, "lit": null, "length_m": 34.27, "type_element": "Way", "__fid": 6837}, "geometry": {"type": "LineString", "coordinates": [[2.2682664, 48.8470901], [2.2685037, 48.84734430000001], [2.2684947, 48.8473519]]}}, {"type": "Feature", "properties": {"highway": "service", "footway": null, "name": "Cité Florentine Estrade", "surface": null, "lit": null, "length_m": 3.2, "type_element": "Way", "__fid": 6838}, "geometry": {"type": "LineString", "coordinates": [[2.2683035, 48.847075], [2.2682664, 48.8470901]]}}, {"type": "Feature", "properties": {"highway": "footway", "footway": "crossing", "name": null, "surface": null, "lit": null, "length_m": 2.35, "type_element": "Way", "__fid": 6841}, "geometry": {"type": "LineString", "coordinates": [[2.268279066666458, 48.84681276666673], [2.2682977, 48.84683]]}}, {"type": "Feature", "properties": {"highway": "footway", "footway": "sidewalk", "name": null, "surface": null, "lit": null, "length_m": 4.86, "type_element": "Way", "__fid": 6846}, "geometry": {"type": "LineString", "coordinates": [[2.2682977, 48.84683], [2.2683321, 48.84686730000002]]}}, {"type": "Feature", "properties": {"highway": "living_street", "footway": null, "name": "Rue du Buis", "surface": "asphalt", "lit": null, "length_m": 8.92, "type_element": "Way", "__fid": 6847}, "geometry": {"type": "LineString", "coordinates": [[2.2682977, 48.84683], [2.2683808, 48.8467714]]}}, {"type": "Feature", "properties": {"highway": "living_street", "footway": null, "name": "Rue Verderet", "surface": "paving_stones", "lit": null, "length_m": 37.45, "type_element": "Way", "__fid": 6850}, "geometry": {"type": "LineString", "coordinates": [[2.2685484, 48.8473646], [2.2685522, 48.8473419], [2.2685378, 48.847315900000034], [2.2683035, 48.847075]]}}, {"type": "Feature", "properties": {"highway": "footway", "footway": "sidewalk", "name": null, "surface": null, "lit": null, "length_m": 2.23, "type_element": "Way", "__fid": 6856}, "geometry": {"type": "LineString", "coordinates": [[2.2683321, 48.84686730000002], [2.2683625, 48.8468669]]}}, {"type": "Feature", "properties": {"highway": "footway", "footway": "sidewalk", "name": null, "surface": null, "lit": null, "length_m": 42.16, "type_element": "Way", "__fid": 6865}, "geometry": {"type": "LineString", "coordinates": [[2.2683625, 48.8468669], [2.2686694, 48.8471874]]}}, {"type": "Feature", "properties": {"highway": "footway", "footway": "crossing", "name": null, "surface": null, "lit": "yes", "length_m": 13.09, "type_element": "Way", "__fid": 6866}, "geometry": {"type": "LineString", "coordinates": [[2.2683625, 48.8468669], [2.2685096, 48.8468003]]}}, {"type": "Feature", "properties": {"highway": "footway", "footway": "sidewalk", "name": null, "surface": null, "lit": null, "length_m": 3.19, "type_element": "Way", "__fid": 6874}, "geometry": {"type": "LineString", "coordinates": [[2.2684465, 48.842604], [2.2684518, 48.8426325]]}}, {"type": "Feature", "properties": {"highway": "footway", "footway": "crossing", "name": null, "surface": null, "lit": "yes", "length_m": 19.53, "type_element": "Way", "__fid": 6875}, "geometry": {"type": "LineString", "coordinates": [[2.2684465, 48.842604], [2.2684786, 48.84259010000002], [2.268623, 48.8424739]]}}, {"type": "Feature", "properties": {"highway": "footway", "footway": "sidewalk", "name": null, "surface": null, "lit": null, "length_m": 217.99, "type_element": "Way", "__fid": 6876}, "geometry": {"type": "LineString", "coordinates": [[2.2684518, 48.8426325], [2.2684557, 48.8426537], [2.2673065, 48.8431241], [2.2673928, 48.8432093], [2.2686129, 48.84271660000002]]}}, {"type": "Feature", "properties": {"highway": "footway", "footway": "crossing", "name": null, "surface": null, "lit": null, "length_m": 4.19, "type_element": "Way", "__fid": 6908}, "geometry": {"type": "LineString", "coordinates": [[2.2684947, 48.8473519], [2.2685484, 48.8473646]]}}, {"type": "Feature", "properties": {"highway": "footway", "footway": "sidewalk", "name": null, "surface": null, "lit": null, "length_m": 44.74, "type_element": "Way", "__fid": 6909}, "geometry": {"type": "LineString", "coordinates": [[2.2688545, 48.847130600000014], [2.2687709, 48.847072200000014], [2.2685096, 48.8468003]]}}, {"type": "Feature", "properties": {"highway": "footway", "footway": "sidewalk", "name": null, "surface": null, "lit": null, "length_m": 74.09, "type_element": "Way", "__fid": 6915}, "geometry": {"type": "LineString", "coordinates": [[2.2687699, 48.8473651], [2.2687325, 48.8474235], [2.2686777, 48.847458], [2.2685773, 48.8474865], [2.2683671, 48.84750259999997], [2.2685702, 48.847398100000014], [2.2686029, 48.8473466], [2.2685702, 48.847290500000014], [2.2685263, 48.84724349999998]]}}, {"type": "Feature", "properties": {"highway": "footway", "footway": "sidewalk", "name": null, "surface": null, "lit": null, "length_m": 3.15, "type_element": "Way", "__fid": 6916}, "geometry": {"type": "LineString", "coordinates": [[2.2685263, 48.84724349999998], [2.2685634, 48.8472293]]}}, {"type": "Feature", "properties": {"highway": "footway", "footway": null, "name": null, "surface": "concrete:plates", "lit": "yes", "length_m": 55.31, "type_element": "Way", "__fid": 6917}, "geometry": {"type": "LineString", "coordinates": [[2.268573, 48.8447902], [2.2685967, 48.8448518], [2.2686015, 48.8449192], [2.2686327, 48.8449854], [2.2687789, 48.8450744], [2.268854, 48.84509820000001], [2.2689941, 48.8451592]]}}, {"type": "Feature", "properties": {"highway": "footway", "footway": null, "name": null, "surface": "compacted", "lit": "yes", "length_m": 167.41, "type_element": "Way", "__fid": 6918}, "geometry": {"type": "LineString", "coordinates": [[2.2688003, 48.8438734], [2.2685803, 48.84388730000001], [2.2684473, 48.8438834], [2.2683072, 48.8438896], [2.2681888, 48.8438816], [2.2680966, 48.8439009], [2.2680194, 48.84395], [2.2679694, 48.8440093], [2.2679481, 48.84408160000002], [2.2679612, 48.844138100000016], [2.2679929, 48.8441786], [2.2681358, 48.8443405], [2.268573, 48.8447902]]}}, {"type": "Feature", "properties": {"highway": "steps", "footway": null, "name": null, "surface": "concrete:plates", "lit": "yes", "length_m": 27.49, "type_element": "Way", "__fid": 6919}, "geometry": {"type": "LineString", "coordinates": [[2.2689286, 48.844828], [2.2687271, 48.84477629999998], [2.268663, 48.8447722], [2.268573, 48.8447902]]}}, {"type": "Feature", "properties": {"highway": "footway", "footway": "sidewalk", "name": null, "surface": null, "lit": null, "length_m": 12.85, "type_element": "Way", "__fid": 6924}, "geometry": {"type": "LineString", "coordinates": [[2.2686129, 48.84271660000002], [2.2686944, 48.8427252], [2.2687606, 48.8427679]]}}, {"type": "Feature", "properties": {"highway": "footway", "footway": "sidewalk", "name": null, "surface": null, "lit": null, "length_m": 27.84, "type_element": "Way", "__fid": 6927}, "geometry": {"type": "LineString", "coordinates": [[2.268623, 48.8424739], [2.2689259, 48.8426246]]}}, {"type": "Feature", "properties": {"highway": "steps", "footway": null, "name": null, "surface": null, "lit": null, "length_m": 4.92, "type_element": "Way", "__fid": 6928}, "geometry": {"type": "LineString", "coordinates": [[2.2685634, 48.8472293], [2.2685969, 48.8472676]]}}, {"type": "Feature", "properties": {"highway": "footway", "footway": "sidewalk", "name": null, "surface": null, "lit": null, "length_m": 9.07, "type_element": "Way", "__fid": 6929}, "geometry": {"type": "LineString", "coordinates": [[2.2685634, 48.8472293], [2.2686694, 48.8471874]]}}, {"type": "Feature", "properties": {"highway": "footway", "footway": "sidewalk", "name": null, "surface": null, "lit": null, "length_m": 146.8, "type_element": "Way", "__fid": 6933}, "geometry": {"type": "LineString", "coordinates": [[2.2685962, 48.8459164], [2.2704095, 48.84647370000001]]}}, {"type": "Feature", "properties": {"highway": "footway", "footway": "crossing", "name": null, "surface": "asphalt", "lit": "yes", "length_m": 14.03, "type_element": "Way", "__fid": 6934}, "geometry": {"type": "LineString", "coordinates": [[2.2685962, 48.8459164], [2.2686863, 48.8458051]]}}, {"type": "Feature", "properties": {"highway": "footway", "footway": "sidewalk", "name": null, "surface": null, "lit": null, "length_m": 9.2, "type_element": "Way", "__fid": 6961}, "geometry": {"type": "LineString", "coordinates": [[2.2687997, 48.8458403], [2.2686863, 48.8458051]]}}, {"type": "Feature", "properties": {"highway": "footway", "footway": "sidewalk", "name": null, "surface": null, "lit": null, "length_m": 2.54, "type_element": "Way", "__fid": 6963}, "geometry": {"type": "LineString", "coordinates": [[2.2686694, 48.8471874], [2.2686878, 48.8472068]]}}, {"type": "Feature", "properties": {"highway": "footway", "footway": "sidewalk", "name": null, "surface": null, "lit": null, "length_m": 19.15, "type_element": "Way", "__fid": 6971}, "geometry": {"type": "LineString", "coordinates": [[2.2686878, 48.8472068], [2.2687594, 48.8472821], [2.2687699, 48.8473651]]}}, {"type": "Feature", "properties": {"highway": "footway", "footway": "crossing", "name": null, "surface": null, "lit": "yes", "length_m": 14.88, "type_element": "Way", "__fid": 6972}, "geometry": {"type": "LineString", "coordinates": [[2.2686878, 48.8472068], [2.2688545, 48.847130600000014]]}}, {"type": "Feature", "properties": {"highway": "footway", "footway": "sidewalk", "name": null, "surface": null, "lit": null, "length_m": 35.78, "type_element": "Way", "__fid": 6973}, "geometry": {"type": "LineString", "coordinates": [[2.2687606, 48.8427679], [2.2689633, 48.842892], [2.2690833, 48.8430066]]}}, {"type": "Feature", "properties": {"highway": "footway", "footway": "crossing", "name": null, "surface": null, "lit": "yes", "length_m": 20.03, "type_element": "Way", "__fid": 6974}, "geometry": {"type": "LineString", "coordinates": [[2.2687606, 48.8427679], [2.2689259, 48.8426246]]}}, {"type": "Feature", "properties": {"highway": "footway", "footway": null, "name": null, "surface": "compacted", "lit": "yes", "length_m": 51.83, "type_element": "Way", "__fid": 6995}, "geometry": {"type": "LineString", "coordinates": [[2.2691442, 48.8442712], [2.2691269, 48.8442018], [2.2689399, 48.8440559], [2.2688909, 48.8440026], [2.2688003, 48.8438734]]}}, {"type": "Feature", "properties": {"highway": "footway", "footway": null, "name": null, "surface": "compacted", "lit": "yes", "length_m": 45.58, "type_element": "Way", "__fid": 6996}, "geometry": {"type": "LineString", "coordinates": [[2.2688003, 48.8438734], [2.2688639, 48.843821], [2.2689485, 48.8437167], [2.2689341, 48.843636], [2.2689493, 48.8434931]]}}, {"type": "Feature", "properties": {"highway": "footway", "footway": "sidewalk", "name": null, "surface": null, "lit": null, "length_m": 138.03, "type_element": "Way", "__fid": 6999}, "geometry": {"type": "LineString", "coordinates": [[2.2704993, 48.8463719], [2.2687997, 48.8458403]]}}, {"type": "Feature", "properties": {"highway": "footway", "footway": null, "name": "Allée Yvonne Beauvais", "surface": "concrete", "lit": "yes", "length_m": 37.5, "type_element": "Way", "__fid": 7000}, "geometry": {"type": "LineString", "coordinates": [[2.2690276, 48.8455385], [2.2687997, 48.8458403]]}}, {"type": "Feature", "properties": {"highway": "footway", "footway": "sidewalk", "name": null, "surface": null, "lit": null, "length_m": 9.57, "type_element": "Way", "__fid": 7016}, "geometry": {"type": "LineString", "coordinates": [[2.2689829, 48.8471455], [2.2688545, 48.847130600000014]]}}, {"type": "Feature", "properties": {"highway": "footway", "footway": "sidewalk", "name": null, "surface": null, "lit": null, "length_m": 339.95, "type_element": "Way", "__fid": 7018}, "geometry": {"type": "LineString", "coordinates": [[2.2689259, 48.8426246], [2.2690604, 48.8426915], [2.2693692, 48.8429501], [2.2699316, 48.84351940000001], [2.2706228, 48.8441749], [2.271568, 48.8451274]]}}, {"type": "Feature", "properties": {"highway": "footway", "footway": null, "name": null, "surface": "concrete:plates", "lit": "yes", "length_m": 93.83, "type_element": "Way", "__fid": 7026}, "geometry": {"type": "LineString", "coordinates": [[2.2695902, 48.844174], [2.2696235, 48.8440699], [2.2696143, 48.84403409999999], [2.2695657, 48.843968], [2.2692755, 48.8437067], [2.2690434, 48.8435447], [2.2689493, 48.8434931]]}}, {"type": "Feature", "properties": {"highway": "footway", "footway": null, "name": null, "surface": "concrete:plates", "lit": "yes", "length_m": 69.02, "type_element": "Way", "__fid": 7027}, "geometry": {"type": "LineString", "coordinates": [[2.2689493, 48.8434931], [2.2689444, 48.8434393], [2.2688584, 48.8432891], [2.268813, 48.8432568], [2.268785, 48.8432229], [2.2687701, 48.84318390000003], [2.2687742, 48.84315], [2.2690833, 48.8430066]]}}, {"type": "Feature", "properties": {"highway": "footway", "footway": "crossing", "name": null, "surface": null, "lit": "yes", "length_m": 14.97, "type_element": "Way", "__fid": 7037}, "geometry": {"type": "LineString", "coordinates": [[2.2690939, 48.8473484], [2.2689291, 48.8474277]]}}, {"type": "Feature", "properties": {"highway": "footway", "footway": null, "name": null, "surface": "concrete:plates", "lit": "yes", "length_m": 32.77, "type_element": "Way", "__fid": 7049}, "geometry": {"type": "LineString", "coordinates": [[2.2689941, 48.8451592], [2.2691698, 48.8451961], [2.2694312, 48.8452093]]}}, {"type": "Feature", "properties": {"highway": "footway", "footway": null, "name": null, "surface": "concrete:plates", "lit": "yes", "length_m": 34.08, "type_element": "Way", "__fid": 7050}, "geometry": {"type": "LineString", "coordinates": [[2.2689941, 48.8451592], [2.2689865, 48.8453041], [2.2690277, 48.845422499999984], [2.2690683, 48.84545219999998]]}}, {"type": "Feature", "properties": {"highway": "footway", "footway": null, "name": null, "surface": "concrete:plates", "lit": "yes", "length_m": 21.51, "type_element": "Way", "__fid": 7051}, "geometry": {"type": "LineString", "coordinates": [[2.2689994, 48.8449658], [2.2689941, 48.8451592]]}}, {"type": "Feature", "properties": {"highway": "footway", "footway": "crossing", "name": null, "surface": null, "lit": null, "length_m": 10.55, "type_element": "Way", "__fid": 7052}, "geometry": {"type": "LineString", "coordinates": [[2.2690608, 48.8472252], [2.2689829, 48.8471455]]}}, {"type": "Feature", "properties": {"highway": "footway", "footway": "sidewalk", "name": null, "surface": null, "lit": null, "length_m": 79.47, "type_element": "Way", "__fid": 7053}, "geometry": {"type": "LineString", "coordinates": [[2.2698996, 48.8467651], [2.2689829, 48.8471455]]}}, {"type": "Feature", "properties": {"highway": "footway", "footway": null, "name": null, "surface": null, "lit": "no", "length_m": 231.83, "type_element": "Way", "__fid": 7060}, "geometry": {"type": "LineString", "coordinates": [[2.2690276, 48.8455385], [2.2696457, 48.84571810000001], [2.2697846, 48.8457434], [2.2698605, 48.845748], [2.2699323, 48.84573380000001], [2.269962, 48.84568270000001], [2.2699523, 48.84563760000001], [2.2698825, 48.845517], [2.2698395, 48.8454154], [2.2698451, 48.84534809999999], [2.269922, 48.84514220000001], [2.2700529, 48.84490190000001], [2.2701233, 48.844873], [2.2701834, 48.8448919], [2.270362, 48.844972], [2.2706301, 48.8451514], [2.2706971, 48.8452198]]}}, {"type": "Feature", "properties": {"highway": "footway", "footway": null, "name": "Allée Yvonne Beauvais", "surface": "concrete", "lit": "no", "length_m": 10.05, "type_element": "Way", "__fid": 7061}, "geometry": {"type": "LineString", "coordinates": [[2.2690683, 48.84545219999998], [2.2690276, 48.8455385]]}}, {"type": "Feature", "properties": {"highway": "footway", "footway": "sidewalk", "name": null, "surface": null, "lit": null, "length_m": 310.78, "type_element": "Way", "__fid": 7067}, "geometry": {"type": "LineString", "coordinates": [[2.2690833, 48.8430066], [2.2698159, 48.8437056], [2.2714381, 48.8453294]]}}, {"type": "Feature", "properties": {"highway": "footway", "footway": null, "name": "Allée Yvonne Beauvais", "surface": "concrete:plates", "lit": "yes", "length_m": 38.3, "type_element": "Way", "__fid": 7069}, "geometry": {"type": "LineString", "coordinates": [[2.2690683, 48.84545219999998], [2.2691068, 48.8454352], [2.2692446, 48.8453173], [2.2693454, 48.8452719], [2.2694312, 48.8452093]]}}, {"type": "Feature", "properties": {"highway": "footway", "footway": "sidewalk", "name": null, "surface": null, "lit": null, "length_m": 13.91, "type_element": "Way", "__fid": 7078}, "geometry": {"type": "LineString", "coordinates": [[2.2690939, 48.8473484], [2.2690608, 48.8472252]]}}, {"type": "Feature", "properties": {"highway": "footway", "footway": "sidewalk", "name": null, "surface": null, "lit": null, "length_m": 65.59, "type_element": "Way", "__fid": 7079}, "geometry": {"type": "LineString", "coordinates": [[2.2690608, 48.8472252], [2.2690982, 48.8472006], [2.2697812, 48.8469184], [2.2698134, 48.8469276]]}}, {"type": "Feature", "properties": {"highway": "footway", "footway": "sidewalk", "name": null, "surface": null, "lit": null, "length_m": 11.25, "type_element": "Way", "__fid": 7088}, "geometry": {"type": "LineString", "coordinates": [[2.2691957, 48.847424], [2.2690939, 48.8473484]]}}, {"type": "Feature", "properties": {"highway": "footway", "footway": null, "name": null, "surface": "compacted", "lit": "yes", "length_m": 61.26, "type_element": "Way", "__fid": 7094}, "geometry": {"type": "LineString", "coordinates": [[2.2693775, 48.8447712], [2.2692885, 48.84466480000001], [2.269145, 48.8445214], [2.2691176, 48.844473], [2.2691038, 48.8444034], [2.2691071, 48.8443572], [2.2691442, 48.8442712]]}}, {"type": "Feature", "properties": {"highway": "footway", "footway": null, "name": null, "surface": "compacted", "lit": "yes", "length_m": 29.03, "type_element": "Way", "__fid": 7095}, "geometry": {"type": "LineString", "coordinates": [[2.2691442, 48.8442712], [2.2692572, 48.84422090000002], [2.2693809, 48.8441869], [2.2695021, 48.84416619999999]]}}, {"type": "Feature", "properties": {"highway": "footway", "footway": "sidewalk", "name": null, "surface": null, "lit": null, "length_m": 89.51, "type_element": "Way", "__fid": 7120}, "geometry": {"type": "LineString", "coordinates": [[2.2698134, 48.8469276], [2.2698421, 48.8469358], [2.269893, 48.8469973], [2.2699467, 48.84708830000001], [2.2699415, 48.847133], [2.2691957, 48.847424]]}}, {"type": "Feature", "properties": {"highway": "footway", "footway": "sidewalk", "name": null, "surface": null, "lit": null, "length_m": 63.26, "type_element": "Way", "__fid": 7160}, "geometry": {"type": "LineString", "coordinates": [[2.2699988, 48.8472146], [2.2693806, 48.8474714], [2.2693254, 48.8475502]]}}, {"type": "Feature", "properties": {"highway": "footway", "footway": null, "name": null, "surface": "compacted", "lit": "yes", "length_m": 11.28, "type_element": "Way", "__fid": 7181}, "geometry": {"type": "LineString", "coordinates": [[2.2695021, 48.84416619999999], [2.2694197, 48.8440806]]}}, {"type": "Feature", "properties": {"highway": "footway", "footway": null, "name": "Allée Yvonne Beauvais", "surface": "concrete:plates", "lit": "yes", "length_m": 89.89, "type_element": "Way", "__fid": 7188}, "geometry": {"type": "LineString", "coordinates": [[2.2694312, 48.8452093], [2.269637, 48.8450629], [2.2697646, 48.8449086], [2.2697888, 48.8448322], [2.2698272, 48.8446062], [2.2697728, 48.8444839]]}}, {"type": "Feature", "properties": {"highway": "footway", "footway": null, "name": null, "surface": "compacted", "lit": "yes", "length_m": 6.52, "type_element": "Way", "__fid": 7209}, "geometry": {"type": "LineString", "coordinates": [[2.2695021, 48.84416619999999], [2.2695902, 48.844174]]}}, {"type": "Feature", "properties": {"highway": "footway", "footway": null, "name": null, "surface": "compacted", "lit": "yes", "length_m": 33.36, "type_element": "Way", "__fid": 7216}, "geometry": {"type": "LineString", "coordinates": [[2.2697728, 48.8444839], [2.2696271, 48.8446591], [2.2695252, 48.8447333]]}}, {"type": "Feature", "properties": {"highway": "footway", "footway": null, "name": null, "surface": "compacted", "lit": "yes", "length_m": 37.84, "type_element": "Way", "__fid": 7238}, "geometry": {"type": "LineString", "coordinates": [[2.2695902, 48.844174], [2.2695845, 48.8442346], [2.2696089, 48.8442881], [2.2697728, 48.8444839]]}}, {"type": "Feature", "properties": {"highway": "footway", "footway": "sidewalk", "name": null, "surface": null, "lit": null, "length_m": 54.02, "type_element": "Way", "__fid": 7277}, "geometry": {"type": "LineString", "coordinates": [[2.2701759, 48.8427962], [2.2697811, 48.8423862]]}}, {"type": "Feature", "properties": {"highway": "footway", "footway": "crossing", "name": null, "surface": null, "lit": "yes", "length_m": 10.27, "type_element": "Way", "__fid": 7278}, "geometry": {"type": "LineString", "coordinates": [[2.2697811, 48.8423862], [2.2698985, 48.8423359]]}}, {"type": "Feature", "properties": {"highway": "footway", "footway": "crossing", "name": null, "surface": "asphalt", "lit": null, "length_m": 12.43, "type_element": "Way", "__fid": 7300}, "geometry": {"type": "LineString", "coordinates": [[2.2698134, 48.8469276], [2.2698358, 48.8469079], [2.2699535, 48.8468684]]}}, {"type": "Feature", "properties": {"highway": "footway", "footway": "sidewalk", "name": null, "surface": null, "lit": null, "length_m": 199.83, "type_element": "Way", "__fid": 7302}, "geometry": {"type": "LineString", "coordinates": [[2.2698985, 48.8423359], [2.2706415, 48.8431184], [2.2713623, 48.8438512]]}}, {"type": "Feature", "properties": {"highway": "footway", "footway": "crossing", "name": null, "surface": "asphalt", "lit": "yes", "length_m": 10.19, "type_element": "Way", "__fid": 7319}, "geometry": {"type": "LineString", "coordinates": [[2.2699717, 48.8468434], [2.2698996, 48.8467651]]}}, {"type": "Feature", "properties": {"highway": "footway", "footway": "sidewalk", "name": null, "surface": null, "lit": null, "length_m": 51.09, "type_element": "Way", "__fid": 7320}, "geometry": {"type": "LineString", "coordinates": [[2.2704655, 48.8465037], [2.2704093, 48.8465532], [2.2698996, 48.8467651]]}}, {"type": "Feature", "properties": {"highway": "service", "footway": null, "name": null, "surface": null, "lit": null, "length_m": 68.61, "type_element": "Way", "__fid": 7331}, "geometry": {"type": "LineString", "coordinates": [[2.2699843, 48.8428796], [2.2700319, 48.8429246], [2.2700303, 48.842935], [2.2697929, 48.84304119999999], [2.2697751, 48.8430403], [2.2696933, 48.8429558], [2.269698, 48.8429436], [2.2699267, 48.8428426], [2.2699468, 48.8428448], [2.2699843, 48.8428796]]}}, {"type": "Feature", "properties": {"highway": "service", "footway": null, "name": null, "surface": null, "lit": null, "length_m": 16.84, "type_element": "Way", "__fid": 7332}, "geometry": {"type": "LineString", "coordinates": [[2.2701759, 48.8427962], [2.2699843, 48.8428796]]}}, {"type": "Feature", "properties": {"highway": "footway", "footway": "crossing", "name": null, "surface": "asphalt", "lit": null, "length_m": 9.4, "type_element": "Way", "__fid": 7340}, "geometry": {"type": "LineString", "coordinates": [[2.269945099999832, 48.847137866666706], [2.2699988, 48.8472146]]}}, {"type": "Feature", "properties": {"highway": "footway", "footway": "sidewalk", "name": null, "surface": null, "lit": null, "length_m": 23.23, "type_element": "Way", "__fid": 7343}, "geometry": {"type": "LineString", "coordinates": [[2.2699535, 48.8468684], [2.2699535, 48.8468876], [2.2700666, 48.847062]]}}, {"type": "Feature", "properties": {"highway": "footway", "footway": "sidewalk", "name": null, "surface": null, "lit": null, "length_m": 3.08, "type_element": "Way", "__fid": 7344}, "geometry": {"type": "LineString", "coordinates": [[2.2699535, 48.8468684], [2.2699717, 48.8468434]]}}, {"type": "Feature", "properties": {"highway": "footway", "footway": "crossing", "name": null, "surface": "asphalt", "lit": null, "length_m": 8.87, "type_element": "Way", "__fid": 7345}, "geometry": {"type": "LineString", "coordinates": [[2.269951900000062, 48.84708703333341], [2.2700666, 48.847062]]}}, {"type": "Feature", "properties": {"highway": "footway", "footway": "sidewalk", "name": null, "surface": "asphalt", "lit": null, "length_m": 57.28, "type_element": "Way", "__fid": 7352}, "geometry": {"type": "LineString", "coordinates": [[2.2706281, 48.846565], [2.2704696, 48.8466256], [2.2699717, 48.8468434]]}}, {"type": "Feature", "properties": {"highway": "footway", "footway": "sidewalk", "name": null, "surface": null, "lit": null, "length_m": 163.45, "type_element": "Way", "__fid": 7363}, "geometry": {"type": "LineString", "coordinates": [[2.2720239, 48.846979], [2.2719273, 48.8469578], [2.2718858, 48.8469657], [2.270149, 48.84734430000001], [2.2700176, 48.8472164], [2.2699988, 48.8472146]]}}, {"type": "Feature", "properties": {"highway": "footway", "footway": "sidewalk", "name": null, "surface": "asphalt", "lit": null, "length_m": 143.87, "type_element": "Way", "__fid": 7385}, "geometry": {"type": "LineString", "coordinates": [[2.2700666, 48.847062], [2.2701813, 48.8472527], [2.2702054, 48.8472549], [2.2716846, 48.8469301], [2.2717255, 48.8468957]]}}, {"type": "Feature", "properties": {"highway": "footway", "footway": "sidewalk", "name": null, "surface": null, "lit": null, "length_m": 145.66, "type_element": "Way", "__fid": 7399}, "geometry": {"type": "LineString", "coordinates": [[2.2712405, 48.8439018], [2.2701759, 48.8427962]]}}, {"type": "Feature", "properties": {"highway": "service", "footway": null, "name": null, "surface": null, "lit": null, "length_m": 4.33, "type_element": "Way", "__fid": 7400}, "geometry": {"type": "LineString", "coordinates": [[2.2702256, 48.8427752], [2.2701759, 48.8427962]]}}, {"type": "Feature", "properties": {"highway": "footway", "footway": "sidewalk", "name": null, "surface": null, "lit": null, "length_m": 5.29, "type_element": "Way", "__fid": 7496}, "geometry": {"type": "LineString", "coordinates": [[2.2704095, 48.84647370000001], [2.2704655, 48.8465037]]}}, {"type": "Feature", "properties": {"highway": "footway", "footway": "crossing", "name": null, "surface": null, "lit": "yes", "length_m": 13.4, "type_element": "Way", "__fid": 7497}, "geometry": {"type": "LineString", "coordinates": [[2.2704095, 48.84647370000001], [2.2704409, 48.8464586], [2.2704993, 48.8463719]]}}, {"type": "Feature", "properties": {"highway": "footway", "footway": "crossing", "name": null, "surface": null, "lit": "yes", "length_m": 13.95, "type_element": "Way", "__fid": 7528}, "geometry": {"type": "LineString", "coordinates": [[2.2704655, 48.8465037], [2.2706178, 48.8465537], [2.2706281, 48.846565]]}}, {"type": "Feature", "properties": {"highway": "footway", "footway": "sidewalk", "name": null, "surface": null, "lit": null, "length_m": 9.28, "type_element": "Way", "__fid": 7537}, "geometry": {"type": "LineString", "coordinates": [[2.2706212, 48.84636320000001], [2.2705113, 48.8463773], [2.2704993, 48.8463719]]}}, {"type": "Feature", "properties": {"highway": "footway", "footway": "crossing", "name": null, "surface": null, "lit": "yes", "length_m": 10.47, "type_element": "Way", "__fid": 7578}, "geometry": {"type": "LineString", "coordinates": [[2.2706212, 48.84636320000001], [2.2706272, 48.8463758], [2.270717, 48.84641070000002], [2.2707354, 48.84641160000001]]}}, {"type": "Feature", "properties": {"highway": "footway", "footway": "sidewalk", "name": null, "surface": null, "lit": null, "length_m": 125.39, "type_element": "Way", "__fid": 7579}, "geometry": {"type": "LineString", "coordinates": [[2.2714276, 48.8453713], [2.2714185, 48.8454075], [2.2706212, 48.84636320000001]]}}, {"type": "Feature", "properties": {"highway": "footway", "footway": "sidewalk", "name": null, "surface": "asphalt", "lit": null, "length_m": 4.44, "type_element": "Way", "__fid": 7580}, "geometry": {"type": "LineString", "coordinates": [[2.2706848, 48.846551], [2.2706281, 48.846565]]}}, {"type": "Feature", "properties": {"highway": "footway", "footway": "sidewalk", "name": null, "surface": "asphalt", "lit": null, "length_m": 30.55, "type_element": "Way", "__fid": 7604}, "geometry": {"type": "LineString", "coordinates": [[2.2710609, 48.84666869999999], [2.2706848, 48.846551]]}}, {"type": "Feature", "properties": {"highway": "footway", "footway": "crossing", "name": null, "surface": null, "lit": "yes", "length_m": 12.06, "type_element": "Way", "__fid": 7605}, "geometry": {"type": "LineString", "coordinates": [[2.2706848, 48.846551], [2.2707404, 48.8464756], [2.2707649, 48.8464571]]}}, {"type": "Feature", "properties": {"highway": "footway", "footway": "sidewalk", "name": null, "surface": "asphalt", "lit": null, "length_m": 5.5, "type_element": "Way", "__fid": 7627}, "geometry": {"type": "LineString", "coordinates": [[2.2707649, 48.8464571], [2.2707354, 48.84641160000001]]}}, {"type": "Feature", "properties": {"highway": "footway", "footway": "sidewalk", "name": null, "surface": "asphalt", "lit": null, "length_m": 121.1, "type_element": "Way", "__fid": 7628}, "geometry": {"type": "LineString", "coordinates": [[2.2707354, 48.84641160000001], [2.2715302, 48.8454572]]}}, {"type": "Feature", "properties": {"highway": "footway", "footway": "sidewalk", "name": null, "surface": "asphalt", "lit": null, "length_m": 15.73, "type_element": "Way", "__fid": 7647}, "geometry": {"type": "LineString", "coordinates": [[2.2709641, 48.8465093], [2.2707649, 48.8464571]]}}, {"type": "Feature", "properties": {"highway": "footway", "footway": "crossing", "name": null, "surface": null, "lit": "yes", "length_m": 13.7, "type_element": "Way", "__fid": 7721}, "geometry": {"type": "LineString", "coordinates": [[2.2709641, 48.8465093], [2.2711159, 48.8465509], [2.271138, 48.84654920000001]]}}, {"type": "Feature", "properties": {"highway": "footway", "footway": "sidewalk", "name": null, "surface": "asphalt", "lit": null, "length_m": 102.59, "type_element": "Way", "__fid": 7722}, "geometry": {"type": "LineString", "coordinates": [[2.272237, 48.8461405], [2.2721502, 48.8461896], [2.2710017, 48.846488600000015], [2.2709641, 48.8465093]]}}, {"type": "Feature", "properties": {"highway": "footway", "footway": null, "name": null, "surface": "paving_stones", "lit": "yes", "length_m": 87.8, "type_element": "Way", "__fid": 7761}, "geometry": {"type": "LineString", "coordinates": [[2.2717028, 48.841616399999985], [2.2711167, 48.840928]]}}, {"type": "Feature", "properties": {"highway": "footway", "footway": "sidewalk", "name": null, "surface": "asphalt", "lit": null, "length_m": 55.5, "type_element": "Way", "__fid": 7770}, "geometry": {"type": "LineString", "coordinates": [[2.2717255, 48.8468957], [2.2717041, 48.8468701], [2.2710609, 48.84666869999999]]}}, {"type": "Feature", "properties": {"highway": "footway", "footway": "crossing", "name": null, "surface": null, "lit": "yes", "length_m": 12.71, "type_element": "Way", "__fid": 7771}, "geometry": {"type": "LineString", "coordinates": [[2.2710609, 48.84666869999999], [2.2711313, 48.8465788], [2.2711474, 48.8465712]]}}, {"type": "Feature", "properties": {"highway": "footway", "footway": "sidewalk", "name": null, "surface": null, "lit": null, "length_m": 2.54, "type_element": "Way", "__fid": 7792}, "geometry": {"type": "LineString", "coordinates": [[2.271138, 48.84654920000001], [2.2711474, 48.8465712]]}}, {"type": "Feature", "properties": {"highway": "footway", "footway": "sidewalk", "name": null, "surface": null, "lit": null, "length_m": 93.44, "type_element": "Way", "__fid": 7793}, "geometry": {"type": "LineString", "coordinates": [[2.2723215, 48.8462404], [2.2721911, 48.8462662], [2.271138, 48.84654920000001]]}}, {"type": "Feature", "properties": {"highway": "footway", "footway": "sidewalk", "name": null, "surface": null, "lit": null, "length_m": 77.4, "type_element": "Way", "__fid": 7800}, "geometry": {"type": "LineString", "coordinates": [[2.2711474, 48.8465712], [2.2721121, 48.8468526]]}}, {"type": "Feature", "properties": {"highway": "footway", "footway": "sidewalk", "name": null, "surface": null, "lit": null, "length_m": 76.52, "type_element": "Way", "__fid": 7829}, "geometry": {"type": "LineString", "coordinates": [[2.2717997, 48.8444826], [2.2712405, 48.8439018]]}}, {"type": "Feature", "properties": {"highway": "footway", "footway": "crossing", "name": null, "surface": null, "lit": "yes", "length_m": 10.56, "type_element": "Way", "__fid": 7830}, "geometry": {"type": "LineString", "coordinates": [[2.2713623, 48.8438512], [2.2712405, 48.8439018]]}}, {"type": "Feature", "properties": {"highway": "service", "footway": null, "name": "Port de Javel", "surface": "sett", "lit": "yes", "length_m": 118.57, "type_element": "Way", "__fid": 7844}, "geometry": {"type": "LineString", "coordinates": [[2.2720376, 48.8416056], [2.2719786, 48.841486], [2.2719644, 48.8414022], [2.2719042, 48.8413066], [2.2718297, 48.841219], [2.2715714, 48.8409627], [2.2713117, 48.840664]]}}, {"type": "Feature", "properties": {"highway": "footway", "footway": "sidewalk", "name": null, "surface": null, "lit": null, "length_m": 69.16, "type_element": "Way", "__fid": 7872}, "geometry": {"type": "LineString", "coordinates": [[2.2713623, 48.8438512], [2.2718699, 48.8443752]]}}, {"type": "Feature", "properties": {"highway": "footway", "footway": "crossing", "name": null, "surface": null, "lit": "yes", "length_m": 12.42, "type_element": "Way", "__fid": 7910}, "geometry": {"type": "LineString", "coordinates": [[2.2714276, 48.8453713], [2.2714541, 48.84538290000001], [2.2715212, 48.8454387], [2.2715302, 48.8454572]]}}, {"type": "Feature", "properties": {"highway": "footway", "footway": "sidewalk", "name": null, "surface": null, "lit": null, "length_m": 4.72, "type_element": "Way", "__fid": 7911}, "geometry": {"type": "LineString", "coordinates": [[2.2714381, 48.8453294], [2.2714276, 48.8453713]]}}, {"type": "Feature", "properties": {"highway": "footway", "footway": "crossing", "name": null, "surface": null, "lit": "yes", "length_m": 25.08, "type_element": "Way", "__fid": 7914}, "geometry": {"type": "LineString", "coordinates": [[2.2714381, 48.8453294], [2.2714753, 48.8453145], [2.271568, 48.8451274]]}}, {"type": "Feature", "properties": {"highway": "footway", "footway": "sidewalk", "name": null, "surface": "asphalt", "lit": null, "length_m": 7.5, "type_element": "Way", "__fid": 7936}, "geometry": {"type": "LineString", "coordinates": [[2.2715302, 48.8454572], [2.2716145, 48.8454953]]}}, {"type": "Feature", "properties": {"highway": "footway", "footway": "sidewalk", "name": null, "surface": null, "lit": null, "length_m": 3.43, "type_element": "Way", "__fid": 7948}, "geometry": {"type": "LineString", "coordinates": [[2.271568, 48.8451274], [2.2716147, 48.845126]]}}, {"type": "Feature", "properties": {"highway": "footway", "footway": "crossing", "name": null, "surface": null, "lit": "yes", "length_m": 18.09, "type_element": "Way", "__fid": 7957}, "geometry": {"type": "LineString", "coordinates": [[2.2716147, 48.845126], [2.2716152, 48.8451446], [2.2717269, 48.8452684]]}}, {"type": "Feature", "properties": {"highway": "footway", "footway": "sidewalk", "name": null, "surface": null, "lit": null, "length_m": 65.7, "type_element": "Way", "__fid": 7958}, "geometry": {"type": "LineString", "coordinates": [[2.2716147, 48.845126], [2.2716412, 48.8451006], [2.2718077, 48.8445515]]}}, {"type": "Feature", "properties": {"highway": "footway", "footway": "sidewalk", "name": null, "surface": "asphalt", "lit": null, "length_m": 85.56, "type_element": "Way", "__fid": 7961}, "geometry": {"type": "LineString", "coordinates": [[2.2716145, 48.8454953], [2.2722416, 48.846124], [2.272237, 48.8461405]]}}, {"type": "Feature", "properties": {"highway": "footway", "footway": "crossing", "name": null, "surface": null, "lit": "yes", "length_m": 21.04, "type_element": "Way", "__fid": 7962}, "geometry": {"type": "LineString", "coordinates": [[2.2716145, 48.8454953], [2.2716432, 48.8454755], [2.2718483, 48.8453868]]}}, {"type": "Feature", "properties": {"highway": "footway", "footway": null, "name": null, "surface": "paving_stones", "lit": null, "length_m": 28.67, "type_element": "Way", "__fid": 7973}, "geometry": {"type": "LineString", "coordinates": [[2.2717028, 48.841616399999985], [2.2718116, 48.8417552], [2.2716761, 48.8418033]]}}, {"type": "Feature", "properties": {"highway": "footway", "footway": null, "name": null, "surface": "paving_stones", "lit": "yes", "length_m": 27.21, "type_element": "Way", "__fid": 7978}, "geometry": {"type": "LineString", "coordinates": [[2.2720376, 48.8416056], [2.2719558, 48.841565], [2.2718565, 48.8415703], [2.2717028, 48.841616399999985]]}}, {"type": "Feature", "properties": {"highway": "footway", "footway": "sidewalk", "name": null, "surface": "asphalt", "lit": null, "length_m": 15.9, "type_element": "Way", "__fid": 8010}, "geometry": {"type": "LineString", "coordinates": [[2.2718483, 48.8453868], [2.2717269, 48.8452684]]}}, {"type": "Feature", "properties": {"highway": "footway", "footway": "sidewalk", "name": null, "surface": "asphalt", "lit": null, "length_m": 69.83, "type_element": "Way", "__fid": 8011}, "geometry": {"type": "LineString", "coordinates": [[2.2717269, 48.8452684], [2.2719053, 48.8446726], [2.2719254, 48.8446567]]}}, {"type": "Feature", "properties": {"highway": "footway", "footway": "crossing", "name": null, "surface": "asphalt", "lit": null, "length_m": 15.99, "type_element": "Way", "__fid": 8016}, "geometry": {"type": "LineString", "coordinates": [[2.2717255, 48.8468957], [2.2717452, 48.8468961], [2.27192349999983, 48.84695313333337]]}}, {"type": "Feature", "properties": {"highway": "footway", "footway": "sidewalk", "name": null, "surface": null, "lit": null, "length_m": 8.09, "type_element": "Way", "__fid": 8024}, "geometry": {"type": "LineString", "coordinates": [[2.2718077, 48.8445515], [2.27182, 48.8445107], [2.2717997, 48.8444826]]}}, {"type": "Feature", "properties": {"highway": "footway", "footway": "crossing", "name": null, "surface": null, "lit": "yes", "length_m": 13.01, "type_element": "Way", "__fid": 8025}, "geometry": {"type": "LineString", "coordinates": [[2.2718699, 48.8443752], [2.2717997, 48.8444826]]}}, {"type": "Feature", "properties": {"highway": "footway", "footway": "crossing", "name": null, "surface": null, "lit": "yes", "length_m": 14.54, "type_element": "Way", "__fid": 8028}, "geometry": {"type": "LineString", "coordinates": [[2.2718077, 48.8445515], [2.2719254, 48.8446567]]}}, {"type": "Feature", "properties": {"highway": "footway", "footway": "sidewalk", "name": null, "surface": "asphalt", "lit": null, "length_m": 101.54, "type_element": "Way", "__fid": 8045}, "geometry": {"type": "LineString", "coordinates": [[2.272614, 48.84614740000002], [2.2718483, 48.8453868]]}}, {"type": "Feature", "properties": {"highway": "footway", "footway": "crossing", "name": null, "surface": null, "lit": "yes", "length_m": 25.49, "type_element": "Way", "__fid": 8046}, "geometry": {"type": "LineString", "coordinates": [[2.2718699, 48.8443752], [2.272049, 48.8445716]]}}, {"type": "Feature", "properties": {"highway": "footway", "footway": "sidewalk", "name": null, "surface": "asphalt", "lit": null, "length_m": 3.26, "type_element": "Way", "__fid": 8066}, "geometry": {"type": "LineString", "coordinates": [[2.2719254, 48.8446567], [2.2719697, 48.84465929999999]]}}, {"type": "Feature", "properties": {"highway": "footway", "footway": "sidewalk", "name": null, "surface": "asphalt", "lit": null, "length_m": 317.14, "type_element": "Way", "__fid": 8091}, "geometry": {"type": "LineString", "coordinates": [[2.2719697, 48.84465929999999], [2.2730197, 48.8457454], [2.2733793, 48.84611120000001], [2.273412, 48.8461296], [2.2742493, 48.8470214], [2.2742728, 48.8470692]]}}, {"type": "Feature", "properties": {"highway": "footway", "footway": "crossing", "name": null, "surface": null, "lit": "yes", "length_m": 11.36, "type_element": "Way", "__fid": 8092}, "geometry": {"type": "LineString", "coordinates": [[2.2719697, 48.84465929999999], [2.272049, 48.8445716]]}}, {"type": "Feature", "properties": {"highway": "service", "footway": null, "name": "Port de Javel", "surface": "sett", "lit": null, "length_m": 52.83, "type_element": "Way", "__fid": 8102}, "geometry": {"type": "LineString", "coordinates": [[2.2724183, 48.842008800000016], [2.2720376, 48.8416056]]}}, {"type": "Feature", "properties": {"highway": "footway", "footway": "sidewalk", "name": "Quai Louis Blériot", "surface": "asphalt", "lit": null, "length_m": 325.47, "type_element": "Way", "__fid": 8119}, "geometry": {"type": "LineString", "coordinates": [[2.272049, 48.8445716], [2.2723152, 48.8448306], [2.2725545, 48.8450927], [2.2743688, 48.8469866], [2.2744619, 48.8470143]]}}, {"type": "Feature", "properties": {"highway": "footway", "footway": "sidewalk", "name": null, "surface": null, "lit": null, "length_m": 94.51, "type_element": "Way", "__fid": 8124}, "geometry": {"type": "LineString", "coordinates": [[2.2731947, 48.847333], [2.2720239, 48.846979]]}}, {"type": "Feature", "properties": {"highway": "footway", "footway": "crossing", "name": null, "surface": "asphalt", "lit": "yes", "length_m": 15.47, "type_element": "Way", "__fid": 8125}, "geometry": {"type": "LineString", "coordinates": [[2.2720239, 48.846979], [2.2721121, 48.8468526]]}}, {"type": "Feature", "properties": {"highway": "footway", "footway": "sidewalk", "name": null, "surface": null, "lit": null, "length_m": 20.67, "type_element": "Way", "__fid": 8150}, "geometry": {"type": "LineString", "coordinates": [[2.2721121, 48.8468526], [2.2723697, 48.8469277]]}}, {"type": "Feature", "properties": {"highway": "footway", "footway": "crossing", "name": null, "surface": null, "lit": "yes", "length_m": 13.2, "type_element": "Way", "__fid": 8193}, "geometry": {"type": "LineString", "coordinates": [[2.2723215, 48.8462404], [2.272322, 48.8462229], [2.2722576, 48.8461492], [2.272237, 48.8461405]]}}, {"type": "Feature", "properties": {"highway": "footway", "footway": "sidewalk", "name": null, "surface": null, "lit": null, "length_m": 4.33, "type_element": "Way", "__fid": 8231}, "geometry": {"type": "LineString", "coordinates": [[2.2723754, 48.8462562], [2.2723215, 48.8462404]]}}, {"type": "Feature", "properties": {"highway": "service", "footway": null, "name": "Port de Javel", "surface": "sett", "lit": null, "length_m": 69.75, "type_element": "Way", "__fid": 8246}, "geometry": {"type": "LineString", "coordinates": [[2.2729655, 48.8425206], [2.2728355, 48.84240449999999], [2.2727216, 48.842317], [2.2724183, 48.842008800000016]]}}, {"type": "Feature", "properties": {"highway": "footway", "footway": "path", "name": null, "surface": "sett", "lit": "no", "length_m": 27.01, "type_element": "Way", "__fid": 8247}, "geometry": {"type": "LineString", "coordinates": [[2.2727423, 48.8418937], [2.2724183, 48.842008800000016]]}}, {"type": "Feature", "properties": {"highway": "footway", "footway": "sidewalk", "name": null, "surface": null, "lit": null, "length_m": 111.98, "type_element": "Way", "__fid": 8252}, "geometry": {"type": "LineString", "coordinates": [[2.2732295, 48.8470907], [2.2723754, 48.8462562]]}}, {"type": "Feature", "properties": {"highway": "footway", "footway": "traffic_island", "name": null, "surface": null, "lit": "yes", "length_m": 21.28, "type_element": "Way", "__fid": 8253}, "geometry": {"type": "LineString", "coordinates": [[2.2723754, 48.8462562], [2.272614, 48.84614740000002]]}}, {"type": "Feature", "properties": {"highway": "footway", "footway": "sidewalk", "name": null, "surface": "asphalt", "lit": null, "length_m": 24.05, "type_element": "Way", "__fid": 8258}, "geometry": {"type": "LineString", "coordinates": [[2.2723697, 48.8469277], [2.272434, 48.8469392], [2.272671, 48.8470114]]}}, {"type": "Feature", "properties": {"highway": "steps", "footway": null, "name": null, "surface": "asphalt", "lit": null, "length_m": 8.95, "type_element": "Way", "__fid": 8259}, "geometry": {"type": "LineString", "coordinates": [[2.2723697, 48.8469277], [2.2724035, 48.8469512], [2.2724699, 48.8469711]]}}, {"type": "Feature", "properties": {"highway": "footway", "footway": "path", "name": "Allée des Peshmergas", "surface": null, "lit": null, "length_m": 88.66, "type_element": "Way", "__fid": 8334}, "geometry": {"type": "LineString", "coordinates": [[2.2732424, 48.8421293], [2.2726247, 48.84144409999998]]}}, {"type": "Feature", "properties": {"highway": "footway", "footway": "path", "name": null, "surface": "paving_stones", "lit": null, "length_m": 65.35, "type_element": "Way", "__fid": 8335}, "geometry": {"type": "LineString", "coordinates": [[2.2726247, 48.84144409999998], [2.2724124, 48.84153180000001], [2.2727423, 48.8418937]]}}, {"type": "Feature", "properties": {"highway": "footway", "footway": "path", "name": null, "surface": "paving_stones", "lit": null, "length_m": 4.84, "type_element": "Way", "__fid": 8336}, "geometry": {"type": "LineString", "coordinates": [[2.2726806, 48.841421], [2.2726247, 48.84144409999998]]}}, {"type": "Feature", "properties": {"highway": "steps", "footway": null, "name": null, "surface": null, "lit": null, "length_m": 9.58, "type_element": "Way", "__fid": 8337}, "geometry": {"type": "LineString", "coordinates": [[2.272671, 48.8470114], [2.272617, 48.8470181], [2.2725493, 48.8469959]]}}, {"type": "Feature", "properties": {"highway": "footway", "footway": "sidewalk", "name": null, "surface": "asphalt", "lit": null, "length_m": 140.95, "type_element": "Way", "__fid": 8351}, "geometry": {"type": "LineString", "coordinates": [[2.2736805, 48.8472016], [2.272614, 48.84614740000002]]}}, {"type": "Feature", "properties": {"highway": "footway", "footway": "path", "name": "Allée des Peshmergas", "surface": "paving_stones", "lit": "no", "length_m": 88.75, "type_element": "Way", "__fid": 8352}, "geometry": {"type": "LineString", "coordinates": [[2.2733094, 48.8421028], [2.2726806, 48.841421]]}}, {"type": "Feature", "properties": {"highway": "footway", "footway": "sidewalk", "name": null, "surface": "asphalt", "lit": null, "length_m": 37.07, "type_element": "Way", "__fid": 8374}, "geometry": {"type": "LineString", "coordinates": [[2.272671, 48.8470114], [2.2731245, 48.8471582]]}}, {"type": "Feature", "properties": {"highway": "service", "footway": null, "name": null, "surface": "sett", "lit": "yes", "length_m": 149.51, "type_element": "Way", "__fid": 8490}, "geometry": {"type": "LineString", "coordinates": [[2.2735778, 48.8435765], [2.2726614, 48.8426708], [2.272759, 48.8425924], [2.2729655, 48.8425206]]}}]}