{"type": "FeatureCollection", "features": [{"type": "Feature", "properties": {"@id": "node/10896555965", "access": "yes", "amenity": "drinking_water", "bottle": "no", "fee": "no", "man_made": "water_tap", "wheelchair": "yes", "type_element": "Fontaines à boire", "__fid": 860}, "geometry": {"type": "Point", "coordinates": [2.2700618, 48.8303076]}, "id": "node/10896555965"}, {"type": "Feature", "properties": {"@id": "node/12216991486", "access": "yes", "amenity": "drinking_water", "bottle": "no", "fee": "no", "man_made": "water_tap", "wheelchair": "yes", "type_element": "Fontaines à boire", "__fid": 974}, "geometry": {"type": "Point", "coordinates": [2.2694655, 48.8312309]}, "id": "node/12216991486"}, {"type": "Feature", "properties": {"@id": "node/12216991487", "access": "yes", "amenity": "drinking_water", "bottle": "no", "fee": "no", "man_made": "water_tap", "panoramax": "b007e565-2690-4425-9d89-4456734cc50a", "wheelchair": "yes", "type_element": "Fontaines à boire", "__fid": 975}, "geometry": {"type": "Point", "coordinates": [2.2697056, 48.8322834]}, "id": "node/12216991487"}, {"type": "Feature", "properties": {"@id": "node/12725450625", "amenity": "drinking_water", "capacity": "3", "panoramax": "24b64b16-704c-415f-92cf-f42679403015", "source": "survey", "survey:date": "2025-04-03", "type_element": "Fontaines à boire", "__fid": 996}, "geometry": {"type": "Point", "coordinates": [2.2695352, 48.8319062]}, "id": "node/12725450625"}, {"type": "Feature", "properties": {"highway": "footway", "footway": "sidewalk", "name": null, "surface": "compacted", "lit": "yes", "length_m": 413.34, "type_element": "Way", "__fid": 5218}, "geometry": {"type": "LineString", "coordinates": [[2.2652762, 48.8345975], [2.2650857, 48.8344499], [2.2649485, 48.83432770000002], [2.2643761, 48.8337703], [2.2640059, 48.8333943], [2.2635242, 48.8329426], [2.2628564, 48.8322346], [2.2621243, 48.8315196]]}}, {"type": "Feature", "properties": {"highway": "footway", "footway": "sidewalk", "name": null, "surface": "compacted", "lit": "yes", "length_m": 420.41, "type_element": "Way", "__fid": 5293}, "geometry": {"type": "LineString", "coordinates": [[2.2623709, 48.83138309999999], [2.2653186, 48.834314], [2.2657003, 48.83438870000001]]}}, {"type": "Feature", "properties": {"highway": "service", "footway": null, "name": null, "surface": null, "lit": null, "length_m": 308.74, "type_element": "Way", "__fid": 5370}, "geometry": {"type": "LineString", "coordinates": [[2.262617, 48.8350277], [2.2648754, 48.8371961], [2.2649257, 48.83728090000001], [2.264924, 48.8373122], [2.2649026, 48.8373301]]}}, {"type": "Feature", "properties": {"highway": "service", "footway": null, "name": null, "surface": null, "lit": "yes", "length_m": 17.1, "type_element": "Way", "__fid": 5923}, "geometry": {"type": "LineString", "coordinates": [[2.2650813, 48.83468170000001], [2.2652762, 48.8345975]]}}, {"type": "Feature", "properties": {"highway": "footway", "footway": "sidewalk", "name": null, "surface": "compacted", "lit": "yes", "length_m": 11.4, "type_element": "Way", "__fid": 5988}, "geometry": {"type": "LineString", "coordinates": [[2.2653769, 48.8346755], [2.2652762, 48.8345975]]}}, {"type": "Feature", "properties": {"highway": "service", "footway": null, "name": null, "surface": null, "lit": "yes", "length_m": 7.26, "type_element": "Way", "__fid": 5989}, "geometry": {"type": "LineString", "coordinates": [[2.2652762, 48.8345975], [2.2653597, 48.8345625]]}}, {"type": "Feature", "properties": {"highway": "footway", "footway": "sidewalk", "name": null, "surface": "compacted", "lit": "yes", "length_m": 3.93, "type_element": "Way", "__fid": 6003}, "geometry": {"type": "LineString", "coordinates": [[2.2654082, 48.8347042], [2.2653769, 48.8346755]]}}, {"type": "Feature", "properties": {"highway": "footway", "footway": "traffic_island", "name": null, "surface": null, "lit": "yes", "length_m": 24.04, "type_element": "Way", "__fid": 6004}, "geometry": {"type": "LineString", "coordinates": [[2.2653769, 48.8346755], [2.2654824, 48.8346275], [2.2656189, 48.8345316]]}}, {"type": "Feature", "properties": {"highway": "footway", "footway": "sidewalk", "name": null, "surface": "compacted", "lit": "yes", "length_m": 76.39, "type_element": "Way", "__fid": 6011}, "geometry": {"type": "LineString", "coordinates": [[2.266, 48.8352692], [2.2657078, 48.8349789], [2.2654082, 48.8347042]]}}, {"type": "Feature", "properties": {"highway": "footway", "footway": "sidewalk", "name": null, "surface": null, "lit": "yes", "length_m": 3.44, "type_element": "Way", "__fid": 6012}, "geometry": {"type": "LineString", "coordinates": [[2.2654082, 48.8347042], [2.2654445, 48.8346847]]}}, {"type": "Feature", "properties": {"highway": "service", "footway": null, "name": null, "surface": "asphalt", "lit": "yes", "length_m": 43.42, "type_element": "Way", "__fid": 6037}, "geometry": {"type": "LineString", "coordinates": [[2.2655064, 48.8350454], [2.2655835, 48.8350449], [2.2656237, 48.835056], [2.2658839, 48.835315]]}}, {"type": "Feature", "properties": {"highway": "footway", "footway": "crossing", "name": null, "surface": null, "lit": "yes", "length_m": 18.76, "type_element": "Way", "__fid": 6071}, "geometry": {"type": "LineString", "coordinates": [[2.2656189, 48.8345316], [2.2658284, 48.8346283]]}}, {"type": "Feature", "properties": {"highway": "footway", "footway": "traffic_island", "name": null, "surface": null, "lit": "yes", "length_m": 17.2, "type_element": "Way", "__fid": 6072}, "geometry": {"type": "LineString", "coordinates": [[2.2656189, 48.8345316], [2.2656437, 48.8345137], [2.2657003, 48.83438870000001]]}}, {"type": "Feature", "properties": {"highway": "footway", "footway": "sidewalk", "name": null, "surface": "compacted", "lit": "yes", "length_m": 98.37, "type_element": "Way", "__fid": 6097}, "geometry": {"type": "LineString", "coordinates": [[2.2657003, 48.83438870000001], [2.2659818, 48.8344438], [2.2661117, 48.8344534], [2.2663419, 48.8344093], [2.2667529, 48.8340549]]}}, {"type": "Feature", "properties": {"highway": "service", "footway": null, "name": null, "surface": "asphalt", "lit": "yes", "length_m": 7.42, "type_element": "Way", "__fid": 6119}, "geometry": {"type": "LineString", "coordinates": [[2.2657772, 48.8346902], [2.2658783, 48.8346921]]}}, {"type": "Feature", "properties": {"highway": "footway", "footway": "sidewalk", "name": null, "surface": null, "lit": "yes", "length_m": 8.2, "type_element": "Way", "__fid": 6136}, "geometry": {"type": "LineString", "coordinates": [[2.2658284, 48.8346283], [2.2658369, 48.834657], [2.2658783, 48.8346921]]}}, {"type": "Feature", "properties": {"highway": "footway", "footway": "sidewalk", "name": null, "surface": null, "lit": "yes", "length_m": 10.01, "type_element": "Way", "__fid": 6137}, "geometry": {"type": "LineString", "coordinates": [[2.2658284, 48.8346283], [2.2658321, 48.8346049], [2.2658551, 48.834587599999985], [2.2659203, 48.8345816]]}}, {"type": "Feature", "properties": {"highway": "service", "footway": null, "name": null, "surface": null, "lit": "yes", "length_m": 6.56, "type_element": "Way", "__fid": 6140}, "geometry": {"type": "LineString", "coordinates": [[2.2658731, 48.8345315], [2.2659203, 48.8345816]]}}, {"type": "Feature", "properties": {"highway": "service", "footway": null, "name": null, "surface": "asphalt", "lit": "yes", "length_m": 11.62, "type_element": "Way", "__fid": 6144}, "geometry": {"type": "LineString", "coordinates": [[2.2658783, 48.8346921], [2.2660366, 48.8346951]]}}, {"type": "Feature", "properties": {"highway": "footway", "footway": "sidewalk", "name": null, "surface": null, "lit": "yes", "length_m": 53.1, "type_element": "Way", "__fid": 6145}, "geometry": {"type": "LineString", "coordinates": [[2.2658783, 48.8346921], [2.266335, 48.83506240000001]]}}, {"type": "Feature", "properties": {"highway": "service", "footway": null, "name": null, "surface": "asphalt", "lit": "yes", "length_m": 91.79, "type_element": "Way", "__fid": 6150}, "geometry": {"type": "LineString", "coordinates": [[2.2658839, 48.835315], [2.2665954, 48.8359939]]}}, {"type": "Feature", "properties": {"highway": "service", "footway": null, "name": null, "surface": "concrete", "lit": "yes", "length_m": 9.93, "type_element": "Way", "__fid": 6151}, "geometry": {"type": "LineString", "coordinates": [[2.2658839, 48.835315], [2.266, 48.8352692]]}}, {"type": "Feature", "properties": {"highway": "service", "footway": null, "name": null, "surface": null, "lit": "yes", "length_m": 15.24, "type_element": "Way", "__fid": 6156}, "geometry": {"type": "LineString", "coordinates": [[2.2659203, 48.8345816], [2.2660366, 48.8346951]]}}, {"type": "Feature", "properties": {"highway": "footway", "footway": "sidewalk", "name": null, "surface": null, "lit": "yes", "length_m": 29.64, "type_element": "Way", "__fid": 6157}, "geometry": {"type": "LineString", "coordinates": [[2.2659203, 48.8345816], [2.2663241, 48.834582]]}}, {"type": "Feature", "properties": {"highway": "footway", "footway": "sidewalk", "name": null, "surface": "compacted", "lit": "yes", "length_m": 56.26, "type_element": "Way", "__fid": 6182}, "geometry": {"type": "LineString", "coordinates": [[2.2664294, 48.8356883], [2.266, 48.8352692]]}}, {"type": "Feature", "properties": {"highway": "service", "footway": null, "name": null, "surface": "concrete", "lit": "yes", "length_m": 8.4, "type_element": "Way", "__fid": 6183}, "geometry": {"type": "LineString", "coordinates": [[2.266, 48.8352692], [2.2660982, 48.8352305]]}}, {"type": "Feature", "properties": {"highway": "service", "footway": null, "name": null, "surface": null, "lit": "yes", "length_m": 43.11, "type_element": "Way", "__fid": 6189}, "geometry": {"type": "LineString", "coordinates": [[2.2660366, 48.8346951], [2.2663812, 48.8350091]]}}, {"type": "Feature", "properties": {"highway": "service", "footway": null, "name": null, "surface": "concrete", "lit": "yes", "length_m": 24.92, "type_element": "Way", "__fid": 6190}, "geometry": {"type": "LineString", "coordinates": [[2.2660366, 48.8346951], [2.2663062, 48.8346021], [2.2663241, 48.834582]]}}, {"type": "Feature", "properties": {"highway": "service", "footway": null, "name": null, "surface": null, "lit": "yes", "length_m": 5.83, "type_element": "Way", "__fid": 6262}, "geometry": {"type": "LineString", "coordinates": [[2.266335, 48.83506240000001], [2.2662956, 48.8351079]]}}, {"type": "Feature", "properties": {"highway": "footway", "footway": "sidewalk", "name": null, "surface": null, "lit": "yes", "length_m": 39.64, "type_element": "Way", "__fid": 6270}, "geometry": {"type": "LineString", "coordinates": [[2.2663241, 48.834582], [2.2667744, 48.8346], [2.2668132, 48.834618], [2.2668258, 48.8346441]]}}, {"type": "Feature", "properties": {"highway": "service", "footway": null, "name": null, "surface": "concrete", "lit": "yes", "length_m": 4.3, "type_element": "Way", "__fid": 6271}, "geometry": {"type": "LineString", "coordinates": [[2.2663241, 48.834582], [2.2663539, 48.8345487]]}}, {"type": "Feature", "properties": {"highway": "footway", "footway": "sidewalk", "name": null, "surface": null, "lit": "yes", "length_m": 40.67, "type_element": "Way", "__fid": 6280}, "geometry": {"type": "LineString", "coordinates": [[2.266335, 48.83506240000001], [2.2667007, 48.8352596], [2.266736, 48.8352723], [2.2667775, 48.8352748]]}}, {"type": "Feature", "properties": {"highway": "service", "footway": null, "name": null, "surface": null, "lit": "yes", "length_m": 6.83, "type_element": "Way", "__fid": 6281}, "geometry": {"type": "LineString", "coordinates": [[2.2663812, 48.8350091], [2.266335, 48.83506240000001]]}}, {"type": "Feature", "properties": {"highway": "service", "footway": null, "name": null, "surface": null, "lit": "yes", "length_m": 33.85, "type_element": "Way", "__fid": 6296}, "geometry": {"type": "LineString", "coordinates": [[2.2663812, 48.8350091], [2.2664686, 48.8350593], [2.2665905, 48.8350887], [2.2668034, 48.8351108]]}}, {"type": "Feature", "properties": {"highway": "footway", "footway": "crossing", "name": null, "surface": null, "lit": "yes", "length_m": 68.84, "type_element": "Way", "__fid": 6317}, "geometry": {"type": "LineString", "coordinates": [[2.2664294, 48.8356883], [2.2666963, 48.835573], [2.2665334, 48.8354233], [2.2666057, 48.835394], [2.2666339, 48.8353642], [2.2667689, 48.8352928], [2.2667775, 48.8352748]]}}, {"type": "Feature", "properties": {"highway": "footway", "footway": "sidewalk", "name": "Rue Pégoud", "surface": null, "lit": "yes", "length_m": 2.32, "type_element": "Way", "__fid": 6404}, "geometry": {"type": "LineString", "coordinates": [[2.2667871, 48.8352549], [2.2667775, 48.8352748]]}}, {"type": "Feature", "properties": {"highway": "footway", "footway": "sidewalk", "name": "Rue Pégoud", "surface": null, "lit": "yes", "length_m": 16.07, "type_element": "Way", "__fid": 6405}, "geometry": {"type": "LineString", "coordinates": [[2.2668034, 48.8351108], [2.2667871, 48.8352549]]}}, {"type": "Feature", "properties": {"highway": "footway", "footway": "crossing", "name": "Rue Pégoud", "surface": null, "lit": "yes", "length_m": 18.71, "type_element": "Way", "__fid": 6406}, "geometry": {"type": "LineString", "coordinates": [[2.2667871, 48.8352549], [2.267042, 48.8352539]]}}, {"type": "Feature", "properties": {"highway": "service", "footway": null, "name": null, "surface": null, "lit": "yes", "length_m": 9.35, "type_element": "Way", "__fid": 6416}, "geometry": {"type": "LineString", "coordinates": [[2.2668034, 48.8351108], [2.2669301, 48.8351197]]}}, {"type": "Feature", "properties": {"highway": "footway", "footway": "sidewalk", "name": "Rue Pégoud", "surface": null, "lit": "yes", "length_m": 51.93, "type_element": "Way", "__fid": 6417}, "geometry": {"type": "LineString", "coordinates": [[2.2668258, 48.8346441], [2.26682, 48.8349277], [2.2668034, 48.8351108]]}}, {"type": "Feature", "properties": {"highway": "footway", "footway": "sidewalk", "name": null, "surface": null, "lit": "yes", "length_m": 4.28, "type_element": "Way", "__fid": 6426}, "geometry": {"type": "LineString", "coordinates": [[2.2668813, 48.8346323], [2.2668258, 48.8346441]]}}, {"type": "Feature", "properties": {"highway": "footway", "footway": "sidewalk", "name": null, "surface": null, "lit": "yes", "length_m": 39.73, "type_element": "Way", "__fid": 6430}, "geometry": {"type": "LineString", "coordinates": [[2.2668941, 48.8342883], [2.2669142, 48.8342915], [2.2669123, 48.8343568], [2.2669032, 48.8344256], [2.2668771, 48.8345011], [2.2668716, 48.8345941], [2.2668813, 48.8346323]]}}, {"type": "Feature", "properties": {"highway": "footway", "footway": "crossing", "name": null, "surface": null, "lit": "yes", "length_m": 8.15, "type_element": "Way", "__fid": 6431}, "geometry": {"type": "LineString", "coordinates": [[2.2668813, 48.8346323], [2.2669923, 48.8346306]]}}, {"type": "Feature", "properties": {"highway": "footway", "footway": null, "name": null, "surface": null, "lit": "yes", "length_m": 103.7, "type_element": "Way", "__fid": 6453}, "geometry": {"type": "LineString", "coordinates": [[2.2669923, 48.8346306], [2.2673934, 48.8346477], [2.2677083, 48.8346767], [2.268214, 48.83476019999998], [2.2680962, 48.83467789999999]]}}, {"type": "Feature", "properties": {"highway": "footway", "footway": "sidewalk", "name": null, "surface": null, "lit": "yes", "length_m": 69.62, "type_element": "Way", "__fid": 6454}, "geometry": {"type": "LineString", "coordinates": [[2.267042, 48.8352539], [2.2670265, 48.8352134], [2.2670342, 48.8348899], [2.2669923, 48.8346306]]}}, {"type": "Feature", "properties": {"highway": "footway", "footway": "sidewalk", "name": null, "surface": null, "lit": "yes", "length_m": 413.55, "type_element": "Way", "__fid": 6460}, "geometry": {"type": "LineString", "coordinates": [[2.267042, 48.8352539], [2.2671179, 48.83527], [2.2672651, 48.8354541], [2.2672533, 48.835596], [2.267323, 48.83570870000001], [2.2674382, 48.83582480000001], [2.2685266, 48.837028], [2.2687186, 48.837262], [2.2691301, 48.8378502], [2.2693095, 48.8380557], [2.2697202, 48.8384796]]}}, {"type": "Feature", "properties": {"highway": "footway", "footway": "sidewalk", "name": null, "surface": null, "lit": "yes", "length_m": 300.11, "type_element": "Way", "__fid": 6461}, "geometry": {"type": "LineString", "coordinates": [[2.267042, 48.8352539], [2.2675288, 48.835167200000015], [2.2683696, 48.8352299], [2.2693714, 48.83538260000001], [2.270274, 48.8354761], [2.2705194, 48.8354841], [2.27107, 48.8354779]]}}, {"type": "Feature", "properties": {"highway": "footway", "footway": null, "name": null, "surface": null, "lit": "yes", "length_m": 9.47, "type_element": "Way", "__fid": 6464}, "geometry": {"type": "LineString", "coordinates": [[2.2670779, 48.833714], [2.2671346, 48.8337905]]}}, {"type": "Feature", "properties": {"highway": "footway", "footway": null, "name": "Voie CW/15", "surface": "asphalt", "lit": "yes", "length_m": 296.49, "type_element": "Way", "__fid": 6475}, "geometry": {"type": "LineString", "coordinates": [[2.2671346, 48.8337905], [2.2672166, 48.833862], [2.2673573, 48.83393839999999], [2.2675491, 48.83410970000001], [2.2677662, 48.8342747], [2.2680414, 48.8344121], [2.2682721, 48.8345025], [2.2688153, 48.8346233], [2.2699337, 48.8346962], [2.2706907, 48.8346991]]}}, {"type": "Feature", "properties": {"highway": "footway", "footway": "sidewalk", "name": null, "surface": null, "lit": "yes", "length_m": 287.91, "type_element": "Way", "__fid": 6476}, "geometry": {"type": "LineString", "coordinates": [[2.269816, 48.83308709999998], [2.2687029, 48.8325251], [2.2686004, 48.8325863], [2.267746, 48.8333372], [2.2675576, 48.8334083], [2.2672815, 48.83364549999999], [2.2672015, 48.833681], [2.2671964, 48.8337473], [2.267182, 48.833768], [2.2671346, 48.8337905]]}}, {"type": "Feature", "properties": {"highway": "service", "footway": null, "name": null, "surface": "asphalt", "lit": "yes", "length_m": 10.07, "type_element": "Way", "__fid": 6484}, "geometry": {"type": "LineString", "coordinates": [[2.2672411, 48.8312907], [2.2673755, 48.8313089]]}}, {"type": "Feature", "properties": {"highway": "footway", "footway": "sidewalk", "name": null, "surface": null, "lit": "yes", "length_m": 6.65, "type_element": "Way", "__fid": 6495}, "geometry": {"type": "LineString", "coordinates": [[2.2673605, 48.8314352], [2.2672746, 48.831416199999985]]}}, {"type": "Feature", "properties": {"highway": "footway", "footway": null, "name": null, "surface": "asphalt", "lit": null, "length_m": 9.33, "type_element": "Way", "__fid": 6505}, "geometry": {"type": "LineString", "coordinates": [[2.2674508, 48.8303219], [2.2673244, 48.8303134]]}}, {"type": "Feature", "properties": {"highway": "footway", "footway": "sidewalk", "name": null, "surface": "asphalt", "lit": "yes", "length_m": 199.92, "type_element": "Way", "__fid": 6516}, "geometry": {"type": "LineString", "coordinates": [[2.2673605, 48.8314352], [2.2673564, 48.83152530000001], [2.2674543, 48.8316246], [2.2676079, 48.8317336], [2.2686342, 48.832303], [2.2687938, 48.8323959], [2.2688346, 48.8324312], [2.2691502, 48.8326048], [2.2692746, 48.8326607]]}}, {"type": "Feature", "properties": {"highway": "footway", "footway": "sidewalk", "name": null, "surface": "asphalt", "lit": "yes", "length_m": 14.09, "type_element": "Way", "__fid": 6517}, "geometry": {"type": "LineString", "coordinates": [[2.2673755, 48.8313089], [2.2673605, 48.8314352]]}}, {"type": "Feature", "properties": {"highway": "service", "footway": null, "name": null, "surface": null, "lit": "yes", "length_m": 59.53, "type_element": "Way", "__fid": 6520}, "geometry": {"type": "LineString", "coordinates": [[2.2673755, 48.8313089], [2.2674604, 48.8313262], [2.2675087, 48.83135], [2.2675449, 48.83134740000001], [2.2676133, 48.831298799999985], [2.2676481, 48.8313032], [2.2678439, 48.8314215], [2.2678828, 48.8315672]]}}, {"type": "Feature", "properties": {"highway": "footway", "footway": "sidewalk", "name": null, "surface": "asphalt", "lit": "yes", "length_m": 109.89, "type_element": "Way", "__fid": 6521}, "geometry": {"type": "LineString", "coordinates": [[2.2674508, 48.8303219], [2.2673755, 48.8313089]]}}, {"type": "Feature", "properties": {"highway": "footway", "footway": null, "name": null, "surface": "asphalt", "lit": null, "length_m": 7.2, "type_element": "Way", "__fid": 6556}, "geometry": {"type": "LineString", "coordinates": [[2.2675483, 48.8303285], [2.2674508, 48.8303219]]}}, {"type": "Feature", "properties": {"highway": "footway", "footway": "sidewalk", "name": null, "surface": "asphalt", "lit": "yes", "length_m": 152.87, "type_element": "Way", "__fid": 6557}, "geometry": {"type": "LineString", "coordinates": [[2.2675744, 48.8289495], [2.2674508, 48.8303219]]}}, {"type": "Feature", "properties": {"highway": "steps", "footway": null, "name": null, "surface": null, "lit": null, "length_m": 11.83, "type_element": "Way", "__fid": 6584}, "geometry": {"type": "LineString", "coordinates": [[2.2677086, 48.8303393], [2.2675483, 48.8303285]]}}, {"type": "Feature", "properties": {"highway": "footway", "footway": null, "name": null, "surface": null, "lit": null, "length_m": 25.82, "type_element": "Way", "__fid": 6585}, "geometry": {"type": "LineString", "coordinates": [[2.2675483, 48.8303285], [2.2675797, 48.8304665], [2.2676186, 48.8305555]]}}, {"type": "Feature", "properties": {"highway": "path", "footway": null, "name": null, "surface": "dirt", "lit": null, "length_m": 150.37, "type_element": "Way", "__fid": 6586}, "geometry": {"type": "LineString", "coordinates": [[2.2676736, 48.8289801], [2.2676452, 48.8290682], [2.2676237, 48.82920590000002], [2.267613, 48.8295272], [2.2675483, 48.8303285]]}}, {"type": "Feature", "properties": {"highway": "footway", "footway": null, "name": null, "surface": null, "lit": null, "length_m": 15.57, "type_element": "Way", "__fid": 6608}, "geometry": {"type": "LineString", "coordinates": [[2.2676186, 48.8305555], [2.2676722, 48.830691]]}}, {"type": "Feature", "properties": {"highway": "footway", "footway": null, "name": null, "surface": "dirt", "lit": null, "length_m": 107.73, "type_element": "Way", "__fid": 6609}, "geometry": {"type": "LineString", "coordinates": [[2.2680543, 48.831365799999986], [2.2679306, 48.8313225], [2.2677, 48.8312057], [2.2676, 48.8311034], [2.2675506, 48.8309956], [2.2675181, 48.8308735], [2.2675229, 48.83080529999999], [2.2675434, 48.830731599999986], [2.2676186, 48.8305555]]}}, {"type": "Feature", "properties": {"highway": "footway", "footway": null, "name": null, "surface": "dirt", "lit": null, "length_m": 24.93, "type_element": "Way", "__fid": 6610}, "geometry": {"type": "LineString", "coordinates": [[2.2676186, 48.8305555], [2.2677086, 48.8303393]]}}, {"type": "Feature", "properties": {"highway": "footway", "footway": null, "name": null, "surface": "dirt", "lit": null, "length_m": 89.76, "type_element": "Way", "__fid": 6623}, "geometry": {"type": "LineString", "coordinates": [[2.2678872, 48.8297636], [2.2677907, 48.8296614], [2.2677884, 48.8295083], [2.2677379, 48.8293142], [2.2676736, 48.8289801]]}}, {"type": "Feature", "properties": {"highway": "service", "footway": null, "name": null, "surface": "asphalt", "lit": null, "length_m": 84.59, "type_element": "Way", "__fid": 6631}, "geometry": {"type": "LineString", "coordinates": [[2.2680698, 48.8313523], [2.2677889, 48.8311753], [2.2676575, 48.8309616], [2.2676414, 48.83076209999999], [2.2676722, 48.830691]]}}, {"type": "Feature", "properties": {"highway": "service", "footway": null, "name": null, "surface": "asphalt", "lit": null, "length_m": 39.73, "type_element": "Way", "__fid": 6632}, "geometry": {"type": "LineString", "coordinates": [[2.2676722, 48.830691], [2.2678164, 48.8303466]]}}, {"type": "Feature", "properties": {"highway": "steps", "footway": null, "name": null, "surface": null, "lit": null, "length_m": 7.96, "type_element": "Way", "__fid": 6635}, "geometry": {"type": "LineString", "coordinates": [[2.2678164, 48.8303466], [2.2677086, 48.8303393]]}}, {"type": "Feature", "properties": {"highway": "footway", "footway": null, "name": null, "surface": "dirt", "lit": null, "length_m": 41.74, "type_element": "Way", "__fid": 6636}, "geometry": {"type": "LineString", "coordinates": [[2.2677086, 48.8303393], [2.2677337, 48.83027650000002], [2.2677674, 48.830095], [2.267771, 48.8299674]]}}, {"type": "Feature", "properties": {"highway": "footway", "footway": null, "name": null, "surface": "dirt", "lit": null, "length_m": 11.77, "type_element": "Way", "__fid": 6654}, "geometry": {"type": "LineString", "coordinates": [[2.267771, 48.8299674], [2.26788195, 48.82989095]]}}, {"type": "Feature", "properties": {"highway": "service", "footway": null, "name": null, "surface": null, "lit": "yes", "length_m": 11.79, "type_element": "Way", "__fid": 6655}, "geometry": {"type": "LineString", "coordinates": [[2.2677554, 48.831502700000016], [2.2678828, 48.8315672]]}}, {"type": "Feature", "properties": {"highway": "service", "footway": null, "name": null, "surface": "asphalt", "lit": null, "length_m": 26.54, "type_element": "Way", "__fid": 6663}, "geometry": {"type": "LineString", "coordinates": [[2.2678164, 48.8303466], [2.2678641, 48.83011]]}}, {"type": "Feature", "properties": {"highway": "service", "footway": null, "name": null, "surface": "asphalt", "lit": null, "length_m": 24.76, "type_element": "Way", "__fid": 6671}, "geometry": {"type": "LineString", "coordinates": [[2.2678641, 48.83011], [2.2681802, 48.8301876]]}}, {"type": "Feature", "properties": {"highway": "service", "footway": null, "name": null, "surface": "asphalt", "lit": null, "length_m": 24.39, "type_element": "Way", "__fid": 6672}, "geometry": {"type": "LineString", "coordinates": [[2.2678641, 48.83011], [2.26788195, 48.82989095]]}}, {"type": "Feature", "properties": {"highway": "service", "footway": null, "name": null, "surface": "asphalt", "lit": null, "length_m": 14.17, "type_element": "Way", "__fid": 6676}, "geometry": {"type": "LineString", "coordinates": [[2.26788195, 48.82989095], [2.2678872, 48.8297636]]}}, {"type": "Feature", "properties": {"highway": "service", "footway": null, "name": null, "surface": "asphalt", "lit": null, "length_m": 52.04, "type_element": "Way", "__fid": 6678}, "geometry": {"type": "LineString", "coordinates": [[2.2678872, 48.8297636], [2.2679306, 48.8292965]]}}, {"type": "Feature", "properties": {"highway": "service", "footway": null, "name": null, "surface": null, "lit": "yes", "length_m": 127.43, "type_element": "Way", "__fid": 6682}, "geometry": {"type": "LineString", "coordinates": [[2.2678828, 48.8315672], [2.2692076, 48.8323077]]}}, {"type": "Feature", "properties": {"highway": "service", "footway": null, "name": "Voie BR/15", "surface": null, "lit": null, "length_m": 43.5, "type_element": "Way", "__fid": 6724}, "geometry": {"type": "LineString", "coordinates": [[2.2683386, 48.8355751], [2.2682413, 48.8354165], [2.2681568, 48.8353436], [2.2679958, 48.8352718]]}}, {"type": "Feature", "properties": {"highway": "footway", "footway": null, "name": null, "surface": "dirt", "lit": null, "length_m": 162.97, "type_element": "Way", "__fid": 6725}, "geometry": {"type": "LineString", "coordinates": [[2.2697231, 48.8323245], [2.2694442, 48.8322129], [2.2691333, 48.8320468], [2.2689236, 48.8318924], [2.2680543, 48.831365799999986]]}}, {"type": "Feature", "properties": {"highway": "footway", "footway": null, "name": null, "surface": "dirt", "lit": null, "length_m": 1.88, "type_element": "Way", "__fid": 6726}, "geometry": {"type": "LineString", "coordinates": [[2.2680543, 48.831365799999986], [2.2680698, 48.8313523]]}}, {"type": "Feature", "properties": {"highway": "service", "footway": null, "name": null, "surface": "asphalt", "lit": null, "length_m": 99.4, "type_element": "Way", "__fid": 6732}, "geometry": {"type": "LineString", "coordinates": [[2.2690274, 48.8311743], [2.2689384, 48.8310588], [2.268839, 48.8310119], [2.2687747, 48.831010099999986], [2.2686902, 48.8310295], [2.2686298, 48.8310816], [2.2685473, 48.8312149], [2.2684214, 48.8313182], [2.2683664, 48.8313378], [2.2682443, 48.8313588], [2.2680698, 48.8313523]]}}, {"type": "Feature", "properties": {"highway": "footway", "footway": null, "name": null, "surface": "asphalt", "lit": null, "length_m": 33.6, "type_element": "Way", "__fid": 6750}, "geometry": {"type": "LineString", "coordinates": [[2.2681802, 48.8301876], [2.2683415, 48.8302191], [2.2683737, 48.83025880000001], [2.2684635, 48.83029420000001], [2.2685775, 48.8303107]]}}, {"type": "Feature", "properties": {"highway": "service", "footway": null, "name": null, "surface": "asphalt", "lit": null, "length_m": 14.62, "type_element": "Way", "__fid": 6751}, "geometry": {"type": "LineString", "coordinates": [[2.2681802, 48.8301876], [2.2682978, 48.8300815]]}}, {"type": "Feature", "properties": {"highway": "footway", "footway": null, "name": null, "surface": "asphalt", "lit": null, "length_m": 87.09, "type_element": "Way", "__fid": 6778}, "geometry": {"type": "LineString", "coordinates": [[2.2686459, 48.82933410000001], [2.2686218, 48.82936140000002], [2.2685695, 48.8294643], [2.2684146, 48.8297953], [2.2683341, 48.8299693], [2.2682978, 48.8300815]]}}, {"type": "Feature", "properties": {"highway": "footway", "footway": null, "name": null, "surface": "asphalt", "lit": null, "length_m": 33.42, "type_element": "Way", "__fid": 6779}, "geometry": {"type": "LineString", "coordinates": [[2.2682978, 48.8300815], [2.2683495, 48.8300739], [2.2684173, 48.8300871], [2.2684723, 48.8300863], [2.2685941, 48.8300471], [2.2687296, 48.8300731]]}}, {"type": "Feature", "properties": {"highway": "service", "footway": null, "name": null, "surface": null, "lit": null, "length_m": 40.65, "type_element": "Way", "__fid": 6817}, "geometry": {"type": "LineString", "coordinates": [[2.2688041, 48.8354066], [2.2686152, 48.8354352], [2.2684674, 48.8354727], [2.2683386, 48.8355751]]}}, {"type": "Feature", "properties": {"highway": "footway", "footway": null, "name": null, "surface": "asphalt", "lit": null, "length_m": 31.13, "type_element": "Way", "__fid": 6860}, "geometry": {"type": "LineString", "coordinates": [[2.2685775, 48.8303107], [2.2686151, 48.8303162], [2.2687296, 48.8300731]]}}, {"type": "Feature", "properties": {"highway": "footway", "footway": null, "name": null, "surface": null, "lit": null, "length_m": 108.77, "type_element": "Way", "__fid": 6861}, "geometry": {"type": "LineString", "coordinates": [[2.2694458, 48.830757], [2.2691906, 48.830703], [2.2691724, 48.8307345], [2.2684675, 48.8305773], [2.2685775, 48.8303107]]}}, {"type": "Feature", "properties": {"highway": "footway", "footway": null, "name": null, "surface": "asphalt", "lit": null, "length_m": 66.81, "type_element": "Way", "__fid": 6877}, "geometry": {"type": "LineString", "coordinates": [[2.2686459, 48.82933410000001], [2.2688202, 48.829341200000016], [2.2689684, 48.82936780000003], [2.2691002, 48.8294036], [2.269194, 48.829441], [2.2691991, 48.8294749], [2.2691176, 48.8296505]]}}, {"type": "Feature", "properties": {"highway": "service", "footway": null, "name": null, "surface": null, "lit": "yes", "length_m": 136.42, "type_element": "Way", "__fid": 6904}, "geometry": {"type": "LineString", "coordinates": [[2.2686687, 48.8340523], [2.269816, 48.83308709999998]]}}, {"type": "Feature", "properties": {"highway": "footway", "footway": null, "name": null, "surface": "asphalt", "lit": null, "length_m": 12.5, "type_element": "Way", "__fid": 6907}, "geometry": {"type": "LineString", "coordinates": [[2.2687296, 48.8300731], [2.268893, 48.8301047]]}}, {"type": "Feature", "properties": {"highway": "footway", "footway": null, "name": null, "surface": "asphalt", "lit": null, "length_m": 63.5, "type_element": "Way", "__fid": 6957}, "geometry": {"type": "LineString", "coordinates": [[2.268893, 48.8301047], [2.2689231, 48.8301288], [2.269337, 48.8302063], [2.2693806, 48.8302679], [2.2696451, 48.830337100000015]]}}, {"type": "Feature", "properties": {"highway": "footway", "footway": null, "name": null, "surface": "asphalt", "lit": null, "length_m": 53.13, "type_element": "Way", "__fid": 6958}, "geometry": {"type": "LineString", "coordinates": [[2.268893, 48.8301047], [2.2691176, 48.8296505]]}}, {"type": "Feature", "properties": {"highway": "service", "footway": null, "name": null, "surface": "asphalt", "lit": null, "length_m": 44.66, "type_element": "Way", "__fid": 7003}, "geometry": {"type": "LineString", "coordinates": [[2.2695355, 48.8313342], [2.2693661, 48.8313341], [2.2691703, 48.8312908], [2.2690818, 48.8312449], [2.2690274, 48.8311743]]}}, {"type": "Feature", "properties": {"highway": "footway", "footway": null, "name": null, "surface": "asphalt", "lit": null, "length_m": 107.25, "type_element": "Way", "__fid": 7004}, "geometry": {"type": "LineString", "coordinates": [[2.2695616, 48.8318955], [2.269397, 48.8318182], [2.2694968, 48.83162870000001], [2.2694975, 48.8316066], [2.2689487, 48.8312918], [2.2690274, 48.8311743]]}}, {"type": "Feature", "properties": {"highway": "service", "footway": null, "name": null, "surface": "asphalt", "lit": null, "length_m": 47.37, "type_element": "Way", "__fid": 7005}, "geometry": {"type": "LineString", "coordinates": [[2.2690274, 48.8311743], [2.2692078, 48.8311687], [2.2692918, 48.8311103], [2.2693245, 48.83104880000001], [2.2692323, 48.8308997]]}}, {"type": "Feature", "properties": {"highway": "service", "footway": null, "name": null, "surface": null, "lit": "yes", "length_m": 25.95, "type_element": "Way", "__fid": 7013}, "geometry": {"type": "LineString", "coordinates": [[2.2692076, 48.8323077], [2.269122, 48.8324253], [2.2690402, 48.8325129]]}}, {"type": "Feature", "properties": {"highway": "footway", "footway": null, "name": null, "surface": "compacted", "lit": null, "length_m": 14.71, "type_element": "Way", "__fid": 7019}, "geometry": {"type": "LineString", "coordinates": [[2.269295, 48.82960820000001], [2.2691676, 48.829658899999984], [2.2691176, 48.8296505]]}}, {"type": "Feature", "properties": {"highway": "service", "footway": null, "name": null, "surface": null, "lit": "yes", "length_m": 15.37, "type_element": "Way", "__fid": 7059}, "geometry": {"type": "LineString", "coordinates": [[2.2692076, 48.8323077], [2.2693674, 48.832397]]}}, {"type": "Feature", "properties": {"highway": "service", "footway": null, "name": null, "surface": "asphalt", "lit": null, "length_m": 6.12, "type_element": "Way", "__fid": 7066}, "geometry": {"type": "LineString", "coordinates": [[2.2692746, 48.8326607], [2.2692209, 48.8327028]]}}, {"type": "Feature", "properties": {"highway": "footway", "footway": null, "name": null, "surface": "asphalt", "lit": null, "length_m": 47.41, "type_element": "Way", "__fid": 7071}, "geometry": {"type": "LineString", "coordinates": [[2.2697382, 48.8298647], [2.2697067, 48.82978480000001], [2.2696383, 48.82970490000001], [2.2695404, 48.82965669999999], [2.269464, 48.829632], [2.2693493, 48.82960820000001], [2.269295, 48.82960820000001]]}}, {"type": "Feature", "properties": {"highway": "footway", "footway": "sidewalk", "name": null, "surface": "asphalt", "lit": "yes", "length_m": 94.84, "type_element": "Way", "__fid": 7080}, "geometry": {"type": "LineString", "coordinates": [[2.2702886, 48.8331759], [2.2699676, 48.8330137], [2.2699629, 48.8329876], [2.2692746, 48.8326607]]}}, {"type": "Feature", "properties": {"highway": "service", "footway": null, "name": null, "surface": "asphalt", "lit": null, "length_m": 49.81, "type_element": "Way", "__fid": 7081}, "geometry": {"type": "LineString", "coordinates": [[2.2697231, 48.8323245], [2.2692746, 48.8326607]]}}, {"type": "Feature", "properties": {"highway": "footway", "footway": null, "name": null, "surface": "asphalt", "lit": null, "length_m": 12.98, "type_element": "Way", "__fid": 7089}, "geometry": {"type": "LineString", "coordinates": [[2.2695049, 48.8298858], [2.2693412, 48.8298418]]}}, {"type": "Feature", "properties": {"highway": "footway", "footway": null, "name": null, "surface": "asphalt", "lit": null, "length_m": 45.63, "type_element": "Way", "__fid": 7090}, "geometry": {"type": "LineString", "coordinates": [[2.2693412, 48.8298418], [2.2692809, 48.8298315], [2.2692132, 48.8297874], [2.2691951, 48.82973], [2.2692192, 48.829685], [2.2692977, 48.829655400000014], [2.2694211, 48.8296788], [2.2694834, 48.8297163]]}}, {"type": "Feature", "properties": {"highway": "footway", "footway": null, "name": null, "surface": "asphalt", "lit": null, "length_m": 20.42, "type_element": "Way", "__fid": 7091}, "geometry": {"type": "LineString", "coordinates": [[2.2694941, 48.82973830000001], [2.2695009, 48.8297521], [2.2694875, 48.8297918], [2.2693607, 48.82979930000001], [2.2693412, 48.8298418]]}}, {"type": "Feature", "properties": {"highway": "service", "footway": null, "name": null, "surface": "asphalt", "lit": null, "length_m": 65.16, "type_element": "Way", "__fid": 7123}, "geometry": {"type": "LineString", "coordinates": [[2.2695355, 48.8313342], [2.2694505, 48.8311303], [2.269431, 48.83080610000001], [2.2694458, 48.830757]]}}, {"type": "Feature", "properties": {"highway": "service", "footway": null, "name": null, "surface": "asphalt", "lit": null, "length_m": 49.18, "type_element": "Way", "__fid": 7124}, "geometry": {"type": "LineString", "coordinates": [[2.2694458, 48.830757], [2.2695026, 48.8305692], [2.269592, 48.8304074], [2.2696451, 48.830337100000015]]}}, {"type": "Feature", "properties": {"highway": "footway", "footway": null, "name": null, "surface": "asphalt", "lit": null, "length_m": 24.25, "type_element": "Way", "__fid": 7132}, "geometry": {"type": "LineString", "coordinates": [[2.2694834, 48.8297163], [2.269582, 48.8297274], [2.2696437, 48.829784799999985], [2.2696859, 48.8298616]]}}, {"type": "Feature", "properties": {"highway": "footway", "footway": null, "name": null, "surface": "asphalt", "lit": null, "length_m": 2.57, "type_element": "Way", "__fid": 7133}, "geometry": {"type": "LineString", "coordinates": [[2.2694834, 48.8297163], [2.2694941, 48.82973830000001]]}}, {"type": "Feature", "properties": {"highway": "footway", "footway": null, "name": null, "surface": "asphalt", "lit": null, "length_m": 23.92, "type_element": "Way", "__fid": 7137}, "geometry": {"type": "LineString", "coordinates": [[2.2694941, 48.82973830000001], [2.2695431, 48.8297539], [2.2695874, 48.8297861], [2.2696028, 48.8298324], [2.2695746, 48.82986549999998], [2.2695049, 48.8298858]]}}, {"type": "Feature", "properties": {"highway": "footway", "footway": null, "name": null, "surface": "asphalt", "lit": null, "length_m": 17.88, "type_element": "Way", "__fid": 7141}, "geometry": {"type": "LineString", "coordinates": [[2.2696859, 48.8298616], [2.2696497, 48.8298708], [2.2696175, 48.8299198], [2.2695049, 48.8298858]]}}, {"type": "Feature", "properties": {"highway": "service", "footway": null, "name": null, "surface": "asphalt", "lit": null, "length_m": 45.76, "type_element": "Way", "__fid": 7148}, "geometry": {"type": "LineString", "coordinates": [[2.2698625, 48.8316831], [2.2696157, 48.8314478], [2.2695355, 48.8313342]]}}, {"type": "Feature", "properties": {"highway": "footway", "footway": null, "name": null, "surface": "asphalt", "lit": null, "length_m": 11.83, "type_element": "Way", "__fid": 7149}, "geometry": {"type": "LineString", "coordinates": [[2.2696378, 48.831252], [2.2695355, 48.8313342]]}}, {"type": "Feature", "properties": {"highway": "footway", "footway": null, "name": null, "surface": null, "lit": null, "length_m": 2.14, "type_element": "Way", "__fid": 7156}, "geometry": {"type": "LineString", "coordinates": [[2.2695616, 48.8318955], [2.2695435, 48.8319106]]}}, {"type": "Feature", "properties": {"highway": "footway", "footway": null, "name": null, "surface": "asphalt", "lit": null, "length_m": 1.45, "type_element": "Way", "__fid": 7166}, "geometry": {"type": "LineString", "coordinates": [[2.269578, 48.8319027], [2.2695616, 48.8318955]]}}, {"type": "Feature", "properties": {"highway": "footway", "footway": null, "name": null, "surface": "asphalt", "lit": null, "length_m": 5.3, "type_element": "Way", "__fid": 7170}, "geometry": {"type": "LineString", "coordinates": [[2.2695884, 48.8319348], [2.2696096, 48.8319182], [2.269578, 48.8319027]]}}, {"type": "Feature", "properties": {"highway": "footway", "footway": null, "name": null, "surface": "asphalt", "lit": null, "length_m": 3.34, "type_element": "Way", "__fid": 7171}, "geometry": {"type": "LineString", "coordinates": [[2.269591366666608, 48.831874], [2.269578, 48.8319027]]}}, {"type": "Feature", "properties": {"highway": "footway", "footway": null, "name": null, "surface": "asphalt", "lit": null, "length_m": 27.58, "type_element": "Way", "__fid": 7182}, "geometry": {"type": "LineString", "coordinates": [[2.2698382, 48.83169050000002], [2.2698111, 48.831696700000016], [2.269591366666608, 48.831874]]}}, {"type": "Feature", "properties": {"highway": "service", "footway": null, "name": null, "surface": "asphalt", "lit": null, "length_m": 37.33, "type_element": "Way", "__fid": 7191}, "geometry": {"type": "LineString", "coordinates": [[2.2696451, 48.830337100000015], [2.2697424, 48.8302082], [2.2699091, 48.8300512]]}}, {"type": "Feature", "properties": {"highway": "footway", "footway": null, "name": null, "surface": "concrete", "lit": null, "length_m": 49.14, "type_element": "Way", "__fid": 7192}, "geometry": {"type": "LineString", "coordinates": [[2.2696597, 48.82937779999999], [2.2697208, 48.829406900000016], [2.2698569, 48.8295173], [2.2699495, 48.8295949], [2.2700721, 48.82972239999999]]}}, {"type": "Feature", "properties": {"highway": "footway", "footway": null, "name": null, "surface": "asphalt", "lit": null, "length_m": 24.19, "type_element": "Way", "__fid": 7195}, "geometry": {"type": "LineString", "coordinates": [[2.2696378, 48.831252], [2.2698837, 48.8313041], [2.269928, 48.831341]]}}, {"type": "Feature", "properties": {"highway": "footway", "footway": null, "name": null, "surface": "asphalt", "lit": null, "length_m": 204.0, "type_element": "Way", "__fid": 7196}, "geometry": {"type": "LineString", "coordinates": [[2.2709754, 48.8300209], [2.2707593, 48.829995], [2.2706335, 48.8299975], [2.2705174, 48.8300153], [2.270268, 48.8299625], [2.2696378, 48.831252]]}}, {"type": "Feature", "properties": {"highway": "footway", "footway": null, "name": null, "surface": "asphalt", "lit": null, "length_m": 3.99, "type_element": "Way", "__fid": 7204}, "geometry": {"type": "LineString", "coordinates": [[2.2696859, 48.8298616], [2.2697114, 48.8298585], [2.2697382, 48.8298647]]}}, {"type": "Feature", "properties": {"highway": "footway", "footway": null, "name": null, "surface": "asphalt", "lit": null, "length_m": 24.5, "type_element": "Way", "__fid": 7219}, "geometry": {"type": "LineString", "coordinates": [[2.2699091, 48.8300512], [2.2698261, 48.8299905], [2.2697382, 48.8298647]]}}, {"type": "Feature", "properties": {"highway": "service", "footway": null, "name": null, "surface": "asphalt", "lit": null, "length_m": 59.26, "type_element": "Way", "__fid": 7225}, "geometry": {"type": "LineString", "coordinates": [[2.2702153, 48.8319061], [2.270194, 48.8319509], [2.2697231, 48.8323245]]}}, {"type": "Feature", "properties": {"highway": "footway", "footway": "sidewalk", "name": null, "surface": null, "lit": "yes", "length_m": 32.7, "type_element": "Way", "__fid": 7253}, "geometry": {"type": "LineString", "coordinates": [[2.2701665, 48.8332686], [2.269816, 48.83308709999998]]}}, {"type": "Feature", "properties": {"highway": "service", "footway": null, "name": null, "surface": null, "lit": "yes", "length_m": 7.3, "type_element": "Way", "__fid": 7254}, "geometry": {"type": "LineString", "coordinates": [[2.269816, 48.83308709999998], [2.2698774, 48.8330355]]}}, {"type": "Feature", "properties": {"highway": "footway", "footway": null, "name": null, "surface": "asphalt", "lit": null, "length_m": 1.96, "type_element": "Way", "__fid": 7255}, "geometry": {"type": "LineString", "coordinates": [[2.2698625, 48.8316831], [2.2698382, 48.83169050000002]]}}, {"type": "Feature", "properties": {"highway": "service", "footway": null, "name": null, "surface": "asphalt", "lit": null, "length_m": 32.65, "type_element": "Way", "__fid": 7261}, "geometry": {"type": "LineString", "coordinates": [[2.2702675, 48.8318036], [2.2701388, 48.831772600000015], [2.2698625, 48.8316831]]}}, {"type": "Feature", "properties": {"highway": "footway", "footway": null, "name": null, "surface": "asphalt", "lit": "yes", "length_m": 35.85, "type_element": "Way", "__fid": 7262}, "geometry": {"type": "LineString", "coordinates": [[2.2702153, 48.8319061], [2.2698625, 48.8316831]]}}, {"type": "Feature", "properties": {"highway": "service", "footway": null, "name": null, "surface": "asphalt", "lit": null, "length_m": 8.81, "type_element": "Way", "__fid": 7265}, "geometry": {"type": "LineString", "coordinates": [[2.2699091, 48.8300512], [2.2699729, 48.8299841]]}}, {"type": "Feature", "properties": {"highway": "service", "footway": null, "name": null, "surface": "asphalt", "lit": "yes", "length_m": 56.6, "type_element": "Way", "__fid": 7270}, "geometry": {"type": "LineString", "coordinates": [[2.2700721, 48.82972239999999], [2.2700742, 48.8295785], [2.2700282, 48.82940670000002], [2.2699435, 48.8292244]]}}, {"type": "Feature", "properties": {"highway": "service", "footway": null, "name": null, "surface": null, "lit": "yes", "length_m": 94.66, "type_element": "Way", "__fid": 7271}, "geometry": {"type": "LineString", "coordinates": [[2.2698956, 48.8329005], [2.2704611, 48.833192], [2.2705496, 48.8332001], [2.2709394, 48.833388]]}}, {"type": "Feature", "properties": {"highway": "service", "footway": null, "name": null, "surface": null, "lit": "yes", "length_m": 68.7, "type_element": "Way", "__fid": 7272}, "geometry": {"type": "LineString", "coordinates": [[2.2698956, 48.8329005], [2.269991, 48.83281640000001], [2.2700058, 48.8327932], [2.270002, 48.8327665], [2.269958, 48.8327134], [2.2698782, 48.8326763], [2.2698136, 48.8326876], [2.269713, 48.8327773], [2.269727, 48.8328176], [2.2698956, 48.8329005]]}}, {"type": "Feature", "properties": {"highway": "footway", "footway": null, "name": null, "surface": "asphalt", "lit": null, "length_m": 23.81, "type_element": "Way", "__fid": 7275}, "geometry": {"type": "LineString", "coordinates": [[2.269928, 48.831341], [2.2700649, 48.83141590000001], [2.2701946, 48.831461]]}}, {"type": "Feature", "properties": {"highway": "footway", "footway": null, "name": null, "surface": "compacted", "lit": null, "length_m": 65.87, "type_element": "Way", "__fid": 7276}, "geometry": {"type": "LineString", "coordinates": [[2.2704282, 48.8317596], [2.2703089, 48.8317491], [2.2701547, 48.8317058], [2.2700809, 48.8316564], [2.2700219, 48.83158310000001], [2.269928, 48.831341]]}}, {"type": "Feature", "properties": {"highway": "service", "footway": null, "name": null, "surface": "asphalt", "lit": "yes", "length_m": 30.1, "type_element": "Way", "__fid": 7285}, "geometry": {"type": "LineString", "coordinates": [[2.2699729, 48.8299841], [2.2700346, 48.829867], [2.2700721, 48.82972239999999]]}}, {"type": "Feature", "properties": {"highway": "footway", "footway": null, "name": null, "surface": "concrete", "lit": null, "length_m": 56.76, "type_element": "Way", "__fid": 7286}, "geometry": {"type": "LineString", "coordinates": [[2.2706499, 48.8297398], [2.2705117, 48.82977660000001], [2.2703411, 48.8298349], [2.2699729, 48.8299841]]}}, {"type": "Feature", "properties": {"highway": "footway", "footway": "sidewalk", "name": null, "surface": null, "lit": "yes", "length_m": 7.11, "type_element": "Way", "__fid": 7356}, "geometry": {"type": "LineString", "coordinates": [[2.270246, 48.8333052], [2.2701665, 48.8332686]]}}, {"type": "Feature", "properties": {"highway": "footway", "footway": "crossing", "name": null, "surface": null, "lit": "yes", "length_m": 13.66, "type_element": "Way", "__fid": 7357}, "geometry": {"type": "LineString", "coordinates": [[2.2701665, 48.8332686], [2.2702886, 48.8331759]]}}, {"type": "Feature", "properties": {"highway": "footway", "footway": null, "name": null, "surface": "asphalt", "lit": null, "length_m": 235.94, "type_element": "Way", "__fid": 7358}, "geometry": {"type": "LineString", "coordinates": [[2.2701946, 48.831461], [2.2703342, 48.8314905], [2.2704796, 48.83150370000001], [2.2706053, 48.8315012], [2.2707574, 48.831475], [2.2708939, 48.8314238], [2.2709717, 48.8313774], [2.2710361, 48.8313228], [2.2711031, 48.83122980000001], [2.2714379, 48.8305446], [2.271461, 48.8304778], [2.2714662, 48.8304088], [2.2714531, 48.83034030000001], [2.2714221, 48.83027420000001], [2.2713742, 48.8302128], [2.2713108, 48.8301577], [2.271174, 48.8300828], [2.2709754, 48.8300209]]}}, {"type": "Feature", "properties": {"highway": "footway", "footway": null, "name": null, "surface": null, "lit": null, "length_m": 57.57, "type_element": "Way", "__fid": 7359}, "geometry": {"type": "LineString", "coordinates": [[2.2708789, 48.8316298], [2.2704752, 48.8316219], [2.2703451, 48.8315787], [2.2702767, 48.83153810000001], [2.2701946, 48.831461]]}}, {"type": "Feature", "properties": {"highway": "service", "footway": null, "name": null, "surface": null, "lit": null, "length_m": 7.93, "type_element": "Way", "__fid": 7360}, "geometry": {"type": "LineString", "coordinates": [[2.2701769, 48.83336], [2.270246, 48.8333052]]}}, {"type": "Feature", "properties": {"highway": "service", "footway": null, "name": null, "surface": "asphalt", "lit": null, "length_m": 12.02, "type_element": "Way", "__fid": 7364}, "geometry": {"type": "LineString", "coordinates": [[2.2702675, 48.8318036], [2.2702153, 48.8319061]]}}, {"type": "Feature", "properties": {"highway": "footway", "footway": "sidewalk", "name": null, "surface": null, "lit": "yes", "length_m": 18.81, "type_element": "Way", "__fid": 7378}, "geometry": {"type": "LineString", "coordinates": [[2.2704479, 48.8334094], [2.270246, 48.8333052]]}}, {"type": "Feature", "properties": {"highway": "service", "footway": null, "name": null, "surface": null, "lit": null, "length_m": 7.18, "type_element": "Way", "__fid": 7379}, "geometry": {"type": "LineString", "coordinates": [[2.270246, 48.8333052], [2.2703086, 48.833255600000015]]}}, {"type": "Feature", "properties": {"highway": "service", "footway": null, "name": null, "surface": "asphalt", "lit": null, "length_m": 11.07, "type_element": "Way", "__fid": 7380}, "geometry": {"type": "LineString", "coordinates": [[2.2704162, 48.831819899999985], [2.2702675, 48.8318036]]}}, {"type": "Feature", "properties": {"highway": "footway", "footway": "sidewalk", "name": null, "surface": "asphalt", "lit": "yes", "length_m": 72.71, "type_element": "Way", "__fid": 7394}, "geometry": {"type": "LineString", "coordinates": [[2.2710752, 48.8335733], [2.2702886, 48.8331759]]}}, {"type": "Feature", "properties": {"highway": "service", "footway": null, "name": null, "surface": null, "lit": "yes", "length_m": 66.58, "type_element": "Way", "__fid": 7395}, "geometry": {"type": "LineString", "coordinates": [[2.2704479, 48.8334094], [2.2701359, 48.8336868], [2.2701667, 48.8338364], [2.2702881, 48.8339]]}}, {"type": "Feature", "properties": {"highway": "service", "footway": null, "name": null, "surface": null, "lit": "yes", "length_m": 105.45, "type_element": "Way", "__fid": 7413}, "geometry": {"type": "LineString", "coordinates": [[2.2703684, 48.83294629999998], [2.2705114, 48.83283140000001], [2.2707061, 48.8326542], [2.2710997, 48.83284350000002], [2.2713956, 48.833014]]}}, {"type": "Feature", "properties": {"highway": "service", "footway": null, "name": null, "surface": "asphalt", "lit": null, "length_m": 27.94, "type_element": "Way", "__fid": 7429}, "geometry": {"type": "LineString", "coordinates": [[2.2707968, 48.8318239], [2.2704162, 48.831819899999985]]}}, {"type": "Feature", "properties": {"highway": "footway", "footway": null, "name": null, "surface": "concrete", "lit": null, "length_m": 6.76, "type_element": "Way", "__fid": 7430}, "geometry": {"type": "LineString", "coordinates": [[2.2704282, 48.8317596], [2.2704162, 48.831819899999985]]}}, {"type": "Feature", "properties": {"highway": "footway", "footway": null, "name": null, "surface": "compacted", "lit": null, "length_m": 37.0, "type_element": "Way", "__fid": 7432}, "geometry": {"type": "LineString", "coordinates": [[2.2708789, 48.8316298], [2.2706777, 48.8317243], [2.270553, 48.831752600000016], [2.2704282, 48.8317596]]}}, {"type": "Feature", "properties": {"highway": "footway", "footway": "sidewalk", "name": null, "surface": null, "lit": "yes", "length_m": 14.47, "type_element": "Way", "__fid": 7444}, "geometry": {"type": "LineString", "coordinates": [[2.2706042, 48.8334887], [2.2704479, 48.8334094]]}}, {"type": "Feature", "properties": {"highway": "service", "footway": null, "name": null, "surface": null, "lit": "yes", "length_m": 7.27, "type_element": "Way", "__fid": 7445}, "geometry": {"type": "LineString", "coordinates": [[2.2705063, 48.8333566], [2.2704479, 48.8334094]]}}, {"type": "Feature", "properties": {"highway": "service", "footway": null, "name": "Rue du Général Lucotte", "surface": "asphalt", "lit": "yes", "length_m": 338.21, "type_element": "Way", "__fid": 7452}, "geometry": {"type": "LineString", "coordinates": [[2.2733659, 48.8354282], [2.2733447, 48.8353803], [2.2720348, 48.8356219], [2.2718947, 48.8356536], [2.2716118, 48.8357366], [2.2714676, 48.835790799999984], [2.2712117, 48.835916799999985], [2.2709861, 48.8360658], [2.2707635, 48.8362644], [2.2705556, 48.8365319], [2.2704138, 48.8368481], [2.2703724, 48.8370288], [2.2704159, 48.8372273]]}}, {"type": "Feature", "properties": {"highway": "footway", "footway": null, "name": null, "surface": "sett", "lit": null, "length_m": 35.19, "type_element": "Way", "__fid": 7503}, "geometry": {"type": "LineString", "coordinates": [[2.271017, 48.8299419], [2.2709399, 48.8299101], [2.2707313, 48.8297945], [2.2706499, 48.8297398]]}}, {"type": "Feature", "properties": {"highway": "footway", "footway": null, "name": null, "surface": "concrete", "lit": null, "length_m": 47.43, "type_element": "Way", "__fid": 7504}, "geometry": {"type": "LineString", "coordinates": [[2.2712672, 48.829614], [2.2706499, 48.8297398]]}}, {"type": "Feature", "properties": {"highway": "service", "footway": null, "name": null, "surface": "asphalt", "lit": "yes", "length_m": 95.89, "type_element": "Way", "__fid": 7508}, "geometry": {"type": "LineString", "coordinates": [[2.271207, 48.83379989999999], [2.2710519, 48.83392780000001], [2.27097, 48.83391539999999], [2.2704296, 48.8336506], [2.2706042, 48.8334887]]}}, {"type": "Feature", "properties": {"highway": "service", "footway": null, "name": null, "surface": "asphalt", "lit": "yes", "length_m": 7.22, "type_element": "Way", "__fid": 7509}, "geometry": {"type": "LineString", "coordinates": [[2.2706042, 48.8334887], [2.2706612, 48.8334358]]}}, {"type": "Feature", "properties": {"highway": "footway", "footway": null, "name": null, "surface": "asphalt", "lit": "yes", "length_m": 18.34, "type_element": "Way", "__fid": 7546}, "geometry": {"type": "LineString", "coordinates": [[2.2706907, 48.8346991], [2.2706951, 48.8347976], [2.2707956, 48.8347962]]}}, {"type": "Feature", "properties": {"highway": "footway", "footway": null, "name": null, "surface": "asphalt", "lit": "yes", "length_m": 81.42, "type_element": "Way", "__fid": 7547}, "geometry": {"type": "LineString", "coordinates": [[2.2706907, 48.8346991], [2.2717998, 48.8346883]]}}, {"type": "Feature", "properties": {"highway": "service", "footway": null, "name": null, "surface": "asphalt", "lit": null, "length_m": 38.73, "type_element": "Way", "__fid": 7561}, "geometry": {"type": "LineString", "coordinates": [[2.2712903, 48.8319229], [2.2711836, 48.8318746], [2.2710071, 48.83183289999999], [2.2707968, 48.8318239]]}}, {"type": "Feature", "properties": {"highway": "footway", "footway": null, "name": null, "surface": "compacted", "lit": "yes", "length_m": 45.18, "type_element": "Way", "__fid": 7562}, "geometry": {"type": "LineString", "coordinates": [[2.2711164, 48.8314881], [2.2710354, 48.8316526], [2.2708476, 48.83177670000001], [2.2707968, 48.8318239]]}}, {"type": "Feature", "properties": {"highway": "footway", "footway": null, "name": null, "surface": "compacted", "lit": null, "length_m": 23.5, "type_element": "Way", "__fid": 7592}, "geometry": {"type": "LineString", "coordinates": [[2.2711164, 48.8314881], [2.2708789, 48.8316298]]}}, {"type": "Feature", "properties": {"highway": "footway", "footway": null, "name": null, "surface": "sett", "lit": null, "length_m": 9.3, "type_element": "Way", "__fid": 7634}, "geometry": {"type": "LineString", "coordinates": [[2.2709754, 48.8300209], [2.271017, 48.8299419]]}}, {"type": "Feature", "properties": {"highway": "service", "footway": null, "name": null, "surface": null, "lit": "yes", "length_m": 11.23, "type_element": "Way", "__fid": 7637}, "geometry": {"type": "LineString", "coordinates": [[2.2709394, 48.833388], [2.2710631, 48.83344739999998]]}}, {"type": "Feature", "properties": {"highway": "service", "footway": null, "name": null, "surface": null, "lit": "yes", "length_m": 41.54, "type_element": "Way", "__fid": 7638}, "geometry": {"type": "LineString", "coordinates": [[2.2709394, 48.833388], [2.271286, 48.8330927]]}}, {"type": "Feature", "properties": {"highway": "service", "footway": null, "name": null, "surface": null, "lit": "yes", "length_m": 204.56, "type_element": "Way", "__fid": 7655}, "geometry": {"type": "LineString", "coordinates": [[2.2709266, 48.83622], [2.270972, 48.8361637], [2.2712053, 48.8360101], [2.2714789, 48.8358547], [2.2717579, 48.8357576], [2.2721328, 48.8356668], [2.2733659, 48.8354282]]}}, {"type": "Feature", "properties": {"highway": "footway", "footway": null, "name": null, "surface": "sett", "lit": null, "length_m": 41.98, "type_element": "Way", "__fid": 7656}, "geometry": {"type": "LineString", "coordinates": [[2.271017, 48.8299419], [2.2713751, 48.8299574], [2.2715797, 48.8299964]]}}, {"type": "Feature", "properties": {"highway": "service", "footway": null, "name": null, "surface": null, "lit": "yes", "length_m": 6.33, "type_element": "Way", "__fid": 7677}, "geometry": {"type": "LineString", "coordinates": [[2.2710217, 48.8336179], [2.2710752, 48.8335733]]}}, {"type": "Feature", "properties": {"highway": "service", "footway": null, "name": null, "surface": null, "lit": "yes", "length_m": 9.33, "type_element": "Way", "__fid": 7695}, "geometry": {"type": "LineString", "coordinates": [[2.2710631, 48.83344739999998], [2.2711659, 48.83349679999998]]}}, {"type": "Feature", "properties": {"highway": "service", "footway": null, "name": null, "surface": null, "lit": "yes", "length_m": 15.17, "type_element": "Way", "__fid": 7696}, "geometry": {"type": "LineString", "coordinates": [[2.2711886, 48.833339], [2.2710631, 48.83344739999998]]}}, {"type": "Feature", "properties": {"highway": "footway", "footway": "sidewalk", "name": null, "surface": "asphalt", "lit": "yes", "length_m": 117.03, "type_element": "Way", "__fid": 7700}, "geometry": {"type": "LineString", "coordinates": [[2.2723471, 48.8342079], [2.2710752, 48.8335733]]}}, {"type": "Feature", "properties": {"highway": "service", "footway": null, "name": null, "surface": null, "lit": "yes", "length_m": 10.8, "type_element": "Way", "__fid": 7701}, "geometry": {"type": "LineString", "coordinates": [[2.2710752, 48.8335733], [2.2711659, 48.83349679999998]]}}, {"type": "Feature", "properties": {"highway": "footway", "footway": null, "name": null, "surface": "compacted", "lit": "yes", "length_m": 77.82, "type_element": "Way", "__fid": 7705}, "geometry": {"type": "LineString", "coordinates": [[2.2714459, 48.8308229], [2.2711164, 48.8314881]]}}, {"type": "Feature", "properties": {"highway": "service", "footway": null, "name": null, "surface": null, "lit": "yes", "length_m": 7.41, "type_element": "Way", "__fid": 7727}, "geometry": {"type": "LineString", "coordinates": [[2.2711659, 48.83349679999998], [2.2711932, 48.8335099], [2.2712163, 48.833551600000014]]}}, {"type": "Feature", "properties": {"highway": "footway", "footway": "sidewalk", "name": null, "surface": null, "lit": "yes", "length_m": 105.14, "type_element": "Way", "__fid": 7753}, "geometry": {"type": "LineString", "coordinates": [[2.2723433, 48.8343755], [2.271207, 48.83379989999999]]}}, {"type": "Feature", "properties": {"highway": "service", "footway": null, "name": null, "surface": "asphalt", "lit": "yes", "length_m": 7.49, "type_element": "Way", "__fid": 7754}, "geometry": {"type": "LineString", "coordinates": [[2.2712707, 48.83374730000001], [2.271207, 48.83379989999999]]}}, {"type": "Feature", "properties": {"highway": "service", "footway": null, "name": null, "surface": "asphalt", "lit": "yes", "length_m": 41.24, "type_element": "Way", "__fid": 7755}, "geometry": {"type": "LineString", "coordinates": [[2.2712672, 48.829614], [2.2718136, 48.8297003]]}}, {"type": "Feature", "properties": {"highway": "service", "footway": null, "name": null, "surface": null, "lit": "yes", "length_m": 142.6, "type_element": "Way", "__fid": 7757}, "geometry": {"type": "LineString", "coordinates": [[2.2712163, 48.833551600000014], [2.2712309, 48.8335778], [2.2721771, 48.834054499999986], [2.2724419, 48.8338399], [2.2725351, 48.83379980000002], [2.2726049, 48.8337879], [2.2726706, 48.83373180000002]]}}, {"type": "Feature", "properties": {"highway": "service", "footway": null, "name": null, "surface": null, "lit": "yes", "length_m": 18.59, "type_element": "Way", "__fid": 7758}, "geometry": {"type": "LineString", "coordinates": [[2.2713704, 48.833418899999984], [2.2712163, 48.833551600000014]]}}, {"type": "Feature", "properties": {"highway": "footway", "footway": null, "name": null, "surface": "dirt", "lit": null, "length_m": 42.72, "type_element": "Way", "__fid": 7775}, "geometry": {"type": "LineString", "coordinates": [[2.2718463, 48.8320365], [2.2712903, 48.8319229]]}}, {"type": "Feature", "properties": {"highway": "service", "footway": null, "name": null, "surface": "asphalt", "lit": null, "length_m": 120.8, "type_element": "Way", "__fid": 7776}, "geometry": {"type": "LineString", "coordinates": [[2.2728307, 48.832092899999985], [2.2724579, 48.832146], [2.2721144, 48.8321687], [2.2716733, 48.8320965], [2.2712903, 48.8319229]]}}, {"type": "Feature", "properties": {"highway": "service", "footway": null, "name": null, "surface": null, "lit": "yes", "length_m": 38.94, "type_element": "Way", "__fid": 7781}, "geometry": {"type": "LineString", "coordinates": [[2.2716792, 48.8331639], [2.2715836, 48.8332442], [2.271286, 48.8330927]]}}, {"type": "Feature", "properties": {"highway": "service", "footway": null, "name": null, "surface": null, "lit": "yes", "length_m": 11.89, "type_element": "Way", "__fid": 7782}, "geometry": {"type": "LineString", "coordinates": [[2.271286, 48.8330927], [2.2713956, 48.833014]]}}, {"type": "Feature", "properties": {"highway": "service", "footway": null, "name": null, "surface": null, "lit": "yes", "length_m": 26.67, "type_element": "Way", "__fid": 7832}, "geometry": {"type": "LineString", "coordinates": [[2.2713956, 48.833014], [2.2716792, 48.8331639]]}}, {"type": "Feature", "properties": {"highway": "footway", "footway": null, "name": null, "surface": null, "lit": null, "length_m": 70.12, "type_element": "Way", "__fid": 7838}, "geometry": {"type": "LineString", "coordinates": [[2.2714459, 48.8308229], [2.2723589, 48.8310083]]}}, {"type": "Feature", "properties": {"highway": "footway", "footway": null, "name": null, "surface": "compacted", "lit": "yes", "length_m": 43.11, "type_element": "Way", "__fid": 7839}, "geometry": {"type": "LineString", "coordinates": [[2.2716285, 48.8304544], [2.2714459, 48.8308229]]}}, {"type": "Feature", "properties": {"highway": "footway", "footway": null, "name": null, "surface": "dirt", "lit": null, "length_m": 87.68, "type_element": "Way", "__fid": 7858}, "geometry": {"type": "LineString", "coordinates": [[2.2714921, 48.8295243], [2.2717723, 48.8296069], [2.2719668, 48.8296404], [2.2721435, 48.82965140000001], [2.2723848, 48.8296296], [2.2726423, 48.8295872]]}}, {"type": "Feature", "properties": {"highway": "footway", "footway": null, "name": null, "surface": "sett", "lit": null, "length_m": 51.1, "type_element": "Way", "__fid": 7883}, "geometry": {"type": "LineString", "coordinates": [[2.2715797, 48.8299964], [2.2715843, 48.8301772], [2.2716285, 48.8304544]]}}, {"type": "Feature", "properties": {"highway": "footway", "footway": null, "name": null, "surface": "sett", "lit": null, "length_m": 25.06, "type_element": "Way", "__fid": 7884}, "geometry": {"type": "LineString", "coordinates": [[2.2715797, 48.8299964], [2.2716916, 48.8299862], [2.271898, 48.8299217]]}}, {"type": "Feature", "properties": {"highway": "footway", "footway": null, "name": null, "surface": "compacted", "lit": "yes", "length_m": 62.45, "type_element": "Way", "__fid": 7903}, "geometry": {"type": "LineString", "coordinates": [[2.271898, 48.8299217], [2.2716285, 48.8304544]]}}, {"type": "Feature", "properties": {"highway": "service", "footway": null, "name": null, "surface": "asphalt", "lit": "yes", "length_m": 56.92, "type_element": "Way", "__fid": 7927}, "geometry": {"type": "LineString", "coordinates": [[2.2722867, 48.833395], [2.2717277, 48.83312189999999], [2.2716792, 48.8331639]]}}, {"type": "Feature", "properties": {"highway": "footway", "footway": null, "name": null, "surface": "asphalt", "lit": "yes", "length_m": 19.94, "type_element": "Way", "__fid": 7937}, "geometry": {"type": "LineString", "coordinates": [[2.2716844, 48.8347891], [2.2718046, 48.834788199999984], [2.2717998, 48.8346883]]}}, {"type": "Feature", "properties": {"highway": "service", "footway": null, "name": null, "surface": "asphalt", "lit": "yes", "length_m": 125.83, "type_element": "Way", "__fid": 7950}, "geometry": {"type": "LineString", "coordinates": [[2.2718136, 48.8297003], [2.2726922, 48.8298647], [2.2731109, 48.8299988], [2.2733865, 48.83012509999999]]}}, {"type": "Feature", "properties": {"highway": "footway", "footway": null, "name": null, "surface": "compacted", "lit": "yes", "length_m": 6.46, "type_element": "Way", "__fid": 7951}, "geometry": {"type": "LineString", "coordinates": [[2.2718136, 48.8297003], [2.2718351, 48.82975660000002]]}}, {"type": "Feature", "properties": {"highway": "footway", "footway": null, "name": null, "surface": "ground", "lit": null, "length_m": 89.71, "type_element": "Way", "__fid": 7963}, "geometry": {"type": "LineString", "coordinates": [[2.2728872, 48.830095499999985], [2.2727993, 48.8299892], [2.2726079, 48.8298975], [2.2723329, 48.8298448], [2.2721415, 48.8298173], [2.2718351, 48.82975660000002]]}}, {"type": "Feature", "properties": {"highway": "footway", "footway": null, "name": null, "surface": "compacted", "lit": "yes", "length_m": 18.93, "type_element": "Way", "__fid": 7964}, "geometry": {"type": "LineString", "coordinates": [[2.2718351, 48.82975660000002], [2.271898, 48.8299217]]}}, {"type": "Feature", "properties": {"highway": "footway", "footway": null, "name": null, "surface": "asphalt", "lit": "yes", "length_m": 80.29, "type_element": "Way", "__fid": 7979}, "geometry": {"type": "LineString", "coordinates": [[2.2717998, 48.8346883], [2.2727405, 48.834675], [2.2728838, 48.8346398]]}}, {"type": "Feature", "properties": {"highway": "footway", "footway": null, "name": null, "surface": "dirt", "lit": null, "length_m": 73.26, "type_element": "Way", "__fid": 7983}, "geometry": {"type": "LineString", "coordinates": [[2.2728307, 48.832092899999985], [2.2725671, 48.8320445], [2.2724749, 48.8320512], [2.2720625, 48.8320319], [2.2719251, 48.8320438], [2.2718463, 48.8320365]]}}, {"type": "Feature", "properties": {"highway": "footway", "footway": null, "name": null, "surface": null, "lit": null, "length_m": 23.26, "type_element": "Way", "__fid": 7984}, "geometry": {"type": "LineString", "coordinates": [[2.2719471, 48.8318382], [2.2718463, 48.8320365]]}}, {"type": "Feature", "properties": {"highway": "service", "footway": null, "name": null, "surface": "asphalt", "lit": "yes", "length_m": 52.16, "type_element": "Way", "__fid": 7991}, "geometry": {"type": "LineString", "coordinates": [[2.2722867, 48.833395], [2.2718334, 48.8337562]]}}, {"type": "Feature", "properties": {"highway": "footway", "footway": null, "name": null, "surface": null, "lit": null, "length_m": 71.22, "type_element": "Way", "__fid": 8017}, "geometry": {"type": "LineString", "coordinates": [[2.2728685, 48.8320389], [2.2719471, 48.8318382]]}}, {"type": "Feature", "properties": {"highway": "footway", "footway": null, "name": null, "surface": null, "lit": null, "length_m": 97.1, "type_element": "Way", "__fid": 8018}, "geometry": {"type": "LineString", "coordinates": [[2.2723589, 48.8310083], [2.2719471, 48.8318382]]}}, {"type": "Feature", "properties": {"highway": "footway", "footway": "sidewalk", "name": null, "surface": null, "lit": "yes", "length_m": 119.72, "type_element": "Way", "__fid": 8105}, "geometry": {"type": "LineString", "coordinates": [[2.273433, 48.8357426], [2.2733079, 48.8354839], [2.2732918, 48.8354777], [2.2721365, 48.8356944]]}}, {"type": "Feature", "properties": {"highway": "service", "footway": null, "name": null, "surface": "asphalt", "lit": "yes", "length_m": 49.68, "type_element": "Way", "__fid": 8142}, "geometry": {"type": "LineString", "coordinates": [[2.2728583, 48.8336342], [2.2722867, 48.833395]]}}, {"type": "Feature", "properties": {"highway": "service", "footway": null, "name": null, "surface": "asphalt", "lit": "yes", "length_m": 30.61, "type_element": "Way", "__fid": 8143}, "geometry": {"type": "LineString", "coordinates": [[2.2726989, 48.8333532], [2.2722867, 48.833395]]}}, {"type": "Feature", "properties": {"highway": "service", "footway": null, "name": null, "surface": null, "lit": null, "length_m": 7.2, "type_element": "Way", "__fid": 8152}, "geometry": {"type": "LineString", "coordinates": [[2.27229, 48.8342605], [2.2723471, 48.8342079]]}}, {"type": "Feature", "properties": {"highway": "footway", "footway": null, "name": null, "surface": null, "lit": null, "length_m": 67.72, "type_element": "Way", "__fid": 8160}, "geometry": {"type": "LineString", "coordinates": [[2.2731453, 48.8310649], [2.2724051, 48.830915199999986], [2.2723589, 48.8310083]]}}, {"type": "Feature", "properties": {"highway": "footway", "footway": "sidewalk", "name": null, "surface": null, "lit": "yes", "length_m": 49.37, "type_element": "Way", "__fid": 8171}, "geometry": {"type": "LineString", "coordinates": [[2.2728838, 48.8346398], [2.2723433, 48.8343755]]}}, {"type": "Feature", "properties": {"highway": "footway", "footway": "crossing", "name": null, "surface": null, "lit": "yes", "length_m": 15.04, "type_element": "Way", "__fid": 8172}, "geometry": {"type": "LineString", "coordinates": [[2.2723433, 48.8343755], [2.2724688, 48.8342686]]}}, {"type": "Feature", "properties": {"highway": "footway", "footway": "sidewalk", "name": null, "surface": "asphalt", "lit": "yes", "length_m": 11.2, "type_element": "Way", "__fid": 8173}, "geometry": {"type": "LineString", "coordinates": [[2.2724688, 48.8342686], [2.2723471, 48.8342079]]}}, {"type": "Feature", "properties": {"highway": "service", "footway": null, "name": null, "surface": null, "lit": null, "length_m": 7.37, "type_element": "Way", "__fid": 8174}, "geometry": {"type": "LineString", "coordinates": [[2.2723471, 48.8342079], [2.2724056, 48.834154]]}}, {"type": "Feature", "properties": {"highway": "service", "footway": null, "name": null, "surface": null, "lit": null, "length_m": 6.28, "type_element": "Way", "__fid": 8194}, "geometry": {"type": "LineString", "coordinates": [[2.2724741, 48.8341878], [2.2724056, 48.834154]]}}, {"type": "Feature", "properties": {"highway": "service", "footway": null, "name": null, "surface": null, "lit": null, "length_m": 56.14, "type_element": "Way", "__fid": 8195}, "geometry": {"type": "LineString", "coordinates": [[2.2724056, 48.834154], [2.2722568, 48.83408050000001], [2.2725166, 48.8338872], [2.2725788, 48.8338759], [2.2726314, 48.8338846], [2.27268, 48.83391670000002]]}}, {"type": "Feature", "properties": {"highway": "footway", "footway": "sidewalk", "name": null, "surface": "asphalt", "lit": "yes", "length_m": 118.58, "type_element": "Way", "__fid": 8223}, "geometry": {"type": "LineString", "coordinates": [[2.2739178, 48.834383299999985], [2.2731446, 48.8345387], [2.273083, 48.83454], [2.2729676, 48.8345175], [2.2724688, 48.8342686]]}}, {"type": "Feature", "properties": {"highway": "footway", "footway": null, "name": null, "surface": "dirt", "lit": null, "length_m": 197.57, "type_element": "Way", "__fid": 8271}, "geometry": {"type": "LineString", "coordinates": [[2.2741281, 48.8300266], [2.2741801, 48.82997360000002], [2.2741991, 48.8299038], [2.2742118, 48.829717], [2.2741978, 48.8296555], [2.2741074, 48.8295535], [2.2740153, 48.8295059], [2.2739266, 48.829477299999986], [2.273848, 48.829459499999984], [2.2736651, 48.8294444], [2.2735807, 48.82942], [2.2734683, 48.8293744], [2.273361, 48.8292937], [2.2732246, 48.8292306], [2.2731544, 48.8292173], [2.2730868, 48.8292164], [2.2729504, 48.8292467], [2.272879, 48.8292859], [2.2728093, 48.8293382], [2.2726423, 48.8295872]]}}, {"type": "Feature", "properties": {"highway": "service", "footway": null, "name": null, "surface": null, "lit": null, "length_m": 11.11, "type_element": "Way", "__fid": 8310}, "geometry": {"type": "LineString", "coordinates": [[2.27268, 48.83391670000002], [2.2726931, 48.83394770000001], [2.2726675, 48.8340133]]}}, {"type": "Feature", "properties": {"highway": "service", "footway": null, "name": null, "surface": "asphalt", "lit": "yes", "length_m": 53.24, "type_element": "Way", "__fid": 8324}, "geometry": {"type": "LineString", "coordinates": [[2.2731461, 48.8335688], [2.2731033, 48.8336361], [2.2729093, 48.8338179], [2.2728501, 48.833859099999984], [2.2727913, 48.833885], [2.27268, 48.83391670000002]]}}, {"type": "Feature", "properties": {"highway": "service", "footway": null, "name": null, "surface": "asphalt", "lit": "yes", "length_m": 40.81, "type_element": "Way", "__fid": 8326}, "geometry": {"type": "LineString", "coordinates": [[2.2731461, 48.8335688], [2.2730666, 48.83354520000001], [2.2726989, 48.8333532]]}}, {"type": "Feature", "properties": {"highway": "service", "footway": null, "name": null, "surface": "asphalt", "lit": "yes", "length_m": 222.69, "type_element": "Way", "__fid": 8327}, "geometry": {"type": "LineString", "coordinates": [[2.2756796, 48.8331146], [2.2756137, 48.83308250000001], [2.2744591, 48.8331322], [2.2731933, 48.833262699999985], [2.2730436, 48.8332833], [2.2726989, 48.8333532]]}}, {"type": "Feature", "properties": {"highway": "footway", "footway": null, "name": null, "surface": "dirt", "lit": null, "length_m": 117.57, "type_element": "Way", "__fid": 8387}, "geometry": {"type": "LineString", "coordinates": [[2.272932, 48.8303302], [2.2727355, 48.8305094], [2.2727296, 48.8307337], [2.2727572, 48.8308239], [2.2728669, 48.8308818], [2.2731117, 48.83092520000001], [2.2733846, 48.8309372], [2.2734934, 48.8309041]]}}]}