{"type": "FeatureCollection", "features": [{"type": "Feature", "properties": {"@id": "node/3688522914", "amenity": "drinking_water", "check_date": "2024-12-27", "man_made": "water_tap", "type_element": "Fontaines à boire", "__fid": 445}, "geometry": {"type": "Point", "coordinates": [2.2682703, 48.8731903]}, "id": "node/3688522914"}, {"type": "Feature", "properties": {"@id": "node/4662932122", "amenity": "drinking_water", "indoor": "no", "man_made": "water_tap", "type_element": "Fontaines à boire", "__fid": 504}, "geometry": {"type": "Point", "coordinates": [2.2665227, 48.8734193]}, "id": "node/4662932122"}, {"type": "Feature", "geometry": {"type": "Point", "coordinates": [2.265215, 48.873648]}, "properties": {"id": 17400, "name": "Tir aux Pigeons", "categorie": "Parcs, jardins et bois", "photo_url": "https://cdn.paris.fr/eqpts-prod/2024/01/26/e745559000a96558188ff5725d71c29e.jpg", "photo_credit": "Sonia Yassa / Ville de Paris", "photo_alt": "Vue sur un catalpa et sur le lac", "address_street": "Route de l'Étoile", "address_postcode": "75016", "address_city": "Paris", "phone": null, "accessibility": "{\"handicaps\": [{\"name\": \"Personnes déficientes auditives\", \"status\": \"accessible\"}, {\"name\": \"Personnes déficientes visuelles\", \"status\": \"undefined\"}, {\"name\": \"Personnes déficientes mentales\", \"status\": \"undefined\"}, {\"name\": \"Personnes à mobilité réduite\", \"status\": \"undefined\"}, {\"name\": \"Accueil en langue des signes\", \"status\": \"undefined\"}]}", "latitude": 48.873648, "longitude": 2.265215, "url": "https://www.paris.fr/lieux/tir-aux-pigeons-17400", "type_element": "Parcs, Jardins et Bois", "__fid": 1511}}, {"type": "Feature", "properties": {"highway": "service", "footway": null, "name": "Route de la Porte Saint-James", "surface": "concrete", "lit": "yes", "length_m": 288.4, "type_element": "Way", "__fid": 5042}, "geometry": {"type": "LineString", "coordinates": [[2.2605586, 48.876792399999985], [2.260606, 48.8768077], [2.2606581, 48.8767935], [2.2610435, 48.87679629999999], [2.2611922, 48.87678780000002], [2.261462, 48.8767483], [2.2617141, 48.8766977], [2.2627404, 48.87644119999999], [2.2633404, 48.8763041], [2.2634882, 48.87629310000001], [2.2637683, 48.87634830000001], [2.2638323, 48.8762805], [2.263867, 48.87598209999999]]}}, {"type": "Feature", "properties": {"highway": "path", "footway": null, "name": "Allée des Marronniers", "surface": "gravel", "lit": "no", "length_m": 112.26, "type_element": "Way", "__fid": 5448}, "geometry": {"type": "LineString", "coordinates": [[2.2623779, 48.8758931], [2.2624805, 48.87584309999998], [2.2628685, 48.875894], [2.263867, 48.87598209999999]]}}, {"type": "Feature", "properties": {"highway": "path", "footway": null, "name": null, "surface": "dirt", "lit": null, "length_m": 204.73, "type_element": "Way", "__fid": 5559}, "geometry": {"type": "LineString", "coordinates": [[2.2629921, 48.875235], [2.2633677, 48.874871], [2.2638218, 48.8742764], [2.2639306, 48.8741108], [2.2640105, 48.8738658], [2.2640177, 48.87374959999999], [2.264071, 48.87356530000001]]}}, {"type": "Feature", "properties": {"highway": "path", "footway": null, "name": null, "surface": "ground", "lit": null, "length_m": 100.37, "type_element": "Way", "__fid": 5565}, "geometry": {"type": "LineString", "coordinates": [[2.2642845, 48.8722916], [2.2630826, 48.8718601]]}}, {"type": "Feature", "properties": {"highway": "path", "footway": null, "name": null, "surface": "compacted", "lit": "yes", "length_m": 95.96, "type_element": "Way", "__fid": 5575}, "geometry": {"type": "LineString", "coordinates": [[2.2642792, 48.8725753], [2.2632777, 48.8722114], [2.2631297, 48.8721636]]}}, {"type": "Feature", "properties": {"highway": "path", "footway": null, "name": null, "surface": null, "lit": null, "length_m": 137.65, "type_element": "Way", "__fid": 5650}, "geometry": {"type": "LineString", "coordinates": [[2.2635013, 48.8749219], [2.2639383, 48.8748924], [2.2643728, 48.874798], [2.2646967, 48.8747592], [2.2648194, 48.8746771], [2.2652842, 48.8747447]]}}, {"type": "Feature", "properties": {"highway": "track", "footway": null, "name": "Route Sablonneuse", "surface": "asphalt", "lit": "no", "length_m": 25.72, "type_element": "Way", "__fid": 5681}, "geometry": {"type": "LineString", "coordinates": [[2.2636121, 48.876141], [2.263867, 48.87598209999999]]}}, {"type": "Feature", "properties": {"highway": "service", "footway": null, "name": null, "surface": "concrete", "lit": null, "length_m": 25.61, "type_element": "Way", "__fid": 5697}, "geometry": {"type": "LineString", "coordinates": [[2.264071, 48.87356530000001], [2.2639386, 48.8735667], [2.2637246, 48.8735438]]}}, {"type": "Feature", "properties": {"highway": "service", "footway": null, "name": null, "surface": null, "lit": null, "length_m": 56.25, "type_element": "Way", "__fid": 5699}, "geometry": {"type": "LineString", "coordinates": [[2.2640137, 48.8732673], [2.2637495, 48.8732373], [2.2637147, 48.8732434], [2.2636992, 48.8732809], [2.2636852, 48.8734207], [2.2637153, 48.87348820000001], [2.2637246, 48.8735438]]}}, {"type": "Feature", "properties": {"highway": "path", "footway": null, "name": "Allée des Marronniers", "surface": "gravel", "lit": "no", "length_m": 173.83, "type_element": "Way", "__fid": 5735}, "geometry": {"type": "LineString", "coordinates": [[2.263867, 48.87598209999999], [2.2662162, 48.8761886]]}}, {"type": "Feature", "properties": {"highway": "track", "footway": null, "name": "Route Sablonneuse", "surface": "asphalt", "lit": "no", "length_m": 173.44, "type_element": "Way", "__fid": 5736}, "geometry": {"type": "LineString", "coordinates": [[2.263867, 48.87598209999999], [2.2643812, 48.87564260000001], [2.264649, 48.87542710000001], [2.2648733, 48.87516], [2.2652842, 48.8747447]]}}, {"type": "Feature", "properties": {"highway": "service", "footway": null, "name": null, "surface": null, "lit": null, "length_m": 5.17, "type_element": "Way", "__fid": 5752}, "geometry": {"type": "LineString", "coordinates": [[2.2640137, 48.8732673], [2.264007, 48.8733136]]}}, {"type": "Feature", "properties": {"highway": "service", "footway": null, "name": null, "surface": null, "lit": null, "length_m": 9.14, "type_element": "Way", "__fid": 5757}, "geometry": {"type": "LineString", "coordinates": [[2.2641309, 48.8732395], [2.2640137, 48.8732673]]}}, {"type": "Feature", "properties": {"highway": "service", "footway": null, "name": null, "surface": "concrete", "lit": null, "length_m": 12.56, "type_element": "Way", "__fid": 5771}, "geometry": {"type": "LineString", "coordinates": [[2.2642397, 48.8735791], [2.2641666, 48.8735663], [2.264071, 48.87356530000001]]}}, {"type": "Feature", "properties": {"highway": "footway", "footway": null, "name": null, "surface": "dirt", "lit": null, "length_m": 36.54, "type_element": "Way", "__fid": 5772}, "geometry": {"type": "LineString", "coordinates": [[2.2641309, 48.8732395], [2.2640981, 48.8733669], [2.2640916, 48.8734663], [2.264071, 48.87356530000001]]}}, {"type": "Feature", "properties": {"highway": "footway", "footway": null, "name": null, "surface": "dirt", "lit": "no", "length_m": 250.21, "type_element": "Way", "__fid": 5777}, "geometry": {"type": "LineString", "coordinates": [[2.2641435, 48.87009], [2.2640927, 48.8701849], [2.2641002, 48.8702991], [2.2640713, 48.8703597], [2.2640702, 48.870438], [2.2640949, 48.8706156], [2.2640874, 48.8707876], [2.2640691, 48.8708793], [2.2640466, 48.8709272], [2.2640423, 48.8710865], [2.2640016, 48.8712296], [2.2639855, 48.87138820000002], [2.2640006, 48.8715095], [2.2640766, 48.8717646], [2.2640659, 48.8718288], [2.2641077, 48.8718993], [2.2641789, 48.8719712], [2.2642725, 48.8722103], [2.2642845, 48.8722916]]}}, {"type": "Feature", "properties": {"highway": "footway", "footway": null, "name": null, "surface": null, "lit": "yes", "length_m": 15.09, "type_element": "Way", "__fid": 5780}, "geometry": {"type": "LineString", "coordinates": [[2.264293, 48.8723848], [2.264119, 48.8723124]]}}, {"type": "Feature", "properties": {"highway": "footway", "footway": null, "name": null, "surface": "dirt", "lit": null, "length_m": 74.77, "type_element": "Way", "__fid": 5784}, "geometry": {"type": "LineString", "coordinates": [[2.2642792, 48.8725753], [2.2642715, 48.872694], [2.2642415, 48.8728443], [2.2641929, 48.8729878], [2.2641309, 48.8732395]]}}, {"type": "Feature", "properties": {"highway": "service", "footway": null, "name": null, "surface": null, "lit": null, "length_m": 15.88, "type_element": "Way", "__fid": 5785}, "geometry": {"type": "LineString", "coordinates": [[2.2643424, 48.8732091], [2.2641309, 48.8732395]]}}, {"type": "Feature", "properties": {"highway": "track", "footway": null, "name": "Route de l'Étoile", "surface": "compacted", "lit": null, "length_m": 17.65, "type_element": "Way", "__fid": 5786}, "geometry": {"type": "LineString", "coordinates": [[2.2641325, 48.8738452], [2.2643675, 48.8738111]]}}, {"type": "Feature", "properties": {"highway": "footway", "footway": "crossing", "name": "Allée de Longchamp", "surface": "asphalt", "lit": "yes", "length_m": 21.48, "type_element": "Way", "__fid": 5818}, "geometry": {"type": "LineString", "coordinates": [[2.2645351, 48.87266630000002], [2.2644235, 48.8726397], [2.2642792, 48.8725753]]}}, {"type": "Feature", "properties": {"highway": "footway", "footway": "crossing", "name": null, "surface": "asphalt", "lit": "yes", "length_m": 21.5, "type_element": "Way", "__fid": 5819}, "geometry": {"type": "LineString", "coordinates": [[2.264293, 48.8723848], [2.2642618, 48.8725258], [2.2642792, 48.8725753]]}}, {"type": "Feature", "properties": {"highway": "footway", "footway": null, "name": null, "surface": "dirt", "lit": "no", "length_m": 10.38, "type_element": "Way", "__fid": 5820}, "geometry": {"type": "LineString", "coordinates": [[2.2642845, 48.8722916], [2.264293, 48.8723848]]}}, {"type": "Feature", "properties": {"highway": "footway", "footway": "crossing", "name": null, "surface": "asphalt", "lit": "yes", "length_m": 18.43, "type_element": "Way", "__fid": 5824}, "geometry": {"type": "LineString", "coordinates": [[2.2645133, 48.8724041], [2.2643663, 48.87236690000001], [2.2643135, 48.8723618], [2.264293, 48.8723848]]}}, {"type": "Feature", "properties": {"highway": "path", "footway": null, "name": null, "surface": null, "lit": null, "length_m": 25.13, "type_element": "Way", "__fid": 5852}, "geometry": {"type": "LineString", "coordinates": [[2.2646739, 48.8739087], [2.2646052, 48.87387720000002], [2.2644898, 48.873853], [2.2643675, 48.8738111]]}}, {"type": "Feature", "properties": {"highway": "track", "footway": null, "name": "Route de l'Étoile", "surface": "compacted", "lit": null, "length_m": 12.43, "type_element": "Way", "__fid": 5853}, "geometry": {"type": "LineString", "coordinates": [[2.2643675, 48.8738111], [2.264533, 48.873787]]}}, {"type": "Feature", "properties": {"highway": "track", "footway": null, "name": null, "surface": "asphalt", "lit": "no", "length_m": 265.5, "type_element": "Way", "__fid": 5856}, "geometry": {"type": "LineString", "coordinates": [[2.2644253, 48.8701993], [2.2645885, 48.8702857], [2.2646343, 48.8703612], [2.2647026, 48.8706563], [2.26475, 48.870815], [2.2648197, 48.8708909], [2.2650767, 48.8710108], [2.2653427, 48.8711092], [2.2657028, 48.8712549], [2.2659055, 48.8713876], [2.2663133, 48.8716747], [2.266649, 48.87182149999999], [2.2667665, 48.8718547]]}}, {"type": "Feature", "properties": {"highway": "footway", "footway": null, "name": null, "surface": "compacted", "lit": null, "length_m": 246.78, "type_element": "Way", "__fid": 5857}, "geometry": {"type": "LineString", "coordinates": [[2.2644253, 48.8701993], [2.2643671, 48.8703792], [2.264319, 48.8706314], [2.2643025, 48.8708726], [2.2643126, 48.8711212], [2.2643398, 48.8713582], [2.2643946, 48.8715872], [2.2645036, 48.8721588], [2.2645133, 48.8724041]]}}, {"type": "Feature", "properties": {"highway": "footway", "footway": null, "name": null, "surface": null, "lit": "yes", "length_m": 12.84, "type_element": "Way", "__fid": 5907}, "geometry": {"type": "LineString", "coordinates": [[2.2646801, 48.87243919999999], [2.2645133, 48.8724041]]}}, {"type": "Feature", "properties": {"highway": "footway", "footway": "crossing", "name": null, "surface": "asphalt", "lit": "yes", "length_m": 29.94, "type_element": "Way", "__fid": 5908}, "geometry": {"type": "LineString", "coordinates": [[2.2645351, 48.87266630000002], [2.2645527, 48.872505], [2.2645099, 48.87244760000002], [2.2645133, 48.8724041]]}}, {"type": "Feature", "properties": {"highway": "footway", "footway": null, "name": "Allée de Longchamp", "surface": null, "lit": "yes", "length_m": 158.83, "type_element": "Way", "__fid": 5921}, "geometry": {"type": "LineString", "coordinates": [[2.2664346, 48.8733521], [2.2645351, 48.87266630000002]]}}, {"type": "Feature", "properties": {"highway": "path", "footway": null, "name": null, "surface": null, "lit": null, "length_m": 17.03, "type_element": "Way", "__fid": 5925}, "geometry": {"type": "LineString", "coordinates": [[2.264533, 48.873787], [2.2646739, 48.8739087]]}}, {"type": "Feature", "properties": {"highway": "track", "footway": null, "name": "Route de l'Étoile", "surface": "compacted", "lit": null, "length_m": 118.77, "type_element": "Way", "__fid": 5926}, "geometry": {"type": "LineString", "coordinates": [[2.264533, 48.873787], [2.265135, 48.8736874], [2.2656984, 48.8735626], [2.2660733, 48.8734629]]}}, {"type": "Feature", "properties": {"highway": "footway", "footway": null, "name": null, "surface": null, "lit": "yes", "length_m": 152.27, "type_element": "Way", "__fid": 5967}, "geometry": {"type": "LineString", "coordinates": [[2.2665051, 48.8730918], [2.2646801, 48.87243919999999]]}}, {"type": "Feature", "properties": {"highway": "footway", "footway": null, "name": null, "surface": "grass", "lit": "no", "length_m": 171.07, "type_element": "Way", "__fid": 5968}, "geometry": {"type": "LineString", "coordinates": [[2.2646801, 48.87243919999999], [2.265233, 48.8723557], [2.2654907, 48.8723313], [2.2659735, 48.87221120000001], [2.2662526, 48.8721286], [2.266346, 48.87210839999998], [2.2665663, 48.8720303], [2.2666845, 48.8719427], [2.2667665, 48.8718547]]}}, {"type": "Feature", "properties": {"highway": "path", "footway": null, "name": null, "surface": null, "lit": null, "length_m": 91.48, "type_element": "Way", "__fid": 5973}, "geometry": {"type": "LineString", "coordinates": [[2.2646739, 48.8739087], [2.2647366, 48.87401730000001], [2.2648435, 48.874160400000015], [2.2649997, 48.8742482], [2.2651973, 48.874286], [2.26538, 48.874346], [2.2655786, 48.8743988]]}}, {"type": "Feature", "properties": {"highway": "path", "footway": null, "name": null, "surface": "grass", "lit": "no", "length_m": 183.95, "type_element": "Way", "__fid": 6074}, "geometry": {"type": "LineString", "coordinates": [[2.2651214, 48.8706639], [2.2651483, 48.8706964], [2.265149, 48.870834899999984], [2.2652643, 48.8709465], [2.2653287, 48.8709813], [2.265731, 48.8711013], [2.265847, 48.8712217], [2.2659624, 48.8712896], [2.2662064, 48.8714665], [2.2663821, 48.8715573], [2.2666463, 48.8716469], [2.2668593, 48.871743500000015]]}}, {"type": "Feature", "properties": {"highway": "footway", "footway": null, "name": null, "surface": "sett", "lit": null, "length_m": 46.48, "type_element": "Way", "__fid": 6110}, "geometry": {"type": "LineString", "coordinates": [[2.2654128, 48.876604], [2.2651445, 48.8769827]]}}, {"type": "Feature", "properties": {"highway": "track", "footway": null, "name": "Route Sablonneuse", "surface": "asphalt", "lit": "no", "length_m": 44.22, "type_element": "Way", "__fid": 6139}, "geometry": {"type": "LineString", "coordinates": [[2.2652842, 48.8747447], [2.2654263, 48.8745494], [2.2655786, 48.8743988]]}}, {"type": "Feature", "properties": {"highway": "path", "footway": null, "name": null, "surface": null, "lit": null, "length_m": 79.05, "type_element": "Way", "__fid": 6230}, "geometry": {"type": "LineString", "coordinates": [[2.2655786, 48.8743988], [2.2658729, 48.87446949999999], [2.2661391, 48.874559], [2.2663122, 48.874644199999985], [2.2665452, 48.8747035]]}}, {"type": "Feature", "properties": {"highway": "track", "footway": null, "name": "Route Sablonneuse", "surface": "asphalt", "lit": "no", "length_m": 108.95, "type_element": "Way", "__fid": 6231}, "geometry": {"type": "LineString", "coordinates": [[2.2655786, 48.8743988], [2.2662644, 48.8735297]]}}, {"type": "Feature", "properties": {"highway": "track", "footway": null, "name": "Allée Saint-Denis", "surface": "fine_gravel", "lit": null, "length_m": 110.33, "type_element": "Way", "__fid": 6253}, "geometry": {"type": "LineString", "coordinates": [[2.2657611, 48.8704762], [2.265987, 48.870675], [2.2661223, 48.8707564], [2.2663394, 48.8708682], [2.2669008, 48.87110820000002]]}}, {"type": "Feature", "properties": {"highway": "path", "footway": null, "name": null, "surface": null, "lit": null, "length_m": 15.86, "type_element": "Way", "__fid": 6357}, "geometry": {"type": "LineString", "coordinates": [[2.2662644, 48.8735297], [2.2660733, 48.8734629]]}}, {"type": "Feature", "properties": {"highway": "track", "footway": null, "name": "Route de l'Étoile", "surface": "compacted", "lit": null, "length_m": 24.81, "type_element": "Way", "__fid": 6358}, "geometry": {"type": "LineString", "coordinates": [[2.2660733, 48.8734629], [2.2663803, 48.873369199999985]]}}, {"type": "Feature", "properties": {"highway": "path", "footway": null, "name": "Allée des Marronniers", "surface": "gravel", "lit": "no", "length_m": 107.3, "type_element": "Way", "__fid": 6411}, "geometry": {"type": "LineString", "coordinates": [[2.2662162, 48.8761886], [2.267665, 48.8763227]]}}, {"type": "Feature", "properties": {"highway": "path", "footway": null, "name": null, "surface": null, "lit": null, "length_m": 96.43, "type_element": "Way", "__fid": 6412}, "geometry": {"type": "LineString", "coordinates": [[2.2662162, 48.8761886], [2.2662364, 48.8760144], [2.2662964, 48.8757922], [2.266446, 48.87556239999998], [2.2666017, 48.8754566], [2.266685, 48.8754144]]}}, {"type": "Feature", "properties": {"highway": "path", "footway": null, "name": null, "surface": null, "lit": null, "length_m": 45.31, "type_element": "Way", "__fid": 6418}, "geometry": {"type": "LineString", "coordinates": [[2.2667959, 48.87373040000003], [2.2667141, 48.873675699999986], [2.2662644, 48.8735297]]}}, {"type": "Feature", "properties": {"highway": "track", "footway": null, "name": "Route Sablonneuse", "surface": "asphalt", "lit": "no", "length_m": 19.9, "type_element": "Way", "__fid": 6419}, "geometry": {"type": "LineString", "coordinates": [[2.2662644, 48.8735297], [2.2663542, 48.8734279], [2.2663803, 48.873369199999985]]}}, {"type": "Feature", "properties": {"highway": "track", "footway": null, "name": "Route de l'Étoile", "surface": "compacted", "lit": null, "length_m": 4.41, "type_element": "Way", "__fid": 6439}, "geometry": {"type": "LineString", "coordinates": [[2.2663803, 48.873369199999985], [2.2664346, 48.8733521]]}}, {"type": "Feature", "properties": {"highway": "footway", "footway": null, "name": "Allée de Longchamp", "surface": null, "lit": "yes", "length_m": 23.07, "type_element": "Way", "__fid": 6448}, "geometry": {"type": "LineString", "coordinates": [[2.2667122, 48.8734497], [2.2664346, 48.8733521]]}}, {"type": "Feature", "properties": {"highway": "path", "footway": null, "name": "Route de l'Étoile", "surface": "asphalt", "lit": null, "length_m": 36.1, "type_element": "Way", "__fid": 6449}, "geometry": {"type": "LineString", "coordinates": [[2.2664346, 48.8733521], [2.2667855, 48.8732701], [2.2668307, 48.8732445], [2.266886, 48.8732287]]}}, {"type": "Feature", "properties": {"highway": "track", "footway": null, "name": "Route Sablonneuse", "surface": "concrete", "lit": "no", "length_m": 7.77, "type_element": "Way", "__fid": 6455}, "geometry": {"type": "LineString", "coordinates": [[2.2664634, 48.873156], [2.2665051, 48.8730918]]}}, {"type": "Feature", "properties": {"highway": "footway", "footway": null, "name": null, "surface": null, "lit": "yes", "length_m": 31.82, "type_element": "Way", "__fid": 6458}, "geometry": {"type": "LineString", "coordinates": [[2.266886, 48.8732287], [2.2665051, 48.8730918]]}}, {"type": "Feature", "properties": {"highway": "track", "footway": null, "name": "Route Sablonneuse", "surface": "concrete", "lit": "no", "length_m": 133.41, "type_element": "Way", "__fid": 6459}, "geometry": {"type": "LineString", "coordinates": [[2.2665051, 48.8730918], [2.2665723, 48.872981], [2.2666365, 48.8728078], [2.2667938, 48.8722088], [2.2668476, 48.8719167]]}}, {"type": "Feature", "properties": {"highway": "path", "footway": null, "name": null, "surface": null, "lit": null, "length_m": 19.62, "type_element": "Way", "__fid": 6469}, "geometry": {"type": "LineString", "coordinates": [[2.2665452, 48.8747035], [2.2668126, 48.8747008]]}}, {"type": "Feature", "properties": {"highway": "path", "footway": null, "name": null, "surface": null, "lit": null, "length_m": 84.71, "type_element": "Way", "__fid": 6470}, "geometry": {"type": "LineString", "coordinates": [[2.266685, 48.8754144], [2.2667936, 48.8752573], [2.2668017, 48.8751274], [2.2667541, 48.8749862], [2.2665452, 48.8747035]]}}, {"type": "Feature", "properties": {"highway": "path", "footway": null, "name": null, "surface": null, "lit": null, "length_m": 115.36, "type_element": "Way", "__fid": 6471}, "geometry": {"type": "LineString", "coordinates": [[2.2665452, 48.8747035], [2.2664352, 48.8744891], [2.2663261, 48.8743211], [2.266321, 48.87420680000002], [2.2663554, 48.8741163], [2.266475, 48.8739792], [2.266651, 48.8738948], [2.2668312, 48.8738988]]}}, {"type": "Feature", "properties": {"highway": "footway", "footway": null, "name": "Allée de Longchamp", "surface": null, "lit": "yes", "length_m": 67.59, "type_element": "Way", "__fid": 6501}, "geometry": {"type": "LineString", "coordinates": [[2.2675143, 48.87374890000001], [2.2667122, 48.8734497]]}}, {"type": "Feature", "properties": {"highway": "path", "footway": null, "name": null, "surface": null, "lit": null, "length_m": 32.05, "type_element": "Way", "__fid": 6502}, "geometry": {"type": "LineString", "coordinates": [[2.2667122, 48.8734497], [2.2667509, 48.8735178], [2.266787, 48.8736202], [2.2667959, 48.87373040000003]]}}, {"type": "Feature", "properties": {"highway": "track", "footway": null, "name": "Allée des Bouleaux", "surface": "compacted", "lit": null, "length_m": 29.28, "type_element": "Way", "__fid": 6504}, "geometry": {"type": "LineString", "coordinates": [[2.266685, 48.8754144], [2.2670741, 48.8754734]]}}, {"type": "Feature", "properties": {"highway": "track", "footway": null, "name": null, "surface": "asphalt", "lit": "no", "length_m": 6.83, "type_element": "Way", "__fid": 6513}, "geometry": {"type": "LineString", "coordinates": [[2.2667665, 48.8718547], [2.266856, 48.8718715]]}}, {"type": "Feature", "properties": {"highway": "track", "footway": null, "name": "Route Sablonneuse", "surface": "concrete", "lit": null, "length_m": 107.17, "type_element": "Way", "__fid": 6514}, "geometry": {"type": "LineString", "coordinates": [[2.2669008, 48.87110820000002], [2.2668128, 48.8701462]]}}, {"type": "Feature", "properties": {"highway": "path", "footway": null, "name": null, "surface": null, "lit": null, "length_m": 18.9, "type_element": "Way", "__fid": 6528}, "geometry": {"type": "LineString", "coordinates": [[2.2667959, 48.87373040000003], [2.2668312, 48.8738988]]}}, {"type": "Feature", "properties": {"highway": "track", "footway": null, "name": "Route du Point du Jour à Bagatelle", "surface": "asphalt", "lit": "no", "length_m": 14.28, "type_element": "Way", "__fid": 6536}, "geometry": {"type": "LineString", "coordinates": [[2.2670037, 48.87199349999998], [2.2668476, 48.8719167]]}}, {"type": "Feature", "properties": {"highway": "track", "footway": null, "name": "Route Sablonneuse", "surface": "concrete", "lit": "no", "length_m": 5.06, "type_element": "Way", "__fid": 6537}, "geometry": {"type": "LineString", "coordinates": [[2.2668476, 48.8719167], [2.266856, 48.8718715]]}}, {"type": "Feature", "properties": {"highway": "path", "footway": null, "name": null, "surface": null, "lit": null, "length_m": 59.68, "type_element": "Way", "__fid": 6542}, "geometry": {"type": "LineString", "coordinates": [[2.2668126, 48.8747008], [2.2668539, 48.8747013], [2.2672958, 48.8747882], [2.267462, 48.8748267], [2.2675844, 48.874864399999986]]}}, {"type": "Feature", "properties": {"highway": "path", "footway": null, "name": null, "surface": "grass", "lit": null, "length_m": 77.97, "type_element": "Way", "__fid": 6543}, "geometry": {"type": "LineString", "coordinates": [[2.2677381, 48.8749829], [2.2674854, 48.8749949], [2.2672638, 48.874921100000016], [2.2668126, 48.8747008]]}}, {"type": "Feature", "properties": {"highway": "track", "footway": null, "name": null, "surface": "asphalt", "lit": "no", "length_m": 19.71, "type_element": "Way", "__fid": 6546}, "geometry": {"type": "LineString", "coordinates": [[2.266856, 48.8718715], [2.2669558, 48.8718963], [2.2669883, 48.8719172], [2.2670037, 48.87199349999998]]}}, {"type": "Feature", "properties": {"highway": "track", "footway": null, "name": "Route Sablonneuse", "surface": "concrete", "lit": "no", "length_m": 14.24, "type_element": "Way", "__fid": 6547}, "geometry": {"type": "LineString", "coordinates": [[2.266856, 48.8718715], [2.2668593, 48.871743500000015]]}}, {"type": "Feature", "properties": {"highway": "path", "footway": null, "name": null, "surface": "grass", "lit": "no", "length_m": 173.78, "type_element": "Way", "__fid": 6548}, "geometry": {"type": "LineString", "coordinates": [[2.2668593, 48.871743500000015], [2.2670319, 48.87184], [2.2673276, 48.8721042], [2.2673725, 48.8722202], [2.2674034, 48.8722687], [2.2674631, 48.87233220000001], [2.2675402, 48.8723891], [2.2676535, 48.872556300000014], [2.2677051, 48.8726035], [2.2677846, 48.8726372], [2.2679204, 48.8727195], [2.2680552, 48.8727431], [2.2681115, 48.87277060000001], [2.2681718, 48.872873], [2.2681668, 48.87292750000001], [2.2681438, 48.8729577]]}}, {"type": "Feature", "properties": {"highway": "track", "footway": null, "name": "Route Sablonneuse", "surface": "concrete", "lit": "no", "length_m": 70.75, "type_element": "Way", "__fid": 6549}, "geometry": {"type": "LineString", "coordinates": [[2.2668593, 48.871743500000015], [2.2668891, 48.8715216], [2.2669008, 48.87110820000002]]}}, {"type": "Feature", "properties": {"highway": "path", "footway": null, "name": null, "surface": null, "lit": null, "length_m": 72.58, "type_element": "Way", "__fid": 6550}, "geometry": {"type": "LineString", "coordinates": [[2.2668312, 48.8738988], [2.2669413, 48.8739792], [2.2671236, 48.8740735], [2.2673483, 48.8741562], [2.2676528, 48.8742504]]}}, {"type": "Feature", "properties": {"highway": "path", "footway": null, "name": null, "surface": null, "lit": null, "length_m": 125.05, "type_element": "Way", "__fid": 6551}, "geometry": {"type": "LineString", "coordinates": [[2.2668312, 48.8738988], [2.2667904, 48.8739899], [2.2668083, 48.8740602], [2.2668612, 48.8741641], [2.2671962, 48.87446949999999], [2.2673727, 48.87467370000001], [2.2674985, 48.8747766], [2.2675844, 48.874864399999986]]}}, {"type": "Feature", "properties": {"highway": "track", "footway": null, "name": "Allée Saint-Denis", "surface": "dirt", "lit": null, "length_m": 110.62, "type_element": "Way", "__fid": 6567}, "geometry": {"type": "LineString", "coordinates": [[2.2669008, 48.87110820000002], [2.2672337, 48.871223600000015], [2.2675073, 48.8713911], [2.2677084, 48.8715321], [2.2678453, 48.8716035], [2.2680953, 48.8717014]]}}, {"type": "Feature", "properties": {"highway": "footway", "footway": null, "name": null, "surface": null, "lit": "yes", "length_m": 76.88, "type_element": "Way", "__fid": 6573}, "geometry": {"type": "LineString", "coordinates": [[2.2678069, 48.8735589], [2.266886, 48.8732287]]}}, {"type": "Feature", "properties": {"highway": "track", "footway": null, "name": "Route de l'Étoile", "surface": "compacted", "lit": null, "length_m": 93.48, "type_element": "Way", "__fid": 6574}, "geometry": {"type": "LineString", "coordinates": [[2.266886, 48.8732287], [2.2675425, 48.87310789999999], [2.2681241, 48.8730319]]}}, {"type": "Feature", "properties": {"highway": "track", "footway": null, "name": null, "surface": "asphalt", "lit": "no", "length_m": 138.41, "type_element": "Way", "__fid": 6597}, "geometry": {"type": "LineString", "coordinates": [[2.2670037, 48.87199349999998], [2.2670852, 48.8720408], [2.26722, 48.8721898], [2.2673183, 48.87236780000001], [2.2675566, 48.8726102], [2.2677634, 48.8727468], [2.2680672, 48.872906499999985], [2.2681438, 48.8729577]]}}, {"type": "Feature", "properties": {"highway": "track", "footway": null, "name": "Allée des Bouleaux", "surface": "compacted", "lit": null, "length_m": 108.43, "type_element": "Way", "__fid": 6637}, "geometry": {"type": "LineString", "coordinates": [[2.2670741, 48.8754734], [2.2681239, 48.87563969999999], [2.2685165, 48.8756854]]}}, {"type": "Feature", "properties": {"highway": "path", "footway": null, "name": null, "surface": "dirt", "lit": null, "length_m": 236.9, "type_element": "Way", "__fid": 6638}, "geometry": {"type": "LineString", "coordinates": [[2.2678671, 48.8763414], [2.2679995, 48.8761851], [2.2680162, 48.8760889], [2.2679371, 48.8759663], [2.2677635, 48.875857], [2.267579, 48.8758023], [2.2671807, 48.8757793], [2.2670044, 48.875738800000015], [2.2669554, 48.87573479999998], [2.2668877, 48.8757423], [2.2668187, 48.8757635], [2.26671, 48.875842900000016], [2.2665933, 48.875864], [2.2665088, 48.875857], [2.2664699, 48.8758146], [2.2664498, 48.8757634], [2.266486, 48.8756382], [2.266541, 48.8755976], [2.266702, 48.8755236], [2.26682, 48.87553420000001], [2.2669876, 48.8755042], [2.2670741, 48.8754734]]}}, {"type": "Feature", "properties": {"highway": "path", "footway": null, "name": null, "surface": null, "lit": null, "length_m": 78.53, "type_element": "Way", "__fid": 6639}, "geometry": {"type": "LineString", "coordinates": [[2.2670741, 48.8754734], [2.2671124, 48.8754433], [2.2671975, 48.8754102], [2.2673136, 48.8753911], [2.2675977, 48.8753658], [2.267752, 48.8752978], [2.2679279, 48.87520149999999], [2.2680148, 48.87518210000001]]}}, {"type": "Feature", "properties": {"highway": "footway", "footway": null, "name": "Allée de Longchamp", "surface": null, "lit": "yes", "length_m": 287.01, "type_element": "Way", "__fid": 6739}, "geometry": {"type": "LineString", "coordinates": [[2.2709533, 48.8749802], [2.2675143, 48.87374890000001]]}}, {"type": "Feature", "properties": {"highway": "path", "footway": null, "name": null, "surface": "compacted", "lit": null, "length_m": 58.94, "type_element": "Way", "__fid": 6740}, "geometry": {"type": "LineString", "coordinates": [[2.2675143, 48.87374890000001], [2.2674535, 48.8738621], [2.2676528, 48.8742504]]}}, {"type": "Feature", "properties": {"highway": "footway", "footway": "crossing", "name": null, "surface": "compacted", "lit": "no", "length_m": 13.61, "type_element": "Way", "__fid": 6743}, "geometry": {"type": "LineString", "coordinates": [[2.2675014, 48.8768268], [2.2674794, 48.87694829999999]]}}, {"type": "Feature", "properties": {"highway": "footway", "footway": "sidewalk", "name": null, "surface": "compacted", "lit": null, "length_m": 48.83, "type_element": "Way", "__fid": 6748}, "geometry": {"type": "LineString", "coordinates": [[2.2675014, 48.8768268], [2.2681531, 48.8769166]]}}, {"type": "Feature", "properties": {"highway": "footway", "footway": null, "name": null, "surface": "compacted", "lit": "no", "length_m": 58.86, "type_element": "Way", "__fid": 6749}, "geometry": {"type": "LineString", "coordinates": [[2.267665, 48.8763227], [2.2676844, 48.876373], [2.2676787, 48.8764761], [2.2676429, 48.8766107], [2.267589, 48.876661], [2.2675534, 48.876710699999975], [2.2675014, 48.8768268]]}}, {"type": "Feature", "properties": {"highway": "path", "footway": null, "name": null, "surface": null, "lit": null, "length_m": 17.34, "type_element": "Way", "__fid": 6753}, "geometry": {"type": "LineString", "coordinates": [[2.2675844, 48.874864399999986], [2.2677381, 48.8749829]]}}, {"type": "Feature", "properties": {"highway": "path", "footway": null, "name": null, "surface": "compacted", "lit": null, "length_m": 59.39, "type_element": "Way", "__fid": 6755}, "geometry": {"type": "LineString", "coordinates": [[2.2676498, 48.8713596], [2.2681071, 48.8709188]]}}, {"type": "Feature", "properties": {"highway": "path", "footway": null, "name": null, "surface": "compacted", "lit": null, "length_m": 13.83, "type_element": "Way", "__fid": 6769}, "geometry": {"type": "LineString", "coordinates": [[2.2676528, 48.8742504], [2.2677198, 48.87436670000001]]}}, {"type": "Feature", "properties": {"highway": "path", "footway": null, "name": null, "surface": null, "lit": null, "length_m": 252.63, "type_element": "Way", "__fid": 6770}, "geometry": {"type": "LineString", "coordinates": [[2.2676528, 48.8742504], [2.2677996, 48.874233], [2.2679712, 48.874226], [2.2681199, 48.8742562], [2.268334, 48.8743354], [2.2688817, 48.8745177], [2.2693393, 48.8747127], [2.2695238, 48.874808], [2.2696732, 48.87487249999999], [2.2699114, 48.8749216], [2.2701683, 48.8749339], [2.2703621, 48.8749677], [2.2707675, 48.8750861]]}}, {"type": "Feature", "properties": {"highway": "path", "footway": null, "name": "Allée des Marronniers", "surface": "gravel", "lit": "no", "length_m": 14.97, "type_element": "Way", "__fid": 6784}, "geometry": {"type": "LineString", "coordinates": [[2.267665, 48.8763227], [2.2678671, 48.8763414]]}}, {"type": "Feature", "properties": {"highway": "path", "footway": null, "name": null, "surface": "compacted", "lit": null, "length_m": 99.11, "type_element": "Way", "__fid": 6792}, "geometry": {"type": "LineString", "coordinates": [[2.2677198, 48.87436670000001], [2.26822, 48.87519469999997]]}}, {"type": "Feature", "properties": {"highway": "path", "footway": null, "name": null, "surface": null, "lit": null, "length_m": 148.25, "type_element": "Way", "__fid": 6793}, "geometry": {"type": "LineString", "coordinates": [[2.2692932, 48.8750525], [2.2686619, 48.874957600000016], [2.2684786, 48.8748257], [2.2682623, 48.874601], [2.2681218, 48.8744739], [2.2680139, 48.8744019], [2.2678816, 48.8743626], [2.2677198, 48.87436670000001]]}}, {"type": "Feature", "properties": {"highway": "path", "footway": null, "name": null, "surface": null, "lit": null, "length_m": 30.04, "type_element": "Way", "__fid": 6796}, "geometry": {"type": "LineString", "coordinates": [[2.2677381, 48.8749829], [2.2680148, 48.87518210000001]]}}, {"type": "Feature", "properties": {"highway": "footway", "footway": null, "name": null, "surface": null, "lit": null, "length_m": 8.07, "type_element": "Way", "__fid": 6803}, "geometry": {"type": "LineString", "coordinates": [[2.2678069, 48.8735589], [2.2677759, 48.8736285]]}}, {"type": "Feature", "properties": {"highway": "footway", "footway": null, "name": null, "surface": null, "lit": "yes", "length_m": 241.66, "type_element": "Way", "__fid": 6818}, "geometry": {"type": "LineString", "coordinates": [[2.2706943, 48.87460549999998], [2.2678069, 48.8735589]]}}, {"type": "Feature", "properties": {"highway": "footway", "footway": null, "name": null, "surface": null, "lit": null, "length_m": 48.87, "type_element": "Way", "__fid": 6819}, "geometry": {"type": "LineString", "coordinates": [[2.2682402, 48.8732531], [2.268216, 48.8733131], [2.2681463, 48.8733519], [2.2679934, 48.8733978], [2.2679183, 48.8734348], [2.2678352, 48.8735178], [2.2678069, 48.8735589]]}}, {"type": "Feature", "properties": {"highway": "path", "footway": null, "name": "Allée des Marronniers", "surface": "gravel", "lit": null, "length_m": 77.26, "type_element": "Way", "__fid": 6842}, "geometry": {"type": "LineString", "coordinates": [[2.2678671, 48.8763414], [2.2689118, 48.8764305]]}}, {"type": "Feature", "properties": {"highway": "path", "footway": null, "name": null, "surface": "dirt", "lit": null, "length_m": 72.49, "type_element": "Way", "__fid": 6843}, "geometry": {"type": "LineString", "coordinates": [[2.2681531, 48.8769166], [2.2681779, 48.87673460000001], [2.2681738, 48.876664], [2.2681477, 48.876598699999974], [2.2681007, 48.8765502], [2.2679579, 48.8764603], [2.2678593, 48.87638440000002], [2.2678671, 48.8763414]]}}, {"type": "Feature", "properties": {"highway": "footway", "footway": null, "name": null, "surface": "dirt", "lit": "no", "length_m": 215.06, "type_element": "Way", "__fid": 6862}, "geometry": {"type": "LineString", "coordinates": [[2.2680026, 48.8716046], [2.2688911, 48.871852], [2.2695397, 48.8719786], [2.2700958, 48.8720563], [2.2706217, 48.8721153], [2.2708097, 48.872129499999986]]}}, {"type": "Feature", "properties": {"highway": "path", "footway": null, "name": null, "surface": null, "lit": null, "length_m": 15.12, "type_element": "Way", "__fid": 6882}, "geometry": {"type": "LineString", "coordinates": [[2.2680148, 48.87518210000001], [2.26822, 48.87519469999997]]}}, {"type": "Feature", "properties": {"highway": "path", "footway": null, "name": null, "surface": "compacted", "lit": null, "length_m": 66.98, "type_element": "Way", "__fid": 6883}, "geometry": {"type": "LineString", "coordinates": [[2.2680148, 48.87518210000001], [2.2685165, 48.8756854]]}}, {"type": "Feature", "properties": {"highway": "footway", "footway": null, "name": null, "surface": "compacted", "lit": null, "length_m": 26.03, "type_element": "Way", "__fid": 6905}, "geometry": {"type": "LineString", "coordinates": [[2.2681241, 48.8730319], [2.2682402, 48.8732531]]}}, {"type": "Feature", "properties": {"highway": "track", "footway": null, "name": "Route de l'Étoile", "surface": "compacted", "lit": null, "length_m": 5.91, "type_element": "Way", "__fid": 6906}, "geometry": {"type": "LineString", "coordinates": [[2.2681241, 48.8730319], [2.2682025, 48.8730196]]}}, {"type": "Feature", "properties": {"highway": "track", "footway": null, "name": "Route du Point du Jour à Bagatelle", "surface": "asphalt", "lit": "no", "length_m": 8.12, "type_element": "Way", "__fid": 6913}, "geometry": {"type": "LineString", "coordinates": [[2.2681438, 48.8729577], [2.2682025, 48.8730196]]}}, {"type": "Feature", "properties": {"highway": "track", "footway": null, "name": null, "surface": "asphalt", "lit": null, "length_m": 247.67, "type_element": "Way", "__fid": 6930}, "geometry": {"type": "LineString", "coordinates": [[2.2682025, 48.8730196], [2.268253, 48.8730591], [2.2690401, 48.8734829], [2.2696472, 48.873761400000014], [2.2698441, 48.8739196], [2.2701567, 48.8740832], [2.2705107, 48.87418059999999], [2.2706253, 48.87423259999998], [2.2707398, 48.8743043], [2.2708397, 48.8743806]]}}, {"type": "Feature", "properties": {"highway": "track", "footway": null, "name": "Route de l'Étoile", "surface": "compacted", "lit": "no", "length_m": 210.09, "type_element": "Way", "__fid": 6931}, "geometry": {"type": "LineString", "coordinates": [[2.2682025, 48.8730196], [2.2684356, 48.8729732], [2.2697608, 48.8728724], [2.2710466, 48.8729033]]}}, {"type": "Feature", "properties": {"highway": "path", "footway": null, "name": null, "surface": null, "lit": null, "length_m": 246.31, "type_element": "Way", "__fid": 6943}, "geometry": {"type": "LineString", "coordinates": [[2.2682402, 48.8732531], [2.2683978, 48.8732981], [2.268607, 48.8734419], [2.2687398, 48.8735134], [2.2691824, 48.8737154], [2.2693205, 48.873791199999985], [2.2695096, 48.8738759], [2.2695552, 48.8739121], [2.2695538, 48.873965], [2.2696678, 48.8740153], [2.2699387, 48.87416429999998], [2.2701801, 48.8742525], [2.2707354, 48.8744889], [2.270899, 48.87455]]}}, {"type": "Feature", "properties": {"highway": "path", "footway": null, "name": null, "surface": "compacted", "lit": null, "length_m": 58.74, "type_element": "Way", "__fid": 6946}, "geometry": {"type": "LineString", "coordinates": [[2.26822, 48.87519469999997], [2.2685165, 48.8756854]]}}, {"type": "Feature", "properties": {"highway": "path", "footway": null, "name": null, "surface": null, "lit": null, "length_m": 80.59, "type_element": "Way", "__fid": 6947}, "geometry": {"type": "LineString", "coordinates": [[2.26822, 48.87519469999997], [2.2684782, 48.875183], [2.2689824, 48.8750873], [2.2692932, 48.8750525]]}}, {"type": "Feature", "properties": {"highway": "track", "footway": null, "name": "Allée des Bouleaux", "surface": "compacted", "lit": null, "length_m": 103.88, "type_element": "Way", "__fid": 7029}, "geometry": {"type": "LineString", "coordinates": [[2.2685165, 48.8756854], [2.2687861, 48.8757394], [2.2698931, 48.87590329999998]]}}, {"type": "Feature", "properties": {"highway": "path", "footway": null, "name": null, "surface": "compacted", "lit": null, "length_m": 89.3, "type_element": "Way", "__fid": 7030}, "geometry": {"type": "LineString", "coordinates": [[2.2685165, 48.8756854], [2.2686975, 48.8758751], [2.2688572, 48.87612279999998], [2.2689118, 48.8764305]]}}, {"type": "Feature", "properties": {"highway": "path", "footway": null, "name": null, "surface": null, "lit": null, "length_m": 182.57, "type_element": "Way", "__fid": 7038}, "geometry": {"type": "LineString", "coordinates": [[2.2703512, 48.8716041], [2.270012, 48.8714209], [2.2691915, 48.87081089999999], [2.2686071, 48.87043680000003]]}}, {"type": "Feature", "properties": {"highway": "path", "footway": null, "name": "Allée des Marronniers", "surface": "gravel", "lit": null, "length_m": 123.18, "type_element": "Way", "__fid": 7152}, "geometry": {"type": "LineString", "coordinates": [[2.2689118, 48.8764305], [2.2703271, 48.8765663], [2.2705754, 48.8765806]]}}, {"type": "Feature", "properties": {"highway": "path", "footway": null, "name": null, "surface": "compacted", "lit": null, "length_m": 94.76, "type_element": "Way", "__fid": 7153}, "geometry": {"type": "LineString", "coordinates": [[2.2689118, 48.8764305], [2.2692933, 48.8768605], [2.2694253, 48.87700130000001], [2.2694932, 48.8770559], [2.2695183, 48.8771725]]}}, {"type": "Feature", "properties": {"highway": "path", "footway": null, "name": null, "surface": null, "lit": null, "length_m": 108.75, "type_element": "Way", "__fid": 7268}, "geometry": {"type": "LineString", "coordinates": [[2.2692932, 48.8750525], [2.2695904, 48.875032099999984], [2.2698774, 48.87505820000001], [2.2700687, 48.8751185], [2.2705315, 48.87522189999998], [2.2707242, 48.8752332]]}}, {"type": "Feature", "properties": {"highway": "track", "footway": null, "name": "Allée des Bouleaux", "surface": "compacted", "lit": null, "length_m": 63.07, "type_element": "Way", "__fid": 7464}, "geometry": {"type": "LineString", "coordinates": [[2.2698931, 48.87590329999998], [2.2701583, 48.8759486], [2.2703887, 48.8759978], [2.2706101, 48.87602670000001], [2.2707275, 48.876035]]}}, {"type": "Feature", "properties": {"highway": "path", "footway": null, "name": null, "surface": null, "lit": null, "length_m": 96.4, "type_element": "Way", "__fid": 7465}, "geometry": {"type": "LineString", "coordinates": [[2.2707242, 48.8752332], [2.2706246, 48.875326], [2.2703536, 48.87554109999998], [2.2702201, 48.87563150000002], [2.269957, 48.8758599], [2.2698931, 48.87590329999998]]}}, {"type": "Feature", "properties": {"highway": "footway", "footway": null, "name": null, "surface": null, "lit": null, "length_m": 184.32, "type_element": "Way", "__fid": 7542}, "geometry": {"type": "LineString", "coordinates": [[2.2724403, 48.8714879], [2.2723009, 48.8714522], [2.2718309, 48.8713692], [2.2713025, 48.87121660000001], [2.2708821, 48.871061], [2.2701791, 48.8707853]]}}, {"type": "Feature", "properties": {"highway": "track", "footway": null, "name": "Route des Lacs", "surface": null, "lit": null, "length_m": 87.12, "type_element": "Way", "__fid": 7543}, "geometry": {"type": "LineString", "coordinates": [[2.2701791, 48.8707853], [2.2704973, 48.8715401]]}}, {"type": "Feature", "properties": {"highway": "service", "footway": null, "name": "Route de Suresnes", "surface": "asphalt", "lit": "yes", "length_m": 112.63, "type_element": "Way", "__fid": 7560}, "geometry": {"type": "LineString", "coordinates": [[2.2702405, 48.8706483], [2.2704792, 48.8707577], [2.2707796, 48.8708688], [2.2715896, 48.8711282]]}}, {"type": "Feature", "properties": {"highway": "track", "footway": null, "name": null, "surface": null, "lit": null, "length_m": 7.74, "type_element": "Way", "__fid": 7567}, "geometry": {"type": "LineString", "coordinates": [[2.2703512, 48.8716041], [2.2702472, 48.871616]]}}, {"type": "Feature", "properties": {"highway": "footway", "footway": "sidewalk", "name": null, "surface": null, "lit": null, "length_m": 71.59, "type_element": "Way", "__fid": 7600}, "geometry": {"type": "LineString", "coordinates": [[2.2702512, 48.8771858], [2.2704526, 48.8768846], [2.2705754, 48.8765806]]}}, {"type": "Feature", "properties": {"highway": "path", "footway": null, "name": null, "surface": null, "lit": null, "length_m": 19.51, "type_element": "Way", "__fid": 7614}, "geometry": {"type": "LineString", "coordinates": [[2.270564, 48.8717094], [2.2703512, 48.8716041]]}}, {"type": "Feature", "properties": {"highway": "track", "footway": null, "name": null, "surface": null, "lit": null, "length_m": 13.24, "type_element": "Way", "__fid": 7615}, "geometry": {"type": "LineString", "coordinates": [[2.2704973, 48.8715401], [2.2704557, 48.8715745], [2.2703512, 48.8716041]]}}, {"type": "Feature", "properties": {"highway": "track", "footway": null, "name": "Route des Lacs", "surface": null, "lit": null, "length_m": 19.45, "type_element": "Way", "__fid": 7683}, "geometry": {"type": "LineString", "coordinates": [[2.2704973, 48.8715401], [2.270564, 48.8717094]]}}, {"type": "Feature", "properties": {"highway": "track", "footway": null, "name": "Route des Lacs", "surface": "compacted", "lit": null, "length_m": 50.19, "type_element": "Way", "__fid": 7706}, "geometry": {"type": "LineString", "coordinates": [[2.270564, 48.8717094], [2.2707233, 48.871938], [2.2708097, 48.872129499999986]]}}, {"type": "Feature", "properties": {"highway": "footway", "footway": "crossing", "name": "Allée des Marronniers", "surface": "asphalt", "lit": null, "length_m": 17.0, "type_element": "Way", "__fid": 7733}, "geometry": {"type": "LineString", "coordinates": [[2.2705754, 48.8765806], [2.2708063, 48.8765934]]}}, {"type": "Feature", "properties": {"highway": "footway", "footway": "sidewalk", "name": null, "surface": null, "lit": null, "length_m": 61.74, "type_element": "Way", "__fid": 7734}, "geometry": {"type": "LineString", "coordinates": [[2.2705754, 48.8765806], [2.2706557, 48.8763571], [2.2707275, 48.876035]]}}, {"type": "Feature", "properties": {"highway": "footway", "footway": "sidewalk", "name": null, "surface": null, "lit": null, "length_m": 62.35, "type_element": "Way", "__fid": 7747}, "geometry": {"type": "LineString", "coordinates": [[2.2708063, 48.8765934], [2.2705938, 48.87713629999999]]}}, {"type": "Feature", "properties": {"highway": "footway", "footway": null, "name": null, "surface": null, "lit": "yes", "length_m": 26.6, "type_element": "Way", "__fid": 7777}, "geometry": {"type": "LineString", "coordinates": [[2.2710116, 48.8747214], [2.2706943, 48.87460549999998]]}}, {"type": "Feature", "properties": {"highway": "path", "footway": null, "name": null, "surface": null, "lit": null, "length_m": 16.31, "type_element": "Way", "__fid": 7778}, "geometry": {"type": "LineString", "coordinates": [[2.270899, 48.87455], [2.2707716, 48.87459190000002], [2.2706943, 48.87460549999998]]}}, {"type": "Feature", "properties": {"highway": "path", "footway": null, "name": null, "surface": null, "lit": null, "length_m": 12.74, "type_element": "Way", "__fid": 7790}, "geometry": {"type": "LineString", "coordinates": [[2.2707242, 48.8752332], [2.2708973, 48.8752422]]}}, {"type": "Feature", "properties": {"highway": "track", "footway": null, "name": "Allée des Bouleaux", "surface": "asphalt", "lit": null, "length_m": 18.55, "type_element": "Way", "__fid": 7794}, "geometry": {"type": "LineString", "coordinates": [[2.2707275, 48.876035], [2.2709761, 48.8760656]]}}, {"type": "Feature", "properties": {"highway": "footway", "footway": "sidewalk", "name": null, "surface": null, "lit": null, "length_m": 89.24, "type_element": "Way", "__fid": 7795}, "geometry": {"type": "LineString", "coordinates": [[2.2707275, 48.876035], [2.2708151, 48.875483], [2.2708521, 48.8753338], [2.2708973, 48.8752422]]}}, {"type": "Feature", "properties": {"highway": "path", "footway": null, "name": null, "surface": null, "lit": null, "length_m": 108.97, "type_element": "Way", "__fid": 7797}, "geometry": {"type": "LineString", "coordinates": [[2.2707132, 48.8771156], [2.2711303, 48.8769507], [2.2714776, 48.876838599999985], [2.2719644, 48.876723100000014], [2.2720568, 48.8767073]]}}, {"type": "Feature", "properties": {"highway": "footway", "footway": null, "name": null, "surface": "compacted", "lit": "no", "length_m": 156.0, "type_element": "Way", "__fid": 7808}, "geometry": {"type": "LineString", "coordinates": [[2.2708097, 48.872129499999986], [2.2713411, 48.8721716], [2.2720539, 48.872216499999986], [2.272204, 48.8722354], [2.2723491, 48.87228909999999], [2.2729053, 48.87229649999998]]}}, {"type": "Feature", "properties": {"highway": "track", "footway": null, "name": "Route des Lacs", "surface": "compacted", "lit": null, "length_m": 87.82, "type_element": "Way", "__fid": 7809}, "geometry": {"type": "LineString", "coordinates": [[2.2708097, 48.872129499999986], [2.2708444, 48.8722064], [2.2710466, 48.8729033]]}}, {"type": "Feature", "properties": {"highway": "path", "footway": null, "name": null, "surface": null, "lit": null, "length_m": 168.34, "type_element": "Way", "__fid": 7828}, "geometry": {"type": "LineString", "coordinates": [[2.2707592, 48.8774333], [2.2713795, 48.8771919], [2.271859, 48.8770425], [2.2723607, 48.8769429], [2.2726698, 48.876891], [2.2728686, 48.8768682]]}}, {"type": "Feature", "properties": {"highway": "path", "footway": null, "name": "Allée des Marronniers", "surface": "gravel", "lit": null, "length_m": 92.7, "type_element": "Way", "__fid": 7840}, "geometry": {"type": "LineString", "coordinates": [[2.2708063, 48.8765934], [2.2712935, 48.8766273], [2.2715361, 48.87665219999999], [2.2717127, 48.87666030000001], [2.2720568, 48.8767073]]}}, {"type": "Feature", "properties": {"highway": "footway", "footway": "sidewalk", "name": null, "surface": null, "lit": null, "length_m": 60.02, "type_element": "Way", "__fid": 7841}, "geometry": {"type": "LineString", "coordinates": [[2.2709761, 48.8760656], [2.2708855, 48.8763796], [2.2708063, 48.8765934]]}}, {"type": "Feature", "properties": {"highway": "path", "footway": null, "name": null, "surface": null, "lit": null, "length_m": 15.17, "type_element": "Way", "__fid": 7842}, "geometry": {"type": "LineString", "coordinates": [[2.2708397, 48.8743806], [2.2710461, 48.8743898]]}}, {"type": "Feature", "properties": {"highway": "track", "footway": null, "name": null, "surface": "asphalt", "lit": null, "length_m": 18.67, "type_element": "Way", "__fid": 7843}, "geometry": {"type": "LineString", "coordinates": [[2.2708397, 48.8743806], [2.2709432, 48.874534]]}}, {"type": "Feature", "properties": {"highway": "path", "footway": null, "name": null, "surface": null, "lit": null, "length_m": 3.7, "type_element": "Way", "__fid": 7866}, "geometry": {"type": "LineString", "coordinates": [[2.2709432, 48.874534], [2.270899, 48.87455]]}}, {"type": "Feature", "properties": {"highway": "footway", "footway": null, "name": null, "surface": "dirt", "lit": "no", "length_m": 174.05, "type_element": "Way", "__fid": 7867}, "geometry": {"type": "LineString", "coordinates": [[2.2730606, 48.87677020000001], [2.2730023, 48.876764], [2.2728225, 48.876764], [2.2725449, 48.8767785], [2.2721064, 48.8768449], [2.2717972, 48.8769134], [2.2715101, 48.8769902], [2.2711978, 48.87711669999999], [2.2708636, 48.8772657]]}}, {"type": "Feature", "properties": {"highway": "path", "footway": null, "name": null, "surface": null, "lit": null, "length_m": 7.7, "type_element": "Way", "__fid": 7869}, "geometry": {"type": "LineString", "coordinates": [[2.2708973, 48.8752422], [2.2710019, 48.8752476]]}}, {"type": "Feature", "properties": {"highway": "footway", "footway": "sidewalk", "name": null, "surface": null, "lit": null, "length_m": 29.52, "type_element": "Way", "__fid": 7870}, "geometry": {"type": "LineString", "coordinates": [[2.2708973, 48.8752422], [2.2709565, 48.8750236], [2.2709533, 48.8749802]]}}, {"type": "Feature", "properties": {"highway": "track", "footway": null, "name": null, "surface": "asphalt", "lit": null, "length_m": 8.06, "type_element": "Way", "__fid": 7878}, "geometry": {"type": "LineString", "coordinates": [[2.2709432, 48.874534], [2.271009, 48.874592]]}}, {"type": "Feature", "properties": {"highway": "path", "footway": null, "name": "Allée de Longchamp", "surface": null, "lit": "yes", "length_m": 22.08, "type_element": "Way", "__fid": 7885}, "geometry": {"type": "LineString", "coordinates": [[2.2712155, 48.8750777], [2.2709533, 48.8749802]]}}, {"type": "Feature", "properties": {"highway": "path", "footway": null, "name": "Route des Lacs", "surface": null, "lit": "yes", "length_m": 29.09, "type_element": "Way", "__fid": 7886}, "geometry": {"type": "LineString", "coordinates": [[2.2710116, 48.8747214], [2.2709533, 48.8749802]]}}, {"type": "Feature", "properties": {"highway": "track", "footway": null, "name": "Allée des Bouleaux", "surface": null, "lit": null, "length_m": 60.53, "type_element": "Way", "__fid": 7898}, "geometry": {"type": "LineString", "coordinates": [[2.2709761, 48.8760656], [2.2717827, 48.8761807]]}}, {"type": "Feature", "properties": {"highway": "footway", "footway": "sidewalk", "name": null, "surface": null, "lit": null, "length_m": 91.13, "type_element": "Way", "__fid": 7899}, "geometry": {"type": "LineString", "coordinates": [[2.2711463, 48.87525420000002], [2.2710498, 48.8756166], [2.2709761, 48.8760656]]}}, {"type": "Feature", "properties": {"highway": "track", "footway": null, "name": "Route des Lacs", "surface": "asphalt", "lit": null, "length_m": 14.47, "type_element": "Way", "__fid": 7900}, "geometry": {"type": "LineString", "coordinates": [[2.271009, 48.874592], [2.2710209, 48.87465490000001], [2.2710116, 48.8747214]]}}, {"type": "Feature", "properties": {"highway": "track", "footway": null, "name": "Route des Lacs", "surface": null, "lit": null, "length_m": 22.73, "type_element": "Way", "__fid": 7901}, "geometry": {"type": "LineString", "coordinates": [[2.2710461, 48.8743898], [2.2710444, 48.8744673], [2.271009, 48.874592]]}}, {"type": "Feature", "properties": {"highway": "footway", "footway": "crossing", "name": null, "surface": "asphalt", "lit": null, "length_m": 23.16, "type_element": "Way", "__fid": 7904}, "geometry": {"type": "LineString", "coordinates": [[2.2710116, 48.8747214], [2.2710913, 48.874735], [2.271298, 48.8748065]]}}, {"type": "Feature", "properties": {"highway": "path", "footway": null, "name": "Route de la Porte Dauphine à la Porte des Sablons", "surface": "fine_gravel", "lit": "no", "length_m": 37.71, "type_element": "Way", "__fid": 7905}, "geometry": {"type": "LineString", "coordinates": [[2.2710116, 48.8747214], [2.2710716, 48.87466769999998], [2.2712224, 48.8744141]]}}, {"type": "Feature", "properties": {"highway": "track", "footway": null, "name": "Route de l'Étoile", "surface": "compacted", "lit": "no", "length_m": 113.64, "type_element": "Way", "__fid": 7912}, "geometry": {"type": "LineString", "coordinates": [[2.2710466, 48.8729033], [2.2719208, 48.872921300000016], [2.272595, 48.872905500000016]]}}, {"type": "Feature", "properties": {"highway": "track", "footway": null, "name": "Route des Lacs", "surface": "compacted", "lit": null, "length_m": 165.61, "type_element": "Way", "__fid": 7913}, "geometry": {"type": "LineString", "coordinates": [[2.2710466, 48.8729033], [2.271078, 48.8730466], [2.271097, 48.87321710000001], [2.2710748, 48.8735352], [2.2710661, 48.8738633], [2.2710405, 48.874175], [2.2710461, 48.8743898]]}}, {"type": "Feature", "properties": {"highway": "path", "footway": null, "name": null, "surface": null, "lit": null, "length_m": 5.35, "type_element": "Way", "__fid": 7920}, "geometry": {"type": "LineString", "coordinates": [[2.2710461, 48.8743898], [2.2711174, 48.87437950000001]]}}, {"type": "Feature", "properties": {"highway": "path", "footway": null, "name": null, "surface": null, "lit": null, "length_m": 8.61, "type_element": "Way", "__fid": 7931}, "geometry": {"type": "LineString", "coordinates": [[2.2712224, 48.8744141], [2.2711174, 48.87437950000001]]}}, {"type": "Feature", "properties": {"highway": "path", "footway": null, "name": "Route de la Porte Dauphine à la Porte des Sablons", "surface": "fine_gravel", "lit": "no", "length_m": 198.08, "type_element": "Way", "__fid": 7932}, "geometry": {"type": "LineString", "coordinates": [[2.2711174, 48.87437950000001], [2.2712122, 48.8742582], [2.2713441, 48.87404630000001], [2.2716363, 48.8736667], [2.2719797, 48.873379], [2.2724177, 48.8730553], [2.272595, 48.872905500000016]]}}, {"type": "Feature", "properties": {"highway": "path", "footway": null, "name": null, "surface": null, "lit": null, "length_m": 49.31, "type_element": "Way", "__fid": 7946}, "geometry": {"type": "LineString", "coordinates": [[2.2711463, 48.87525420000002], [2.2714716, 48.875513], [2.2715394, 48.8756105]]}}, {"type": "Feature", "properties": {"highway": "footway", "footway": "sidewalk", "name": null, "surface": null, "lit": null, "length_m": 20.27, "type_element": "Way", "__fid": 7947}, "geometry": {"type": "LineString", "coordinates": [[2.2712155, 48.8750777], [2.2711463, 48.87525420000002]]}}, {"type": "Feature", "properties": {"highway": "path", "footway": null, "name": "Route de la Porte Dauphine à la Porte des Sablons", "surface": "fine_gravel", "lit": "no", "length_m": 202.76, "type_element": "Way", "__fid": 7974}, "geometry": {"type": "LineString", "coordinates": [[2.2712224, 48.8744141], [2.2714032, 48.874144], [2.2718094, 48.8736223], [2.2725092, 48.8730566], [2.2727618, 48.8729262]]}}, {"type": "Feature", "properties": {"highway": "footway", "footway": "sidewalk", "name": "Allée de Longchamp", "surface": null, "lit": "yes", "length_m": 163.17, "type_element": "Way", "__fid": 7975}, "geometry": {"type": "LineString", "coordinates": [[2.2712155, 48.8750777], [2.2728557, 48.8756699], [2.2731722, 48.8757757]]}}, {"type": "Feature", "properties": {"highway": "path", "footway": null, "name": null, "surface": null, "lit": "yes", "length_m": 21.39, "type_element": "Way", "__fid": 7976}, "geometry": {"type": "LineString", "coordinates": [[2.2713197, 48.8748984], [2.271257, 48.874990400000016], [2.2712155, 48.8750777]]}}, {"type": "Feature", "properties": {"highway": "track", "footway": null, "name": null, "surface": "asphalt", "lit": "no", "length_m": 9.45, "type_element": "Way", "__fid": 8004}, "geometry": {"type": "LineString", "coordinates": [[2.271298, 48.8748065], [2.2712735, 48.874845700000016], [2.2713302, 48.87482540000001]]}}, {"type": "Feature", "properties": {"highway": "path", "footway": null, "name": "Route de la Porte Dauphine à la Porte des Sablons", "surface": "concrete", "lit": "no", "length_m": 40.05, "type_element": "Way", "__fid": 8005}, "geometry": {"type": "LineString", "coordinates": [[2.2714636, 48.8744633], [2.271298, 48.8748065]]}}, {"type": "Feature", "properties": {"highway": "path", "footway": null, "name": null, "surface": "ground", "lit": null, "length_m": 13.86, "type_element": "Way", "__fid": 8014}, "geometry": {"type": "LineString", "coordinates": [[2.2714958, 48.8748854], [2.2713302, 48.87482540000001]]}}, {"type": "Feature", "properties": {"highway": "track", "footway": null, "name": null, "surface": "asphalt", "lit": "no", "length_m": 12.51, "type_element": "Way", "__fid": 8015}, "geometry": {"type": "LineString", "coordinates": [[2.2714569, 48.8747619], [2.2714254, 48.8748012], [2.2713784, 48.8748184], [2.2713302, 48.87482540000001]]}}, {"type": "Feature", "properties": {"highway": "footway", "footway": null, "name": null, "surface": null, "lit": null, "length_m": 45.42, "type_element": "Way", "__fid": 8036}, "geometry": {"type": "LineString", "coordinates": [[2.2714588, 48.8709206], [2.2718718, 48.8710124], [2.2720499, 48.87104120000002]]}}, {"type": "Feature", "properties": {"highway": "service", "footway": null, "name": "Route de Suresnes", "surface": "asphalt", "lit": "yes", "length_m": 54.93, "type_element": "Way", "__fid": 8047}, "geometry": {"type": "LineString", "coordinates": [[2.2721891, 48.8711599], [2.2720952, 48.8711141], [2.2718619, 48.8710885], [2.2716446, 48.8710364], [2.2714996, 48.8709853]]}}, {"type": "Feature", "properties": {"highway": "path", "footway": null, "name": "Allée Fortunée", "surface": null, "lit": null, "length_m": 17.21, "type_element": "Way", "__fid": 8048}, "geometry": {"type": "LineString", "coordinates": [[2.2714996, 48.8709853], [2.2715896, 48.8711282]]}}, {"type": "Feature", "properties": {"highway": "path", "footway": null, "name": null, "surface": "asphalt", "lit": "no", "length_m": 14.07, "type_element": "Way", "__fid": 8052}, "geometry": {"type": "LineString", "coordinates": [[2.2714958, 48.8748854], [2.2714696, 48.87482720000001], [2.2714569, 48.8747619]]}}, {"type": "Feature", "properties": {"highway": "track", "footway": null, "name": null, "surface": "asphalt", "lit": "no", "length_m": 32.78, "type_element": "Way", "__fid": 8053}, "geometry": {"type": "LineString", "coordinates": [[2.2715548, 48.8744766], [2.2715199, 48.87451759999998], [2.2714569, 48.8747619]]}}, {"type": "Feature", "properties": {"highway": "path", "footway": null, "name": null, "surface": null, "lit": "no", "length_m": 6.85, "type_element": "Way", "__fid": 8054}, "geometry": {"type": "LineString", "coordinates": [[2.2715548, 48.8744766], [2.2714636, 48.8744633]]}}, {"type": "Feature", "properties": {"highway": "path", "footway": null, "name": "Route de la Porte Dauphine à la Porte des Sablons", "surface": "fine_gravel", "lit": "no", "length_m": 241.29, "type_element": "Way", "__fid": 8055}, "geometry": {"type": "LineString", "coordinates": [[2.2734451, 48.8727665], [2.2727618, 48.873153], [2.27234, 48.8734732], [2.2720879, 48.8736889], [2.2718061, 48.8739725], [2.2716104, 48.8742353], [2.2714636, 48.8744633]]}}, {"type": "Feature", "properties": {"highway": "path", "footway": null, "name": null, "surface": "ground", "lit": null, "length_m": 279.74, "type_element": "Way", "__fid": 8064}, "geometry": {"type": "LineString", "coordinates": [[2.2748408, 48.8760924], [2.2746078, 48.8760237], [2.2742537, 48.8758883], [2.2723051, 48.8751923], [2.2714958, 48.8748854]]}}, {"type": "Feature", "properties": {"highway": "service", "footway": null, "name": "Route de Suresnes", "surface": "asphalt", "lit": "yes", "length_m": 44.04, "type_element": "Way", "__fid": 8086}, "geometry": {"type": "LineString", "coordinates": [[2.2715896, 48.8711282], [2.2721516, 48.87126749999998]]}}, {"type": "Feature", "properties": {"highway": "track", "footway": null, "name": null, "surface": "asphalt", "lit": "no", "length_m": 177.82, "type_element": "Way", "__fid": 8093}, "geometry": {"type": "LineString", "coordinates": [[2.2734925, 48.875256700000016], [2.2733344, 48.8752321], [2.2732553, 48.87521180000003], [2.2731614, 48.8751558], [2.2730923, 48.8751399], [2.2730032, 48.8750852], [2.2729173, 48.8749864], [2.2727839, 48.8747919], [2.272688, 48.8747116], [2.272509, 48.8746296], [2.2722816, 48.8745749], [2.2718196, 48.8744973], [2.271601, 48.874474800000016], [2.2715548, 48.8744766]]}}, {"type": "Feature", "properties": {"highway": "path", "footway": null, "name": null, "surface": null, "lit": null, "length_m": 139.27, "type_element": "Way", "__fid": 8094}, "geometry": {"type": "LineString", "coordinates": [[2.2715394, 48.8756105], [2.2715823, 48.8756246], [2.2716875, 48.8756202], [2.2717559, 48.8756788], [2.2718243, 48.8757075], [2.2719276, 48.8757203], [2.2720409, 48.8757533], [2.2721549, 48.8758049], [2.2722287, 48.8758508], [2.2722723, 48.8758918], [2.272635, 48.8763192], [2.2727142, 48.8764294], [2.272739, 48.8764797]]}}, {"type": "Feature", "properties": {"highway": "path", "footway": null, "name": null, "surface": null, "lit": null, "length_m": 68.67, "type_element": "Way", "__fid": 8095}, "geometry": {"type": "LineString", "coordinates": [[2.2715394, 48.8756105], [2.2716084, 48.8757062], [2.27176, 48.8758632], [2.2717935, 48.87592309999999], [2.2718176, 48.8759875], [2.2718136, 48.8760793], [2.2717827, 48.8761807]]}}, {"type": "Feature", "properties": {"highway": "footway", "footway": null, "name": null, "surface": "compacted", "lit": null, "length_m": 75.43, "type_element": "Way", "__fid": 8103}, "geometry": {"type": "LineString", "coordinates": [[2.2716256, 48.87117880000001], [2.2718827, 48.8712481], [2.2722079, 48.87132], [2.2726024, 48.8713875]]}}, {"type": "Feature", "properties": {"highway": "path", "footway": null, "name": null, "surface": null, "lit": null, "length_m": 30.16, "type_element": "Way", "__fid": 8149}, "geometry": {"type": "LineString", "coordinates": [[2.2717748, 48.8708396], [2.2720499, 48.87104120000002]]}}, {"type": "Feature", "properties": {"highway": "track", "footway": null, "name": "Allée des Bouleaux", "surface": null, "lit": null, "length_m": 78.59, "type_element": "Way", "__fid": 8185}, "geometry": {"type": "LineString", "coordinates": [[2.2717827, 48.8761807], [2.2722669, 48.87627550000001], [2.2725955, 48.8764003], [2.272739, 48.8764797]]}}, {"type": "Feature", "properties": {"highway": "footway", "footway": "crossing", "name": null, "surface": null, "lit": null, "length_m": 41.78, "type_element": "Way", "__fid": 8268}, "geometry": {"type": "LineString", "coordinates": [[2.2720499, 48.87104120000002], [2.2722273, 48.87107], [2.2726123, 48.871094700000015]]}}, {"type": "Feature", "properties": {"highway": "path", "footway": null, "name": "Allée des Marronniers", "surface": "gravel", "lit": null, "length_m": 16.71, "type_element": "Way", "__fid": 8300}, "geometry": {"type": "LineString", "coordinates": [[2.2720568, 48.8767073], [2.272277, 48.8767459]]}}, {"type": "Feature", "properties": {"highway": "path", "footway": null, "name": null, "surface": null, "lit": null, "length_m": 65.75, "type_element": "Way", "__fid": 8301}, "geometry": {"type": "LineString", "coordinates": [[2.2720568, 48.8767073], [2.2723923, 48.8766499], [2.2727074, 48.8766155], [2.2729375, 48.8766072]]}}, {"type": "Feature", "properties": {"highway": "service", "footway": null, "name": "Route de Suresnes", "surface": "asphalt", "lit": "yes", "length_m": 30.49, "type_element": "Way", "__fid": 8317}, "geometry": {"type": "LineString", "coordinates": [[2.2725615, 48.87126960000002], [2.2723731, 48.8712914], [2.2721516, 48.87126749999998]]}}, {"type": "Feature", "properties": {"highway": "service", "footway": null, "name": "Route de Suresnes", "surface": "asphalt", "lit": "yes", "length_m": 12.28, "type_element": "Way", "__fid": 8318}, "geometry": {"type": "LineString", "coordinates": [[2.2721516, 48.87126749999998], [2.2721891, 48.8711599]]}}, {"type": "Feature", "properties": {"highway": "service", "footway": null, "name": "Route de Suresnes", "surface": "asphalt", "lit": "yes", "length_m": 15.86, "type_element": "Way", "__fid": 8329}, "geometry": {"type": "LineString", "coordinates": [[2.2721891, 48.8711599], [2.2723302, 48.871145600000034], [2.2724037, 48.8711462]]}}, {"type": "Feature", "properties": {"highway": "footway", "footway": null, "name": null, "surface": null, "lit": null, "length_m": 45.38, "type_element": "Way", "__fid": 8432}, "geometry": {"type": "LineString", "coordinates": [[2.2730467, 48.8714784], [2.2729877, 48.87149380000002], [2.2724902, 48.87150660000001], [2.2724403, 48.8714879]]}}, {"type": "Feature", "properties": {"highway": "service", "footway": null, "name": null, "surface": null, "lit": null, "length_m": 69.26, "type_element": "Way", "__fid": 8433}, "geometry": {"type": "LineString", "coordinates": [[2.2724403, 48.8714879], [2.2723889, 48.8715432], [2.2723521, 48.87160940000001], [2.2723782, 48.8716905], [2.2726169, 48.8720632]]}}, {"type": "Feature", "properties": {"highway": "service", "footway": null, "name": null, "surface": null, "lit": null, "length_m": 16.31, "type_element": "Way", "__fid": 8434}, "geometry": {"type": "LineString", "coordinates": [[2.2726024, 48.8713875], [2.2724403, 48.8714879]]}}, {"type": "Feature", "properties": {"highway": "path", "footway": null, "name": null, "surface": "compacted", "lit": null, "length_m": 35.52, "type_element": "Way", "__fid": 8492}, "geometry": {"type": "LineString", "coordinates": [[2.2728686, 48.8768682], [2.27249, 48.8770674]]}}, {"type": "Feature", "properties": {"highway": "footway", "footway": null, "name": null, "surface": "compacted", "lit": null, "length_m": 34.12, "type_element": "Way", "__fid": 8510}, "geometry": {"type": "LineString", "coordinates": [[2.2726024, 48.8713875], [2.2730467, 48.8714784]]}}, {"type": "Feature", "properties": {"highway": "service", "footway": null, "name": null, "surface": null, "lit": null, "length_m": 11.66, "type_element": "Way", "__fid": 8511}, "geometry": {"type": "LineString", "coordinates": [[2.2727058, 48.8713079], [2.2726024, 48.8713875]]}}, {"type": "Feature", "properties": {"highway": "service", "footway": null, "name": null, "surface": "asphalt", "lit": null, "length_m": 29.85, "type_element": "Way", "__fid": 8512}, "geometry": {"type": "LineString", "coordinates": [[2.2729053, 48.87229649999998], [2.2728315, 48.872222], [2.2727866, 48.8721942], [2.2725935, 48.8721391]]}}, {"type": "Feature", "properties": {"highway": "footway", "footway": null, "name": null, "surface": null, "lit": null, "length_m": 69.72, "type_element": "Way", "__fid": 8514}, "geometry": {"type": "LineString", "coordinates": [[2.2726123, 48.871094700000015], [2.2733414, 48.8712319], [2.2735293, 48.8712588]]}}, {"type": "Feature", "properties": {"highway": "footway", "footway": null, "name": null, "surface": null, "lit": null, "length_m": 49.68, "type_element": "Way", "__fid": 8515}, "geometry": {"type": "LineString", "coordinates": [[2.2726123, 48.871094700000015], [2.2727559, 48.87105480000001], [2.2730882, 48.8709931], [2.273194, 48.8709804], [2.2732625, 48.8709833]]}}, {"type": "Feature", "properties": {"highway": "track", "footway": null, "name": "Route de l'Étoile", "surface": "compacted", "lit": "no", "length_m": 12.45, "type_element": "Way", "__fid": 8520}, "geometry": {"type": "LineString", "coordinates": [[2.272595, 48.872905500000016], [2.2727618, 48.8729262]]}}, {"type": "Feature", "properties": {"highway": "path", "footway": null, "name": "Route de la Porte Dauphine à la Porte des Sablons", "surface": "fine_gravel", "lit": "no", "length_m": 90.28, "type_element": "Way", "__fid": 8521}, "geometry": {"type": "LineString", "coordinates": [[2.272595, 48.872905500000016], [2.2729832, 48.8727127], [2.273591, 48.87242870000003]]}}]}