{"type": "FeatureCollection", "features": [{"type": "Feature", "properties": {"@id": "node/9894854668", "access": "yes", "amenity": "drinking_water", "bottle": "yes", "fee": "no", "fountain": "drinking", "type_element": "Fontaines à boire", "__fid": 823}, "geometry": {"type": "Point", "coordinates": [2.2707722, 48.8785049]}, "id": "node/9894854668"}, {"type": "Feature", "properties": {"@id": "node/10142824052", "amenity": "drinking_water", "type_element": "Fontaines à boire", "__fid": 845}, "geometry": {"type": "Point", "coordinates": [2.2700842, 48.8772766]}, "id": "node/10142824052"}, {"type": "Feature", "properties": {"@id": "node/12041972322", "amenity": "drinking_water", "type_element": "Fontaines à boire", "__fid": 949}, "geometry": {"type": "Point", "coordinates": [2.2652534, 48.8778221]}, "id": "node/12041972322"}, {"type": "Feature", "properties": {"highway": "service", "footway": null, "name": null, "surface": null, "lit": null, "length_m": 615.61, "type_element": "Way", "__fid": 5017}, "geometry": {"type": "LineString", "coordinates": [[2.2684882, 48.8785134], [2.2683555, 48.87854450000001], [2.2674875, 48.87867], [2.2671391, 48.8787324], [2.265919, 48.879006], [2.2651853, 48.8792042], [2.264936, 48.879255], [2.2638404, 48.8794296], [2.2635439, 48.8794639], [2.2627338, 48.8795339], [2.2619481, 48.8795825], [2.2612246, 48.87956650000001], [2.2607836, 48.87953319999998], [2.2604656, 48.8794973], [2.2603354, 48.8794713]]}}, {"type": "Feature", "properties": {"highway": "service", "footway": null, "name": "Allée des Érables", "surface": "asphalt", "lit": null, "length_m": 309.04, "type_element": "Way", "__fid": 5022}, "geometry": {"type": "LineString", "coordinates": [[2.2645497, 48.8794043], [2.2641769, 48.8794701], [2.2635834, 48.87954460000001], [2.2629657, 48.8796023], [2.2625705, 48.8796271], [2.261711, 48.87965210000002], [2.2614067, 48.879653], [2.2608955, 48.8796386], [2.2603781, 48.8795743]]}}, {"type": "Feature", "properties": {"highway": "footway", "footway": "sidewalk", "name": null, "surface": "dirt", "lit": null, "length_m": 221.31, "type_element": "Way", "__fid": 5281}, "geometry": {"type": "LineString", "coordinates": [[2.2616534, 48.8799356], [2.2622555, 48.8798516], [2.2642511, 48.879617], [2.2646159, 48.8795596]]}}, {"type": "Feature", "properties": {"highway": "footway", "footway": null, "name": null, "surface": null, "lit": null, "length_m": 25.72, "type_element": "Way", "__fid": 5652}, "geometry": {"type": "LineString", "coordinates": [[2.2634503, 48.8785545], [2.2637844, 48.8784841]]}}, {"type": "Feature", "properties": {"highway": "footway", "footway": null, "name": null, "surface": null, "lit": null, "length_m": 57.73, "type_element": "Way", "__fid": 5658}, "geometry": {"type": "LineString", "coordinates": [[2.2637882, 48.8774024], [2.2637871, 48.87733], [2.2635196, 48.8769196]]}}, {"type": "Feature", "properties": {"highway": "service", "footway": null, "name": null, "surface": "asphalt", "lit": null, "length_m": 80.03, "type_element": "Way", "__fid": 5659}, "geometry": {"type": "LineString", "coordinates": [[2.2646089, 48.8769442], [2.2640012, 48.8769133], [2.2635196, 48.8769196]]}}, {"type": "Feature", "properties": {"highway": "footway", "footway": null, "name": null, "surface": null, "lit": null, "length_m": 19.08, "type_element": "Way", "__fid": 5670}, "geometry": {"type": "LineString", "coordinates": [[2.2635306, 48.8783972], [2.2636495, 48.8784127], [2.2637681, 48.8784605]]}}, {"type": "Feature", "properties": {"highway": "footway", "footway": null, "name": null, "surface": null, "lit": null, "length_m": 40.32, "type_element": "Way", "__fid": 5678}, "geometry": {"type": "LineString", "coordinates": [[2.2635841, 48.8778738], [2.2641307, 48.8779129]]}}, {"type": "Feature", "properties": {"highway": "service", "footway": null, "name": null, "surface": "asphalt", "lit": null, "length_m": 20.63, "type_element": "Way", "__fid": 5686}, "geometry": {"type": "LineString", "coordinates": [[2.2636118, 48.8788159], [2.2638851, 48.878772]]}}, {"type": "Feature", "properties": {"highway": "footway", "footway": null, "name": null, "surface": null, "lit": null, "length_m": 31.08, "type_element": "Way", "__fid": 5694}, "geometry": {"type": "LineString", "coordinates": [[2.263652, 48.8776588], [2.2637422, 48.8775536], [2.2637629, 48.8775425], [2.2637882, 48.8774024]]}}, {"type": "Feature", "properties": {"highway": "footway", "footway": null, "name": null, "surface": null, "lit": null, "length_m": 36.82, "type_element": "Way", "__fid": 5708}, "geometry": {"type": "LineString", "coordinates": [[2.2637016, 48.878214599999986], [2.263889, 48.8782468], [2.2639601, 48.8782498], [2.2641087, 48.8782416], [2.2641937, 48.8782267]]}}, {"type": "Feature", "properties": {"highway": "footway", "footway": null, "name": null, "surface": null, "lit": null, "length_m": 27.77, "type_element": "Way", "__fid": 5709}, "geometry": {"type": "LineString", "coordinates": [[2.2637016, 48.878214599999986], [2.2637681, 48.8784605]]}}, {"type": "Feature", "properties": {"highway": "footway", "footway": null, "name": null, "surface": null, "lit": null, "length_m": 40.92, "type_element": "Way", "__fid": 5715}, "geometry": {"type": "LineString", "coordinates": [[2.264246, 48.8789671], [2.2637019, 48.8790485]]}}, {"type": "Feature", "properties": {"highway": "footway", "footway": null, "name": null, "surface": null, "lit": null, "length_m": 2.88, "type_element": "Way", "__fid": 5725}, "geometry": {"type": "LineString", "coordinates": [[2.2637681, 48.8784605], [2.2637844, 48.8784841]]}}, {"type": "Feature", "properties": {"highway": "footway", "footway": null, "name": null, "surface": null, "lit": null, "length_m": 26.0, "type_element": "Way", "__fid": 5726}, "geometry": {"type": "LineString", "coordinates": [[2.2637882, 48.8774024], [2.2639292, 48.877357300000014], [2.2641196, 48.877322]]}}, {"type": "Feature", "properties": {"highway": "footway", "footway": null, "name": null, "surface": null, "lit": null, "length_m": 32.85, "type_element": "Way", "__fid": 5728}, "geometry": {"type": "LineString", "coordinates": [[2.2637844, 48.8784841], [2.2638851, 48.878772]]}}, {"type": "Feature", "properties": {"highway": "footway", "footway": null, "name": null, "surface": null, "lit": null, "length_m": 41.48, "type_element": "Way", "__fid": 5729}, "geometry": {"type": "LineString", "coordinates": [[2.2637844, 48.8784841], [2.2641937, 48.8782267]]}}, {"type": "Feature", "properties": {"highway": "service", "footway": null, "name": null, "surface": "asphalt", "lit": null, "length_m": 20.89, "type_element": "Way", "__fid": 5746}, "geometry": {"type": "LineString", "coordinates": [[2.2638851, 48.878772], [2.2641648, 48.8787363]]}}, {"type": "Feature", "properties": {"highway": "footway", "footway": null, "name": null, "surface": null, "lit": null, "length_m": 34.52, "type_element": "Way", "__fid": 5790}, "geometry": {"type": "LineString", "coordinates": [[2.2641196, 48.877322], [2.2641158, 48.8772961], [2.2641431, 48.8772478], [2.2641717, 48.8772298], [2.2642462, 48.877214], [2.2642854, 48.877217600000016], [2.2643504, 48.87724619999998], [2.2643794, 48.877294100000015], [2.2643765, 48.87732]]}}, {"type": "Feature", "properties": {"highway": "footway", "footway": null, "name": null, "surface": null, "lit": null, "length_m": 14.76, "type_element": "Way", "__fid": 5793}, "geometry": {"type": "LineString", "coordinates": [[2.2641307, 48.8779129], [2.2643298, 48.87793210000002]]}}, {"type": "Feature", "properties": {"highway": "footway", "footway": null, "name": null, "surface": null, "lit": null, "length_m": 21.94, "type_element": "Way", "__fid": 5794}, "geometry": {"type": "LineString", "coordinates": [[2.2643549, 48.8777899], [2.2642169, 48.8778618], [2.264155, 48.87788], [2.2641307, 48.8779129]]}}, {"type": "Feature", "properties": {"highway": "footway", "footway": null, "name": null, "surface": null, "lit": null, "length_m": 26.35, "type_element": "Way", "__fid": 5807}, "geometry": {"type": "LineString", "coordinates": [[2.264246, 48.8789671], [2.2641648, 48.8787363]]}}, {"type": "Feature", "properties": {"highway": "service", "footway": null, "name": null, "surface": "asphalt", "lit": null, "length_m": 11.63, "type_element": "Way", "__fid": 5808}, "geometry": {"type": "LineString", "coordinates": [[2.2641648, 48.8787363], [2.2643197, 48.87871389999999]]}}, {"type": "Feature", "properties": {"highway": "footway", "footway": null, "name": null, "surface": null, "lit": null, "length_m": 18.19, "type_element": "Way", "__fid": 5817}, "geometry": {"type": "LineString", "coordinates": [[2.2641937, 48.8782267], [2.2643954, 48.87813149999999]]}}, {"type": "Feature", "properties": {"highway": "footway", "footway": null, "name": null, "surface": null, "lit": null, "length_m": 12.27, "type_element": "Way", "__fid": 5838}, "geometry": {"type": "LineString", "coordinates": [[2.2644092, 48.87894270000001], [2.264246, 48.8789671]]}}, {"type": "Feature", "properties": {"highway": "footway", "footway": null, "name": null, "surface": null, "lit": null, "length_m": 12.21, "type_element": "Way", "__fid": 5864}, "geometry": {"type": "LineString", "coordinates": [[2.2643298, 48.87793210000002], [2.2643706, 48.8780386]]}}, {"type": "Feature", "properties": {"highway": "footway", "footway": null, "name": null, "surface": null, "lit": null, "length_m": 8.02, "type_element": "Way", "__fid": 5865}, "geometry": {"type": "LineString", "coordinates": [[2.2643298, 48.87793210000002], [2.2644261, 48.877897900000015]]}}, {"type": "Feature", "properties": {"highway": "footway", "footway": null, "name": null, "surface": null, "lit": null, "length_m": 26.28, "type_element": "Way", "__fid": 5866}, "geometry": {"type": "LineString", "coordinates": [[2.2643197, 48.87871389999999], [2.2644092, 48.87894270000001]]}}, {"type": "Feature", "properties": {"highway": "footway", "footway": null, "name": null, "surface": null, "lit": null, "length_m": 58.28, "type_element": "Way", "__fid": 5867}, "geometry": {"type": "LineString", "coordinates": [[2.2645459, 48.8782734], [2.2644531, 48.8783094], [2.2642931, 48.8784235], [2.2642618, 48.8784844], [2.2642644, 48.8785424], [2.2643197, 48.87871389999999]]}}, {"type": "Feature", "properties": {"highway": "service", "footway": null, "name": null, "surface": "asphalt", "lit": null, "length_m": 15.5, "type_element": "Way", "__fid": 5868}, "geometry": {"type": "LineString", "coordinates": [[2.2643197, 48.87871389999999], [2.2645269, 48.8786866]]}}, {"type": "Feature", "properties": {"highway": "footway", "footway": null, "name": null, "surface": null, "lit": null, "length_m": 13.1, "type_element": "Way", "__fid": 5876}, "geometry": {"type": "LineString", "coordinates": [[2.2643549, 48.8777899], [2.2644261, 48.877897900000015]]}}, {"type": "Feature", "properties": {"highway": "footway", "footway": null, "name": null, "surface": null, "lit": null, "length_m": 55.95, "type_element": "Way", "__fid": 5877}, "geometry": {"type": "LineString", "coordinates": [[2.2646305, 48.8773321], [2.2644874, 48.87768730000002], [2.2644664, 48.8777132], [2.2643549, 48.8777899]]}}, {"type": "Feature", "properties": {"highway": "footway", "footway": null, "name": null, "surface": null, "lit": null, "length_m": 18.68, "type_element": "Way", "__fid": 5880}, "geometry": {"type": "LineString", "coordinates": [[2.2643765, 48.87732], [2.2646305, 48.8773321]]}}, {"type": "Feature", "properties": {"highway": "footway", "footway": null, "name": null, "surface": null, "lit": null, "length_m": 10.49, "type_element": "Way", "__fid": 5881}, "geometry": {"type": "LineString", "coordinates": [[2.2643706, 48.8780386], [2.2643954, 48.87813149999999]]}}, {"type": "Feature", "properties": {"highway": "footway", "footway": null, "name": null, "surface": null, "lit": null, "length_m": 23.78, "type_element": "Way", "__fid": 5882}, "geometry": {"type": "LineString", "coordinates": [[2.2643706, 48.8780386], [2.264517, 48.87803419999999], [2.26469, 48.87800759999999]]}}, {"type": "Feature", "properties": {"highway": "footway", "footway": null, "name": null, "surface": null, "lit": null, "length_m": 19.26, "type_element": "Way", "__fid": 5891}, "geometry": {"type": "LineString", "coordinates": [[2.2643954, 48.87813149999999], [2.2645459, 48.8782734]]}}, {"type": "Feature", "properties": {"highway": "footway", "footway": null, "name": null, "surface": null, "lit": null, "length_m": 15.32, "type_element": "Way", "__fid": 5899}, "geometry": {"type": "LineString", "coordinates": [[2.2646123, 48.8789104], [2.2644092, 48.87894270000001]]}}, {"type": "Feature", "properties": {"highway": "footway", "footway": null, "name": null, "surface": null, "lit": null, "length_m": 32.33, "type_element": "Way", "__fid": 5901}, "geometry": {"type": "LineString", "coordinates": [[2.2644261, 48.877897900000015], [2.2645173, 48.877865600000014], [2.264848, 48.8778219]]}}, {"type": "Feature", "properties": {"highway": "footway", "footway": null, "name": null, "surface": null, "lit": null, "length_m": 27.07, "type_element": "Way", "__fid": 5917}, "geometry": {"type": "LineString", "coordinates": [[2.2644336, 48.8790659], [2.2645426, 48.87904609999998], [2.2646526, 48.878935], [2.2646123, 48.8789104]]}}, {"type": "Feature", "properties": {"highway": "footway", "footway": null, "name": null, "surface": null, "lit": null, "length_m": 23.6, "type_element": "Way", "__fid": 5939}, "geometry": {"type": "LineString", "coordinates": [[2.2646606, 48.8788796], [2.2645269, 48.8786866]]}}, {"type": "Feature", "properties": {"highway": "service", "footway": null, "name": null, "surface": "asphalt", "lit": null, "length_m": 20.98, "type_element": "Way", "__fid": 5940}, "geometry": {"type": "LineString", "coordinates": [[2.2645269, 48.8786866], [2.2648126, 48.8786774]]}}, {"type": "Feature", "properties": {"highway": "footway", "footway": null, "name": null, "surface": null, "lit": null, "length_m": 49.47, "type_element": "Way", "__fid": 5944}, "geometry": {"type": "LineString", "coordinates": [[2.2645459, 48.8782734], [2.2646655, 48.8784451], [2.2646814, 48.8785129], [2.2647187, 48.8785838], [2.2648126, 48.8786774]]}}, {"type": "Feature", "properties": {"highway": "footway", "footway": null, "name": null, "surface": null, "lit": null, "length_m": 13.21, "type_element": "Way", "__fid": 5945}, "geometry": {"type": "LineString", "coordinates": [[2.2645459, 48.8782734], [2.2646065, 48.8782402], [2.2647078, 48.87824190000001]]}}, {"type": "Feature", "properties": {"highway": "footway", "footway": null, "name": null, "surface": null, "lit": null, "length_m": 17.97, "type_element": "Way", "__fid": 5954}, "geometry": {"type": "LineString", "coordinates": [[2.2645497, 48.8794043], [2.264586, 48.87950630000001], [2.2646159, 48.8795596]]}}, {"type": "Feature", "properties": {"highway": "service", "footway": null, "name": "Allée des Érables", "surface": "asphalt", "lit": null, "length_m": 95.19, "type_element": "Way", "__fid": 5955}, "geometry": {"type": "LineString", "coordinates": [[2.265779, 48.879132], [2.2651622, 48.87928369999999], [2.2647765, 48.8793674], [2.2645497, 48.8794043]]}}, {"type": "Feature", "properties": {"highway": "service", "footway": null, "name": null, "surface": "asphalt", "lit": null, "length_m": 39.52, "type_element": "Way", "__fid": 5965}, "geometry": {"type": "LineString", "coordinates": [[2.2651445, 48.8769827], [2.2646089, 48.8769442]]}}, {"type": "Feature", "properties": {"highway": "footway", "footway": null, "name": null, "surface": null, "lit": null, "length_m": 30.08, "type_element": "Way", "__fid": 5966}, "geometry": {"type": "LineString", "coordinates": [[2.2646089, 48.8769442], [2.2646996, 48.8770593], [2.2646788, 48.87719939999999]]}}, {"type": "Feature", "properties": {"highway": "footway", "footway": null, "name": null, "surface": null, "lit": null, "length_m": 15.18, "type_element": "Way", "__fid": 5979}, "geometry": {"type": "LineString", "coordinates": [[2.2646788, 48.87719939999999], [2.2646305, 48.8773321]]}}, {"type": "Feature", "properties": {"highway": "footway", "footway": null, "name": null, "surface": null, "lit": null, "length_m": 4.93, "type_element": "Way", "__fid": 5981}, "geometry": {"type": "LineString", "coordinates": [[2.2646123, 48.8789104], [2.2646606, 48.8788796]]}}, {"type": "Feature", "properties": {"highway": "footway", "footway": "sidewalk", "name": null, "surface": null, "lit": null, "length_m": 6.17, "type_element": "Way", "__fid": 5983}, "geometry": {"type": "LineString", "coordinates": [[2.2646159, 48.8795596], [2.2646713, 48.8796013]]}}, {"type": "Feature", "properties": {"highway": "footway", "footway": "sidewalk", "name": null, "surface": "dirt", "lit": null, "length_m": 246.26, "type_element": "Way", "__fid": 5984}, "geometry": {"type": "LineString", "coordinates": [[2.2646159, 48.8795596], [2.2655506, 48.879445], [2.2659248, 48.8793885], [2.2671779, 48.87923949999998], [2.2679188, 48.8791635]]}}, {"type": "Feature", "properties": {"highway": "footway", "footway": null, "name": null, "surface": null, "lit": null, "length_m": 42.19, "type_element": "Way", "__fid": 5990}, "geometry": {"type": "LineString", "coordinates": [[2.2646788, 48.87719939999999], [2.264868, 48.8770799], [2.2651445, 48.8769827]]}}, {"type": "Feature", "properties": {"highway": "footway", "footway": null, "name": null, "surface": null, "lit": null, "length_m": 51.72, "type_element": "Way", "__fid": 5991}, "geometry": {"type": "LineString", "coordinates": [[2.2646606, 48.8788796], [2.2647344, 48.87883269999998], [2.2649007, 48.8788133], [2.2651421, 48.8788538], [2.2652976, 48.8788274], [2.265313, 48.87881510000001]]}}, {"type": "Feature", "properties": {"highway": "footway", "footway": null, "name": null, "surface": null, "lit": null, "length_m": 26.09, "type_element": "Way", "__fid": 5992}, "geometry": {"type": "LineString", "coordinates": [[2.2647078, 48.87824190000001], [2.26469, 48.87800759999999]]}}, {"type": "Feature", "properties": {"highway": "footway", "footway": null, "name": null, "surface": null, "lit": null, "length_m": 33.82, "type_element": "Way", "__fid": 5993}, "geometry": {"type": "LineString", "coordinates": [[2.2649122, 48.877807], [2.2649381, 48.8778462], [2.264912, 48.87793959999998], [2.2648718, 48.8779708], [2.26469, 48.87800759999999]]}}, {"type": "Feature", "properties": {"highway": "footway", "footway": null, "name": null, "surface": null, "lit": null, "length_m": 45.16, "type_element": "Way", "__fid": 5994}, "geometry": {"type": "LineString", "coordinates": [[2.2647078, 48.87824190000001], [2.2648062, 48.8782436], [2.2653175, 48.8781919]]}}, {"type": "Feature", "properties": {"highway": "footway", "footway": null, "name": null, "surface": null, "lit": null, "length_m": 6.45, "type_element": "Way", "__fid": 6017}, "geometry": {"type": "LineString", "coordinates": [[2.264848, 48.8778219], [2.2648238, 48.877877699999985]]}}, {"type": "Feature", "properties": {"highway": "service", "footway": null, "name": null, "surface": "asphalt", "lit": null, "length_m": 17.0, "type_element": "Way", "__fid": 6018}, "geometry": {"type": "LineString", "coordinates": [[2.2648126, 48.8786774], [2.2650443, 48.8786724]]}}, {"type": "Feature", "properties": {"highway": "footway", "footway": null, "name": null, "surface": null, "lit": null, "length_m": 4.99, "type_element": "Way", "__fid": 6023}, "geometry": {"type": "LineString", "coordinates": [[2.264848, 48.8778219], [2.2649122, 48.877807]]}}, {"type": "Feature", "properties": {"highway": "footway", "footway": null, "name": null, "surface": null, "lit": null, "length_m": 16.96, "type_element": "Way", "__fid": 6039}, "geometry": {"type": "LineString", "coordinates": [[2.2649122, 48.877807], [2.2651221, 48.8777429]]}}, {"type": "Feature", "properties": {"highway": "footway", "footway": null, "name": null, "surface": null, "lit": null, "length_m": 43.24, "type_element": "Way", "__fid": 6070}, "geometry": {"type": "LineString", "coordinates": [[2.2649784, 48.8791978], [2.2650603, 48.87910080000001], [2.265299, 48.87908669999999], [2.2654546, 48.879025]]}}, {"type": "Feature", "properties": {"highway": "footway", "footway": null, "name": null, "surface": null, "lit": null, "length_m": 45.89, "type_element": "Way", "__fid": 6087}, "geometry": {"type": "LineString", "coordinates": [[2.2650443, 48.8786724], [2.2652186, 48.8785567], [2.2652776, 48.87840850000001], [2.2653696, 48.8783337]]}}, {"type": "Feature", "properties": {"highway": "service", "footway": null, "name": null, "surface": "asphalt", "lit": null, "length_m": 29.32, "type_element": "Way", "__fid": 6088}, "geometry": {"type": "LineString", "coordinates": [[2.2650443, 48.8786724], [2.2654439, 48.8786639]]}}, {"type": "Feature", "properties": {"highway": "footway", "footway": null, "name": null, "surface": null, "lit": null, "length_m": 17.08, "type_element": "Way", "__fid": 6104}, "geometry": {"type": "LineString", "coordinates": [[2.2651221, 48.8777429], [2.2651631, 48.8778481], [2.2651611, 48.8778931]]}}, {"type": "Feature", "properties": {"highway": "footway", "footway": null, "name": null, "surface": null, "lit": null, "length_m": 23.84, "type_element": "Way", "__fid": 6105}, "geometry": {"type": "LineString", "coordinates": [[2.2651221, 48.8777429], [2.2654097, 48.877643]]}}, {"type": "Feature", "properties": {"highway": "service", "footway": null, "name": null, "surface": "asphalt", "lit": null, "length_m": 36.78, "type_element": "Way", "__fid": 6109}, "geometry": {"type": "LineString", "coordinates": [[2.2656398, 48.877034500000015], [2.2651445, 48.8769827]]}}, {"type": "Feature", "properties": {"highway": "footway", "footway": null, "name": null, "surface": "sett", "lit": null, "length_m": 46.48, "type_element": "Way", "__fid": 6110}, "geometry": {"type": "LineString", "coordinates": [[2.2654128, 48.876604], [2.2651445, 48.8769827]]}}, {"type": "Feature", "properties": {"highway": "footway", "footway": null, "name": null, "surface": null, "lit": null, "length_m": 16.31, "type_element": "Way", "__fid": 6158}, "geometry": {"type": "LineString", "coordinates": [[2.2653175, 48.8781919], [2.2653554, 48.8783168], [2.2653696, 48.8783337]]}}, {"type": "Feature", "properties": {"highway": "footway", "footway": null, "name": null, "surface": null, "lit": null, "length_m": 61.8, "type_element": "Way", "__fid": 6159}, "geometry": {"type": "LineString", "coordinates": [[2.2653175, 48.8781919], [2.2657386, 48.8781534], [2.2658936, 48.8781491], [2.2660962, 48.8781715], [2.266147, 48.878188500000014]]}}, {"type": "Feature", "properties": {"highway": "footway", "footway": null, "name": null, "surface": null, "lit": null, "length_m": 14.23, "type_element": "Way", "__fid": 6160}, "geometry": {"type": "LineString", "coordinates": [[2.265313, 48.87881510000001], [2.26548, 48.878880299999985]]}}, {"type": "Feature", "properties": {"highway": "footway", "footway": null, "name": null, "surface": null, "lit": null, "length_m": 22.0, "type_element": "Way", "__fid": 6161}, "geometry": {"type": "LineString", "coordinates": [[2.265313, 48.87881510000001], [2.2655041, 48.878662599999984]]}}, {"type": "Feature", "properties": {"highway": "footway", "footway": null, "name": null, "surface": null, "lit": null, "length_m": 40.91, "type_element": "Way", "__fid": 6173}, "geometry": {"type": "LineString", "coordinates": [[2.2653696, 48.8783337], [2.2654278, 48.8784032], [2.2655217, 48.8784879], [2.2654814, 48.8785972], [2.2654439, 48.8786639]]}}, {"type": "Feature", "properties": {"highway": "footway", "footway": null, "name": null, "surface": null, "lit": null, "length_m": 17.46, "type_element": "Way", "__fid": 6184}, "geometry": {"type": "LineString", "coordinates": [[2.2654097, 48.877643], [2.2655147, 48.8777839]]}}, {"type": "Feature", "properties": {"highway": "footway", "footway": null, "name": null, "surface": null, "lit": null, "length_m": 72.46, "type_element": "Way", "__fid": 6185}, "geometry": {"type": "LineString", "coordinates": [[2.2656398, 48.877034500000015], [2.2654527, 48.877255], [2.2653776, 48.877427], [2.2653642, 48.8774914], [2.265375, 48.8775558], [2.2654097, 48.877643]]}}, {"type": "Feature", "properties": {"highway": "footway", "footway": null, "name": null, "surface": null, "lit": null, "length_m": 124.66, "type_element": "Way", "__fid": 6186}, "geometry": {"type": "LineString", "coordinates": [[2.2654097, 48.877643], [2.2656414, 48.8775823], [2.2660036, 48.87752559999998], [2.2662042, 48.8775093], [2.2667395, 48.8775187], [2.2668782, 48.8775131], [2.2670754, 48.8774857]]}}, {"type": "Feature", "properties": {"highway": "service", "footway": null, "name": null, "surface": "asphalt", "lit": null, "length_m": 4.42, "type_element": "Way", "__fid": 6202}, "geometry": {"type": "LineString", "coordinates": [[2.2654439, 48.8786639], [2.2655041, 48.878662599999984]]}}, {"type": "Feature", "properties": {"highway": "footway", "footway": null, "name": null, "surface": null, "lit": null, "length_m": 16.2, "type_element": "Way", "__fid": 6207}, "geometry": {"type": "LineString", "coordinates": [[2.2654546, 48.879025], [2.26548, 48.878880299999985]]}}, {"type": "Feature", "properties": {"highway": "footway", "footway": null, "name": null, "surface": null, "lit": null, "length_m": 26.6, "type_element": "Way", "__fid": 6208}, "geometry": {"type": "LineString", "coordinates": [[2.2654546, 48.879025], [2.2656244, 48.878958300000015], [2.2657574, 48.8788939]]}}, {"type": "Feature", "properties": {"highway": "footway", "footway": null, "name": null, "surface": null, "lit": null, "length_m": 20.56, "type_element": "Way", "__fid": 6216}, "geometry": {"type": "LineString", "coordinates": [[2.26548, 48.878880299999985], [2.2656611, 48.8789002], [2.2657574, 48.8788939]]}}, {"type": "Feature", "properties": {"highway": "service", "footway": null, "name": null, "surface": "asphalt", "lit": null, "length_m": 21.88, "type_element": "Way", "__fid": 6225}, "geometry": {"type": "LineString", "coordinates": [[2.2655041, 48.878662599999984], [2.2658011, 48.8786438]]}}, {"type": "Feature", "properties": {"highway": "service", "footway": null, "name": null, "surface": "asphalt", "lit": null, "length_m": 80.36, "type_element": "Way", "__fid": 6249}, "geometry": {"type": "LineString", "coordinates": [[2.2666581, 48.877295300000014], [2.2665093, 48.8772418], [2.2661371, 48.8771359], [2.2658904, 48.8770796], [2.2656398, 48.877034500000015]]}}, {"type": "Feature", "properties": {"highway": "footway", "footway": null, "name": null, "surface": null, "lit": null, "length_m": 11.23, "type_element": "Way", "__fid": 6295}, "geometry": {"type": "LineString", "coordinates": [[2.2657574, 48.8788939], [2.2658646, 48.8788218]]}}, {"type": "Feature", "properties": {"highway": "footway", "footway": null, "name": null, "surface": null, "lit": null, "length_m": 134.25, "type_element": "Way", "__fid": 6307}, "geometry": {"type": "LineString", "coordinates": [[2.265779, 48.879132], [2.2658386, 48.8791437], [2.2659296, 48.8791489], [2.2664814, 48.8790556], [2.2666215, 48.879042], [2.2669967, 48.87903239999998], [2.2675841, 48.878994900000016]]}}, {"type": "Feature", "properties": {"highway": "service", "footway": null, "name": "Allée des Érables", "surface": "asphalt", "lit": null, "length_m": 113.74, "type_element": "Way", "__fid": 6308}, "geometry": {"type": "LineString", "coordinates": [[2.2672476, 48.8788058], [2.2666803, 48.878913800000014], [2.2660509, 48.8790591], [2.265779, 48.879132]]}}, {"type": "Feature", "properties": {"highway": "footway", "footway": null, "name": null, "surface": null, "lit": null, "length_m": 7.41, "type_element": "Way", "__fid": 6311}, "geometry": {"type": "LineString", "coordinates": [[2.2658427, 48.87870449999998], [2.2658011, 48.8786438]]}}, {"type": "Feature", "properties": {"highway": "service", "footway": null, "name": null, "surface": "asphalt", "lit": null, "length_m": 33.48, "type_element": "Way", "__fid": 6312}, "geometry": {"type": "LineString", "coordinates": [[2.2658011, 48.8786438], [2.2660314, 48.878621], [2.2662441, 48.8785754]]}}, {"type": "Feature", "properties": {"highway": "footway", "footway": null, "name": null, "surface": null, "lit": null, "length_m": 29.28, "type_element": "Way", "__fid": 6324}, "geometry": {"type": "LineString", "coordinates": [[2.2658427, 48.87870449999998], [2.2662391, 48.8787357]]}}, {"type": "Feature", "properties": {"highway": "footway", "footway": null, "name": null, "surface": null, "lit": null, "length_m": 14.06, "type_element": "Way", "__fid": 6325}, "geometry": {"type": "LineString", "coordinates": [[2.2658646, 48.8788218], [2.265885, 48.878808], [2.2658427, 48.87870449999998]]}}, {"type": "Feature", "properties": {"highway": "footway", "footway": null, "name": null, "surface": null, "lit": null, "length_m": 30.71, "type_element": "Way", "__fid": 6330}, "geometry": {"type": "LineString", "coordinates": [[2.2658646, 48.8788218], [2.2659288, 48.8788388], [2.2662105, 48.8787541], [2.2662391, 48.8787357]]}}, {"type": "Feature", "properties": {"highway": "footway", "footway": null, "name": null, "surface": null, "lit": null, "length_m": 28.62, "type_element": "Way", "__fid": 6396}, "geometry": {"type": "LineString", "coordinates": [[2.266147, 48.878188500000014], [2.2663219, 48.8782448], [2.2663724, 48.8783093], [2.2664389, 48.8783448]]}}, {"type": "Feature", "properties": {"highway": "footway", "footway": null, "name": null, "surface": null, "lit": null, "length_m": 50.29, "type_element": "Way", "__fid": 6397}, "geometry": {"type": "LineString", "coordinates": [[2.2667886, 48.8781102], [2.2666778, 48.8780846], [2.2665738, 48.8780761], [2.2664129, 48.8781033], [2.2662391, 48.8781702], [2.266147, 48.878188500000014]]}}, {"type": "Feature", "properties": {"highway": "footway", "footway": null, "name": null, "surface": null, "lit": null, "length_m": 19.07, "type_element": "Way", "__fid": 6427}, "geometry": {"type": "LineString", "coordinates": [[2.2662391, 48.8787357], [2.2662874, 48.8786404], [2.2662441, 48.8785754]]}}, {"type": "Feature", "properties": {"highway": "service", "footway": null, "name": null, "surface": "asphalt", "lit": null, "length_m": 21.4, "type_element": "Way", "__fid": 6428}, "geometry": {"type": "LineString", "coordinates": [[2.2662441, 48.8785754], [2.2663875, 48.8785462], [2.2665158, 48.878506499999986]]}}, {"type": "Feature", "properties": {"highway": "footway", "footway": null, "name": null, "surface": null, "lit": null, "length_m": 18.84, "type_element": "Way", "__fid": 6462}, "geometry": {"type": "LineString", "coordinates": [[2.2664389, 48.8783448], [2.2665158, 48.878506499999986]]}}, {"type": "Feature", "properties": {"highway": "footway", "footway": null, "name": null, "surface": null, "lit": null, "length_m": 40.5, "type_element": "Way", "__fid": 6463}, "geometry": {"type": "LineString", "coordinates": [[2.2664389, 48.8783448], [2.2665081, 48.87834119999999], [2.2667509, 48.87822869999999], [2.2667751, 48.87819649999999], [2.2667886, 48.8781102]]}}, {"type": "Feature", "properties": {"highway": "service", "footway": null, "name": null, "surface": "asphalt", "lit": null, "length_m": 34.17, "type_element": "Way", "__fid": 6477}, "geometry": {"type": "LineString", "coordinates": [[2.2665158, 48.878506499999986], [2.266596, 48.8784862], [2.2669347, 48.8783726]]}}, {"type": "Feature", "properties": {"highway": "footway", "footway": null, "name": null, "surface": null, "lit": null, "length_m": 29.68, "type_element": "Way", "__fid": 6499}, "geometry": {"type": "LineString", "coordinates": [[2.2666459, 48.8770307], [2.2666496, 48.8771217], [2.2666752, 48.877236], [2.2666581, 48.877295300000014]]}}, {"type": "Feature", "properties": {"highway": "service", "footway": null, "name": null, "surface": "asphalt", "lit": null, "length_m": 37.3, "type_element": "Way", "__fid": 6503}, "geometry": {"type": "LineString", "coordinates": [[2.2670754, 48.8774857], [2.2669287, 48.8774053], [2.2666581, 48.877295300000014]]}}, {"type": "Feature", "properties": {"highway": "footway", "footway": null, "name": null, "surface": null, "lit": null, "length_m": 53.12, "type_element": "Way", "__fid": 6562}, "geometry": {"type": "LineString", "coordinates": [[2.2667886, 48.8781102], [2.2668353, 48.8780701], [2.2669543, 48.8780721], [2.2670179, 48.8780418], [2.267129, 48.8780474], [2.2671747, 48.878025399999984], [2.2672156, 48.8779778], [2.2672408, 48.8779679], [2.2672967, 48.8779845], [2.2673784, 48.8780316]]}}, {"type": "Feature", "properties": {"highway": "footway", "footway": null, "name": null, "surface": null, "lit": null, "length_m": 20.86, "type_element": "Way", "__fid": 6605}, "geometry": {"type": "LineString", "coordinates": [[2.2669347, 48.8783726], [2.2670612, 48.8785406]]}}, {"type": "Feature", "properties": {"highway": "service", "footway": null, "name": null, "surface": "asphalt", "lit": null, "length_m": 27.55, "type_element": "Way", "__fid": 6606}, "geometry": {"type": "LineString", "coordinates": [[2.2669347, 48.8783726], [2.2672352, 48.878224]]}}, {"type": "Feature", "properties": {"highway": "service", "footway": null, "name": null, "surface": "asphalt", "lit": null, "length_m": 12.07, "type_element": "Way", "__fid": 6647}, "geometry": {"type": "LineString", "coordinates": [[2.267207, 48.8775508], [2.2670754, 48.8774857]]}}, {"type": "Feature", "properties": {"highway": "service", "footway": null, "name": null, "surface": "asphalt", "lit": null, "length_m": 55.75, "type_element": "Way", "__fid": 6673}, "geometry": {"type": "LineString", "coordinates": [[2.2677871, 48.8778748], [2.267207, 48.8775508]]}}, {"type": "Feature", "properties": {"highway": "footway", "footway": null, "name": null, "surface": null, "lit": null, "length_m": 15.1, "type_element": "Way", "__fid": 6674}, "geometry": {"type": "LineString", "coordinates": [[2.267207, 48.8775508], [2.2672633, 48.87742020000002]]}}, {"type": "Feature", "properties": {"highway": "footway", "footway": null, "name": null, "surface": null, "lit": null, "length_m": 39.87, "type_element": "Way", "__fid": 6683}, "geometry": {"type": "LineString", "coordinates": [[2.2672352, 48.878224], [2.2673182, 48.8782749], [2.2674383, 48.878315], [2.2676228, 48.8783552], [2.2676571, 48.8783684], [2.2677185, 48.8783721]]}}, {"type": "Feature", "properties": {"highway": "service", "footway": null, "name": null, "surface": "asphalt", "lit": null, "length_m": 23.13, "type_element": "Way", "__fid": 6684}, "geometry": {"type": "LineString", "coordinates": [[2.2672352, 48.878224], [2.2674647, 48.8780813]]}}, {"type": "Feature", "properties": {"highway": "footway", "footway": null, "name": null, "surface": null, "lit": null, "length_m": 32.53, "type_element": "Way", "__fid": 6688}, "geometry": {"type": "LineString", "coordinates": [[2.2672476, 48.8788058], [2.2673171, 48.878848], [2.2673972, 48.8788805], [2.2675841, 48.878994900000016]]}}, {"type": "Feature", "properties": {"highway": "service", "footway": null, "name": "Allée des Érables", "surface": "asphalt", "lit": null, "length_m": 219.17, "type_element": "Way", "__fid": 6689}, "geometry": {"type": "LineString", "coordinates": [[2.2701886, 48.878536], [2.2698697, 48.87851110000001], [2.2696941, 48.8785114], [2.2693633, 48.87852520000001], [2.2690838, 48.8785488], [2.2687231, 48.8785823], [2.2677178, 48.8787274], [2.2672476, 48.8788058]]}}, {"type": "Feature", "properties": {"highway": "footway", "footway": null, "name": null, "surface": null, "lit": null, "length_m": 8.4, "type_element": "Way", "__fid": 6718}, "geometry": {"type": "LineString", "coordinates": [[2.2673784, 48.8780316], [2.2674647, 48.8780813]]}}, {"type": "Feature", "properties": {"highway": "footway", "footway": "sidewalk", "name": null, "surface": null, "lit": null, "length_m": 167.02, "type_element": "Way", "__fid": 6742}, "geometry": {"type": "LineString", "coordinates": [[2.2696408, 48.8773815], [2.2694682, 48.8772983], [2.2691421, 48.8772061], [2.2685495, 48.8771002], [2.2674794, 48.87694829999999]]}}, {"type": "Feature", "properties": {"highway": "footway", "footway": "crossing", "name": null, "surface": "compacted", "lit": "no", "length_m": 13.61, "type_element": "Way", "__fid": 6743}, "geometry": {"type": "LineString", "coordinates": [[2.2675014, 48.8768268], [2.2674794, 48.87694829999999]]}}, {"type": "Feature", "properties": {"highway": "service", "footway": null, "name": null, "surface": "asphalt", "lit": null, "length_m": 32.96, "type_element": "Way", "__fid": 6744}, "geometry": {"type": "LineString", "coordinates": [[2.2674647, 48.8780813], [2.2677871, 48.8778748]]}}, {"type": "Feature", "properties": {"highway": "footway", "footway": "sidewalk", "name": null, "surface": "compacted", "lit": null, "length_m": 48.83, "type_element": "Way", "__fid": 6748}, "geometry": {"type": "LineString", "coordinates": [[2.2675014, 48.8768268], [2.2681531, 48.8769166]]}}, {"type": "Feature", "properties": {"highway": "footway", "footway": null, "name": null, "surface": null, "lit": null, "length_m": 31.28, "type_element": "Way", "__fid": 6767}, "geometry": {"type": "LineString", "coordinates": [[2.2675841, 48.878994900000016], [2.2678257, 48.8790903], [2.2679188, 48.8791635]]}}, {"type": "Feature", "properties": {"highway": "footway", "footway": null, "name": null, "surface": null, "lit": null, "length_m": 189.79, "type_element": "Way", "__fid": 6768}, "geometry": {"type": "LineString", "coordinates": [[2.2675841, 48.878994900000016], [2.2680613, 48.8789582], [2.2683277, 48.8789156], [2.2689885, 48.8787901], [2.2693489, 48.8786856], [2.2695251, 48.8786478], [2.2698786, 48.8786039], [2.2700794, 48.8785711]]}}, {"type": "Feature", "properties": {"highway": "service", "footway": null, "name": null, "surface": "asphalt", "lit": null, "length_m": 35.68, "type_element": "Way", "__fid": 6831}, "geometry": {"type": "LineString", "coordinates": [[2.2677871, 48.8778748], [2.2682734, 48.8778848]]}}, {"type": "Feature", "properties": {"highway": "path", "footway": null, "name": null, "surface": "dirt", "lit": null, "length_m": 72.49, "type_element": "Way", "__fid": 6843}, "geometry": {"type": "LineString", "coordinates": [[2.2681531, 48.8769166], [2.2681779, 48.87673460000001], [2.2681738, 48.876664], [2.2681477, 48.876598699999974], [2.2681007, 48.8765502], [2.2679579, 48.8764603], [2.2678593, 48.87638440000002], [2.2678671, 48.8763414]]}}, {"type": "Feature", "properties": {"highway": "footway", "footway": null, "name": null, "surface": null, "lit": null, "length_m": 6.24, "type_element": "Way", "__fid": 6869}, "geometry": {"type": "LineString", "coordinates": [[2.2679188, 48.8791635], [2.2679312, 48.8791728], [2.267995, 48.87918470000001]]}}, {"type": "Feature", "properties": {"highway": "footway", "footway": "sidewalk", "name": null, "surface": "dirt", "lit": null, "length_m": 135.62, "type_element": "Way", "__fid": 6870}, "geometry": {"type": "LineString", "coordinates": [[2.2679188, 48.8791635], [2.2697335, 48.878929]]}}, {"type": "Feature", "properties": {"highway": "footway", "footway": "sidewalk", "name": null, "surface": "compacted", "lit": null, "length_m": 104.27, "type_element": "Way", "__fid": 6932}, "geometry": {"type": "LineString", "coordinates": [[2.2681531, 48.8769166], [2.2689517, 48.877041], [2.269277, 48.877109200000014], [2.2695183, 48.8771725]]}}, {"type": "Feature", "properties": {"highway": "service", "footway": null, "name": null, "surface": null, "lit": null, "length_m": 71.67, "type_element": "Way", "__fid": 6976}, "geometry": {"type": "LineString", "coordinates": [[2.2682734, 48.8778848], [2.2683615, 48.8781088], [2.2684882, 48.8785134]]}}, {"type": "Feature", "properties": {"highway": "service", "footway": null, "name": null, "surface": "asphalt", "lit": null, "length_m": 75.07, "type_element": "Way", "__fid": 6977}, "geometry": {"type": "LineString", "coordinates": [[2.2682734, 48.8778848], [2.268476, 48.8778769], [2.2686261, 48.87786], [2.2692761, 48.87775760000001]]}}, {"type": "Feature", "properties": {"highway": "service", "footway": null, "name": null, "surface": null, "lit": null, "length_m": 81.18, "type_element": "Way", "__fid": 7033}, "geometry": {"type": "LineString", "coordinates": [[2.2684882, 48.8785134], [2.2685975, 48.87851579999999], [2.2689597, 48.8784796], [2.2693741, 48.8784358], [2.2695778, 48.878398300000015]]}}, {"type": "Feature", "properties": {"highway": "path", "footway": null, "name": null, "surface": "compacted", "lit": null, "length_m": 94.76, "type_element": "Way", "__fid": 7153}, "geometry": {"type": "LineString", "coordinates": [[2.2689118, 48.8764305], [2.2692933, 48.8768605], [2.2694253, 48.87700130000001], [2.2694932, 48.8770559], [2.2695183, 48.8771725]]}}, {"type": "Feature", "properties": {"highway": "footway", "footway": null, "name": null, "surface": null, "lit": null, "length_m": 78.64, "type_element": "Way", "__fid": 7273}, "geometry": {"type": "LineString", "coordinates": [[2.2692761, 48.87775760000001], [2.2694641, 48.87832640000002], [2.2696495, 48.8783001]]}}, {"type": "Feature", "properties": {"highway": "service", "footway": null, "name": null, "surface": "asphalt", "lit": null, "length_m": 47.87, "type_element": "Way", "__fid": 7274}, "geometry": {"type": "LineString", "coordinates": [[2.2692761, 48.87775760000001], [2.2694573, 48.8777154], [2.269865, 48.8775742]]}}, {"type": "Feature", "properties": {"highway": "footway", "footway": "sidewalk", "name": null, "surface": "compacted", "lit": null, "length_m": 24.15, "type_element": "Way", "__fid": 7339}, "geometry": {"type": "LineString", "coordinates": [[2.2698221, 48.8772563], [2.2695183, 48.8771725]]}}, {"type": "Feature", "properties": {"highway": "service", "footway": null, "name": null, "surface": null, "lit": null, "length_m": 12.12, "type_element": "Way", "__fid": 7367}, "geometry": {"type": "LineString", "coordinates": [[2.2695778, 48.878398300000015], [2.2696495, 48.8783001]]}}, {"type": "Feature", "properties": {"highway": "footway", "footway": null, "name": null, "surface": "asphalt", "lit": null, "length_m": 57.39, "type_element": "Way", "__fid": 7368}, "geometry": {"type": "LineString", "coordinates": [[2.2695778, 48.878398300000015], [2.269624, 48.8783935], [2.2700528, 48.878416600000016], [2.2703583, 48.878419]]}}, {"type": "Feature", "properties": {"highway": "footway", "footway": "sidewalk", "name": null, "surface": "asphalt", "lit": null, "length_m": 27.01, "type_element": "Way", "__fid": 7381}, "geometry": {"type": "LineString", "coordinates": [[2.2696408, 48.8773815], [2.269865, 48.8775742]]}}, {"type": "Feature", "properties": {"highway": "footway", "footway": "traffic_island", "name": null, "surface": "asphalt", "lit": "yes", "length_m": 20.4, "type_element": "Way", "__fid": 7382}, "geometry": {"type": "LineString", "coordinates": [[2.2698221, 48.8772563], [2.2697597, 48.8773432], [2.2696408, 48.8773815]]}}, {"type": "Feature", "properties": {"highway": "service", "footway": null, "name": null, "surface": "concrete", "lit": null, "length_m": 45.52, "type_element": "Way", "__fid": 7393}, "geometry": {"type": "LineString", "coordinates": [[2.2702592, 48.8782238], [2.2696495, 48.8783001]]}}, {"type": "Feature", "properties": {"highway": "footway", "footway": null, "name": null, "surface": null, "lit": null, "length_m": 35.3, "type_element": "Way", "__fid": 7416}, "geometry": {"type": "LineString", "coordinates": [[2.2699753, 48.878654500000025], [2.2697335, 48.878929]]}}, {"type": "Feature", "properties": {"highway": "footway", "footway": "sidewalk", "name": null, "surface": "dirt", "lit": null, "length_m": 35.85, "type_element": "Way", "__fid": 7417}, "geometry": {"type": "LineString", "coordinates": [[2.2697335, 48.878929], [2.2702154, 48.8788749]]}}, {"type": "Feature", "properties": {"highway": "footway", "footway": "sidewalk", "name": null, "surface": null, "lit": null, "length_m": 34.11, "type_element": "Way", "__fid": 7440}, "geometry": {"type": "LineString", "coordinates": [[2.2702512, 48.8771858], [2.2699963, 48.877266200000015], [2.2699354, 48.8772792], [2.2698221, 48.8772563]]}}, {"type": "Feature", "properties": {"highway": "footway", "footway": "sidewalk", "name": null, "surface": "asphalt", "lit": null, "length_m": 26.65, "type_element": "Way", "__fid": 7460}, "geometry": {"type": "LineString", "coordinates": [[2.269865, 48.8775742], [2.2700366, 48.8777855]]}}, {"type": "Feature", "properties": {"highway": "service", "footway": null, "name": null, "surface": "asphalt", "lit": null, "length_m": 6.09, "type_element": "Way", "__fid": 7461}, "geometry": {"type": "LineString", "coordinates": [[2.269865, 48.8775742], [2.26994, 48.8775506]]}}, {"type": "Feature", "properties": {"highway": "footway", "footway": null, "name": null, "surface": null, "lit": null, "length_m": 33.49, "type_element": "Way", "__fid": 7515}, "geometry": {"type": "LineString", "coordinates": [[2.2702154, 48.8788749], [2.270034, 48.8788107], [2.2699873, 48.8787563], [2.2699739, 48.8787212], [2.2699753, 48.878654500000025]]}}, {"type": "Feature", "properties": {"highway": "footway", "footway": null, "name": null, "surface": null, "lit": null, "length_m": 12.49, "type_element": "Way", "__fid": 7516}, "geometry": {"type": "LineString", "coordinates": [[2.2699753, 48.878654500000025], [2.2699873, 48.8786272], [2.2700273, 48.878593], [2.2700794, 48.8785711]]}}, {"type": "Feature", "properties": {"highway": "footway", "footway": "sidewalk", "name": null, "surface": "concrete", "lit": null, "length_m": 51.4, "type_element": "Way", "__fid": 7531}, "geometry": {"type": "LineString", "coordinates": [[2.2702592, 48.8782238], [2.2700366, 48.8777855]]}}, {"type": "Feature", "properties": {"highway": "footway", "footway": "traffic_island", "name": null, "surface": "asphalt", "lit": null, "length_m": 22.2, "type_element": "Way", "__fid": 7532}, "geometry": {"type": "LineString", "coordinates": [[2.2700366, 48.8777855], [2.2701386, 48.8777533], [2.270158, 48.8777401], [2.2703197, 48.8777389]]}}, {"type": "Feature", "properties": {"highway": "footway", "footway": null, "name": null, "surface": null, "lit": null, "length_m": 9.0, "type_element": "Way", "__fid": 7550}, "geometry": {"type": "LineString", "coordinates": [[2.2700794, 48.8785711], [2.2701158, 48.8785652], [2.2701886, 48.878536]]}}, {"type": "Feature", "properties": {"highway": "service", "footway": null, "name": "Allée des Érables", "surface": "asphalt", "lit": null, "length_m": 17.26, "type_element": "Way", "__fid": 7583}, "geometry": {"type": "LineString", "coordinates": [[2.2704239, 48.8785383], [2.2701886, 48.878536]]}}, {"type": "Feature", "properties": {"highway": "footway", "footway": "sidewalk", "name": null, "surface": "dirt", "lit": null, "length_m": 25.52, "type_element": "Way", "__fid": 7591}, "geometry": {"type": "LineString", "coordinates": [[2.2702154, 48.8788749], [2.2702948, 48.8788801], [2.2705597, 48.8788527]]}}, {"type": "Feature", "properties": {"highway": "footway", "footway": "traffic_island", "name": null, "surface": null, "lit": null, "length_m": 26.31, "type_element": "Way", "__fid": 7599}, "geometry": {"type": "LineString", "coordinates": [[2.2705938, 48.87713629999999], [2.2704296, 48.8771641], [2.2703719, 48.8771884], [2.2702512, 48.8771858]]}}, {"type": "Feature", "properties": {"highway": "footway", "footway": "sidewalk", "name": null, "surface": null, "lit": null, "length_m": 71.59, "type_element": "Way", "__fid": 7600}, "geometry": {"type": "LineString", "coordinates": [[2.2702512, 48.8771858], [2.2704526, 48.8768846], [2.2705754, 48.8765806]]}}, {"type": "Feature", "properties": {"highway": "footway", "footway": "sidewalk", "name": null, "surface": "concrete", "lit": null, "length_m": 22.89, "type_element": "Way", "__fid": 7618}, "geometry": {"type": "LineString", "coordinates": [[2.2703583, 48.878419], [2.2702592, 48.8782238]]}}, {"type": "Feature", "properties": {"highway": "service", "footway": null, "name": null, "surface": "concrete", "lit": null, "length_m": 8.52, "type_element": "Way", "__fid": 7619}, "geometry": {"type": "LineString", "coordinates": [[2.2703743, 48.8782135], [2.2702592, 48.8782238]]}}, {"type": "Feature", "properties": {"highway": "path", "footway": null, "name": null, "surface": "dirt", "lit": null, "length_m": 61.03, "type_element": "Way", "__fid": 7640}, "geometry": {"type": "LineString", "coordinates": [[2.2705826, 48.8782579], [2.2703389, 48.8778256], [2.2703197, 48.8777389]]}}, {"type": "Feature", "properties": {"highway": "path", "footway": null, "name": null, "surface": "dirt", "lit": null, "length_m": 17.65, "type_element": "Way", "__fid": 7641}, "geometry": {"type": "LineString", "coordinates": [[2.2703197, 48.8777389], [2.2703384, 48.8776691], [2.2703857, 48.877619299999985], [2.2704188, 48.8776001]]}}, {"type": "Feature", "properties": {"highway": "footway", "footway": "sidewalk", "name": null, "surface": "concrete", "lit": null, "length_m": 14.11, "type_element": "Way", "__fid": 7667}, "geometry": {"type": "LineString", "coordinates": [[2.2704239, 48.8785383], [2.2703583, 48.878419]]}}, {"type": "Feature", "properties": {"highway": "path", "footway": null, "name": null, "surface": null, "lit": null, "length_m": 47.2, "type_element": "Way", "__fid": 7685}, "geometry": {"type": "LineString", "coordinates": [[2.2708161, 48.877286900000016], [2.2707555, 48.877298300000014], [2.2705948, 48.8773957], [2.2704436, 48.877531699999984], [2.2704188, 48.8776001]]}}, {"type": "Feature", "properties": {"highway": "path", "footway": null, "name": null, "surface": "dirt", "lit": null, "length_m": 21.8, "type_element": "Way", "__fid": 7686}, "geometry": {"type": "LineString", "coordinates": [[2.2704188, 48.8776001], [2.2704678, 48.87757160000001], [2.2706831, 48.8775147]]}}, {"type": "Feature", "properties": {"highway": "footway", "footway": "crossing", "name": null, "surface": null, "lit": null, "length_m": 22.48, "type_element": "Way", "__fid": 7692}, "geometry": {"type": "LineString", "coordinates": [[2.2704239, 48.8785383], [2.2707304, 48.8785408]]}}, {"type": "Feature", "properties": {"highway": "footway", "footway": "sidewalk", "name": null, "surface": "concrete", "lit": null, "length_m": 37.38, "type_element": "Way", "__fid": 7693}, "geometry": {"type": "LineString", "coordinates": [[2.2705597, 48.8788527], [2.2705811, 48.8788276], [2.2704239, 48.8785383]]}}, {"type": "Feature", "properties": {"highway": "footway", "footway": null, "name": null, "surface": "dirt", "lit": "no", "length_m": 13.86, "type_element": "Way", "__fid": 7730}, "geometry": {"type": "LineString", "coordinates": [[2.2705542, 48.8777558], [2.2705681, 48.8778801]]}}, {"type": "Feature", "properties": {"highway": "footway", "footway": null, "name": null, "surface": "dirt", "lit": "no", "length_m": 28.75, "type_element": "Way", "__fid": 7731}, "geometry": {"type": "LineString", "coordinates": [[2.2706831, 48.8775147], [2.2706678, 48.8775545], [2.2705731, 48.8776749], [2.2705542, 48.8777558]]}}, {"type": "Feature", "properties": {"highway": "path", "footway": null, "name": null, "surface": null, "lit": null, "length_m": 160.17, "type_element": "Way", "__fid": 7732}, "geometry": {"type": "LineString", "coordinates": [[2.2724507, 48.8770753], [2.2722629, 48.8771068], [2.2720988, 48.877162800000015], [2.2716824, 48.8772728], [2.2712264, 48.8774168], [2.2710643, 48.8774787], [2.2708474, 48.8776139], [2.2707451, 48.8776531], [2.2706451, 48.8777147], [2.2705542, 48.8777558]]}}, {"type": "Feature", "properties": {"highway": "footway", "footway": null, "name": null, "surface": null, "lit": null, "length_m": 59.01, "type_element": "Way", "__fid": 7735}, "geometry": {"type": "LineString", "coordinates": [[2.2705681, 48.8778801], [2.2710622, 48.8780998], [2.2712493, 48.8781607]]}}, {"type": "Feature", "properties": {"highway": "footway", "footway": null, "name": null, "surface": "dirt", "lit": "no", "length_m": 42.57, "type_element": "Way", "__fid": 7736}, "geometry": {"type": "LineString", "coordinates": [[2.2705681, 48.8778801], [2.2706205, 48.8781479], [2.2705826, 48.8782579]]}}, {"type": "Feature", "properties": {"highway": "footway", "footway": "sidewalk", "name": null, "surface": "dirt", "lit": null, "length_m": 1.53, "type_element": "Way", "__fid": 7744}, "geometry": {"type": "LineString", "coordinates": [[2.2705597, 48.8788527], [2.2705649, 48.878866]]}}, {"type": "Feature", "properties": {"highway": "footway", "footway": "sidewalk", "name": null, "surface": null, "lit": null, "length_m": 62.35, "type_element": "Way", "__fid": 7747}, "geometry": {"type": "LineString", "coordinates": [[2.2708063, 48.8765934], [2.2705938, 48.87713629999999]]}}, {"type": "Feature", "properties": {"highway": "path", "footway": null, "name": null, "surface": null, "lit": null, "length_m": 9.05, "type_element": "Way", "__fid": 7748}, "geometry": {"type": "LineString", "coordinates": [[2.2705938, 48.87713629999999], [2.2707132, 48.8771156]]}}, {"type": "Feature", "properties": {"highway": "path", "footway": null, "name": null, "surface": "dirt", "lit": null, "length_m": 33.27, "type_element": "Way", "__fid": 7750}, "geometry": {"type": "LineString", "coordinates": [[2.2707304, 48.8785408], [2.2705826, 48.8782579]]}}, {"type": "Feature", "properties": {"highway": "footway", "footway": null, "name": null, "surface": "dirt", "lit": "no", "length_m": 10.99, "type_element": "Way", "__fid": 7788}, "geometry": {"type": "LineString", "coordinates": [[2.2707592, 48.8774333], [2.2707435, 48.877473600000016], [2.2706831, 48.8775147]]}}, {"type": "Feature", "properties": {"highway": "footway", "footway": "traffic_island", "name": null, "surface": "asphalt", "lit": "yes", "length_m": 20.01, "type_element": "Way", "__fid": 7796}, "geometry": {"type": "LineString", "coordinates": [[2.2707132, 48.8771156], [2.2708636, 48.8772657]]}}, {"type": "Feature", "properties": {"highway": "path", "footway": null, "name": null, "surface": null, "lit": null, "length_m": 108.97, "type_element": "Way", "__fid": 7797}, "geometry": {"type": "LineString", "coordinates": [[2.2707132, 48.8771156], [2.2711303, 48.8769507], [2.2714776, 48.876838599999985], [2.2719644, 48.876723100000014], [2.2720568, 48.8767073]]}}, {"type": "Feature", "properties": {"highway": "footway", "footway": "sidewalk", "name": null, "surface": null, "lit": null, "length_m": 34.61, "type_element": "Way", "__fid": 7816}, "geometry": {"type": "LineString", "coordinates": [[2.2707304, 48.8785408], [2.2708514, 48.8787935], [2.2708922, 48.8788068], [2.2709165, 48.8788041]]}}, {"type": "Feature", "properties": {"highway": "service", "footway": null, "name": "Allée des Érables", "surface": "asphalt", "lit": null, "length_m": 36.21, "type_element": "Way", "__fid": 7817}, "geometry": {"type": "LineString", "coordinates": [[2.2712205, 48.8785039], [2.2710142, 48.8785261], [2.2707304, 48.8785408]]}}, {"type": "Feature", "properties": {"highway": "footway", "footway": null, "name": null, "surface": "dirt", "lit": "no", "length_m": 16.81, "type_element": "Way", "__fid": 7827}, "geometry": {"type": "LineString", "coordinates": [[2.2708161, 48.877286900000016], [2.2707592, 48.8774333]]}}, {"type": "Feature", "properties": {"highway": "path", "footway": null, "name": null, "surface": null, "lit": null, "length_m": 168.34, "type_element": "Way", "__fid": 7828}, "geometry": {"type": "LineString", "coordinates": [[2.2707592, 48.8774333], [2.2713795, 48.8771919], [2.271859, 48.8770425], [2.2723607, 48.8769429], [2.2726698, 48.876891], [2.2728686, 48.8768682]]}}, {"type": "Feature", "properties": {"highway": "footway", "footway": null, "name": null, "surface": "dirt", "lit": "no", "length_m": 4.21, "type_element": "Way", "__fid": 7854}, "geometry": {"type": "LineString", "coordinates": [[2.2708636, 48.8772657], [2.2708161, 48.877286900000016]]}}, {"type": "Feature", "properties": {"highway": "footway", "footway": null, "name": null, "surface": "dirt", "lit": "no", "length_m": 174.05, "type_element": "Way", "__fid": 7867}, "geometry": {"type": "LineString", "coordinates": [[2.2730606, 48.87677020000001], [2.2730023, 48.876764], [2.2728225, 48.876764], [2.2725449, 48.8767785], [2.2721064, 48.8768449], [2.2717972, 48.8769134], [2.2715101, 48.8769902], [2.2711978, 48.87711669999999], [2.2708636, 48.8772657]]}}, {"type": "Feature", "properties": {"highway": "footway", "footway": null, "name": null, "surface": "dirt", "lit": null, "length_m": 38.22, "type_element": "Way", "__fid": 7996}, "geometry": {"type": "LineString", "coordinates": [[2.2712493, 48.8781607], [2.2712205, 48.8785039]]}}, {"type": "Feature", "properties": {"highway": "service", "footway": null, "name": "Allée des Érables", "surface": "asphalt", "lit": null, "length_m": 66.51, "type_element": "Way", "__fid": 7997}, "geometry": {"type": "LineString", "coordinates": [[2.2720616, 48.87828769999999], [2.27177, 48.8783824], [2.2714702, 48.8784661], [2.2712205, 48.8785039]]}}, {"type": "Feature", "properties": {"highway": "footway", "footway": null, "name": null, "surface": null, "lit": null, "length_m": 18.27, "type_element": "Way", "__fid": 8002}, "geometry": {"type": "LineString", "coordinates": [[2.2712493, 48.8781607], [2.2714754, 48.87822970000001]]}}, {"type": "Feature", "properties": {"highway": "footway", "footway": null, "name": null, "surface": null, "lit": null, "length_m": 153.21, "type_element": "Way", "__fid": 8003}, "geometry": {"type": "LineString", "coordinates": [[2.2724507, 48.8770753], [2.2724488, 48.8771924], [2.2723308, 48.8773582], [2.2722745, 48.877401], [2.2719821, 48.8775674], [2.2718307, 48.8776815], [2.2717108, 48.8777957], [2.2714344, 48.8780288], [2.2712493, 48.8781607]]}}, {"type": "Feature", "properties": {"highway": "footway", "footway": null, "name": null, "surface": null, "lit": null, "length_m": 43.82, "type_element": "Way", "__fid": 8079}, "geometry": {"type": "LineString", "coordinates": [[2.2714754, 48.87822970000001], [2.2715481, 48.878249199999985], [2.2719077, 48.878290700000015], [2.2720616, 48.87828769999999]]}}, {"type": "Feature", "properties": {"highway": "footway", "footway": null, "name": null, "surface": "dirt", "lit": null, "length_m": 108.21, "type_element": "Way", "__fid": 8080}, "geometry": {"type": "LineString", "coordinates": [[2.2714754, 48.87822970000001], [2.2716506, 48.878186], [2.2718652, 48.8781437], [2.2720717, 48.87811549999998], [2.2723533, 48.878089], [2.272922, 48.878097]]}}, {"type": "Feature", "properties": {"highway": "service", "footway": null, "name": "Allée des Érables", "surface": "asphalt", "lit": null, "length_m": 66.66, "type_element": "Way", "__fid": 8325}, "geometry": {"type": "LineString", "coordinates": [[2.272922, 48.878097], [2.2727523, 48.8781239], [2.2721796, 48.8782538], [2.2720616, 48.87828769999999]]}}, {"type": "Feature", "properties": {"highway": "path", "footway": null, "name": null, "surface": null, "lit": null, "length_m": 3.01, "type_element": "Way", "__fid": 8479}, "geometry": {"type": "LineString", "coordinates": [[2.27249, 48.8770674], [2.2724507, 48.8770753]]}}, {"type": "Feature", "properties": {"highway": "path", "footway": null, "name": null, "surface": "compacted", "lit": null, "length_m": 35.52, "type_element": "Way", "__fid": 8492}, "geometry": {"type": "LineString", "coordinates": [[2.2728686, 48.8768682], [2.27249, 48.8770674]]}}, {"type": "Feature", "properties": {"highway": "path", "footway": null, "name": null, "surface": null, "lit": null, "length_m": 161.5, "type_element": "Way", "__fid": 8493}, "geometry": {"type": "LineString", "coordinates": [[2.2745846, 48.8772808], [2.2743861, 48.877256199999984], [2.2741905, 48.8772168], [2.2739128, 48.8771504], [2.2737709, 48.8771006], [2.2735847, 48.8770487], [2.2734175, 48.87700719999998], [2.2732787, 48.8769823], [2.2730011, 48.8769636], [2.272856, 48.8769865], [2.2727235, 48.8770217], [2.27249, 48.8770674]]}}]}