{"type": "FeatureCollection", "features": [{"type": "Feature", "properties": {"highway": "path", "footway": null, "name": null, "surface": null, "lit": null, "length_m": 168.34, "type_element": "Way", "__fid": 7828}, "geometry": {"type": "LineString", "coordinates": [[2.2707592, 48.8774333], [2.2713795, 48.8771919], [2.271859, 48.8770425], [2.2723607, 48.8769429], [2.2726698, 48.876891], [2.2728686, 48.8768682]]}}, {"type": "Feature", "properties": {"highway": "footway", "footway": null, "name": null, "surface": "dirt", "lit": "no", "length_m": 174.05, "type_element": "Way", "__fid": 7867}, "geometry": {"type": "LineString", "coordinates": [[2.2730606, 48.87677020000001], [2.2730023, 48.876764], [2.2728225, 48.876764], [2.2725449, 48.8767785], [2.2721064, 48.8768449], [2.2717972, 48.8769134], [2.2715101, 48.8769902], [2.2711978, 48.87711669999999], [2.2708636, 48.8772657]]}}, {"type": "Feature", "properties": {"highway": "footway", "footway": null, "name": null, "surface": "dirt", "lit": null, "length_m": 108.21, "type_element": "Way", "__fid": 8080}, "geometry": {"type": "LineString", "coordinates": [[2.2714754, 48.87822970000001], [2.2716506, 48.878186], [2.2718652, 48.8781437], [2.2720717, 48.87811549999998], [2.2723533, 48.878089], [2.272922, 48.878097]]}}, {"type": "Feature", "properties": {"highway": "service", "footway": null, "name": "Allée des Érables", "surface": "asphalt", "lit": null, "length_m": 66.66, "type_element": "Way", "__fid": 8325}, "geometry": {"type": "LineString", "coordinates": [[2.272922, 48.878097], [2.2727523, 48.8781239], [2.2721796, 48.8782538], [2.2720616, 48.87828769999999]]}}, {"type": "Feature", "properties": {"highway": "path", "footway": null, "name": null, "surface": "compacted", "lit": null, "length_m": 35.52, "type_element": "Way", "__fid": 8492}, "geometry": {"type": "LineString", "coordinates": [[2.2728686, 48.8768682], [2.27249, 48.8770674]]}}, {"type": "Feature", "properties": {"highway": "path", "footway": null, "name": null, "surface": null, "lit": null, "length_m": 161.5, "type_element": "Way", "__fid": 8493}, "geometry": {"type": "LineString", "coordinates": [[2.2745846, 48.8772808], [2.2743861, 48.877256199999984], [2.2741905, 48.8772168], [2.2739128, 48.8771504], [2.2737709, 48.8771006], [2.2735847, 48.8770487], [2.2734175, 48.87700719999998], [2.2732787, 48.8769823], [2.2730011, 48.8769636], [2.272856, 48.8769865], [2.2727235, 48.8770217], [2.27249, 48.8770674]]}}, {"type": "Feature", "properties": {"highway": "path", "footway": null, "name": null, "surface": null, "lit": null, "length_m": 143.08, "type_element": "Way", "__fid": 8654}, "geometry": {"type": "LineString", "coordinates": [[2.2728686, 48.8768682], [2.2736037, 48.8769055], [2.2744721, 48.877019299999986], [2.2747962, 48.8770529]]}}, {"type": "Feature", "properties": {"highway": "footway", "footway": null, "name": null, "surface": null, "lit": null, "length_m": 93.81, "type_element": "Way", "__fid": 8679}, "geometry": {"type": "LineString", "coordinates": [[2.272922, 48.878097], [2.2730631, 48.8781193], [2.2733596, 48.8781421], [2.2735426, 48.8781649], [2.2738171, 48.87822709999998], [2.2741402, 48.8783302]]}}, {"type": "Feature", "properties": {"highway": "service", "footway": null, "name": "Allée des Érables", "surface": "asphalt", "lit": null, "length_m": 104.22, "type_element": "Way", "__fid": 8680}, "geometry": {"type": "LineString", "coordinates": [[2.2743181, 48.877927], [2.2737822, 48.8779722], [2.272922, 48.878097]]}}, {"type": "Feature", "properties": {"highway": "footway", "footway": null, "name": null, "surface": "dirt", "lit": "no", "length_m": 145.72, "type_element": "Way", "__fid": 8723}, "geometry": {"type": "LineString", "coordinates": [[2.2750324, 48.8769271], [2.2748627, 48.876909400000024], [2.2740971, 48.876859400000015], [2.2735355, 48.8768096], [2.2732926, 48.876795100000024], [2.2730606, 48.87677020000001]]}}, {"type": "Feature", "properties": {"highway": "footway", "footway": null, "name": null, "surface": null, "lit": null, "length_m": 9.35, "type_element": "Way", "__fid": 9093}, "geometry": {"type": "LineString", "coordinates": [[2.2741402, 48.8783302], [2.2742259, 48.8783924]]}}, {"type": "Feature", "properties": {"highway": "footway", "footway": null, "name": null, "surface": null, "lit": null, "length_m": 38.63, "type_element": "Way", "__fid": 9094}, "geometry": {"type": "LineString", "coordinates": [[2.2741402, 48.8783302], [2.2741984, 48.8782059], [2.2742331, 48.8781032], [2.2743039, 48.8780013]]}}, {"type": "Feature", "properties": {"highway": "path", "footway": null, "name": null, "surface": null, "lit": null, "length_m": 91.99, "type_element": "Way", "__fid": 9095}, "geometry": {"type": "LineString", "coordinates": [[2.2741402, 48.8783302], [2.2746775, 48.8782578], [2.2750771, 48.8780338], [2.275116, 48.877995], [2.2751532, 48.8779261]]}}, {"type": "Feature", "properties": {"highway": "footway", "footway": null, "name": null, "surface": null, "lit": null, "length_m": 1.78, "type_element": "Way", "__fid": 9121}, "geometry": {"type": "LineString", "coordinates": [[2.2742259, 48.8783924], [2.2742367, 48.8784067]]}}, {"type": "Feature", "properties": {"highway": "footway", "footway": "sidewalk", "name": null, "surface": null, "lit": null, "length_m": 196.06, "type_element": "Way", "__fid": 9122}, "geometry": {"type": "LineString", "coordinates": [[2.2768517, 48.878062], [2.2742259, 48.8783924]]}}, {"type": "Feature", "properties": {"highway": "path", "footway": null, "name": null, "surface": null, "lit": null, "length_m": 8.33, "type_element": "Way", "__fid": 9142}, "geometry": {"type": "LineString", "coordinates": [[2.2743181, 48.877927], [2.2743039, 48.8780013]]}}, {"type": "Feature", "properties": {"highway": "footway", "footway": null, "name": null, "surface": null, "lit": null, "length_m": 13.95, "type_element": "Way", "__fid": 9143}, "geometry": {"type": "LineString", "coordinates": [[2.2743039, 48.8780013], [2.2744493, 48.87792039999999]]}}, {"type": "Feature", "properties": {"highway": "path", "footway": null, "name": null, "surface": null, "lit": null, "length_m": 74.48, "type_element": "Way", "__fid": 9145}, "geometry": {"type": "LineString", "coordinates": [[2.2745846, 48.8772808], [2.2744549, 48.8775734], [2.2743181, 48.877927]]}}, {"type": "Feature", "properties": {"highway": "service", "footway": null, "name": "Allée des Érables", "surface": "asphalt", "lit": null, "length_m": 9.65, "type_element": "Way", "__fid": 9146}, "geometry": {"type": "LineString", "coordinates": [[2.2744493, 48.87792039999999], [2.2743181, 48.877927]]}}, {"type": "Feature", "properties": {"highway": "service", "footway": null, "name": "Allée des Érables", "surface": "asphalt", "lit": null, "length_m": 51.63, "type_element": "Way", "__fid": 9205}, "geometry": {"type": "LineString", "coordinates": [[2.2751532, 48.8779261], [2.2744493, 48.87792039999999]]}}, {"type": "Feature", "properties": {"highway": "footway", "footway": null, "name": null, "surface": null, "lit": null, "length_m": 100.27, "type_element": "Way", "__fid": 9206}, "geometry": {"type": "LineString", "coordinates": [[2.2744493, 48.87792039999999], [2.2747469, 48.8778058], [2.2749004, 48.8777276], [2.2752489, 48.8775854], [2.275564, 48.87747560000001], [2.2756221, 48.8774905]]}}, {"type": "Feature", "properties": {"highway": "path", "footway": null, "name": null, "surface": null, "lit": null, "length_m": 79.25, "type_element": "Way", "__fid": 9264}, "geometry": {"type": "LineString", "coordinates": [[2.2756575, 48.8773439], [2.2754745, 48.8773516], [2.2752599, 48.87734540000001], [2.2745846, 48.8772808]]}}, {"type": "Feature", "properties": {"highway": "path", "footway": null, "name": null, "surface": null, "lit": null, "length_m": 29.72, "type_element": "Way", "__fid": 9265}, "geometry": {"type": "LineString", "coordinates": [[2.2747962, 48.8770529], [2.2745846, 48.8772808]]}}, {"type": "Feature", "properties": {"highway": "path", "footway": null, "name": null, "surface": null, "lit": null, "length_m": 42.34, "type_element": "Way", "__fid": 9385}, "geometry": {"type": "LineString", "coordinates": [[2.2747962, 48.8770529], [2.2753709, 48.877089199999986]]}}, {"type": "Feature", "properties": {"highway": "path", "footway": null, "name": null, "surface": "compacted", "lit": null, "length_m": 9.94, "type_element": "Way", "__fid": 9506}, "geometry": {"type": "LineString", "coordinates": [[2.2750324, 48.8769271], [2.275167, 48.8769377]]}}, {"type": "Feature", "properties": {"highway": "path", "footway": null, "name": null, "surface": "compacted", "lit": null, "length_m": 10.05, "type_element": "Way", "__fid": 9507}, "geometry": {"type": "LineString", "coordinates": [[2.2751305, 48.8769902], [2.2750324, 48.8769271]]}}, {"type": "Feature", "properties": {"highway": "footway", "footway": null, "name": null, "surface": null, "lit": "yes", "length_m": 28.84, "type_element": "Way", "__fid": 9523}, "geometry": {"type": "LineString", "coordinates": [[2.275167, 48.8769377], [2.2751902, 48.876841100000014], [2.275186, 48.8768108], [2.275072, 48.8767034]]}}, {"type": "Feature", "properties": {"highway": "footway", "footway": null, "name": null, "surface": "asphalt", "lit": null, "length_m": 20.92, "type_element": "Way", "__fid": 9550}, "geometry": {"type": "LineString", "coordinates": [[2.2753709, 48.877089199999986], [2.2752723, 48.8770607], [2.2751305, 48.8769902]]}}, {"type": "Feature", "properties": {"highway": "footway", "footway": null, "name": null, "surface": "asphalt", "lit": null, "length_m": 6.42, "type_element": "Way", "__fid": 9551}, "geometry": {"type": "LineString", "coordinates": [[2.2751305, 48.8769902], [2.275167, 48.8769377]]}}, {"type": "Feature", "properties": {"highway": "service", "footway": null, "name": "Allée des Érables", "surface": "asphalt", "lit": null, "length_m": 120.38, "type_element": "Way", "__fid": 9556}, "geometry": {"type": "LineString", "coordinates": [[2.2767911, 48.8779108], [2.2760889, 48.877951], [2.2751532, 48.8779261]]}}, {"type": "Feature", "properties": {"highway": "footway", "footway": null, "name": null, "surface": "asphalt", "lit": null, "length_m": 60.59, "type_element": "Way", "__fid": 9557}, "geometry": {"type": "LineString", "coordinates": [[2.2751532, 48.8779261], [2.2753334, 48.8778268], [2.2754756, 48.877705800000015], [2.2755676, 48.8775961], [2.2756221, 48.8774905]]}}, {"type": "Feature", "properties": {"highway": "path", "footway": null, "name": null, "surface": "compacted", "lit": "yes", "length_m": 108.86, "type_element": "Way", "__fid": 9558}, "geometry": {"type": "LineString", "coordinates": [[2.275167, 48.8769377], [2.2761603, 48.877018], [2.2765452, 48.8770607], [2.2766382, 48.8770646]]}}, {"type": "Feature", "properties": {"highway": "footway", "footway": null, "name": null, "surface": "asphalt", "lit": null, "length_m": 40.42, "type_element": "Way", "__fid": 9660}, "geometry": {"type": "LineString", "coordinates": [[2.2756575, 48.8773439], [2.275627, 48.8772022], [2.2755974, 48.8771573], [2.2755558, 48.8771212], [2.2753709, 48.877089199999986]]}}, {"type": "Feature", "properties": {"highway": "footway", "footway": null, "name": null, "surface": null, "lit": null, "length_m": 98.48, "type_element": "Way", "__fid": 9756}, "geometry": {"type": "LineString", "coordinates": [[2.2756221, 48.8774905], [2.2757742, 48.8775487], [2.276036, 48.8776297], [2.2761875, 48.8776753], [2.2762695, 48.8776898], [2.2766544, 48.8778247], [2.2767585, 48.8778807], [2.2767911, 48.8779108]]}}, {"type": "Feature", "properties": {"highway": "footway", "footway": null, "name": null, "surface": "asphalt", "lit": null, "length_m": 16.58, "type_element": "Way", "__fid": 9757}, "geometry": {"type": "LineString", "coordinates": [[2.2756221, 48.8774905], [2.2756389, 48.8774581], [2.2756575, 48.8773439]]}}, {"type": "Feature", "properties": {"highway": "path", "footway": null, "name": null, "surface": null, "lit": null, "length_m": 141.23, "type_element": "Way", "__fid": 9774}, "geometry": {"type": "LineString", "coordinates": [[2.2775074, 48.8772018], [2.277279, 48.877279], [2.2769005, 48.87738070000001], [2.2767332, 48.8774097], [2.2766386, 48.877418], [2.276443, 48.87737859999998], [2.2756575, 48.8773439]]}}, {"type": "Feature", "properties": {"highway": "path", "footway": null, "name": null, "surface": null, "lit": null, "length_m": 139.38, "type_element": "Way", "__fid": 10036}, "geometry": {"type": "LineString", "coordinates": [[2.2766322, 48.876257], [2.2772499, 48.8765868], [2.2773343, 48.8766248], [2.277762, 48.8769074], [2.2780667, 48.8770764]]}}, {"type": "Feature", "properties": {"highway": "path", "footway": null, "name": null, "surface": "compacted", "lit": "yes", "length_m": 65.55, "type_element": "Way", "__fid": 10050}, "geometry": {"type": "LineString", "coordinates": [[2.2775074, 48.8772018], [2.2766382, 48.8770646]]}}, {"type": "Feature", "properties": {"highway": "footway", "footway": "crossing", "name": null, "surface": "asphalt", "lit": "yes", "length_m": 25.27, "type_element": "Way", "__fid": 10051}, "geometry": {"type": "LineString", "coordinates": [[2.2766382, 48.8770646], [2.2767039, 48.87701019999999], [2.2767558, 48.8768563]]}}, {"type": "Feature", "properties": {"highway": "path", "footway": null, "name": "Route de la Porte des Sablons à la Porte Maillot", "surface": "concrete:plates", "lit": "yes", "length_m": 99.21, "type_element": "Way", "__fid": 10081}, "geometry": {"type": "LineString", "coordinates": [[2.2767558, 48.8768563], [2.2780667, 48.8770764]]}}, {"type": "Feature", "properties": {"highway": "footway", "footway": null, "name": null, "surface": null, "lit": null, "length_m": 17.39, "type_element": "Way", "__fid": 10107}, "geometry": {"type": "LineString", "coordinates": [[2.2767911, 48.8779108], [2.2768517, 48.878062]]}}, {"type": "Feature", "properties": {"highway": "service", "footway": null, "name": "Allée des Érables", "surface": "asphalt", "lit": null, "length_m": 142.59, "type_element": "Way", "__fid": 10108}, "geometry": {"type": "LineString", "coordinates": [[2.2785042, 48.8773465], [2.2781087, 48.8775578], [2.2777822, 48.877701399999985], [2.2771856, 48.8778496], [2.2767911, 48.8779108]]}}, {"type": "Feature", "properties": {"highway": "footway", "footway": "sidewalk", "name": null, "surface": null, "lit": null, "length_m": 52.28, "type_element": "Way", "__fid": 10130}, "geometry": {"type": "LineString", "coordinates": [[2.2775515, 48.8779726], [2.2768517, 48.878062]]}}, {"type": "Feature", "properties": {"highway": "path", "footway": null, "name": null, "surface": "compacted", "lit": "yes", "length_m": 74.86, "type_element": "Way", "__fid": 10343}, "geometry": {"type": "LineString", "coordinates": [[2.2785042, 48.8773465], [2.2775074, 48.8772018]]}}, {"type": "Feature", "properties": {"highway": "footway", "footway": "crossing", "name": null, "surface": null, "lit": null, "length_m": 16.54, "type_element": "Way", "__fid": 10359}, "geometry": {"type": "LineString", "coordinates": [[2.2775961, 48.8781184], [2.2775515, 48.8779726]]}}, {"type": "Feature", "properties": {"highway": "footway", "footway": "sidewalk", "name": null, "surface": null, "lit": null, "length_m": 46.82, "type_element": "Way", "__fid": 10360}, "geometry": {"type": "LineString", "coordinates": [[2.2781766, 48.8778872], [2.2775515, 48.8779726]]}}, {"type": "Feature", "properties": {"highway": "footway", "footway": "sidewalk", "name": null, "surface": null, "lit": null, "length_m": 111.14, "type_element": "Way", "__fid": 10448}, "geometry": {"type": "LineString", "coordinates": [[2.2792501, 48.877918], [2.2784553, 48.87802], [2.27776, 48.8780993]]}}, {"type": "Feature", "properties": {"highway": "footway", "footway": "sidewalk", "name": null, "surface": null, "lit": "yes", "length_m": 120.95, "type_element": "Way", "__fid": 10519}, "geometry": {"type": "LineString", "coordinates": [[2.2779873, 48.878867800000016], [2.27947871999979, 48.87840372000004]]}}, {"type": "Feature", "properties": {"highway": "path", "footway": null, "name": "Route de la Porte des Sablons à la Porte Maillot", "surface": "concrete:plates", "lit": "yes", "length_m": 54.73, "type_element": "Way", "__fid": 10538}, "geometry": {"type": "LineString", "coordinates": [[2.2780667, 48.8770764], [2.2787908, 48.8771953]]}}, {"type": "Feature", "properties": {"highway": "service", "footway": null, "name": null, "surface": "asphalt", "lit": null, "length_m": 9.27, "type_element": "Way", "__fid": 10585}, "geometry": {"type": "LineString", "coordinates": [[2.2782154, 48.8779665], [2.2781766, 48.8778872]]}}, {"type": "Feature", "properties": {"highway": "service", "footway": null, "name": null, "surface": "asphalt", "lit": null, "length_m": 16.98, "type_element": "Way", "__fid": 10586}, "geometry": {"type": "LineString", "coordinates": [[2.2781766, 48.8778872], [2.278158, 48.8778469], [2.2781607, 48.87782639999999], [2.2782003, 48.8777749], [2.2782443, 48.8777609]]}}, {"type": "Feature", "properties": {"highway": "footway", "footway": "sidewalk", "name": null, "surface": null, "lit": null, "length_m": 75.39, "type_element": "Way", "__fid": 10587}, "geometry": {"type": "LineString", "coordinates": [[2.279165, 48.8777105], [2.2789415, 48.87777539999998], [2.2787818, 48.8778045], [2.2781766, 48.8778872]]}}, {"type": "Feature", "properties": {"highway": "footway", "footway": "sidewalk", "name": null, "surface": "asphalt", "lit": "yes", "length_m": 31.47, "type_element": "Way", "__fid": 10676}, "geometry": {"type": "LineString", "coordinates": [[2.2785042, 48.8773465], [2.2789215, 48.8774122]]}}, {"type": "Feature", "properties": {"highway": "service", "footway": null, "name": "Allée des Érables", "surface": "asphalt", "lit": null, "length_m": 10.66, "type_element": "Way", "__fid": 10677}, "geometry": {"type": "LineString", "coordinates": [[2.278568, 48.877262199999976], [2.2785332, 48.877326], [2.2785042, 48.8773465]]}}, {"type": "Feature", "properties": {"highway": "footway", "footway": "crossing", "name": null, "surface": "asphalt", "lit": "yes", "length_m": 29.51, "type_element": "Way", "__fid": 10789}, "geometry": {"type": "LineString", "coordinates": [[2.2789215, 48.8774122], [2.278904, 48.8772313], [2.2788274, 48.8771998], [2.2787908, 48.8771953]]}}, {"type": "Feature", "properties": {"highway": "path", "footway": null, "name": null, "surface": "asphalt", "lit": null, "length_m": 120.64, "type_element": "Way", "__fid": 10790}, "geometry": {"type": "LineString", "coordinates": [[2.2787908, 48.8771953], [2.2787973, 48.877151], [2.2789526, 48.8770673], [2.2791337, 48.8770483], [2.2793614, 48.877061], [2.2795343, 48.87705480000001], [2.279923, 48.8769817], [2.2803095, 48.8769626]]}}, {"type": "Feature", "properties": {"highway": "footway", "footway": "sidewalk", "name": null, "surface": "asphalt", "lit": "yes", "length_m": 48.42, "type_element": "Way", "__fid": 10865}, "geometry": {"type": "LineString", "coordinates": [[2.2789215, 48.8774122], [2.2790764, 48.8774332], [2.2791277, 48.8774532], [2.2791717, 48.8774971], [2.2792379, 48.8776407], [2.2792275, 48.8776742], [2.279165, 48.8777105]]}}, {"type": "Feature", "properties": {"highway": "footway", "footway": "sidewalk", "name": null, "surface": null, "lit": "yes", "length_m": 98.79, "type_element": "Way", "__fid": 10893}, "geometry": {"type": "LineString", "coordinates": [[2.2801558, 48.87947070000001], [2.280146, 48.87948569999998], [2.2789545, 48.8798638]]}}, {"type": "Feature", "properties": {"highway": "footway", "footway": "sidewalk", "name": null, "surface": null, "lit": "yes", "length_m": 24.23, "type_element": "Way", "__fid": 10961}, "geometry": {"type": "LineString", "coordinates": [[2.279165, 48.8777105], [2.2792315, 48.8778191], [2.2792362, 48.8778958], [2.2792501, 48.877918]]}}, {"type": "Feature", "properties": {"highway": "footway", "footway": "sidewalk", "name": null, "surface": null, "lit": "yes", "length_m": 55.62, "type_element": "Way", "__fid": 10986}, "geometry": {"type": "LineString", "coordinates": [[2.2792501, 48.877918], [2.2795716, 48.878371]]}}, {"type": "Feature", "properties": {"highway": "living_street", "footway": null, "name": "Avenue Charles de Gaulle", "surface": null, "lit": "yes", "length_m": 18.13, "type_element": "Way", "__fid": 10995}, "geometry": {"type": "LineString", "coordinates": [[2.2794968, 48.8784275], [2.2792733, 48.8784971]]}}, {"type": "Feature", "properties": {"highway": "footway", "footway": "sidewalk", "name": null, "surface": null, "lit": "yes", "length_m": 97.5, "type_element": "Way", "__fid": 11071}, "geometry": {"type": "LineString", "coordinates": [[2.2794475, 48.8802241], [2.2801915, 48.8795164], [2.2802106, 48.8795256]]}}, {"type": "Feature", "properties": {"highway": "footway", "footway": "crossing", "name": null, "surface": null, "lit": "yes", "length_m": 2.96, "type_element": "Way", "__fid": 11079}, "geometry": {"type": "LineString", "coordinates": [[2.27947871999979, 48.87840372000004], [2.2794968, 48.8784275]]}}, {"type": "Feature", "properties": {"highway": "footway", "footway": "sidewalk", "name": null, "surface": null, "lit": "yes", "length_m": 7.72, "type_element": "Way", "__fid": 11080}, "geometry": {"type": "LineString", "coordinates": [[2.27947871999979, 48.87840372000004], [2.2795716, 48.878371]]}}, {"type": "Feature", "properties": {"highway": "footway", "footway": "sidewalk", "name": null, "surface": null, "lit": "yes", "length_m": 46.04, "type_element": "Way", "__fid": 11093}, "geometry": {"type": "LineString", "coordinates": [[2.2794968, 48.8784275], [2.2797662, 48.8788015]]}}, {"type": "Feature", "properties": {"highway": "living_street", "footway": null, "name": "Avenue Charles de Gaulle", "surface": null, "lit": "yes", "length_m": 30.6, "type_element": "Way", "__fid": 11094}, "geometry": {"type": "LineString", "coordinates": [[2.279880758736067, 48.87844368896408], [2.2796125, 48.878383300000024], [2.2794968, 48.8784275]]}}, {"type": "Feature", "properties": {"highway": "footway", "footway": "traffic_island", "name": null, "surface": "asphalt", "lit": "yes", "length_m": 56.53, "type_element": "Way", "__fid": 11105}, "geometry": {"type": "LineString", "coordinates": [[2.2799206, 48.87825520000001], [2.2798883, 48.8782302], [2.279535, 48.8778157]]}}, {"type": "Feature", "properties": {"highway": "footway", "footway": "sidewalk", "name": null, "surface": null, "lit": "yes", "length_m": 28.65, "type_element": "Way", "__fid": 11128}, "geometry": {"type": "LineString", "coordinates": [[2.2799206, 48.87825520000001], [2.2795716, 48.878371]]}}, {"type": "Feature", "properties": {"highway": "footway", "footway": "sidewalk", "name": null, "surface": "asphalt", "lit": "yes", "length_m": 96.24, "type_element": "Way", "__fid": 11192}, "geometry": {"type": "LineString", "coordinates": [[2.2796911, 48.880578100000015], [2.2797059, 48.8805617], [2.2809775, 48.88067560000002]]}}, {"type": "Feature", "properties": {"highway": "footway", "footway": "sidewalk", "name": null, "surface": "asphalt", "lit": "yes", "length_m": 108.06, "type_element": "Way", "__fid": 11250}, "geometry": {"type": "LineString", "coordinates": [[2.2811539, 48.8808801], [2.2810625, 48.88094789999999], [2.2798533, 48.8812292], [2.2798063, 48.8812122]]}}, {"type": "Feature", "properties": {"highway": "footway", "footway": "sidewalk", "name": null, "surface": null, "lit": "yes", "length_m": 14.15, "type_element": "Way", "__fid": 11258}, "geometry": {"type": "LineString", "coordinates": [[2.2800373, 48.87888109999999], [2.2798598, 48.878931]]}}, {"type": "Feature", "properties": {"highway": "living_street", "footway": null, "name": "Avenue Charles de Gaulle", "surface": null, "lit": "yes", "length_m": 2.2, "type_element": "Way", "__fid": 11262}, "geometry": {"type": "LineString", "coordinates": [[2.2799091, 48.8784501], [2.279880758736067, 48.87844368896408]]}}, {"type": "Feature", "properties": {"highway": "footway", "footway": null, "name": null, "surface": null, "lit": "24/7", "length_m": 21.34, "type_element": "Way", "__fid": 11263}, "geometry": {"type": "LineString", "coordinates": [[2.2799825, 48.8786194], [2.2798749, 48.8784693], [2.279880758736067, 48.87844368896408]]}}, {"type": "Feature", "properties": {"highway": "steps", "footway": null, "name": null, "surface": null, "lit": "24/7", "length_m": 12.86, "type_element": "Way", "__fid": 11264}, "geometry": {"type": "LineString", "coordinates": [[2.279880758736067, 48.87844368896408], [2.2798854, 48.8784234], [2.280014039555232, 48.87838038604695]]}}, {"type": "Feature", "properties": {"highway": "footway", "footway": "sidewalk", "name": null, "surface": "asphalt", "lit": "yes", "length_m": 65.73, "type_element": "Way", "__fid": 11270}, "geometry": {"type": "LineString", "coordinates": [[2.2799206, 48.87825520000001], [2.2801231, 48.87827240000003], [2.280744, 48.8780708]]}}, {"type": "Feature", "properties": {"highway": "footway", "footway": "sidewalk", "name": null, "surface": null, "lit": "yes", "length_m": 7.44, "type_element": "Way", "__fid": 11271}, "geometry": {"type": "LineString", "coordinates": [[2.2799657, 48.8783151], [2.2799206, 48.87825520000001]]}}, {"type": "Feature", "properties": {"highway": "service", "footway": null, "name": null, "surface": "asphalt", "lit": null, "length_m": 75.27, "type_element": "Way", "__fid": 11282}, "geometry": {"type": "LineString", "coordinates": [[2.2799715, 48.876334599999986], [2.2802988, 48.87679280000002], [2.2803122, 48.8768611], [2.2803095, 48.8769626]]}}, {"type": "Feature", "properties": {"highway": "steps", "footway": null, "name": null, "surface": null, "lit": "yes", "length_m": 8.08, "type_element": "Way", "__fid": 11290}, "geometry": {"type": "LineString", "coordinates": [[2.2799657, 48.8783151], [2.280014039555232, 48.87838038604695]]}}, {"type": "Feature", "properties": {"highway": "footway", "footway": "sidewalk", "name": null, "surface": null, "lit": "yes", "length_m": 12.02, "type_element": "Way", "__fid": 11291}, "geometry": {"type": "LineString", "coordinates": [[2.280083437247606, 48.87835718105108], [2.2800533, 48.8783134], [2.2799957, 48.8783068], [2.2799657, 48.8783151]]}}, {"type": "Feature", "properties": {"highway": "footway", "footway": null, "name": null, "surface": null, "lit": "24/7", "length_m": 27.25, "type_element": "Way", "__fid": 11295}, "geometry": {"type": "LineString", "coordinates": [[2.280233981574042, 48.878680347409414], [2.2800783, 48.8787298], [2.2800568, 48.8787245], [2.2799825, 48.8786194]]}}, {"type": "Feature", "properties": {"highway": "footway", "footway": null, "name": null, "surface": null, "lit": "24/7", "length_m": 13.28, "type_element": "Way", "__fid": 11296}, "geometry": {"type": "LineString", "coordinates": [[2.2801462, 48.87856840000001], [2.2799825, 48.8786194]]}}, {"type": "Feature", "properties": {"highway": "footway", "footway": null, "name": null, "surface": null, "lit": "24/7", "length_m": 23.04, "type_element": "Way", "__fid": 11311}, "geometry": {"type": "LineString", "coordinates": [[2.280014039555232, 48.87838038604695], [2.2801462, 48.87856840000001]]}}, {"type": "Feature", "properties": {"highway": "steps", "footway": null, "name": null, "surface": null, "lit": "24/7", "length_m": 5.71, "type_element": "Way", "__fid": 11312}, "geometry": {"type": "LineString", "coordinates": [[2.280014039555232, 48.87838038604695], [2.280083437247606, 48.87835718105108]]}}, {"type": "Feature", "properties": {"highway": "footway", "footway": "sidewalk", "name": null, "surface": "asphalt", "lit": "yes", "length_m": 53.55, "type_element": "Way", "__fid": 11325}, "geometry": {"type": "LineString", "coordinates": [[2.2800373, 48.87888109999999], [2.2803496, 48.8793164]]}}, {"type": "Feature", "properties": {"highway": "footway", "footway": "crossing", "name": null, "surface": null, "lit": "yes", "length_m": 22.19, "type_element": "Way", "__fid": 11326}, "geometry": {"type": "LineString", "coordinates": [[2.2803113, 48.8787964], [2.2800373, 48.87888109999999]]}}, {"type": "Feature", "properties": {"highway": "footway", "footway": null, "name": null, "surface": null, "lit": "yes", "length_m": 37.17, "type_element": "Way", "__fid": 11341}, "geometry": {"type": "LineString", "coordinates": [[2.280301170281977, 48.87865901023665], [2.280083437247606, 48.87835718105108]]}}, {"type": "Feature", "properties": {"highway": "footway", "footway": null, "name": null, "surface": null, "lit": "24/7", "length_m": 57.78, "type_element": "Way", "__fid": 11342}, "geometry": {"type": "LineString", "coordinates": [[2.280083437247606, 48.87835718105108], [2.280786768951617, 48.8781231055562]]}}, {"type": "Feature", "properties": {"highway": "footway", "footway": null, "name": null, "surface": null, "lit": "24/7", "length_m": 14.01, "type_element": "Way", "__fid": 11374}, "geometry": {"type": "LineString", "coordinates": [[2.2801462, 48.87856840000001], [2.280233981574042, 48.878680347409414]]}}, {"type": "Feature", "properties": {"highway": "footway", "footway": "sidewalk", "name": null, "surface": null, "lit": "yes", "length_m": 10.27, "type_element": "Way", "__fid": 11389}, "geometry": {"type": "LineString", "coordinates": [[2.2801558, 48.87947070000001], [2.2802005, 48.87947170000001], [2.28023, 48.8795036], [2.2802106, 48.8795256]]}}, {"type": "Feature", "properties": {"highway": "footway", "footway": "sidewalk", "name": null, "surface": null, "lit": "yes", "length_m": 29.53, "type_element": "Way", "__fid": 11390}, "geometry": {"type": "LineString", "coordinates": [[2.2801558, 48.87947070000001], [2.2801018, 48.879393800000024], [2.2803496, 48.8793164]]}}, {"type": "Feature", "properties": {"highway": "service", "footway": null, "name": null, "surface": "asphalt", "lit": null, "length_m": 23.96, "type_element": "Way", "__fid": 11409}, "geometry": {"type": "LineString", "coordinates": [[2.2803095, 48.8769626], [2.2802324, 48.877172]]}}, {"type": "Feature", "properties": {"highway": "footway", "footway": "crossing", "name": null, "surface": null, "lit": "yes", "length_m": 7.79, "type_element": "Way", "__fid": 11416}, "geometry": {"type": "LineString", "coordinates": [[2.2802106, 48.8795256], [2.280297833333113, 48.879565533333434]]}}, {"type": "Feature", "properties": {"highway": "steps", "footway": null, "name": null, "surface": null, "lit": "yes", "length_m": 6.39, "type_element": "Way", "__fid": 11421}, "geometry": {"type": "LineString", "coordinates": [[2.280233981574042, 48.878680347409414], [2.2802696, 48.8787328]]}}, {"type": "Feature", "properties": {"highway": "steps", "footway": null, "name": null, "surface": null, "lit": "24/7", "length_m": 5.47, "type_element": "Way", "__fid": 11422}, "geometry": {"type": "LineString", "coordinates": [[2.280233981574042, 48.878680347409414], [2.280301170281977, 48.87865901023665]]}}, {"type": "Feature", "properties": {"highway": "footway", "footway": null, "name": null, "surface": null, "lit": "yes", "length_m": 7.71, "type_element": "Way", "__fid": 11443}, "geometry": {"type": "LineString", "coordinates": [[2.2802696, 48.8787328], [2.2803113, 48.8787964]]}}, {"type": "Feature", "properties": {"highway": "footway", "footway": null, "name": null, "surface": null, "lit": "yes", "length_m": 5.41, "type_element": "Way", "__fid": 11444}, "geometry": {"type": "LineString", "coordinates": [[2.2802696, 48.8787328], [2.2803363, 48.878712]]}}, {"type": "Feature", "properties": {"highway": "footway", "footway": "sidewalk", "name": null, "surface": null, "lit": "yes", "length_m": 33.85, "type_element": "Way", "__fid": 11448}, "geometry": {"type": "LineString", "coordinates": [[2.2802696, 48.8796015], [2.280605, 48.8797563], [2.2806572, 48.8797555]]}}, {"type": "Feature", "properties": {"highway": "footway", "footway": "sidewalk", "name": null, "surface": null, "lit": "yes", "length_m": 214.89, "type_element": "Way", "__fid": 11449}, "geometry": {"type": "LineString", "coordinates": [[2.2809048, 48.8805581], [2.2807846, 48.88056370000001], [2.2795551, 48.8804598], [2.2794767, 48.88033950000001], [2.2802696, 48.8796015]]}}, {"type": "Feature", "properties": {"highway": "footway", "footway": "sidewalk", "name": null, "surface": null, "lit": "yes", "length_m": 20.31, "type_element": "Way", "__fid": 11450}, "geometry": {"type": "LineString", "coordinates": [[2.2802696, 48.8796015], [2.2803909, 48.8794985], [2.2804658, 48.8794816]]}}, {"type": "Feature", "properties": {"highway": "path", "footway": null, "name": "Porte Maillot", "surface": "concrete", "lit": "yes", "length_m": 4.53, "type_element": "Way", "__fid": 11452}, "geometry": {"type": "LineString", "coordinates": [[2.2803095, 48.8769626], [2.2803671, 48.8769478]]}}, {"type": "Feature", "properties": {"highway": "footway", "footway": null, "name": null, "surface": null, "lit": "yes", "length_m": 6.43, "type_element": "Way", "__fid": 11456}, "geometry": {"type": "LineString", "coordinates": [[2.2803363, 48.878712], [2.280301170281977, 48.87865901023665]]}}, {"type": "Feature", "properties": {"highway": "footway", "footway": "sidewalk", "name": null, "surface": "sett", "lit": "yes", "length_m": 58.22, "type_element": "Way", "__fid": 11457}, "geometry": {"type": "LineString", "coordinates": [[2.280301170281977, 48.87865901023665], [2.281016680701081, 48.878432209169446]]}}, {"type": "Feature", "properties": {"highway": "footway", "footway": "sidewalk", "name": null, "surface": null, "lit": "yes", "length_m": 8.67, "type_element": "Way", "__fid": 11463}, "geometry": {"type": "LineString", "coordinates": [[2.2804063, 48.8787527], [2.2803766, 48.87877559999998], [2.2803113, 48.8787964]]}}, {"type": "Feature", "properties": {"highway": "footway", "footway": null, "name": null, "surface": null, "lit": "yes", "length_m": 6.84, "type_element": "Way", "__fid": 11474}, "geometry": {"type": "LineString", "coordinates": [[2.2803363, 48.878712], [2.2804063, 48.8787527]]}}, {"type": "Feature", "properties": {"highway": "footway", "footway": null, "name": null, "surface": null, "lit": "yes", "length_m": 20.98, "type_element": "Way", "__fid": 11476}, "geometry": {"type": "LineString", "coordinates": [[2.2803671, 48.8769478], [2.2805985, 48.877058699999985]]}}, {"type": "Feature", "properties": {"highway": "path", "footway": null, "name": "Porte Maillot", "surface": "concrete", "lit": "yes", "length_m": 21.16, "type_element": "Way", "__fid": 11477}, "geometry": {"type": "LineString", "coordinates": [[2.2803671, 48.8769478], [2.2806421, 48.8768902]]}}, {"type": "Feature", "properties": {"highway": "footway", "footway": "crossing", "name": null, "surface": null, "lit": "yes", "length_m": 20.25, "type_element": "Way", "__fid": 11480}, "geometry": {"type": "LineString", "coordinates": [[2.2803496, 48.8793164], [2.2804658, 48.8794816]]}}, {"type": "Feature", "properties": {"highway": "footway", "footway": "sidewalk", "name": null, "surface": "asphalt", "lit": "yes", "length_m": 95.06, "type_element": "Way", "__fid": 11487}, "geometry": {"type": "LineString", "coordinates": [[2.2815524, 48.88169580000001], [2.2803299, 48.8819798]]}}, {"type": "Feature", "properties": {"highway": "footway", "footway": "sidewalk", "name": null, "surface": null, "lit": "yes", "length_m": 56.37, "type_element": "Way", "__fid": 11497}, "geometry": {"type": "LineString", "coordinates": [[2.2810666, 48.8785045], [2.2804912, 48.8786885], [2.2804063, 48.8787527]]}}, {"type": "Feature", "properties": {"highway": "footway", "footway": "sidewalk", "name": null, "surface": null, "lit": "yes", "length_m": 33.54, "type_element": "Way", "__fid": 11521}, "geometry": {"type": "LineString", "coordinates": [[2.2804658, 48.8794816], [2.2806572, 48.8797555]]}}, {"type": "Feature", "properties": {"highway": "footway", "footway": null, "name": null, "surface": "compacted", "lit": "yes", "length_m": 102.45, "type_element": "Way", "__fid": 11550}, "geometry": {"type": "LineString", "coordinates": [[2.2805985, 48.877058699999985], [2.2806052, 48.8771258], [2.2806287, 48.8771549], [2.2808741, 48.8773988], [2.280915, 48.877475], [2.2809318, 48.87757650000001], [2.2811363, 48.8778945]]}}, {"type": "Feature", "properties": {"highway": "footway", "footway": null, "name": null, "surface": "compacted", "lit": "yes", "length_m": 19.08, "type_element": "Way", "__fid": 11551}, "geometry": {"type": "LineString", "coordinates": [[2.2806421, 48.8768902], [2.2806186, 48.877019900000015], [2.2805985, 48.877058699999985]]}}, {"type": "Feature", "properties": {"highway": "path", "footway": null, "name": "Porte Maillot", "surface": "concrete", "lit": "yes", "length_m": 45.71, "type_element": "Way", "__fid": 11569}, "geometry": {"type": "LineString", "coordinates": [[2.2806421, 48.8768902], [2.2808701, 48.8768872], [2.2812644, 48.8769048]]}}, {"type": "Feature", "properties": {"highway": "footway", "footway": "sidewalk", "name": null, "surface": null, "lit": "yes", "length_m": 4.99, "type_element": "Way", "__fid": 11593}, "geometry": {"type": "LineString", "coordinates": [[2.2806572, 48.8797555], [2.2807172, 48.879776600000014]]}}, {"type": "Feature", "properties": {"highway": "footway", "footway": "crossing", "name": null, "surface": null, "lit": "yes", "length_m": 9.12, "type_element": "Way", "__fid": 11627}, "geometry": {"type": "LineString", "coordinates": [[2.2807172, 48.879776600000014], [2.2808373, 48.879798]]}}, {"type": "Feature", "properties": {"highway": "footway", "footway": "sidewalk", "name": null, "surface": null, "lit": "yes", "length_m": 88.5, "type_element": "Way", "__fid": 11628}, "geometry": {"type": "LineString", "coordinates": [[2.2807172, 48.879776600000014], [2.2807367, 48.879816], [2.2807653, 48.8800197], [2.2809196, 48.8804976], [2.2809048, 48.8805581]]}}, {"type": "Feature", "properties": {"highway": "footway", "footway": "crossing", "name": null, "surface": null, "lit": "yes", "length_m": 6.61, "type_element": "Way", "__fid": 11631}, "geometry": {"type": "LineString", "coordinates": [[2.280744, 48.8780708], [2.280786768951617, 48.8781231055562]]}}, {"type": "Feature", "properties": {"highway": "footway", "footway": "crossing", "name": null, "surface": null, "lit": "yes", "length_m": 35.47, "type_element": "Way", "__fid": 11632}, "geometry": {"type": "LineString", "coordinates": [[2.280744, 48.8780708], [2.280854, 48.87798619999999], [2.2811363, 48.8778945]]}}, {"type": "Feature", "properties": {"highway": "service", "footway": null, "name": null, "surface": null, "lit": "yes", "length_m": 21.46, "type_element": "Way", "__fid": 11642}, "geometry": {"type": "LineString", "coordinates": [[2.2807259, 48.8814382], [2.2808203, 48.8816209]]}}, {"type": "Feature", "properties": {"highway": "footway", "footway": "traffic_island", "name": null, "surface": null, "lit": "yes", "length_m": 38.28, "type_element": "Way", "__fid": 11653}, "geometry": {"type": "LineString", "coordinates": [[2.280786768951617, 48.8781231055562], [2.281016680701081, 48.878432209169446]]}}, {"type": "Feature", "properties": {"highway": "footway", "footway": null, "name": null, "surface": null, "lit": "24/7", "length_m": 33.95, "type_element": "Way", "__fid": 11654}, "geometry": {"type": "LineString", "coordinates": [[2.280786768951617, 48.8781231055562], [2.2812, 48.8779856]]}}, {"type": "Feature", "properties": {"highway": "footway", "footway": "sidewalk", "name": null, "surface": null, "lit": "yes", "length_m": 96.59, "type_element": "Way", "__fid": 11692}, "geometry": {"type": "LineString", "coordinates": [[2.2808373, 48.879798], [2.2811085, 48.8798526], [2.2813465, 48.8798815], [2.2814104, 48.8798805], [2.281613, 48.87985410000002], [2.2818842, 48.8797918], [2.2819877, 48.879763300000015], [2.2820864, 48.8797163]]}}, {"type": "Feature", "properties": {"highway": "footway", "footway": "sidewalk", "name": null, "surface": null, "lit": "yes", "length_m": 97.8, "type_element": "Way", "__fid": 11693}, "geometry": {"type": "LineString", "coordinates": [[2.2811727, 48.880644], [2.2811408, 48.880605199999984], [2.280909, 48.8800449], [2.2808848, 48.8800156], [2.2808531, 48.8799435], [2.2808362, 48.8798543], [2.2808373, 48.879798]]}}, {"type": "Feature", "properties": {"highway": "service", "footway": null, "name": null, "surface": null, "lit": "yes", "length_m": 10.64, "type_element": "Way", "__fid": 11698}, "geometry": {"type": "LineString", "coordinates": [[2.2808203, 48.8816209], [2.280871, 48.881710599999984]]}}, {"type": "Feature", "properties": {"highway": "footway", "footway": "sidewalk", "name": null, "surface": null, "lit": "yes", "length_m": 211.46, "type_element": "Way", "__fid": 11699}, "geometry": {"type": "LineString", "coordinates": [[2.2808203, 48.8816209], [2.2801583, 48.88175840000001], [2.2798744, 48.8813434], [2.279975, 48.8812901], [2.2805406, 48.8811371], [2.2811713, 48.8810092], [2.2812686, 48.88099810000001]]}}, {"type": "Feature", "properties": {"highway": "footway", "footway": "sidewalk", "name": null, "surface": null, "lit": "yes", "length_m": 45.47, "type_element": "Way", "__fid": 11700}, "geometry": {"type": "LineString", "coordinates": [[2.2813983, 48.881476], [2.281239, 48.8815304], [2.2808203, 48.8816209]]}}, {"type": "Feature", "properties": {"highway": "pedestrian", "footway": null, "name": "Place de la Porte Maillot", "surface": "compacted", "lit": "yes", "length_m": 20.98, "type_element": "Way", "__fid": 11730}, "geometry": {"type": "LineString", "coordinates": [[2.2809373, 48.87800090000001], [2.2811949, 48.8779189]]}}, {"type": "Feature", "properties": {"highway": "footway", "footway": "crossing", "name": null, "surface": null, "lit": "yes", "length_m": 14.47, "type_element": "Way", "__fid": 11735}, "geometry": {"type": "LineString", "coordinates": [[2.2809048, 48.8805581], [2.2809336, 48.8805748], [2.2809775, 48.88067560000002]]}}, {"type": "Feature", "properties": {"highway": "footway", "footway": "sidewalk", "name": null, "surface": null, "lit": "yes", "length_m": 224.42, "type_element": "Way", "__fid": 11741}, "geometry": {"type": "LineString", "coordinates": [[2.2832405, 48.8771966], [2.2830456, 48.8769537], [2.2829139, 48.8768195], [2.2826925, 48.8766456], [2.2822997, 48.8763896], [2.2820751, 48.876275], [2.2818205, 48.87616480000002], [2.2814817, 48.8760415], [2.2809981, 48.8759004]]}}, {"type": "Feature", "properties": {"highway": "footway", "footway": "sidewalk", "name": null, "surface": "asphalt", "lit": "yes", "length_m": 3.61, "type_element": "Way", "__fid": 11759}, "geometry": {"type": "LineString", "coordinates": [[2.2809775, 48.88067560000002], [2.2810192, 48.8806928]]}}, {"type": "Feature", "properties": {"highway": "footway", "footway": "crossing", "name": null, "surface": null, "lit": "yes", "length_m": 8.83, "type_element": "Way", "__fid": 11761}, "geometry": {"type": "LineString", "coordinates": [[2.281016680701081, 48.878432209169446], [2.2810666, 48.8785045]]}}, {"type": "Feature", "properties": {"highway": "footway", "footway": "sidewalk", "name": null, "surface": "sett", "lit": "yes", "length_m": 37.86, "type_element": "Way", "__fid": 11762}, "geometry": {"type": "LineString", "coordinates": [[2.281016680701081, 48.878432209169446], [2.2814243, 48.878303], [2.2814006, 48.8782638]]}}, {"type": "Feature", "properties": {"highway": "footway", "footway": "sidewalk", "name": null, "surface": "asphalt", "lit": "yes", "length_m": 23.24, "type_element": "Way", "__fid": 11770}, "geometry": {"type": "LineString", "coordinates": [[2.2810192, 48.8806928], [2.2811454, 48.880845], [2.2811539, 48.8808801]]}}, {"type": "Feature", "properties": {"highway": "footway", "footway": "crossing", "name": null, "surface": null, "lit": "yes", "length_m": 12.5, "type_element": "Way", "__fid": 11771}, "geometry": {"type": "LineString", "coordinates": [[2.2810192, 48.8806928], [2.2811727, 48.880644]]}}, {"type": "Feature", "properties": {"highway": "footway", "footway": "sidewalk", "name": null, "surface": null, "lit": "yes", "length_m": 36.05, "type_element": "Way", "__fid": 11783}, "geometry": {"type": "LineString", "coordinates": [[2.2815031, 48.8783557], [2.2813321, 48.8784192], [2.2810666, 48.8785045]]}}, {"type": "Feature", "properties": {"highway": "footway", "footway": "sidewalk", "name": null, "surface": null, "lit": "yes", "length_m": 5.08, "type_element": "Way", "__fid": 11798}, "geometry": {"type": "LineString", "coordinates": [[2.2811363, 48.8778945], [2.2811949, 48.8779189]]}}, {"type": "Feature", "properties": {"highway": "footway", "footway": "crossing", "name": null, "surface": null, "lit": "yes", "length_m": 15.85, "type_element": "Way", "__fid": 11826}, "geometry": {"type": "LineString", "coordinates": [[2.2811539, 48.8808801], [2.2811784, 48.880889500000016], [2.2812686, 48.88099810000001]]}}, {"type": "Feature", "properties": {"highway": "footway", "footway": "sidewalk", "name": "Place de la Porte Maillot", "surface": null, "lit": "yes", "length_m": 3.83, "type_element": "Way", "__fid": 11827}, "geometry": {"type": "LineString", "coordinates": [[2.281218488055453, 48.877949614940036], [2.2811949, 48.8779189]]}}, {"type": "Feature", "properties": {"highway": "pedestrian", "footway": null, "name": "Place de la Porte Maillot", "surface": "compacted", "lit": "yes", "length_m": 161.66, "type_element": "Way", "__fid": 11828}, "geometry": {"type": "LineString", "coordinates": [[2.2811949, 48.8779189], [2.2831771, 48.8772832]]}}, {"type": "Feature", "properties": {"highway": "footway", "footway": null, "name": null, "surface": null, "lit": "24/7", "length_m": 5.26, "type_element": "Way", "__fid": 11834}, "geometry": {"type": "LineString", "coordinates": [[2.2812, 48.8779856], [2.2812329, 48.8780276]]}}, {"type": "Feature", "properties": {"highway": "footway", "footway": null, "name": null, "surface": null, "lit": "24/7", "length_m": 4.22, "type_element": "Way", "__fid": 11835}, "geometry": {"type": "LineString", "coordinates": [[2.281218488055453, 48.877949614940036], [2.2812, 48.8779856]]}}, {"type": "Feature", "properties": {"highway": "footway", "footway": "sidewalk", "name": null, "surface": null, "lit": "yes", "length_m": 42.21, "type_element": "Way", "__fid": 11841}, "geometry": {"type": "LineString", "coordinates": [[2.2814472, 48.88097759999999], [2.2811727, 48.880644]]}}, {"type": "Feature", "properties": {"highway": "footway", "footway": "sidewalk", "name": null, "surface": null, "lit": "yes", "length_m": 44.55, "type_element": "Way", "__fid": 11843}, "geometry": {"type": "LineString", "coordinates": [[2.281476179066944, 48.87831228002693], [2.2813952, 48.8781874], [2.281218488055453, 48.877949614940036]]}}, {"type": "Feature", "properties": {"highway": "footway", "footway": null, "name": null, "surface": null, "lit": "24/7", "length_m": 11.08, "type_element": "Way", "__fid": 11844}, "geometry": {"type": "LineString", "coordinates": [[2.2813421, 48.8778997], [2.2812288, 48.87793319999999], [2.281218488055453, 48.877949614940036]]}}, {"type": "Feature", "properties": {"highway": "path", "footway": null, "name": null, "surface": "paving_stones", "lit": "yes", "length_m": 89.42, "type_element": "Way", "__fid": 11851}, "geometry": {"type": "LineString", "coordinates": [[2.2812644, 48.8769048], [2.2816955, 48.876952], [2.2818746, 48.876956], [2.2821066, 48.8769503], [2.2824606, 48.8768775]]}}, {"type": "Feature", "properties": {"highway": "footway", "footway": null, "name": null, "surface": "compacted", "lit": "yes", "length_m": 19.21, "type_element": "Way", "__fid": 11852}, "geometry": {"type": "LineString", "coordinates": [[2.2812644, 48.8769048], [2.2814132, 48.8767626]]}}, {"type": "Feature", "properties": {"highway": "footway", "footway": "sidewalk", "name": null, "surface": null, "lit": "yes", "length_m": 4.38, "type_element": "Way", "__fid": 11867}, "geometry": {"type": "LineString", "coordinates": [[2.2812686, 48.88099810000001], [2.2812978, 48.88103250000001]]}}, {"type": "Feature", "properties": {"highway": "footway", "footway": "sidewalk", "name": null, "surface": null, "lit": "yes", "length_m": 48.82, "type_element": "Way", "__fid": 11882}, "geometry": {"type": "LineString", "coordinates": [[2.2812978, 48.88103250000001], [2.2815655, 48.8813478], [2.2815485, 48.8814247]]}}, {"type": "Feature", "properties": {"highway": "footway", "footway": "crossing", "name": null, "surface": null, "lit": "yes", "length_m": 12.54, "type_element": "Way", "__fid": 11883}, "geometry": {"type": "LineString", "coordinates": [[2.2814472, 48.88097759999999], [2.2812978, 48.88103250000001]]}}, {"type": "Feature", "properties": {"highway": "steps", "footway": null, "name": null, "surface": null, "lit": "24/7", "length_m": 25.21, "type_element": "Way", "__fid": 11884}, "geometry": {"type": "LineString", "coordinates": [[2.2813421, 48.8778997], [2.2816503, 48.8777993]]}}, {"type": "Feature", "properties": {"highway": "steps", "footway": null, "name": null, "surface": null, "lit": "24/7", "length_m": 25.42, "type_element": "Way", "__fid": 11885}, "geometry": {"type": "LineString", "coordinates": [[2.2813421, 48.8778997], [2.2814977, 48.87787280000001], [2.2816652, 48.8778198]]}}, {"type": "Feature", "properties": {"highway": "footway", "footway": "crossing", "name": null, "surface": "asphalt", "lit": "yes", "length_m": 26.93, "type_element": "Way", "__fid": 11912}, "geometry": {"type": "LineString", "coordinates": [[2.2815524, 48.88169580000001], [2.2813983, 48.881476]]}}, {"type": "Feature", "properties": {"highway": "footway", "footway": "sidewalk", "name": null, "surface": null, "lit": "yes", "length_m": 12.4, "type_element": "Way", "__fid": 11913}, "geometry": {"type": "LineString", "coordinates": [[2.2815485, 48.8814247], [2.2813983, 48.881476]]}}, {"type": "Feature", "properties": {"highway": "steps", "footway": null, "name": null, "surface": null, "lit": "24/7", "length_m": 2.39, "type_element": "Way", "__fid": 11914}, "geometry": {"type": "LineString", "coordinates": [[2.2814454, 48.8783051], [2.281476179066944, 48.87831228002693]]}}, {"type": "Feature", "properties": {"highway": "steps", "footway": null, "name": null, "surface": null, "lit": "24/7", "length_m": 2.14, "type_element": "Way", "__fid": 11921}, "geometry": {"type": "LineString", "coordinates": [[2.281476179066944, 48.87831228002693], [2.2815037, 48.8783187]]}}, {"type": "Feature", "properties": {"highway": "footway", "footway": "sidewalk", "name": null, "surface": null, "lit": "yes", "length_m": 5.22, "type_element": "Way", "__fid": 11922}, "geometry": {"type": "LineString", "coordinates": [[2.2815031, 48.8783557], [2.281476179066944, 48.87831228002693]]}}, {"type": "Feature", "properties": {"highway": "footway", "footway": "sidewalk", "name": null, "surface": null, "lit": "yes", "length_m": 49.92, "type_element": "Way", "__fid": 11925}, "geometry": {"type": "LineString", "coordinates": [[2.2817813, 48.8813683], [2.2817265, 48.8813172], [2.2814472, 48.88097759999999]]}}, {"type": "Feature", "properties": {"highway": "footway", "footway": "sidewalk", "name": null, "surface": null, "lit": "yes", "length_m": 7.21, "type_element": "Way", "__fid": 11934}, "geometry": {"type": "LineString", "coordinates": [[2.2815441, 48.8784146], [2.2815031, 48.8783557]]}}, {"type": "Feature", "properties": {"highway": "footway", "footway": "sidewalk", "name": null, "surface": null, "lit": "yes", "length_m": 60.79, "type_element": "Way", "__fid": 11935}, "geometry": {"type": "LineString", "coordinates": [[2.282251054172292, 48.87812010952561], [2.2815031, 48.8783557]]}}, {"type": "Feature", "properties": {"highway": "footway", "footway": "sidewalk", "name": null, "surface": null, "lit": "yes", "length_m": 21.44, "type_element": "Way", "__fid": 11942}, "geometry": {"type": "LineString", "coordinates": [[2.2816768, 48.87858640000001], [2.2815441, 48.8784146]]}}, {"type": "Feature", "properties": {"highway": "footway", "footway": "sidewalk", "name": null, "surface": null, "lit": "yes", "length_m": 10.76, "type_element": "Way", "__fid": 11943}, "geometry": {"type": "LineString", "coordinates": [[2.2816758, 48.8783719], [2.2815441, 48.8784146]]}}, {"type": "Feature", "properties": {"highway": "service", "footway": null, "name": null, "surface": "asphalt", "lit": "yes", "length_m": 20.89, "type_element": "Way", "__fid": 11949}, "geometry": {"type": "LineString", "coordinates": [[2.281548, 48.8788423], [2.2818032, 48.8787589]]}}, {"type": "Feature", "properties": {"highway": "footway", "footway": "sidewalk", "name": null, "surface": null, "lit": "yes", "length_m": 18.23, "type_element": "Way", "__fid": 11959}, "geometry": {"type": "LineString", "coordinates": [[2.2817813, 48.8813683], [2.2815995, 48.8814073], [2.2815485, 48.8814247]]}}, {"type": "Feature", "properties": {"highway": "footway", "footway": "sidewalk", "name": null, "surface": "asphalt", "lit": "yes", "length_m": 19.65, "type_element": "Way", "__fid": 11964}, "geometry": {"type": "LineString", "coordinates": [[2.2818065, 48.8816899], [2.2816855, 48.8816649], [2.2815524, 48.88169580000001]]}}, {"type": "Feature", "properties": {"highway": "footway", "footway": null, "name": "Place de la Porte Maillot", "surface": null, "lit": "yes", "length_m": 36.96, "type_element": "Way", "__fid": 11987}, "geometry": {"type": "LineString", "coordinates": [[2.2821736, 48.87864239999998], [2.2816768, 48.87858640000001]]}}, {"type": "Feature", "properties": {"highway": "footway", "footway": "sidewalk", "name": null, "surface": null, "lit": "yes", "length_m": 21.3, "type_element": "Way", "__fid": 11988}, "geometry": {"type": "LineString", "coordinates": [[2.2818032, 48.8787589], [2.2816768, 48.87858640000001]]}}, {"type": "Feature", "properties": {"highway": "footway", "footway": "sidewalk", "name": null, "surface": null, "lit": "yes", "length_m": 138.59, "type_element": "Way", "__fid": 12020}, "geometry": {"type": "LineString", "coordinates": [[2.2817331, 48.8836408], [2.2817146, 48.8835323], [2.2824633, 48.8826544], [2.2825817, 48.8825506]]}}]}