{"type": "FeatureCollection", "features": [{"type": "Feature", "properties": {"highway": "living_street", "footway": null, "name": "Allée des Frères Voisin", "surface": "asphalt", "lit": "yes", "length_m": 112.2, "type_element": "Way", "__fid": 8144}, "geometry": {"type": "LineString", "coordinates": [[2.2734831, 48.8286756], [2.2726733, 48.8284125], [2.2725647, 48.8283417], [2.2724009, 48.82814050000002], [2.2723672, 48.8280595]]}}, {"type": "Feature", "properties": {"highway": "service", "footway": null, "name": null, "surface": "asphalt", "lit": "yes", "length_m": 66.18, "type_element": "Way", "__fid": 8191}, "geometry": {"type": "LineString", "coordinates": [[2.2730911, 48.829035], [2.2730417, 48.8290357], [2.2729922, 48.8290469], [2.2729428, 48.8290769], [2.2728412, 48.8292099], [2.2727922, 48.8292565], [2.2727365, 48.8292967], [2.2726115, 48.8293668], [2.2724624, 48.8294267]]}}, {"type": "Feature", "properties": {"highway": "service", "footway": null, "name": null, "surface": null, "lit": "yes", "length_m": 54.62, "type_element": "Way", "__fid": 8224}, "geometry": {"type": "LineString", "coordinates": [[2.2731831, 48.8280098], [2.2729856, 48.828111100000015], [2.2726838, 48.8280984], [2.272558, 48.82800309999999]]}}, {"type": "Feature", "properties": {"highway": "footway", "footway": null, "name": null, "surface": null, "lit": null, "length_m": 46.77, "type_element": "Way", "__fid": 8241}, "geometry": {"type": "LineString", "coordinates": [[2.2725743, 48.82907560000002], [2.272668, 48.82901110000001], [2.2727422, 48.82897830000001], [2.2728907, 48.828950599999985], [2.2729473, 48.8289494], [2.2729966, 48.82895989999999], [2.2730459, 48.8289871], [2.2730911, 48.829035]]}}, {"type": "Feature", "properties": {"highway": "footway", "footway": null, "name": null, "surface": "dirt", "lit": null, "length_m": 197.57, "type_element": "Way", "__fid": 8271}, "geometry": {"type": "LineString", "coordinates": [[2.2741281, 48.8300266], [2.2741801, 48.82997360000002], [2.2741991, 48.8299038], [2.2742118, 48.829717], [2.2741978, 48.8296555], [2.2741074, 48.8295535], [2.2740153, 48.8295059], [2.2739266, 48.829477299999986], [2.273848, 48.829459499999984], [2.2736651, 48.8294444], [2.2735807, 48.82942], [2.2734683, 48.8293744], [2.273361, 48.8292937], [2.2732246, 48.8292306], [2.2731544, 48.8292173], [2.2730868, 48.8292164], [2.2729504, 48.8292467], [2.272879, 48.8292859], [2.2728093, 48.8293382], [2.2726423, 48.8295872]]}}, {"type": "Feature", "properties": {"highway": "footway", "footway": null, "name": null, "surface": "dirt", "lit": null, "length_m": 7.28, "type_element": "Way", "__fid": 8272}, "geometry": {"type": "LineString", "coordinates": [[2.2727385, 48.8295713], [2.2726423, 48.8295872]]}}, {"type": "Feature", "properties": {"highway": "footway", "footway": null, "name": null, "surface": "concrete:lanes", "lit": null, "length_m": 45.87, "type_element": "Way", "__fid": 8321}, "geometry": {"type": "LineString", "coordinates": [[2.2727385, 48.8295713], [2.2730266, 48.8298029], [2.2731893, 48.8298374]]}}, {"type": "Feature", "properties": {"highway": "footway", "footway": null, "name": null, "surface": "dirt", "lit": null, "length_m": 79.08, "type_element": "Way", "__fid": 8322}, "geometry": {"type": "LineString", "coordinates": [[2.2733874, 48.8294947], [2.2732754, 48.82934690000002], [2.2732096, 48.8292931], [2.2730618, 48.8292839], [2.272992, 48.829298], [2.2729162, 48.8293305], [2.2728708, 48.8293601], [2.2728093, 48.829446300000015], [2.2727385, 48.8295713]]}}, {"type": "Feature", "properties": {"highway": "service", "footway": null, "name": null, "surface": "asphalt", "lit": "yes", "length_m": 46.83, "type_element": "Way", "__fid": 8464}, "geometry": {"type": "LineString", "coordinates": [[2.2736032, 48.82927930000001], [2.2735344, 48.829258], [2.2731872, 48.82906029999999], [2.2730911, 48.829035]]}}, {"type": "Feature", "properties": {"highway": "footway", "footway": "sidewalk", "name": null, "surface": "asphalt", "lit": "yes", "length_m": 11.75, "type_element": "Way", "__fid": 8498}, "geometry": {"type": "LineString", "coordinates": [[2.2733431, 48.8280138], [2.2731831, 48.8280098]]}}, {"type": "Feature", "properties": {"highway": "service", "footway": null, "name": null, "surface": null, "lit": "yes", "length_m": 6.3, "type_element": "Way", "__fid": 8499}, "geometry": {"type": "LineString", "coordinates": [[2.2732509, 48.827975], [2.2731831, 48.8280098]]}}, {"type": "Feature", "properties": {"highway": "footway", "footway": null, "name": null, "surface": null, "lit": null, "length_m": 70.24, "type_element": "Way", "__fid": 8517}, "geometry": {"type": "LineString", "coordinates": [[2.2731893, 48.8298374], [2.2732151, 48.8297556], [2.2731963, 48.8296797], [2.2731661, 48.8296506], [2.2730903, 48.8296188], [2.2730602, 48.8295685], [2.2730662, 48.8295186], [2.2731118, 48.8294722], [2.2731943, 48.829459], [2.2732526, 48.82947839999998], [2.2733552, 48.8295751]]}}, {"type": "Feature", "properties": {"highway": "footway", "footway": "sidewalk", "name": null, "surface": "asphalt", "lit": "yes", "length_m": 10.84, "type_element": "Way", "__fid": 8569}, "geometry": {"type": "LineString", "coordinates": [[2.2734907, 48.8280168], [2.2733431, 48.8280138]]}}, {"type": "Feature", "properties": {"highway": "footway", "footway": "sidewalk", "name": null, "surface": null, "lit": "yes", "length_m": 45.06, "type_element": "Way", "__fid": 8570}, "geometry": {"type": "LineString", "coordinates": [[2.2734135, 48.828305], [2.2731658, 48.8281542], [2.2733431, 48.8280138]]}}, {"type": "Feature", "properties": {"highway": "footway", "footway": "sidewalk", "name": null, "surface": null, "lit": "yes", "length_m": 5.25, "type_element": "Way", "__fid": 8571}, "geometry": {"type": "LineString", "coordinates": [[2.2733431, 48.8280138], [2.2733889, 48.82797750000003]]}}, {"type": "Feature", "properties": {"highway": "footway", "footway": null, "name": null, "surface": null, "lit": null, "length_m": 20.42, "type_element": "Way", "__fid": 8580}, "geometry": {"type": "LineString", "coordinates": [[2.2733552, 48.8295751], [2.2733552, 48.8295852], [2.2734122, 48.8296497], [2.2734967, 48.8297313]]}}, {"type": "Feature", "properties": {"highway": "footway", "footway": null, "name": null, "surface": null, "lit": null, "length_m": 9.47, "type_element": "Way", "__fid": 8581}, "geometry": {"type": "LineString", "coordinates": [[2.2733874, 48.8294947], [2.2733552, 48.8295398], [2.2733552, 48.8295751]]}}, {"type": "Feature", "properties": {"highway": "footway", "footway": null, "name": null, "surface": "dirt", "lit": null, "length_m": 49.78, "type_element": "Way", "__fid": 8593}, "geometry": {"type": "LineString", "coordinates": [[2.2740459, 48.8295473], [2.27394, 48.82951340000001], [2.2738031, 48.829504], [2.2736537, 48.829518], [2.2735195, 48.8295203], [2.2733874, 48.8294947]]}}, {"type": "Feature", "properties": {"highway": "footway", "footway": null, "name": null, "surface": null, "lit": null, "length_m": 52.66, "type_element": "Way", "__fid": 8625}, "geometry": {"type": "LineString", "coordinates": [[2.2739406, 48.8290006], [2.27388, 48.8289932], [2.2737651, 48.82893360000001], [2.2734963, 48.82877080000002], [2.2734831, 48.8286756]]}}, {"type": "Feature", "properties": {"highway": "living_street", "footway": null, "name": "Allée des Frères Voisin", "surface": "asphalt", "lit": "yes", "length_m": 15.41, "type_element": "Way", "__fid": 8626}, "geometry": {"type": "LineString", "coordinates": [[2.2735762, 48.828551400000016], [2.2734831, 48.8286756]]}}, {"type": "Feature", "properties": {"highway": "service", "footway": null, "name": null, "surface": "asphalt", "lit": "yes", "length_m": 12.39, "type_element": "Way", "__fid": 8681}, "geometry": {"type": "LineString", "coordinates": [[2.2737561, 48.8293265], [2.2736032, 48.82927930000001]]}}, {"type": "Feature", "properties": {"highway": "footway", "footway": null, "name": null, "surface": null, "lit": null, "length_m": 39.7, "type_element": "Way", "__fid": 8682}, "geometry": {"type": "LineString", "coordinates": [[2.2739406, 48.8290006], [2.2738083, 48.82911989999999], [2.2736032, 48.82927930000001]]}}, {"type": "Feature", "properties": {"highway": "footway", "footway": null, "name": null, "surface": null, "lit": null, "length_m": 27.48, "type_element": "Way", "__fid": 8775}, "geometry": {"type": "LineString", "coordinates": [[2.273839, 48.829657], [2.274014, 48.82967570000001], [2.2740459, 48.8295473]]}}, {"type": "Feature", "properties": {"highway": "footway", "footway": null, "name": null, "surface": null, "lit": null, "length_m": 19.19, "type_element": "Way", "__fid": 8807}, "geometry": {"type": "LineString", "coordinates": [[2.2740948, 48.8288612], [2.2739406, 48.8290006]]}}, {"type": "Feature", "properties": {"highway": "footway", "footway": null, "name": null, "surface": "dirt", "lit": null, "length_m": 34.78, "type_element": "Way", "__fid": 8839}, "geometry": {"type": "LineString", "coordinates": [[2.2740671, 48.82982410000002], [2.2741156, 48.8297945], [2.274139, 48.829737], [2.2741471, 48.829674799999985], [2.274122, 48.82961], [2.2740459, 48.8295473]]}}]}