{"type": "FeatureCollection", "features": [{"type": "Feature", "geometry": {"type": "Point", "coordinates": [2.276576, 48.833071]}, "properties": {"id": 2544, "name": "Parc Omnisport Suzanne Lenglen", "categorie": "Parcs, jardins et bois", "photo_url": "https://cdn.paris.fr/eqpts-prod/2026/03/12/aeeeebec22581fcf3d12ca762204d22b.jpg", "photo_credit": "Sonia Yassa / Ville de Paris", "photo_alt": null, "address_street": "2 rue Louis Armand", "address_postcode": "75015", "address_city": "PARIS", "phone": null, "accessibility": "{\"handicaps\": [{\"name\": \"Personnes à mobilité réduite\", \"status\": \"accessible\"}, {\"name\": \"Personnes déficientes visuelles\", \"status\": \"undefined\"}, {\"name\": \"Personnes déficientes auditives\", \"status\": \"undefined\"}, {\"name\": \"Personnes déficientes mentales\", \"status\": \"undefined\"}, {\"name\": \"Accueil en langue des signes\", \"status\": \"undefined\"}]}", "latitude": 48.833071, "longitude": 2.276576, "url": "https://www.paris.fr/lieux/parc-omnisport-suzanne-lenglen-2544", "type_element": "Parcs, Jardins et Bois", "__fid": 1535}}, {"type": "Feature", "properties": {"highway": "service", "footway": null, "name": "Rue du Général Lucotte", "surface": "asphalt", "lit": "yes", "length_m": 338.21, "type_element": "Way", "__fid": 7452}, "geometry": {"type": "LineString", "coordinates": [[2.2733659, 48.8354282], [2.2733447, 48.8353803], [2.2720348, 48.8356219], [2.2718947, 48.8356536], [2.2716118, 48.8357366], [2.2714676, 48.835790799999984], [2.2712117, 48.835916799999985], [2.2709861, 48.8360658], [2.2707635, 48.8362644], [2.2705556, 48.8365319], [2.2704138, 48.8368481], [2.2703724, 48.8370288], [2.2704159, 48.8372273]]}}, {"type": "Feature", "properties": {"highway": "service", "footway": null, "name": null, "surface": null, "lit": "yes", "length_m": 204.56, "type_element": "Way", "__fid": 7655}, "geometry": {"type": "LineString", "coordinates": [[2.2709266, 48.83622], [2.270972, 48.8361637], [2.2712053, 48.8360101], [2.2714789, 48.8358547], [2.2717579, 48.8357576], [2.2721328, 48.8356668], [2.2733659, 48.8354282]]}}, {"type": "Feature", "properties": {"highway": "service", "footway": null, "name": null, "surface": "asphalt", "lit": null, "length_m": 120.8, "type_element": "Way", "__fid": 7776}, "geometry": {"type": "LineString", "coordinates": [[2.2728307, 48.832092899999985], [2.2724579, 48.832146], [2.2721144, 48.8321687], [2.2716733, 48.8320965], [2.2712903, 48.8319229]]}}, {"type": "Feature", "properties": {"highway": "service", "footway": null, "name": null, "surface": "asphalt", "lit": "yes", "length_m": 125.83, "type_element": "Way", "__fid": 7950}, "geometry": {"type": "LineString", "coordinates": [[2.2718136, 48.8297003], [2.2726922, 48.8298647], [2.2731109, 48.8299988], [2.2733865, 48.83012509999999]]}}, {"type": "Feature", "properties": {"highway": "footway", "footway": null, "name": null, "surface": "ground", "lit": null, "length_m": 89.71, "type_element": "Way", "__fid": 7963}, "geometry": {"type": "LineString", "coordinates": [[2.2728872, 48.830095499999985], [2.2727993, 48.8299892], [2.2726079, 48.8298975], [2.2723329, 48.8298448], [2.2721415, 48.8298173], [2.2718351, 48.82975660000002]]}}, {"type": "Feature", "properties": {"highway": "footway", "footway": null, "name": null, "surface": "asphalt", "lit": "yes", "length_m": 80.29, "type_element": "Way", "__fid": 7979}, "geometry": {"type": "LineString", "coordinates": [[2.2717998, 48.8346883], [2.2727405, 48.834675], [2.2728838, 48.8346398]]}}, {"type": "Feature", "properties": {"highway": "footway", "footway": null, "name": null, "surface": "dirt", "lit": null, "length_m": 73.26, "type_element": "Way", "__fid": 7983}, "geometry": {"type": "LineString", "coordinates": [[2.2728307, 48.832092899999985], [2.2725671, 48.8320445], [2.2724749, 48.8320512], [2.2720625, 48.8320319], [2.2719251, 48.8320438], [2.2718463, 48.8320365]]}}, {"type": "Feature", "properties": {"highway": "footway", "footway": null, "name": null, "surface": null, "lit": null, "length_m": 71.22, "type_element": "Way", "__fid": 8017}, "geometry": {"type": "LineString", "coordinates": [[2.2728685, 48.8320389], [2.2719471, 48.8318382]]}}, {"type": "Feature", "properties": {"highway": "footway", "footway": "sidewalk", "name": null, "surface": null, "lit": "yes", "length_m": 119.72, "type_element": "Way", "__fid": 8105}, "geometry": {"type": "LineString", "coordinates": [[2.273433, 48.8357426], [2.2733079, 48.8354839], [2.2732918, 48.8354777], [2.2721365, 48.8356944]]}}, {"type": "Feature", "properties": {"highway": "service", "footway": null, "name": null, "surface": "asphalt", "lit": "yes", "length_m": 49.68, "type_element": "Way", "__fid": 8142}, "geometry": {"type": "LineString", "coordinates": [[2.2728583, 48.8336342], [2.2722867, 48.833395]]}}, {"type": "Feature", "properties": {"highway": "footway", "footway": null, "name": null, "surface": null, "lit": null, "length_m": 67.72, "type_element": "Way", "__fid": 8160}, "geometry": {"type": "LineString", "coordinates": [[2.2731453, 48.8310649], [2.2724051, 48.830915199999986], [2.2723589, 48.8310083]]}}, {"type": "Feature", "properties": {"highway": "footway", "footway": "sidewalk", "name": null, "surface": null, "lit": "yes", "length_m": 49.37, "type_element": "Way", "__fid": 8171}, "geometry": {"type": "LineString", "coordinates": [[2.2728838, 48.8346398], [2.2723433, 48.8343755]]}}, {"type": "Feature", "properties": {"highway": "footway", "footway": "sidewalk", "name": null, "surface": "asphalt", "lit": "yes", "length_m": 118.58, "type_element": "Way", "__fid": 8223}, "geometry": {"type": "LineString", "coordinates": [[2.2739178, 48.834383299999985], [2.2731446, 48.8345387], [2.273083, 48.83454], [2.2729676, 48.8345175], [2.2724688, 48.8342686]]}}, {"type": "Feature", "properties": {"highway": "footway", "footway": null, "name": null, "surface": "dirt", "lit": null, "length_m": 197.57, "type_element": "Way", "__fid": 8271}, "geometry": {"type": "LineString", "coordinates": [[2.2741281, 48.8300266], [2.2741801, 48.82997360000002], [2.2741991, 48.8299038], [2.2742118, 48.829717], [2.2741978, 48.8296555], [2.2741074, 48.8295535], [2.2740153, 48.8295059], [2.2739266, 48.829477299999986], [2.273848, 48.829459499999984], [2.2736651, 48.8294444], [2.2735807, 48.82942], [2.2734683, 48.8293744], [2.273361, 48.8292937], [2.2732246, 48.8292306], [2.2731544, 48.8292173], [2.2730868, 48.8292164], [2.2729504, 48.8292467], [2.272879, 48.8292859], [2.2728093, 48.8293382], [2.2726423, 48.8295872]]}}, {"type": "Feature", "properties": {"highway": "footway", "footway": null, "name": null, "surface": "concrete:lanes", "lit": null, "length_m": 45.87, "type_element": "Way", "__fid": 8321}, "geometry": {"type": "LineString", "coordinates": [[2.2727385, 48.8295713], [2.2730266, 48.8298029], [2.2731893, 48.8298374]]}}, {"type": "Feature", "properties": {"highway": "service", "footway": null, "name": null, "surface": "asphalt", "lit": "yes", "length_m": 53.24, "type_element": "Way", "__fid": 8324}, "geometry": {"type": "LineString", "coordinates": [[2.2731461, 48.8335688], [2.2731033, 48.8336361], [2.2729093, 48.8338179], [2.2728501, 48.833859099999984], [2.2727913, 48.833885], [2.27268, 48.83391670000002]]}}, {"type": "Feature", "properties": {"highway": "service", "footway": null, "name": null, "surface": "asphalt", "lit": "yes", "length_m": 40.81, "type_element": "Way", "__fid": 8326}, "geometry": {"type": "LineString", "coordinates": [[2.2731461, 48.8335688], [2.2730666, 48.83354520000001], [2.2726989, 48.8333532]]}}, {"type": "Feature", "properties": {"highway": "service", "footway": null, "name": null, "surface": "asphalt", "lit": "yes", "length_m": 222.69, "type_element": "Way", "__fid": 8327}, "geometry": {"type": "LineString", "coordinates": [[2.2756796, 48.8331146], [2.2756137, 48.83308250000001], [2.2744591, 48.8331322], [2.2731933, 48.833262699999985], [2.2730436, 48.8332833], [2.2726989, 48.8333532]]}}, {"type": "Feature", "properties": {"highway": "footway", "footway": null, "name": null, "surface": "compacted", "lit": null, "length_m": 17.32, "type_element": "Way", "__fid": 8328}, "geometry": {"type": "LineString", "coordinates": [[2.272743, 48.830205], [2.2728141, 48.830111], [2.2728872, 48.830095499999985]]}}, {"type": "Feature", "properties": {"highway": "service", "footway": null, "name": null, "surface": "asphalt", "lit": null, "length_m": 5.03, "type_element": "Way", "__fid": 8358}, "geometry": {"type": "LineString", "coordinates": [[2.2728971, 48.8320817], [2.2728307, 48.832092899999985]]}}, {"type": "Feature", "properties": {"highway": "service", "footway": null, "name": null, "surface": null, "lit": "yes", "length_m": 42.35, "type_element": "Way", "__fid": 8359}, "geometry": {"type": "LineString", "coordinates": [[2.2728303, 48.8322496], [2.273249, 48.8321749], [2.2733919, 48.8321683]]}}, {"type": "Feature", "properties": {"highway": "footway", "footway": null, "name": null, "surface": "ground", "lit": null, "length_m": 26.59, "type_element": "Way", "__fid": 8367}, "geometry": {"type": "LineString", "coordinates": [[2.272932, 48.8303302], [2.2729421, 48.8302504], [2.2728872, 48.830095499999985]]}}, {"type": "Feature", "properties": {"highway": "footway", "footway": null, "name": null, "surface": "compacted", "lit": null, "length_m": 36.86, "type_element": "Way", "__fid": 8368}, "geometry": {"type": "LineString", "coordinates": [[2.2728872, 48.830095499999985], [2.2730005, 48.83009420000001], [2.2733865, 48.83012509999999]]}}, {"type": "Feature", "properties": {"highway": "footway", "footway": null, "name": null, "surface": null, "lit": null, "length_m": 5.2, "type_element": "Way", "__fid": 8369}, "geometry": {"type": "LineString", "coordinates": [[2.2728971, 48.8320817], [2.2728685, 48.8320389]]}}, {"type": "Feature", "properties": {"highway": "footway", "footway": null, "name": null, "surface": null, "lit": null, "length_m": 70.65, "type_element": "Way", "__fid": 8370}, "geometry": {"type": "LineString", "coordinates": [[2.2728685, 48.8320389], [2.2731634, 48.8314341]]}}, {"type": "Feature", "properties": {"highway": "service", "footway": null, "name": null, "surface": "asphalt", "lit": null, "length_m": 72.87, "type_element": "Way", "__fid": 8381}, "geometry": {"type": "LineString", "coordinates": [[2.2738789, 48.8320577], [2.2735399, 48.83202330000001], [2.2731819, 48.8320451], [2.2728971, 48.8320817]]}}, {"type": "Feature", "properties": {"highway": "footway", "footway": null, "name": null, "surface": "dirt", "lit": null, "length_m": 117.57, "type_element": "Way", "__fid": 8387}, "geometry": {"type": "LineString", "coordinates": [[2.272932, 48.8303302], [2.2727355, 48.8305094], [2.2727296, 48.8307337], [2.2727572, 48.8308239], [2.2728669, 48.8308818], [2.2731117, 48.83092520000001], [2.2733846, 48.8309372], [2.2734934, 48.8309041]]}}, {"type": "Feature", "properties": {"highway": "footway", "footway": null, "name": null, "surface": "dirt", "lit": null, "length_m": 57.71, "type_element": "Way", "__fid": 8388}, "geometry": {"type": "LineString", "coordinates": [[2.2735913, 48.8303494], [2.2734761, 48.8303053], [2.2733314, 48.83023610000002], [2.2731763, 48.830214599999984], [2.2730614, 48.830231], [2.272932, 48.8303302]]}}, {"type": "Feature", "properties": {"highway": "footway", "footway": "sidewalk", "name": null, "surface": null, "lit": "yes", "length_m": 266.15, "type_element": "Way", "__fid": 8389}, "geometry": {"type": "LineString", "coordinates": [[2.2759889, 48.8335806], [2.2754659, 48.8339517], [2.2751777, 48.83412430000001], [2.2749195, 48.834247], [2.2746396, 48.8343454], [2.2740633, 48.8344838], [2.2735316, 48.8345891], [2.2732165, 48.8346431], [2.2730327, 48.8346637], [2.2728838, 48.8346398]]}}, {"type": "Feature", "properties": {"highway": "footway", "footway": null, "name": null, "surface": "asphalt", "lit": "yes", "length_m": 18.83, "type_element": "Way", "__fid": 8390}, "geometry": {"type": "LineString", "coordinates": [[2.2728838, 48.8346398], [2.2729435, 48.8346251], [2.2731322, 48.83459910000001]]}}, {"type": "Feature", "properties": {"highway": "footway", "footway": null, "name": null, "surface": null, "lit": null, "length_m": 52.16, "type_element": "Way", "__fid": 8505}, "geometry": {"type": "LineString", "coordinates": [[2.2731634, 48.8314341], [2.2733233, 48.8311061], [2.2731453, 48.8310649]]}}, {"type": "Feature", "properties": {"highway": "footway", "footway": null, "name": null, "surface": "asphalt", "lit": null, "length_m": 31.91, "type_element": "Way", "__fid": 8506}, "geometry": {"type": "LineString", "coordinates": [[2.2731453, 48.8310649], [2.2732097, 48.83101280000002], [2.2733532, 48.8309766], [2.273437, 48.8309417], [2.2734934, 48.8309041]]}}, {"type": "Feature", "properties": {"highway": "footway", "footway": null, "name": null, "surface": "compacted", "lit": null, "length_m": 5.87, "type_element": "Way", "__fid": 8513}, "geometry": {"type": "LineString", "coordinates": [[2.2732398, 48.8314497], [2.2731634, 48.8314341]]}}, {"type": "Feature", "properties": {"highway": "footway", "footway": null, "name": null, "surface": "concrete:lanes", "lit": null, "length_m": 5.37, "type_element": "Way", "__fid": 8516}, "geometry": {"type": "LineString", "coordinates": [[2.2731893, 48.8298374], [2.273259, 48.8298522]]}}, {"type": "Feature", "properties": {"highway": "footway", "footway": null, "name": null, "surface": null, "lit": null, "length_m": 70.24, "type_element": "Way", "__fid": 8517}, "geometry": {"type": "LineString", "coordinates": [[2.2731893, 48.8298374], [2.2732151, 48.8297556], [2.2731963, 48.8296797], [2.2731661, 48.8296506], [2.2730903, 48.8296188], [2.2730602, 48.8295685], [2.2730662, 48.8295186], [2.2731118, 48.8294722], [2.2731943, 48.829459], [2.2732526, 48.82947839999998], [2.2733552, 48.8295751]]}}, {"type": "Feature", "properties": {"highway": "service", "footway": null, "name": null, "surface": "asphalt", "lit": "yes", "length_m": 47.16, "type_element": "Way", "__fid": 8522}, "geometry": {"type": "LineString", "coordinates": [[2.2737636, 48.83368580000001], [2.2731461, 48.8335688]]}}, {"type": "Feature", "properties": {"highway": "service", "footway": null, "name": null, "surface": null, "lit": "yes", "length_m": 29.76, "type_element": "Way", "__fid": 8532}, "geometry": {"type": "LineString", "coordinates": [[2.2731852, 48.8323985], [2.2733919, 48.8321683]]}}, {"type": "Feature", "properties": {"highway": "footway", "footway": null, "name": null, "surface": "concrete:lanes", "lit": null, "length_m": 32.34, "type_element": "Way", "__fid": 8545}, "geometry": {"type": "LineString", "coordinates": [[2.273259, 48.8298522], [2.273267, 48.8299591], [2.2733865, 48.83012509999999]]}}, {"type": "Feature", "properties": {"highway": "footway", "footway": null, "name": null, "surface": null, "lit": null, "length_m": 22.03, "type_element": "Way", "__fid": 8546}, "geometry": {"type": "LineString", "coordinates": [[2.273259, 48.8298522], [2.2734967, 48.8297313]]}}, {"type": "Feature", "properties": {"highway": "footway", "footway": null, "name": null, "surface": "compacted", "lit": null, "length_m": 5.49, "type_element": "Way", "__fid": 8547}, "geometry": {"type": "LineString", "coordinates": [[2.2733112, 48.8314643], [2.2732398, 48.8314497]]}}, {"type": "Feature", "properties": {"highway": "footway", "footway": null, "name": null, "surface": "dirt", "lit": null, "length_m": 93.35, "type_element": "Way", "__fid": 8548}, "geometry": {"type": "LineString", "coordinates": [[2.2738789, 48.8320577], [2.2738156, 48.8319545], [2.2737096, 48.8319028], [2.2734041, 48.8318339], [2.273341, 48.8317944], [2.2732746, 48.8317333], [2.2731946, 48.831560900000014], [2.2732398, 48.8314497]]}}, {"type": "Feature", "properties": {"highway": "footway", "footway": null, "name": null, "surface": "dirt", "lit": null, "length_m": 22.68, "type_element": "Way", "__fid": 8549}, "geometry": {"type": "LineString", "coordinates": [[2.2732398, 48.8314497], [2.2732526, 48.8314253], [2.2734126, 48.8312819]]}}, {"type": "Feature", "properties": {"highway": "service", "footway": null, "name": null, "surface": "unpaved", "lit": "yes", "length_m": 44.67, "type_element": "Way", "__fid": 8550}, "geometry": {"type": "LineString", "coordinates": [[2.2732143, 48.8338586], [2.2737636, 48.83368580000001]]}}, {"type": "Feature", "properties": {"highway": "footway", "footway": null, "name": null, "surface": "concrete:lanes", "lit": "no", "length_m": 94.66, "type_element": "Way", "__fid": 8573}, "geometry": {"type": "LineString", "coordinates": [[2.2733112, 48.8314643], [2.2732832, 48.8315652], [2.2733161, 48.83163], [2.2734053, 48.8317084], [2.2735271, 48.831733800000016], [2.2736239, 48.8317306], [2.2737233, 48.8317482], [2.2737816, 48.8317898], [2.2739917, 48.8320664]]}}, {"type": "Feature", "properties": {"highway": "footway", "footway": null, "name": null, "surface": "concrete:lanes", "lit": "no", "length_m": 10.96, "type_element": "Way", "__fid": 8574}, "geometry": {"type": "LineString", "coordinates": [[2.2733887, 48.83138], [2.2733112, 48.8314643]]}}, {"type": "Feature", "properties": {"highway": "footway", "footway": null, "name": null, "surface": null, "lit": null, "length_m": 20.42, "type_element": "Way", "__fid": 8580}, "geometry": {"type": "LineString", "coordinates": [[2.2733552, 48.8295751], [2.2733552, 48.8295852], [2.2734122, 48.8296497], [2.2734967, 48.8297313]]}}, {"type": "Feature", "properties": {"highway": "service", "footway": null, "name": null, "surface": "asphalt", "lit": "yes", "length_m": 22.79, "type_element": "Way", "__fid": 8596}, "geometry": {"type": "LineString", "coordinates": [[2.2733865, 48.83012509999999], [2.2736198, 48.83026030000001]]}}, {"type": "Feature", "properties": {"highway": "footway", "footway": null, "name": null, "surface": "dirt", "lit": null, "length_m": 11.05, "type_element": "Way", "__fid": 8598}, "geometry": {"type": "LineString", "coordinates": [[2.2734126, 48.8312819], [2.2733887, 48.83138]]}}, {"type": "Feature", "properties": {"highway": "footway", "footway": null, "name": null, "surface": "concrete:lanes", "lit": "no", "length_m": 85.43, "type_element": "Way", "__fid": 8599}, "geometry": {"type": "LineString", "coordinates": [[2.2734934, 48.8309041], [2.2736746, 48.83092420000001], [2.2737649, 48.8309576], [2.2738207, 48.8310124], [2.2738443, 48.8311001], [2.2738255, 48.83115009999998], [2.2737721, 48.83119720000001], [2.2734767, 48.8313244], [2.2733887, 48.83138]]}}, {"type": "Feature", "properties": {"highway": "service", "footway": null, "name": null, "surface": null, "lit": "yes", "length_m": 40.11, "type_element": "Way", "__fid": 8601}, "geometry": {"type": "LineString", "coordinates": [[2.273659, 48.832156200000014], [2.2733742, 48.832464]]}}, {"type": "Feature", "properties": {"highway": "service", "footway": null, "name": null, "surface": null, "lit": "yes", "length_m": 19.65, "type_element": "Way", "__fid": 8610}, "geometry": {"type": "LineString", "coordinates": [[2.2733919, 48.8321683], [2.273659, 48.832156200000014]]}}, {"type": "Feature", "properties": {"highway": "footway", "footway": null, "name": null, "surface": null, "lit": null, "length_m": 3.33, "type_element": "Way", "__fid": 8611}, "geometry": {"type": "LineString", "coordinates": [[2.2733696, 48.8340768], [2.2734149, 48.8340787]]}}, {"type": "Feature", "properties": {"highway": "footway", "footway": null, "name": null, "surface": "dirt", "lit": null, "length_m": 47.45, "type_element": "Way", "__fid": 8615}, "geometry": {"type": "LineString", "coordinates": [[2.2734126, 48.8312819], [2.2735315, 48.8311711], [2.2735895, 48.83109620000001], [2.2735873, 48.831027], [2.2734934, 48.8309041]]}}, {"type": "Feature", "properties": {"highway": "service", "footway": null, "name": null, "surface": null, "lit": "yes", "length_m": 2.76, "type_element": "Way", "__fid": 8620}, "geometry": {"type": "LineString", "coordinates": [[2.2733659, 48.8354282], [2.2734021, 48.83542140000002]]}}, {"type": "Feature", "properties": {"highway": "footway", "footway": null, "name": null, "surface": null, "lit": null, "length_m": 17.36, "type_element": "Way", "__fid": 8631}, "geometry": {"type": "LineString", "coordinates": [[2.273482, 48.8342284], [2.2734149, 48.8340787]]}}, {"type": "Feature", "properties": {"highway": "footway", "footway": null, "name": null, "surface": null, "lit": null, "length_m": 4.01, "type_element": "Way", "__fid": 8632}, "geometry": {"type": "LineString", "coordinates": [[2.2734149, 48.8340787], [2.2734679, 48.8340699]]}}, {"type": "Feature", "properties": {"highway": "footway", "footway": null, "name": null, "surface": null, "lit": null, "length_m": 18.63, "type_element": "Way", "__fid": 8644}, "geometry": {"type": "LineString", "coordinates": [[2.2734967, 48.8297313], [2.2737313, 48.8297953]]}}, {"type": "Feature", "properties": {"highway": "footway", "footway": null, "name": null, "surface": null, "lit": null, "length_m": 3.21, "type_element": "Way", "__fid": 8650}, "geometry": {"type": "LineString", "coordinates": [[2.27344, 48.8342363], [2.273482, 48.8342284]]}}, {"type": "Feature", "properties": {"highway": "footway", "footway": null, "name": null, "surface": "asphalt", "lit": null, "length_m": 62.2, "type_element": "Way", "__fid": 8651}, "geometry": {"type": "LineString", "coordinates": [[2.2735913, 48.8303494], [2.2735771, 48.8303938], [2.2735584, 48.8306314], [2.2734934, 48.8309041]]}}, {"type": "Feature", "properties": {"highway": "footway", "footway": null, "name": null, "surface": null, "lit": null, "length_m": 11.05, "type_element": "Way", "__fid": 8662}, "geometry": {"type": "LineString", "coordinates": [[2.273482, 48.8342284], [2.2736268, 48.83420120000001]]}}, {"type": "Feature", "properties": {"highway": "service", "footway": null, "name": null, "surface": null, "lit": "yes", "length_m": 44.85, "type_element": "Way", "__fid": 8672}, "geometry": {"type": "LineString", "coordinates": [[2.2738572, 48.8321853], [2.2735489, 48.83253349999998]]}}, {"type": "Feature", "properties": {"highway": "footway", "footway": null, "name": null, "surface": "asphalt", "lit": null, "length_m": 12.02, "type_element": "Way", "__fid": 8683}, "geometry": {"type": "LineString", "coordinates": [[2.2736198, 48.83026030000001], [2.2736421, 48.83031129999998], [2.2736338, 48.8303332], [2.2735913, 48.8303494]]}}, {"type": "Feature", "properties": {"highway": "footway", "footway": null, "name": null, "surface": null, "lit": null, "length_m": 32.13, "type_element": "Way", "__fid": 8686}, "geometry": {"type": "LineString", "coordinates": [[2.2736198, 48.83026030000001], [2.2739451, 48.8304536]]}}, {"type": "Feature", "properties": {"highway": "footway", "footway": null, "name": null, "surface": null, "lit": null, "length_m": 13.65, "type_element": "Way", "__fid": 8687}, "geometry": {"type": "LineString", "coordinates": [[2.2736198, 48.83026030000001], [2.2737772, 48.83019489999999]]}}, {"type": "Feature", "properties": {"highway": "footway", "footway": null, "name": null, "surface": null, "lit": null, "length_m": 10.09, "type_element": "Way", "__fid": 8696}, "geometry": {"type": "LineString", "coordinates": [[2.2736268, 48.83420120000001], [2.2735896, 48.8341138]]}}, {"type": "Feature", "properties": {"highway": "footway", "footway": null, "name": null, "surface": null, "lit": null, "length_m": 13.59, "type_element": "Way", "__fid": 8701}, "geometry": {"type": "LineString", "coordinates": [[2.2736697, 48.8296179], [2.2737773, 48.8296269], [2.273839, 48.829657]]}}, {"type": "Feature", "properties": {"highway": "footway", "footway": null, "name": null, "surface": null, "lit": null, "length_m": 13.83, "type_element": "Way", "__fid": 8709}, "geometry": {"type": "LineString", "coordinates": [[2.2736268, 48.83420120000001], [2.273809, 48.83416960000002]]}}, {"type": "Feature", "properties": {"highway": "service", "footway": null, "name": null, "surface": null, "lit": "yes", "length_m": 14.9, "type_element": "Way", "__fid": 8713}, "geometry": {"type": "LineString", "coordinates": [[2.273659, 48.832156200000014], [2.2738572, 48.8321853]]}}, {"type": "Feature", "properties": {"highway": "footway", "footway": null, "name": null, "surface": null, "lit": null, "length_m": 9.49, "type_element": "Way", "__fid": 8727}, "geometry": {"type": "LineString", "coordinates": [[2.2737313, 48.8297953], [2.2737622, 48.82987820000001]]}}, {"type": "Feature", "properties": {"highway": "steps", "footway": null, "name": null, "surface": null, "lit": null, "length_m": 17.49, "type_element": "Way", "__fid": 8728}, "geometry": {"type": "LineString", "coordinates": [[2.273839, 48.829657], [2.2738125, 48.8297163], [2.2737313, 48.8297953]]}}, {"type": "Feature", "properties": {"highway": "footway", "footway": null, "name": null, "surface": null, "lit": null, "length_m": 32.7, "type_element": "Way", "__fid": 8736}, "geometry": {"type": "LineString", "coordinates": [[2.2737956, 48.830168100000016], [2.2738139, 48.8300989], [2.2737783, 48.82999750000001], [2.2737622, 48.82987820000001]]}}, {"type": "Feature", "properties": {"highway": "footway", "footway": null, "name": null, "surface": null, "lit": null, "length_m": 9.28, "type_element": "Way", "__fid": 8737}, "geometry": {"type": "LineString", "coordinates": [[2.2737622, 48.82987820000001], [2.273884, 48.829856]]}}, {"type": "Feature", "properties": {"highway": "service", "footway": null, "name": null, "surface": null, "lit": "yes", "length_m": 48.05, "type_element": "Way", "__fid": 8745}, "geometry": {"type": "LineString", "coordinates": [[2.2740582, 48.8322204], [2.2737406, 48.83259829999999]]}}, {"type": "Feature", "properties": {"highway": "footway", "footway": null, "name": null, "surface": "dirt", "lit": null, "length_m": 20.12, "type_element": "Way", "__fid": 8748}, "geometry": {"type": "LineString", "coordinates": [[2.2737772, 48.83019489999999], [2.2738065, 48.8302147], [2.2738695, 48.8302253], [2.2740032, 48.8301591]]}}, {"type": "Feature", "properties": {"highway": "footway", "footway": null, "name": null, "surface": null, "lit": null, "length_m": 3.27, "type_element": "Way", "__fid": 8749}, "geometry": {"type": "LineString", "coordinates": [[2.2737772, 48.83019489999999], [2.2737956, 48.830168100000016]]}}, {"type": "Feature", "properties": {"highway": "path", "footway": null, "name": null, "surface": null, "lit": null, "length_m": 15.84, "type_element": "Way", "__fid": 8754}, "geometry": {"type": "LineString", "coordinates": [[2.2737956, 48.830168100000016], [2.2739004, 48.8301446], [2.2740032, 48.8301591]]}}, {"type": "Feature", "properties": {"highway": "footway", "footway": null, "name": null, "surface": null, "lit": null, "length_m": 200.63, "type_element": "Way", "__fid": 8765}, "geometry": {"type": "LineString", "coordinates": [[2.2756442, 48.8335559], [2.2754309, 48.8337024], [2.2754715, 48.8337296], [2.2752528, 48.8338817], [2.2750921, 48.8339784], [2.2749726, 48.8340391], [2.2747164, 48.8341512], [2.2746061, 48.8340331], [2.2743136, 48.83409179999999], [2.2739819, 48.833751], [2.2739226, 48.83371740000001], [2.2738659, 48.833701300000016], [2.2737636, 48.83368580000001]]}}, {"type": "Feature", "properties": {"highway": "service", "footway": null, "name": null, "surface": "unpaved", "lit": "yes", "length_m": 51.63, "type_element": "Way", "__fid": 8766}, "geometry": {"type": "LineString", "coordinates": [[2.2737636, 48.83368580000001], [2.2739847, 48.8336266], [2.2743996, 48.833488400000014]]}}, {"type": "Feature", "properties": {"highway": "footway", "footway": null, "name": null, "surface": null, "lit": null, "length_m": 27.48, "type_element": "Way", "__fid": 8775}, "geometry": {"type": "LineString", "coordinates": [[2.273839, 48.829657], [2.274014, 48.82967570000001], [2.2740459, 48.8295473]]}}, {"type": "Feature", "properties": {"highway": "service", "footway": null, "name": null, "surface": null, "lit": null, "length_m": 1.56, "type_element": "Way", "__fid": 8778}, "geometry": {"type": "LineString", "coordinates": [[2.273809, 48.83416960000002], [2.2738018, 48.8341564]]}}, {"type": "Feature", "properties": {"highway": "service", "footway": null, "name": null, "surface": null, "lit": null, "length_m": 25.07, "type_element": "Way", "__fid": 8780}, "geometry": {"type": "LineString", "coordinates": [[2.2739178, 48.834383299999985], [2.273809, 48.83416960000002]]}}, {"type": "Feature", "properties": {"highway": "footway", "footway": null, "name": null, "surface": null, "lit": null, "length_m": 45.89, "type_element": "Way", "__fid": 8788}, "geometry": {"type": "LineString", "coordinates": [[2.2741505, 48.829986], [2.2741156, 48.8300125], [2.2740526, 48.83003019999999], [2.274013, 48.8300275], [2.2739855, 48.8300068], [2.2739909, 48.8299869], [2.2740076, 48.8299759], [2.27407, 48.82996], [2.2740817, 48.8299393], [2.2740727, 48.8299229], [2.2740147, 48.8298874], [2.2739798, 48.8298821], [2.2739097, 48.8298883], [2.273884, 48.829856]]}}, {"type": "Feature", "properties": {"highway": "footway", "footway": null, "name": null, "surface": null, "lit": null, "length_m": 13.9, "type_element": "Way", "__fid": 8789}, "geometry": {"type": "LineString", "coordinates": [[2.273884, 48.829856], [2.2740671, 48.82982410000002]]}}, {"type": "Feature", "properties": {"highway": "service", "footway": null, "name": null, "surface": null, "lit": "yes", "length_m": 15.26, "type_element": "Way", "__fid": 8792}, "geometry": {"type": "LineString", "coordinates": [[2.2738572, 48.8321853], [2.2740582, 48.8322204]]}}, {"type": "Feature", "properties": {"highway": "service", "footway": null, "name": null, "surface": "asphalt", "lit": null, "length_m": 8.34, "type_element": "Way", "__fid": 8799}, "geometry": {"type": "LineString", "coordinates": [[2.2739917, 48.8320664], [2.2738789, 48.8320577]]}}, {"type": "Feature", "properties": {"highway": "service", "footway": null, "name": null, "surface": null, "lit": "yes", "length_m": 47.83, "type_element": "Way", "__fid": 8817}, "geometry": {"type": "LineString", "coordinates": [[2.2742529, 48.83228540000001], [2.2739349, 48.832660799999985]]}}, {"type": "Feature", "properties": {"highway": "service", "footway": null, "name": null, "surface": null, "lit": null, "length_m": 5.93, "type_element": "Way", "__fid": 8818}, "geometry": {"type": "LineString", "coordinates": [[2.273943, 48.834434], [2.2739178, 48.834383299999985]]}}, {"type": "Feature", "properties": {"highway": "footway", "footway": "sidewalk", "name": null, "surface": "asphalt", "lit": "yes", "length_m": 50.49, "type_element": "Way", "__fid": 8819}, "geometry": {"type": "LineString", "coordinates": [[2.2745614, 48.83422489999999], [2.2742162, 48.8343224], [2.2739178, 48.834383299999985]]}}, {"type": "Feature", "properties": {"highway": "footway", "footway": null, "name": null, "surface": "dirt", "lit": null, "length_m": 17.8, "type_element": "Way", "__fid": 8825}, "geometry": {"type": "LineString", "coordinates": [[2.2740032, 48.8301591], [2.2740439, 48.8301423], [2.2741281, 48.8300266]]}}, {"type": "Feature", "properties": {"highway": "service", "footway": null, "name": null, "surface": "asphalt", "lit": null, "length_m": 64.63, "type_element": "Way", "__fid": 8829}, "geometry": {"type": "LineString", "coordinates": [[2.2747682, 48.8323382], [2.2743999, 48.8321898], [2.2739917, 48.8320664]]}}, {"type": "Feature", "properties": {"highway": "footway", "footway": null, "name": null, "surface": "dirt", "lit": null, "length_m": 34.78, "type_element": "Way", "__fid": 8839}, "geometry": {"type": "LineString", "coordinates": [[2.2740671, 48.82982410000002], [2.2741156, 48.8297945], [2.274139, 48.829737], [2.2741471, 48.829674799999985], [2.274122, 48.82961], [2.2740459, 48.8295473]]}}, {"type": "Feature", "properties": {"highway": "footway", "footway": null, "name": null, "surface": "dirt", "lit": null, "length_m": 19.77, "type_element": "Way", "__fid": 8853}, "geometry": {"type": "LineString", "coordinates": [[2.2740671, 48.82982410000002], [2.2741377, 48.8299], [2.2741605, 48.8299538], [2.2741505, 48.829986]]}}, {"type": "Feature", "properties": {"highway": "service", "footway": null, "name": null, "surface": null, "lit": "yes", "length_m": 16.02, "type_element": "Way", "__fid": 8864}, "geometry": {"type": "LineString", "coordinates": [[2.2740582, 48.8322204], [2.2742529, 48.83228540000001]]}}, {"type": "Feature", "properties": {"highway": "footway", "footway": null, "name": null, "surface": "dirt", "lit": null, "length_m": 4.8, "type_element": "Way", "__fid": 8878}, "geometry": {"type": "LineString", "coordinates": [[2.2741281, 48.8300266], [2.2741505, 48.829986]]}}, {"type": "Feature", "properties": {"highway": "service", "footway": null, "name": null, "surface": null, "lit": "yes", "length_m": 31.66, "type_element": "Way", "__fid": 8885}, "geometry": {"type": "LineString", "coordinates": [[2.2743208, 48.8324863], [2.2741123, 48.8327355]]}}, {"type": "Feature", "properties": {"highway": "service", "footway": null, "name": null, "surface": null, "lit": "yes", "length_m": 15.16, "type_element": "Way", "__fid": 8934}, "geometry": {"type": "LineString", "coordinates": [[2.2742529, 48.83228540000001], [2.2744372, 48.832347]]}}, {"type": "Feature", "properties": {"highway": "path", "footway": null, "name": null, "surface": null, "lit": null, "length_m": 86.02, "type_element": "Way", "__fid": 8957}, "geometry": {"type": "LineString", "coordinates": [[2.2748811, 48.8325679], [2.2745389, 48.8327784], [2.2744689, 48.8327965], [2.2744344, 48.8327916], [2.2743953, 48.8327769], [2.2743554, 48.83274739999999], [2.2743385, 48.8327238], [2.2743386, 48.8326994], [2.2744298, 48.8326023], [2.2744407, 48.8325761], [2.2744367, 48.8325471], [2.2744164, 48.83252040000003], [2.2743208, 48.8324863]]}}, {"type": "Feature", "properties": {"highway": "service", "footway": null, "name": null, "surface": null, "lit": "yes", "length_m": 17.69, "type_element": "Way", "__fid": 8958}, "geometry": {"type": "LineString", "coordinates": [[2.2744372, 48.832347], [2.2743208, 48.8324863]]}}, {"type": "Feature", "properties": {"highway": "service", "footway": null, "name": null, "surface": null, "lit": "yes", "length_m": 40.89, "type_element": "Way", "__fid": 8984}, "geometry": {"type": "LineString", "coordinates": [[2.2744372, 48.832347], [2.2744945, 48.8323661], [2.2748811, 48.8325679]]}}, {"type": "Feature", "properties": {"highway": "service", "footway": null, "name": null, "surface": null, "lit": null, "length_m": 7.0, "type_element": "Way", "__fid": 9030}, "geometry": {"type": "LineString", "coordinates": [[2.2745614, 48.83422489999999], [2.2745273, 48.8341661]]}}, {"type": "Feature", "properties": {"highway": "service", "footway": null, "name": null, "surface": null, "lit": null, "length_m": 6.27, "type_element": "Way", "__fid": 9047}, "geometry": {"type": "LineString", "coordinates": [[2.2745921, 48.8342775], [2.2745614, 48.83422489999999]]}}, {"type": "Feature", "properties": {"highway": "footway", "footway": "sidewalk", "name": null, "surface": "asphalt", "lit": "yes", "length_m": 130.12, "type_element": "Way", "__fid": 9048}, "geometry": {"type": "LineString", "coordinates": [[2.2758204, 48.8334654], [2.2754721, 48.833703100000015], [2.2755083, 48.8337309], [2.2752904, 48.8338867], [2.2751416, 48.8339768], [2.274815, 48.8341352], [2.2745614, 48.83422489999999]]}}, {"type": "Feature", "properties": {"highway": "service", "footway": null, "name": null, "surface": "asphalt", "lit": null, "length_m": 134.91, "type_element": "Way", "__fid": 9090}, "geometry": {"type": "LineString", "coordinates": [[2.2761031, 48.8326349], [2.2756015, 48.8321247], [2.2751879, 48.8322969], [2.2749776, 48.8323351], [2.2747682, 48.8323382]]}}, {"type": "Feature", "properties": {"highway": "service", "footway": null, "name": null, "surface": null, "lit": "yes", "length_m": 144.06, "type_element": "Way", "__fid": 9125}, "geometry": {"type": "LineString", "coordinates": [[2.2748811, 48.8325679], [2.2750286, 48.83264970000001], [2.2751233, 48.8326833], [2.2759965, 48.83282960000001], [2.2760578, 48.832849900000014], [2.2761145, 48.8328782], [2.2762128, 48.8329629], [2.2763596, 48.83325079999999]]}}, {"type": "Feature", "properties": {"highway": "service", "footway": null, "name": null, "surface": null, "lit": "yes", "length_m": 42.91, "type_element": "Way", "__fid": 9318}, "geometry": {"type": "LineString", "coordinates": [[2.2756796, 48.8331146], [2.275273, 48.8333919]]}}, {"type": "Feature", "properties": {"highway": "service", "footway": null, "name": null, "surface": null, "lit": "yes", "length_m": 59.94, "type_element": "Way", "__fid": 9525}, "geometry": {"type": "LineString", "coordinates": [[2.2762589, 48.8333225], [2.2759462, 48.8330903], [2.2758718, 48.8330468], [2.2758288, 48.83303330000002], [2.2757913, 48.8330384], [2.2756796, 48.8331146]]}}, {"type": "Feature", "properties": {"highway": "footway", "footway": "crossing", "name": null, "surface": "asphalt", "lit": "yes", "length_m": 17.81, "type_element": "Way", "__fid": 9571}, "geometry": {"type": "LineString", "coordinates": [[2.2758204, 48.8334654], [2.2759889, 48.8335806]]}}, {"type": "Feature", "properties": {"highway": "footway", "footway": "sidewalk", "name": null, "surface": "asphalt", "lit": "yes", "length_m": 28.74, "type_element": "Way", "__fid": 9572}, "geometry": {"type": "LineString", "coordinates": [[2.2761101, 48.8333212], [2.2760502, 48.83330979999999], [2.2758204, 48.8334654]]}}, {"type": "Feature", "properties": {"highway": "service", "footway": null, "name": null, "surface": null, "lit": "yes", "length_m": 24.31, "type_element": "Way", "__fid": 9645}, "geometry": {"type": "LineString", "coordinates": [[2.2759588, 48.83351110000001], [2.275997, 48.83343030000001], [2.2760908, 48.833328], [2.2761101, 48.8333212]]}}, {"type": "Feature", "properties": {"highway": "footway", "footway": "sidewalk", "name": null, "surface": null, "lit": "yes", "length_m": 11.73, "type_element": "Way", "__fid": 9664}, "geometry": {"type": "LineString", "coordinates": [[2.276126766666898, 48.83352726666677], [2.2759889, 48.8335806]]}}, {"type": "Feature", "properties": {"highway": "service", "footway": null, "name": null, "surface": "asphalt", "lit": null, "length_m": 69.22, "type_element": "Way", "__fid": 9696}, "geometry": {"type": "LineString", "coordinates": [[2.2761031, 48.8326349], [2.2766141, 48.8331581]]}}, {"type": "Feature", "properties": {"highway": "footway", "footway": "crossing", "name": null, "surface": "asphalt", "lit": "yes", "length_m": 11.76, "type_element": "Way", "__fid": 9700}, "geometry": {"type": "LineString", "coordinates": [[2.2762321, 48.8333774], [2.2761507, 48.8333638], [2.2761101, 48.8333212]]}}, {"type": "Feature", "properties": {"highway": "service", "footway": null, "name": null, "surface": null, "lit": "yes", "length_m": 11.26, "type_element": "Way", "__fid": 9701}, "geometry": {"type": "LineString", "coordinates": [[2.2761101, 48.8333212], [2.276136, 48.833312], [2.2762589, 48.8333225]]}}, {"type": "Feature", "properties": {"highway": "footway", "footway": "sidewalk", "name": null, "surface": "asphalt", "lit": "yes", "length_m": 99.51, "type_element": "Way", "__fid": 9710}, "geometry": {"type": "LineString", "coordinates": [[2.276126766666898, 48.83352726666677], [2.2761199, 48.8335308], [2.2762021, 48.8335693], [2.2763053, 48.8336801], [2.2763276, 48.8336913], [2.2764445, 48.8337145], [2.2767415, 48.8337193], [2.2768013, 48.8337475], [2.2769587, 48.834080499999985]]}}, {"type": "Feature", "properties": {"highway": "footway", "footway": "crossing", "name": null, "surface": null, "lit": "yes", "length_m": 22.75, "type_element": "Way", "__fid": 9711}, "geometry": {"type": "LineString", "coordinates": [[2.276126766666898, 48.83352726666677], [2.2763034, 48.8334587], [2.2763713, 48.8334058]]}}, {"type": "Feature", "properties": {"highway": "service", "footway": null, "name": "Place des Martyrs de la Résistance", "surface": "asphalt", "lit": "yes", "length_m": 11.69, "type_element": "Way", "__fid": 9735}, "geometry": {"type": "LineString", "coordinates": [[2.2762321, 48.8333774], [2.2761831, 48.8334774]]}}, {"type": "Feature", "properties": {"highway": "footway", "footway": "crossing", "name": null, "surface": "asphalt", "lit": "yes", "length_m": 10.7, "type_element": "Way", "__fid": 9754}, "geometry": {"type": "LineString", "coordinates": [[2.2763713, 48.8334058], [2.2762321, 48.8333774]]}}, {"type": "Feature", "properties": {"highway": "service", "footway": null, "name": "Place des Martyrs de la Résistance", "surface": "asphalt", "lit": "yes", "length_m": 6.41, "type_element": "Way", "__fid": 9755}, "geometry": {"type": "LineString", "coordinates": [[2.2762589, 48.8333225], [2.2762321, 48.8333774]]}}, {"type": "Feature", "properties": {"highway": "service", "footway": null, "name": "Place des Martyrs de la Résistance", "surface": "asphalt", "lit": "yes", "length_m": 10.87, "type_element": "Way", "__fid": 9765}, "geometry": {"type": "LineString", "coordinates": [[2.2762589, 48.8333225], [2.2763596, 48.83325079999999]]}}, {"type": "Feature", "properties": {"highway": "service", "footway": null, "name": "Place des Martyrs de la Résistance", "surface": "asphalt", "lit": "yes", "length_m": 21.34, "type_element": "Way", "__fid": 9795}, "geometry": {"type": "LineString", "coordinates": [[2.2763596, 48.83325079999999], [2.2766141, 48.8331581]]}}, {"type": "Feature", "properties": {"highway": "footway", "footway": "sidewalk", "name": null, "surface": "asphalt", "lit": "yes", "length_m": 3.56, "type_element": "Way", "__fid": 9798}, "geometry": {"type": "LineString", "coordinates": [[2.2764064, 48.8334279], [2.2763713, 48.8334058]]}}, {"type": "Feature", "properties": {"highway": "footway", "footway": "sidewalk", "name": null, "surface": "asphalt", "lit": "yes", "length_m": 75.09, "type_element": "Way", "__fid": 9799}, "geometry": {"type": "LineString", "coordinates": [[2.2763713, 48.8334058], [2.2767128, 48.8332726], [2.2772622, 48.83307420000001]]}}, {"type": "Feature", "properties": {"highway": "footway", "footway": "crossing", "name": null, "surface": "asphalt", "lit": "yes", "length_m": 12.49, "type_element": "Way", "__fid": 9810}, "geometry": {"type": "LineString", "coordinates": [[2.2764064, 48.8334279], [2.2764729, 48.83350770000001], [2.276501, 48.8334974]]}}, {"type": "Feature", "properties": {"highway": "footway", "footway": "sidewalk", "name": null, "surface": "asphalt", "lit": "yes", "length_m": 2.16, "type_element": "Way", "__fid": 9811}, "geometry": {"type": "LineString", "coordinates": [[2.2764064, 48.8334279], [2.2764318, 48.8334181]]}}, {"type": "Feature", "properties": {"highway": "footway", "footway": "sidewalk", "name": null, "surface": "asphalt", "lit": "yes", "length_m": 71.28, "type_element": "Way", "__fid": 9871}, "geometry": {"type": "LineString", "coordinates": [[2.2766141, 48.8331581], [2.2772424, 48.8329191], [2.2773678, 48.8330587]]}}, {"type": "Feature", "properties": {"highway": "footway", "footway": "sidewalk", "name": null, "surface": "asphalt", "lit": "yes", "length_m": 74.83, "type_element": "Way", "__fid": 9978}, "geometry": {"type": "LineString", "coordinates": [[2.2773445, 48.8347003], [2.2770835, 48.834261900000016], [2.2769963, 48.8341746], [2.2769587, 48.834080499999985]]}}, {"type": "Feature", "properties": {"highway": "footway", "footway": "crossing", "name": null, "surface": "asphalt", "lit": "yes", "length_m": 30.04, "type_element": "Way", "__fid": 9979}, "geometry": {"type": "LineString", "coordinates": [[2.2769587, 48.834080499999985], [2.2773416, 48.8339852]]}}, {"type": "Feature", "properties": {"highway": "footway", "footway": "sidewalk", "name": null, "surface": "concrete", "lit": "yes", "length_m": 6.9, "type_element": "Way", "__fid": 10034}, "geometry": {"type": "LineString", "coordinates": [[2.277288727314307, 48.83310346357697], [2.2772066, 48.8331337]]}}, {"type": "Feature", "properties": {"highway": "footway", "footway": "sidewalk", "name": null, "surface": "asphalt", "lit": "yes", "length_m": 3.79, "type_element": "Way", "__fid": 10052}, "geometry": {"type": "LineString", "coordinates": [[2.2772622, 48.83307420000001], [2.277288727314307, 48.83310346357697]]}}, {"type": "Feature", "properties": {"highway": "footway", "footway": "sidewalk", "name": null, "surface": "asphalt", "lit": "yes", "length_m": 7.94, "type_element": "Way", "__fid": 10053}, "geometry": {"type": "LineString", "coordinates": [[2.2773678, 48.8330587], [2.2772622, 48.83307420000001]]}}, {"type": "Feature", "properties": {"highway": "footway", "footway": "sidewalk", "name": null, "surface": "concrete", "lit": "yes", "length_m": 7.02, "type_element": "Way", "__fid": 10056}, "geometry": {"type": "LineString", "coordinates": [[2.2772758, 48.8332139], [2.277358, 48.8331817]]}}, {"type": "Feature", "properties": {"highway": "service", "footway": null, "name": null, "surface": "asphalt", "lit": "yes", "length_m": 26.94, "type_element": "Way", "__fid": 10057}, "geometry": {"type": "LineString", "coordinates": [[2.2774992, 48.8329877], [2.2772902, 48.832788500000014]]}}, {"type": "Feature", "properties": {"highway": "footway", "footway": "sidewalk", "name": null, "surface": "concrete", "lit": "yes", "length_m": 0.6, "type_element": "Way", "__fid": 10060}, "geometry": {"type": "LineString", "coordinates": [[2.277292899999822, 48.833108066666696], [2.277288727314307, 48.83310346357697]]}}, {"type": "Feature", "properties": {"highway": "footway", "footway": "crossing", "name": null, "surface": "asphalt", "lit": "yes", "length_m": 9.48, "type_element": "Way", "__fid": 10063}, "geometry": {"type": "LineString", "coordinates": [[2.277358, 48.8331817], [2.277292899999822, 48.833108066666696]]}}, {"type": "Feature", "properties": {"highway": "service", "footway": null, "name": null, "surface": "asphalt", "lit": "yes", "length_m": 31.38, "type_element": "Way", "__fid": 10071}, "geometry": {"type": "LineString", "coordinates": [[2.2774992, 48.8329877], [2.2774918, 48.8329062], [2.2773287, 48.832737]]}}, {"type": "Feature", "properties": {"highway": "footway", "footway": "sidewalk", "name": null, "surface": "asphalt", "lit": "yes", "length_m": 105.41, "type_element": "Way", "__fid": 10074}, "geometry": {"type": "LineString", "coordinates": [[2.2773416, 48.8339852], [2.2774031, 48.8340647], [2.2774563, 48.834159499999984], [2.277461, 48.83418560000001], [2.277817126991944, 48.83487810390372]]}}, {"type": "Feature", "properties": {"highway": "footway", "footway": "sidewalk", "name": null, "surface": "asphalt", "lit": "yes", "length_m": 103.36, "type_element": "Way", "__fid": 10075}, "geometry": {"type": "LineString", "coordinates": [[2.2773416, 48.8339852], [2.2771727, 48.8336493], [2.2771767, 48.8335967], [2.277227, 48.83353670000001], [2.2773048, 48.8334815], [2.2773624, 48.833479299999986], [2.2774228, 48.8333937], [2.2774094, 48.833365], [2.2774161, 48.833331499999986], [2.277464599999822, 48.833300700000045], [2.277358, 48.8331817]]}}, {"type": "Feature", "properties": {"highway": "footway", "footway": "sidewalk", "name": null, "surface": "asphalt", "lit": "yes", "length_m": 30.1, "type_element": "Way", "__fid": 10082}, "geometry": {"type": "LineString", "coordinates": [[2.2774945, 48.8349522], [2.2773445, 48.8347003]]}}, {"type": "Feature", "properties": {"highway": "steps", "footway": null, "name": null, "surface": "paving_stones", "lit": "yes", "length_m": 6.24, "type_element": "Way", "__fid": 10083}, "geometry": {"type": "LineString", "coordinates": [[2.2773445, 48.8347003], [2.2773721, 48.8346949], [2.2773578, 48.834659]]}}, {"type": "Feature", "properties": {"highway": "footway", "footway": "sidewalk", "name": null, "surface": "asphalt", "lit": "yes", "length_m": 12.13, "type_element": "Way", "__fid": 10084}, "geometry": {"type": "LineString", "coordinates": [[2.2773678, 48.8330587], [2.2775154, 48.83300960000001]]}}, {"type": "Feature", "properties": {"highway": "footway", "footway": null, "name": null, "surface": null, "lit": "yes", "length_m": 2.84, "type_element": "Way", "__fid": 10095}, "geometry": {"type": "LineString", "coordinates": [[2.2774228, 48.83274], [2.2774038, 48.83271770000002]]}}, {"type": "Feature", "properties": {"highway": "footway", "footway": null, "name": null, "surface": null, "lit": "yes", "length_m": 24.94, "type_element": "Way", "__fid": 10109}, "geometry": {"type": "LineString", "coordinates": [[2.2775895, 48.83293539999998], [2.2774228, 48.83274]]}}, {"type": "Feature", "properties": {"highway": "footway", "footway": null, "name": null, "surface": null, "lit": "no", "length_m": 34.63, "type_element": "Way", "__fid": 10110}, "geometry": {"type": "LineString", "coordinates": [[2.2778221, 48.8325742], [2.2774228, 48.83274]]}}, {"type": "Feature", "properties": {"highway": "footway", "footway": null, "name": null, "surface": null, "lit": null, "length_m": 2.6, "type_element": "Way", "__fid": 10134}, "geometry": {"type": "LineString", "coordinates": [[2.2774945, 48.8349522], [2.277461, 48.834959900000015]]}}, {"type": "Feature", "properties": {"highway": "service", "footway": null, "name": null, "surface": "asphalt", "lit": "yes", "length_m": 2.71, "type_element": "Way", "__fid": 10138}, "geometry": {"type": "LineString", "coordinates": [[2.2775154, 48.83300960000001], [2.2774992, 48.8329877]]}}, {"type": "Feature", "properties": {"highway": "service", "footway": null, "name": null, "surface": "asphalt", "lit": "yes", "length_m": 17.72, "type_element": "Way", "__fid": 10148}, "geometry": {"type": "LineString", "coordinates": [[2.2776132, 48.8331553], [2.2775154, 48.83300960000001]]}}, {"type": "Feature", "properties": {"highway": "footway", "footway": "sidewalk", "name": null, "surface": "asphalt", "lit": "yes", "length_m": 8.66, "type_element": "Way", "__fid": 10149}, "geometry": {"type": "LineString", "coordinates": [[2.2775154, 48.83300960000001], [2.2776215, 48.83297559999998]]}}, {"type": "Feature", "properties": {"highway": "footway", "footway": "sidewalk", "name": null, "surface": "asphalt", "lit": "yes", "length_m": 16.34, "type_element": "Way", "__fid": 10151}, "geometry": {"type": "LineString", "coordinates": [[2.277568, 48.8350909], [2.2774945, 48.8349522]]}}, {"type": "Feature", "properties": {"highway": "footway", "footway": null, "name": null, "surface": null, "lit": null, "length_m": 25.07, "type_element": "Way", "__fid": 10152}, "geometry": {"type": "LineString", "coordinates": [[2.277817126991944, 48.83487810390372], [2.2774945, 48.8349522]]}}, {"type": "Feature", "properties": {"highway": "footway", "footway": null, "name": null, "surface": null, "lit": "yes", "length_m": 5.05, "type_element": "Way", "__fid": 10174}, "geometry": {"type": "LineString", "coordinates": [[2.2776215, 48.83297559999998], [2.2775895, 48.83293539999998]]}}, {"type": "Feature", "properties": {"highway": "footway", "footway": null, "name": null, "surface": null, "lit": null, "length_m": 44.93, "type_element": "Way", "__fid": 10175}, "geometry": {"type": "LineString", "coordinates": [[2.2775895, 48.83293539999998], [2.2776185, 48.832873], [2.2776713, 48.8328037], [2.2777351, 48.8327338], [2.2778001, 48.8326921], [2.2778217, 48.8326381], [2.2778221, 48.8325742]]}}, {"type": "Feature", "properties": {"highway": "footway", "footway": "sidewalk", "name": null, "surface": "asphalt", "lit": "yes", "length_m": 59.02, "type_element": "Way", "__fid": 10176}, "geometry": {"type": "LineString", "coordinates": [[2.2778201, 48.8355949], [2.277568, 48.8350909]]}}, {"type": "Feature", "properties": {"highway": "steps", "footway": null, "name": null, "surface": "metal", "lit": "yes", "length_m": 6.18, "type_element": "Way", "__fid": 10177}, "geometry": {"type": "LineString", "coordinates": [[2.277568, 48.8350909], [2.2775966, 48.83508680000001], [2.2775796, 48.8350523]]}}, {"type": "Feature", "properties": {"highway": "footway", "footway": null, "name": null, "surface": "asphalt", "lit": "yes", "length_m": 141.55, "type_element": "Way", "__fid": 10181}, "geometry": {"type": "LineString", "coordinates": [[2.2776257, 48.8315429], [2.2787356, 48.8325839]]}}, {"type": "Feature", "properties": {"highway": "footway", "footway": "sidewalk", "name": null, "surface": "asphalt", "lit": "yes", "length_m": 92.67, "type_element": "Way", "__fid": 10183}, "geometry": {"type": "LineString", "coordinates": [[2.2776215, 48.83297559999998], [2.2778264, 48.83290980000001], [2.2787356, 48.8325839]]}}, {"type": "Feature", "properties": {"highway": "footway", "footway": null, "name": null, "surface": null, "lit": null, "length_m": 3.54, "type_element": "Way", "__fid": 10248}, "geometry": {"type": "LineString", "coordinates": [[2.2778221, 48.8325742], [2.2778223, 48.8325424]]}}, {"type": "Feature", "properties": {"highway": "footway", "footway": null, "name": null, "surface": null, "lit": "no", "length_m": 33.99, "type_element": "Way", "__fid": 10249}, "geometry": {"type": "LineString", "coordinates": [[2.2782153, 48.8324128], [2.2778221, 48.8325742]]}}, {"type": "Feature", "properties": {"highway": "footway", "footway": "sidewalk", "name": null, "surface": "asphalt", "lit": "yes", "length_m": 113.7, "type_element": "Way", "__fid": 10260}, "geometry": {"type": "LineString", "coordinates": [[2.2783151, 48.8358464], [2.277817126991944, 48.83487810390372]]}}, {"type": "Feature", "properties": {"highway": "footway", "footway": null, "name": null, "surface": null, "lit": null, "length_m": 2.54, "type_element": "Way", "__fid": 10261}, "geometry": {"type": "LineString", "coordinates": [[2.2778498, 48.8348706], [2.277817126991944, 48.83487810390372]]}}, {"type": "Feature", "properties": {"highway": "footway", "footway": "sidewalk", "name": null, "surface": "asphalt", "lit": "yes", "length_m": 126.18, "type_element": "Way", "__fid": 10557}, "geometry": {"type": "LineString", "coordinates": [[2.2787356, 48.8325839], [2.2791671, 48.8324312], [2.2802352, 48.83202940000001]]}}, {"type": "Feature", "properties": {"highway": "footway", "footway": "sidewalk", "name": null, "surface": null, "lit": "yes", "length_m": 146.77, "type_element": "Way", "__fid": 10591}, "geometry": {"type": "LineString", "coordinates": [[2.2803042, 48.8320017], [2.2789072, 48.831138], [2.2788665, 48.8311158], [2.2788339, 48.8311145]]}}, {"type": "Feature", "properties": {"highway": "service", "footway": null, "name": null, "surface": null, "lit": null, "length_m": 57.36, "type_element": "Way", "__fid": 10629}, "geometry": {"type": "LineString", "coordinates": [[2.2789333, 48.8357937], [2.2788818, 48.8356711], [2.2788824, 48.8356381], [2.2789074, 48.8356128], [2.2790028, 48.835586599999985], [2.2790323, 48.8355617], [2.279027, 48.8355174], [2.2789432, 48.83534489999999]]}}, {"type": "Feature", "properties": {"highway": "service", "footway": null, "name": null, "surface": null, "lit": null, "length_m": 59.4, "type_element": "Way", "__fid": 10680}, "geometry": {"type": "LineString", "coordinates": [[2.2795338, 48.8356466], [2.279452, 48.835512], [2.2794257, 48.8355017], [2.2793931, 48.8355031], [2.2792737, 48.8355307], [2.2792459, 48.83552790000001], [2.2792137, 48.8355072], [2.2791079, 48.8353031]]}}, {"type": "Feature", "properties": {"highway": "footway", "footway": "sidewalk", "name": null, "surface": "paving_stones", "lit": "yes", "length_m": 96.29, "type_element": "Way", "__fid": 10875}, "geometry": {"type": "LineString", "coordinates": [[2.2795338, 48.8356466], [2.2807292, 48.83529]]}}, {"type": "Feature", "properties": {"highway": "footway", "footway": "sidewalk", "name": null, "surface": null, "lit": "yes", "length_m": 54.91, "type_element": "Way", "__fid": 11001}, "geometry": {"type": "LineString", "coordinates": [[2.2805001, 48.8319279], [2.279949, 48.831594]]}}, {"type": "Feature", "properties": {"highway": "footway", "footway": "sidewalk", "name": null, "surface": "asphalt", "lit": "yes", "length_m": 52.88, "type_element": "Way", "__fid": 11136}, "geometry": {"type": "LineString", "coordinates": [[2.2802352, 48.83202940000001], [2.2803941, 48.8322192], [2.2805465, 48.8321719], [2.2806253, 48.8321636], [2.2806856, 48.8321684], [2.2807486, 48.832204]]}}, {"type": "Feature", "properties": {"highway": "footway", "footway": "sidewalk", "name": null, "surface": "asphalt", "lit": "yes", "length_m": 5.93, "type_element": "Way", "__fid": 11137}, "geometry": {"type": "LineString", "coordinates": [[2.2802352, 48.83202940000001], [2.2803042, 48.8320017]]}}, {"type": "Feature", "properties": {"highway": "footway", "footway": "crossing", "name": null, "surface": null, "lit": "yes", "length_m": 16.56, "type_element": "Way", "__fid": 11164}, "geometry": {"type": "LineString", "coordinates": [[2.2803042, 48.8320017], [2.2805001, 48.8319279]]}}, {"type": "Feature", "properties": {"highway": "footway", "footway": "sidewalk", "name": null, "surface": null, "lit": "yes", "length_m": 25.8, "type_element": "Way", "__fid": 11256}, "geometry": {"type": "LineString", "coordinates": [[2.2805001, 48.8319279], [2.2808117, 48.831820499999985]]}}, {"type": "Feature", "properties": {"highway": "footway", "footway": "sidewalk", "name": null, "surface": null, "lit": "yes", "length_m": 75.52, "type_element": "Way", "__fid": 11346}, "geometry": {"type": "LineString", "coordinates": [[2.2814277, 48.8315996], [2.280742, 48.8310933]]}}, {"type": "Feature", "properties": {"highway": "footway", "footway": "sidewalk", "name": null, "surface": "asphalt", "lit": "yes", "length_m": 324.83, "type_element": "Way", "__fid": 11354}, "geometry": {"type": "LineString", "coordinates": [[2.2807486, 48.832204], [2.2807173, 48.8322188], [2.2807105, 48.8322388], [2.2809885, 48.8324075], [2.2836552, 48.8342389], [2.2837256, 48.834311]]}}, {"type": "Feature", "properties": {"highway": "footway", "footway": "crossing", "name": null, "surface": null, "lit": "yes", "length_m": 27.97, "type_element": "Way", "__fid": 11355}, "geometry": {"type": "LineString", "coordinates": [[2.2807486, 48.832204], [2.2809459, 48.8321218], [2.2809657, 48.83210660000001], [2.2809629, 48.83207090000001], [2.2810001, 48.8320372]]}}, {"type": "Feature", "properties": {"highway": "footway", "footway": "crossing", "name": null, "surface": null, "lit": "yes", "length_m": 30.37, "type_element": "Way", "__fid": 11368}, "geometry": {"type": "LineString", "coordinates": [[2.280906, 48.8355369], [2.2807292, 48.83529]]}}, {"type": "Feature", "properties": {"highway": "footway", "footway": "sidewalk", "name": null, "surface": "paving_stones", "lit": "yes", "length_m": 31.73, "type_element": "Way", "__fid": 11369}, "geometry": {"type": "LineString", "coordinates": [[2.2807292, 48.83529], [2.2811231, 48.8351725]]}}, {"type": "Feature", "properties": {"highway": "footway", "footway": "sidewalk", "name": null, "surface": null, "lit": "yes", "length_m": 78.32, "type_element": "Way", "__fid": 11380}, "geometry": {"type": "LineString", "coordinates": [[2.2808211, 48.831059], [2.2808393, 48.8310485], [2.281537533333454, 48.83155973333341]]}}, {"type": "Feature", "properties": {"highway": "footway", "footway": "crossing", "name": null, "surface": null, "lit": "yes", "length_m": 13.2, "type_element": "Way", "__fid": 11385}, "geometry": {"type": "LineString", "coordinates": [[2.2808117, 48.831820499999985], [2.2809001, 48.831923900000014]]}}, {"type": "Feature", "properties": {"highway": "footway", "footway": "sidewalk", "name": null, "surface": null, "lit": "yes", "length_m": 51.46, "type_element": "Way", "__fid": 11386}, "geometry": {"type": "LineString", "coordinates": [[2.2808117, 48.831820499999985], [2.2814277, 48.8315996]]}}, {"type": "Feature", "properties": {"highway": "footway", "footway": "crossing", "name": null, "surface": null, "lit": "yes", "length_m": 14.58, "type_element": "Way", "__fid": 11434}, "geometry": {"type": "LineString", "coordinates": [[2.2809001, 48.831923900000014], [2.2810001, 48.8320372]]}}, {"type": "Feature", "properties": {"highway": "footway", "footway": "traffic_island", "name": null, "surface": "concrete", "lit": null, "length_m": 29.14, "type_element": "Way", "__fid": 11435}, "geometry": {"type": "LineString", "coordinates": [[2.2812502, 48.8318004], [2.2809001, 48.831923900000014]]}}, {"type": "Feature", "properties": {"highway": "footway", "footway": "crossing", "name": null, "surface": "asphalt", "lit": "yes", "length_m": 27.14, "type_element": "Way", "__fid": 11462}, "geometry": {"type": "LineString", "coordinates": [[2.280906, 48.8355369], [2.2811758, 48.8354676], [2.2812561, 48.8354673]]}}, {"type": "Feature", "properties": {"highway": "footway", "footway": "sidewalk", "name": null, "surface": null, "lit": "yes", "length_m": 320.0, "type_element": "Way", "__fid": 11479}, "geometry": {"type": "LineString", "coordinates": [[2.2810001, 48.8320372], [2.282628, 48.83142939999998], [2.2847616, 48.830583200000014]]}}, {"type": "Feature", "properties": {"highway": "footway", "footway": "crossing", "name": null, "surface": null, "lit": "yes", "length_m": 33.95, "type_element": "Way", "__fid": 11535}, "geometry": {"type": "LineString", "coordinates": [[2.2811231, 48.8351725], [2.281315, 48.8354503]]}}, {"type": "Feature", "properties": {"highway": "footway", "footway": "sidewalk", "name": null, "surface": "paving_stones", "lit": "yes", "length_m": 213.92, "type_element": "Way", "__fid": 11536}, "geometry": {"type": "LineString", "coordinates": [[2.2811231, 48.8351725], [2.2825719, 48.834740299999986], [2.2837256, 48.834311]]}}, {"type": "Feature", "properties": {"highway": "service", "footway": null, "name": null, "surface": null, "lit": "yes", "length_m": 23.07, "type_element": "Way", "__fid": 11566}, "geometry": {"type": "LineString", "coordinates": [[2.2812535, 48.8324593], [2.2815661, 48.8324806]]}}, {"type": "Feature", "properties": {"highway": "footway", "footway": "sidewalk", "name": null, "surface": "paving_stones", "lit": "yes", "length_m": 39.01, "type_element": "Way", "__fid": 11587}, "geometry": {"type": "LineString", "coordinates": [[2.2813736, 48.8358059], [2.2813407, 48.8357418], [2.281347, 48.8356741], [2.2812561, 48.8354673]]}}, {"type": "Feature", "properties": {"highway": "footway", "footway": "sidewalk", "name": null, "surface": "paving_stones", "lit": "yes", "length_m": 4.72, "type_element": "Way", "__fid": 11588}, "geometry": {"type": "LineString", "coordinates": [[2.2812561, 48.8354673], [2.281315, 48.8354503]]}}, {"type": "Feature", "properties": {"highway": "footway", "footway": "sidewalk", "name": null, "surface": "paving_stones", "lit": "yes", "length_m": 181.81, "type_element": "Way", "__fid": 11615}, "geometry": {"type": "LineString", "coordinates": [[2.281315, 48.8354503], [2.2824308, 48.835126], [2.2830409, 48.834905499999984], [2.2834592, 48.8347655], [2.2835317, 48.834726900000014]]}}, {"type": "Feature", "properties": {"highway": "service", "footway": null, "name": null, "surface": null, "lit": null, "length_m": 25.71, "type_element": "Way", "__fid": 11621}, "geometry": {"type": "LineString", "coordinates": [[2.2815661, 48.8324806], [2.2813636, 48.832292]]}}, {"type": "Feature", "properties": {"highway": "footway", "footway": "crossing", "name": null, "surface": null, "lit": "yes", "length_m": 9.2, "type_element": "Way", "__fid": 11652}, "geometry": {"type": "LineString", "coordinates": [[2.2814277, 48.8315996], [2.281537533333454, 48.83155973333341]]}}, {"type": "Feature", "properties": {"highway": "footway", "footway": "sidewalk", "name": null, "surface": null, "lit": "yes", "length_m": 193.3, "type_element": "Way", "__fid": 11712}, "geometry": {"type": "LineString", "coordinates": [[2.281537533333454, 48.83155973333341], [2.2829609, 48.8310376], [2.2838315, 48.8307063]]}}, {"type": "Feature", "properties": {"highway": "service", "footway": null, "name": null, "surface": null, "lit": "yes", "length_m": 247.4, "type_element": "Way", "__fid": 11733}, "geometry": {"type": "LineString", "coordinates": [[2.2815661, 48.8324806], [2.2839258, 48.8340692]]}}, {"type": "Feature", "properties": {"highway": "service", "footway": null, "name": null, "surface": null, "lit": "yes", "length_m": 700.14, "type_element": "Way", "__fid": 12640}, "geometry": {"type": "LineString", "coordinates": [[2.2863436, 48.83221129999997], [2.284726, 48.8311315], [2.284686, 48.8310885], [2.2845259, 48.8309806], [2.2845066, 48.8309783], [2.2844851, 48.83097990000002], [2.2839974, 48.8311967], [2.283262, 48.8316814], [2.2832056, 48.8316955], [2.2831396, 48.8317], [2.2829793, 48.8316917], [2.2828481, 48.83169809999998], [2.282749, 48.8317185], [2.28183, 48.83209330000001], [2.281727, 48.8321432], [2.2816959, 48.8321982], [2.2816804, 48.8322698], [2.2817037, 48.832335], [2.2818533, 48.8324604], [2.2825373, 48.8328939], [2.2837597, 48.83370020000002], [2.2838818, 48.8337687], [2.2840254, 48.8338068]]}}]}