{"type": "FeatureCollection", "features": [{"type": "Feature", "properties": {"highway": "service", "footway": null, "name": null, "surface": null, "lit": "yes", "length_m": 240.79, "type_element": "Way", "__fid": 13606}, "geometry": {"type": "LineString", "coordinates": [[2.2860814, 48.828331], [2.2857052, 48.8294718], [2.28676, 48.83018670000001]]}}, {"type": "Feature", "properties": {"highway": "footway", "footway": null, "name": null, "surface": "asphalt", "lit": "yes", "length_m": 237.32, "type_element": "Way", "__fid": 14886}, "geometry": {"type": "LineString", "coordinates": [[2.2883581, 48.830756], [2.2884668, 48.8286229]]}}, {"type": "Feature", "properties": {"highway": "service", "footway": null, "name": null, "surface": null, "lit": null, "length_m": 97.51, "type_element": "Way", "__fid": 14918}, "geometry": {"type": "LineString", "coordinates": [[2.2884784, 48.8282497], [2.2896461, 48.8282745], [2.2898016, 48.82824970000002]]}}, {"type": "Feature", "properties": {"highway": "service", "footway": null, "name": null, "surface": null, "lit": "yes", "length_m": 254.61, "type_element": "Way", "__fid": 15553}, "geometry": {"type": "LineString", "coordinates": [[2.2898397, 48.8305336], [2.2899175, 48.829603100000014], [2.2899041, 48.8287608], [2.2898016, 48.82824970000002]]}}, {"type": "Feature", "properties": {"highway": "service", "footway": null, "name": null, "surface": null, "lit": "yes", "length_m": 75.43, "type_element": "Way", "__fid": 15554}, "geometry": {"type": "LineString", "coordinates": [[2.2898016, 48.82824970000002], [2.2899571, 48.82818729999999], [2.2902661, 48.828031], [2.2904373, 48.82787540000002], [2.29048737260372, 48.82777167851408]]}}, {"type": "Feature", "properties": {"highway": "footway", "footway": "sidewalk", "name": null, "surface": null, "lit": "yes", "length_m": 234.96, "type_element": "Way", "__fid": 15563}, "geometry": {"type": "LineString", "coordinates": [[2.2919338, 48.8272993], [2.2918353, 48.8272637], [2.2916428, 48.8272364], [2.2913315, 48.8272504], [2.2910947, 48.8272762], [2.2909833, 48.8272773], [2.2908712, 48.8272594], [2.2907569, 48.827224399999984], [2.2906274, 48.8271626], [2.2905123, 48.8270668], [2.2904315, 48.8269783], [2.2898545, 48.8260857], [2.2898562, 48.8260758]]}}, {"type": "Feature", "properties": {"highway": "service", "footway": null, "name": null, "surface": null, "lit": "yes", "length_m": 186.71, "type_element": "Way", "__fid": 15604}, "geometry": {"type": "LineString", "coordinates": [[2.29048737260372, 48.82777167851408], [2.290003, 48.8277639], [2.2899266, 48.8277498], [2.2899051, 48.827697], [2.289947, 48.8264451]]}}, {"type": "Feature", "properties": {"highway": "pedestrian", "footway": null, "name": null, "surface": null, "lit": "yes", "length_m": 317.43, "type_element": "Way", "__fid": 15669}, "geometry": {"type": "LineString", "coordinates": [[2.2900218, 48.8305172], [2.2900198, 48.83037619999998], [2.2900342, 48.8303075], [2.2900701, 48.8302637], [2.2901033, 48.8301777], [2.2900834, 48.8300778], [2.2900826, 48.8299836], [2.2900647, 48.8298607], [2.2900797, 48.82946640000003], [2.2900742, 48.8289715], [2.2900917, 48.8287491], [2.2901421, 48.8286737], [2.2902722, 48.8285779], [2.2903624, 48.8285709], [2.2906641, 48.8283836], [2.2910436, 48.828238], [2.2913982, 48.82818009999998]]}}, {"type": "Feature", "properties": {"highway": "service", "footway": null, "name": null, "surface": null, "lit": "yes", "length_m": 87.82, "type_element": "Way", "__fid": 15868}, "geometry": {"type": "LineString", "coordinates": [[2.2915862, 48.8274884], [2.2914851, 48.8275249], [2.2911779, 48.8275949], [2.2906829, 48.8277674], [2.2906195, 48.82777380000001], [2.29048737260372, 48.82777167851408]]}}, {"type": "Feature", "properties": {"highway": "service", "footway": null, "name": null, "surface": null, "lit": null, "length_m": 18.36, "type_element": "Way", "__fid": 15869}, "geometry": {"type": "LineString", "coordinates": [[2.29048737260372, 48.82777167851408], [2.2905633, 48.8276144]]}}]}