{"type": "FeatureCollection", "features": [{"type": "Feature", "properties": {"@id": "node/8897915743", "amenity": "drinking_water", "type_element": "Fontaines à boire", "__fid": 774}, "geometry": {"type": "Point", "coordinates": [2.2852858, 48.8335453]}, "id": "node/8897915743"}, {"type": "Feature", "geometry": {"type": "Point", "coordinates": [2.28436, 48.833853]}, "properties": {"id": 19568, "name": "Jardin Élisabeth Boselli", "categorie": "Parcs, jardins et bois", "photo_url": "https://cdn.paris.fr/eqpts-prod/2025/12/11/1bb9fe310bd91ed66ffc7938c6e1ad06.jpg", "photo_credit": "Sonia Yassa /Ville de Paris", "photo_alt": null, "address_street": "34 boulevard Victor", "address_postcode": "75015", "address_city": "Paris", "phone": null, "accessibility": "{\"handicaps\": [{\"name\": \"Personnes déficientes visuelles\", \"status\": \"undefined\"}, {\"name\": \"Personnes déficientes auditives\", \"status\": \"undefined\"}, {\"name\": \"Personnes déficientes mentales\", \"status\": \"undefined\"}, {\"name\": \"Personnes à mobilité réduite\", \"status\": \"undefined\"}, {\"name\": \"Accueil en langue des signes\", \"status\": \"undefined\"}]}", "latitude": 48.833853, "longitude": 2.28436, "url": "https://www.paris.fr/lieux/jardin-elisabeth-boselli-19568", "type_element": "Parcs, Jardins et Bois", "__fid": 1366}}, {"type": "Feature", "properties": {"highway": "footway", "footway": "sidewalk", "name": null, "surface": "asphalt", "lit": "yes", "length_m": 324.83, "type_element": "Way", "__fid": 11354}, "geometry": {"type": "LineString", "coordinates": [[2.2807486, 48.832204], [2.2807173, 48.8322188], [2.2807105, 48.8322388], [2.2809885, 48.8324075], [2.2836552, 48.8342389], [2.2837256, 48.834311]]}}, {"type": "Feature", "properties": {"highway": "footway", "footway": "sidewalk", "name": null, "surface": null, "lit": "yes", "length_m": 320.0, "type_element": "Way", "__fid": 11479}, "geometry": {"type": "LineString", "coordinates": [[2.2810001, 48.8320372], [2.282628, 48.83142939999998], [2.2847616, 48.830583200000014]]}}, {"type": "Feature", "properties": {"highway": "footway", "footway": "sidewalk", "name": null, "surface": "paving_stones", "lit": "yes", "length_m": 213.92, "type_element": "Way", "__fid": 11536}, "geometry": {"type": "LineString", "coordinates": [[2.2811231, 48.8351725], [2.2825719, 48.834740299999986], [2.2837256, 48.834311]]}}, {"type": "Feature", "properties": {"highway": "footway", "footway": "sidewalk", "name": null, "surface": "paving_stones", "lit": "yes", "length_m": 181.81, "type_element": "Way", "__fid": 11615}, "geometry": {"type": "LineString", "coordinates": [[2.281315, 48.8354503], [2.2824308, 48.835126], [2.2830409, 48.834905499999984], [2.2834592, 48.8347655], [2.2835317, 48.834726900000014]]}}, {"type": "Feature", "properties": {"highway": "footway", "footway": "sidewalk", "name": null, "surface": null, "lit": "yes", "length_m": 193.3, "type_element": "Way", "__fid": 11712}, "geometry": {"type": "LineString", "coordinates": [[2.281537533333454, 48.83155973333341], [2.2829609, 48.8310376], [2.2838315, 48.8307063]]}}, {"type": "Feature", "properties": {"highway": "service", "footway": null, "name": null, "surface": null, "lit": "yes", "length_m": 247.4, "type_element": "Way", "__fid": 11733}, "geometry": {"type": "LineString", "coordinates": [[2.2815661, 48.8324806], [2.2839258, 48.8340692]]}}, {"type": "Feature", "properties": {"highway": "footway", "footway": null, "name": "Raccordement de Vaugirard", "surface": "compacted", "lit": "no", "length_m": 245.65, "type_element": "Way", "__fid": 11855}, "geometry": {"type": "LineString", "coordinates": [[2.2818409, 48.8357728], [2.282529, 48.8356827], [2.2836475, 48.8353976], [2.285005368970602, 48.83506936284519]]}}, {"type": "Feature", "properties": {"highway": "footway", "footway": null, "name": "Ligne d'Auteuil à La Râpée (Petite Ceinture)", "surface": "compacted", "lit": "no", "length_m": 209.21, "type_element": "Way", "__fid": 11978}, "geometry": {"type": "LineString", "coordinates": [[2.284905813660158, 48.83502025099164], [2.2838553, 48.8352617], [2.2828482, 48.8355353], [2.2822353, 48.8356757]]}}, {"type": "Feature", "properties": {"highway": "footway", "footway": "sidewalk", "name": null, "surface": "asphalt", "lit": "yes", "length_m": 71.29, "type_element": "Way", "__fid": 12419}, "geometry": {"type": "LineString", "coordinates": [[2.2835317, 48.834726900000014], [2.2836484, 48.8348681], [2.2837519, 48.8349046], [2.2839954, 48.8348602], [2.2841222, 48.83481119999998], [2.2842897, 48.834726900000014]]}}, {"type": "Feature", "properties": {"highway": "footway", "footway": "crossing", "name": null, "surface": "asphalt", "lit": "yes", "length_m": 10.33, "type_element": "Way", "__fid": 12420}, "geometry": {"type": "LineString", "coordinates": [[2.2836531, 48.8346935], [2.2836135, 48.8346885], [2.2835317, 48.834726900000014]]}}, {"type": "Feature", "properties": {"highway": "footway", "footway": "sidewalk", "name": null, "surface": "paving_stones", "lit": "yes", "length_m": 212.18, "type_element": "Way", "__fid": 12432}, "geometry": {"type": "LineString", "coordinates": [[2.2853459, 48.8352719], [2.2836222, 48.8367437], [2.28356, 48.8367682]]}}, {"type": "Feature", "properties": {"highway": "footway", "footway": "sidewalk", "name": null, "surface": "asphalt", "lit": "yes", "length_m": 52.87, "type_element": "Way", "__fid": 12460}, "geometry": {"type": "LineString", "coordinates": [[2.2836531, 48.8346935], [2.2837419, 48.8348038], [2.283782, 48.8348129], [2.2840277, 48.8347455], [2.2842068, 48.8346582]]}}, {"type": "Feature", "properties": {"highway": "footway", "footway": "sidewalk", "name": null, "surface": "paving_stones", "lit": "yes", "length_m": 24.96, "type_element": "Way", "__fid": 12461}, "geometry": {"type": "LineString", "coordinates": [[2.2839506, 48.83458479999999], [2.2836531, 48.8346935]]}}, {"type": "Feature", "properties": {"highway": "footway", "footway": "traffic_island", "name": null, "surface": null, "lit": "yes", "length_m": 20.14, "type_element": "Way", "__fid": 12486}, "geometry": {"type": "LineString", "coordinates": [[2.2838563, 48.8344703], [2.2837256, 48.834311]]}}, {"type": "Feature", "properties": {"highway": "footway", "footway": "crossing", "name": null, "surface": "asphalt", "lit": "yes", "length_m": 35.21, "type_element": "Way", "__fid": 12487}, "geometry": {"type": "LineString", "coordinates": [[2.2837256, 48.834311], [2.2837527, 48.8342706], [2.283948, 48.83418129999998], [2.2840453, 48.8340851]]}}, {"type": "Feature", "properties": {"highway": "footway", "footway": "sidewalk", "name": null, "surface": "asphalt", "lit": "yes", "length_m": 210.43, "type_element": "Way", "__fid": 12499}, "geometry": {"type": "LineString", "coordinates": [[2.283711, 48.83682850000002], [2.2838451, 48.836684900000016], [2.285444899999814, 48.83532256666674]]}}, {"type": "Feature", "properties": {"highway": "service", "footway": null, "name": null, "surface": null, "lit": "yes", "length_m": 3.85, "type_element": "Way", "__fid": 12500}, "geometry": {"type": "LineString", "coordinates": [[2.2838315, 48.8307063], [2.2838026, 48.8306774]]}}, {"type": "Feature", "properties": {"highway": "footway", "footway": null, "name": null, "surface": null, "lit": "yes", "length_m": 8.68, "type_element": "Way", "__fid": 12501}, "geometry": {"type": "LineString", "coordinates": [[2.2837527, 48.834508], [2.2838563, 48.8344703]]}}, {"type": "Feature", "properties": {"highway": "service", "footway": null, "name": null, "surface": null, "lit": "yes", "length_m": 6.66, "type_element": "Way", "__fid": 12512}, "geometry": {"type": "LineString", "coordinates": [[2.2838814, 48.83075629999998], [2.2838315, 48.8307063]]}}, {"type": "Feature", "properties": {"highway": "footway", "footway": "sidewalk", "name": null, "surface": null, "lit": "yes", "length_m": 40.54, "type_element": "Way", "__fid": 12513}, "geometry": {"type": "LineString", "coordinates": [[2.2838315, 48.8307063], [2.2843018, 48.8305152]]}}, {"type": "Feature", "properties": {"highway": "service", "footway": null, "name": null, "surface": null, "lit": "yes", "length_m": 15.29, "type_element": "Way", "__fid": 12517}, "geometry": {"type": "LineString", "coordinates": [[2.2839258, 48.8340692], [2.2837991, 48.8341784]]}}, {"type": "Feature", "properties": {"highway": "footway", "footway": "crossing", "name": null, "surface": null, "lit": "yes", "length_m": 14.49, "type_element": "Way", "__fid": 12550}, "geometry": {"type": "LineString", "coordinates": [[2.2839506, 48.83458479999999], [2.2838563, 48.8344703]]}}, {"type": "Feature", "properties": {"highway": "service", "footway": null, "name": null, "surface": null, "lit": "yes", "length_m": 30.08, "type_element": "Way", "__fid": 12580}, "geometry": {"type": "LineString", "coordinates": [[2.2839258, 48.8340692], [2.2840254, 48.8338068]]}}, {"type": "Feature", "properties": {"highway": "footway", "footway": "sidewalk", "name": null, "surface": "paving_stones", "lit": "yes", "length_m": 9.59, "type_element": "Way", "__fid": 12597}, "geometry": {"type": "LineString", "coordinates": [[2.2840649, 48.834543], [2.2839506, 48.83458479999999]]}}, {"type": "Feature", "properties": {"highway": "service", "footway": null, "name": null, "surface": null, "lit": "yes", "length_m": 700.14, "type_element": "Way", "__fid": 12640}, "geometry": {"type": "LineString", "coordinates": [[2.2863436, 48.83221129999997], [2.284726, 48.8311315], [2.284686, 48.8310885], [2.2845259, 48.8309806], [2.2845066, 48.8309783], [2.2844851, 48.83097990000002], [2.2839974, 48.8311967], [2.283262, 48.8316814], [2.2832056, 48.8316955], [2.2831396, 48.8317], [2.2829793, 48.8316917], [2.2828481, 48.83169809999998], [2.282749, 48.8317185], [2.28183, 48.83209330000001], [2.281727, 48.8321432], [2.2816959, 48.8321982], [2.2816804, 48.8322698], [2.2817037, 48.832335], [2.2818533, 48.8324604], [2.2825373, 48.8328939], [2.2837597, 48.83370020000002], [2.2838818, 48.8337687], [2.2840254, 48.8338068]]}}, {"type": "Feature", "properties": {"highway": "service", "footway": null, "name": null, "surface": null, "lit": "yes", "length_m": 169.77, "type_element": "Way", "__fid": 12641}, "geometry": {"type": "LineString", "coordinates": [[2.2840254, 48.8338068], [2.2840693, 48.833767], [2.2856236, 48.8327038]]}}, {"type": "Feature", "properties": {"highway": "footway", "footway": "crossing", "name": null, "surface": null, "lit": "yes", "length_m": 21.77, "type_element": "Way", "__fid": 12657}, "geometry": {"type": "LineString", "coordinates": [[2.2840453, 48.8340851], [2.284186133333146, 48.83425743333336]]}}, {"type": "Feature", "properties": {"highway": "footway", "footway": null, "name": null, "surface": null, "lit": "yes", "length_m": 43.18, "type_element": "Way", "__fid": 12658}, "geometry": {"type": "LineString", "coordinates": [[2.2840453, 48.8340851], [2.2841535, 48.8339675], [2.2844763, 48.83383529999998]]}}, {"type": "Feature", "properties": {"highway": "footway", "footway": "sidewalk", "name": null, "surface": "asphalt", "lit": "yes", "length_m": 16.83, "type_element": "Way", "__fid": 12669}, "geometry": {"type": "LineString", "coordinates": [[2.2840649, 48.834543], [2.2842018, 48.834639], [2.2842068, 48.8346582]]}}, {"type": "Feature", "properties": {"highway": "footway", "footway": "crossing", "name": null, "surface": null, "lit": "yes", "length_m": 9.72, "type_element": "Way", "__fid": 12670}, "geometry": {"type": "LineString", "coordinates": [[2.284170200000092, 48.834493200000075], [2.2840829, 48.8345249], [2.2840649, 48.834543]]}}, {"type": "Feature", "properties": {"highway": "footway", "footway": "sidewalk", "name": null, "surface": "asphalt", "lit": "yes", "length_m": 22.09, "type_element": "Way", "__fid": 12723}, "geometry": {"type": "LineString", "coordinates": [[2.2842303, 48.83008630000001], [2.284445, 48.8302255]]}}, {"type": "Feature", "properties": {"highway": "footway", "footway": "sidewalk", "name": null, "surface": "asphalt", "lit": "yes", "length_m": 84.1, "type_element": "Way", "__fid": 12724}, "geometry": {"type": "LineString", "coordinates": [[2.285027701471719, 48.8349924495413], [2.2845959, 48.8347732], [2.284170200000092, 48.834493200000075]]}}, {"type": "Feature", "properties": {"highway": "footway", "footway": "sidewalk", "name": "Boulevard Victor", "surface": "asphalt", "lit": "yes", "length_m": 14.91, "type_element": "Way", "__fid": 12725}, "geometry": {"type": "LineString", "coordinates": [[2.2843118, 48.8344062], [2.2841853, 48.8344597], [2.284170200000092, 48.834493200000075]]}}, {"type": "Feature", "properties": {"highway": "footway", "footway": "crossing", "name": null, "surface": null, "lit": "yes", "length_m": 18.94, "type_element": "Way", "__fid": 12733}, "geometry": {"type": "LineString", "coordinates": [[2.284186133333146, 48.83425743333336], [2.2843118, 48.8344062]]}}, {"type": "Feature", "properties": {"highway": "footway", "footway": null, "name": null, "surface": "paving_stones", "lit": "yes", "length_m": 8.9, "type_element": "Way", "__fid": 12734}, "geometry": {"type": "LineString", "coordinates": [[2.2842865, 48.83421250000002], [2.284186133333146, 48.83425743333336]]}}, {"type": "Feature", "properties": {"highway": "footway", "footway": "crossing", "name": null, "surface": "asphalt", "lit": "yes", "length_m": 9.77, "type_element": "Way", "__fid": 12739}, "geometry": {"type": "LineString", "coordinates": [[2.2842897, 48.834726900000014], [2.2842068, 48.8346582]]}}, {"type": "Feature", "properties": {"highway": "service", "footway": null, "name": null, "surface": null, "lit": "yes", "length_m": 8.22, "type_element": "Way", "__fid": 12744}, "geometry": {"type": "LineString", "coordinates": [[2.284267, 48.8305855], [2.2843018, 48.8305152]]}}, {"type": "Feature", "properties": {"highway": "service", "footway": null, "name": null, "surface": null, "lit": "yes", "length_m": 33.88, "type_element": "Way", "__fid": 12769}, "geometry": {"type": "LineString", "coordinates": [[2.2843018, 48.8305152], [2.284445, 48.8302255]]}}, {"type": "Feature", "properties": {"highway": "footway", "footway": "sidewalk", "name": null, "surface": null, "lit": "yes", "length_m": 23.59, "type_element": "Way", "__fid": 12770}, "geometry": {"type": "LineString", "coordinates": [[2.2843018, 48.8305152], [2.284567, 48.8303954]]}}, {"type": "Feature", "properties": {"highway": "footway", "footway": "sidewalk", "name": null, "surface": "asphalt", "lit": "yes", "length_m": 58.87, "type_element": "Way", "__fid": 12784}, "geometry": {"type": "LineString", "coordinates": [[2.284905813660158, 48.83502025099164], [2.2845234, 48.8348316], [2.2843326, 48.8347051], [2.2842897, 48.834726900000014]]}}, {"type": "Feature", "properties": {"highway": "footway", "footway": null, "name": null, "surface": null, "lit": "yes", "length_m": 19.21, "type_element": "Way", "__fid": 12785}, "geometry": {"type": "LineString", "coordinates": [[2.2844763, 48.83383529999998], [2.2843096, 48.8337021]]}}, {"type": "Feature", "properties": {"highway": "footway", "footway": "sidewalk", "name": "Boulevard Victor", "surface": "asphalt", "lit": "yes", "length_m": 88.02, "type_element": "Way", "__fid": 12792}, "geometry": {"type": "LineString", "coordinates": [[2.2853703, 48.8340343], [2.2843118, 48.8344062]]}}, {"type": "Feature", "properties": {"highway": "footway", "footway": "sidewalk", "name": null, "surface": "asphalt", "lit": "yes", "length_m": 22.68, "type_element": "Way", "__fid": 12819}, "geometry": {"type": "LineString", "coordinates": [[2.284445, 48.8302255], [2.2845673, 48.8303167], [2.2845848, 48.8303492], [2.284567, 48.8303954]]}}, {"type": "Feature", "properties": {"highway": "service", "footway": null, "name": null, "surface": null, "lit": "yes", "length_m": 7.94, "type_element": "Way", "__fid": 12820}, "geometry": {"type": "LineString", "coordinates": [[2.284445, 48.8302255], [2.2845217, 48.8301751]]}}, {"type": "Feature", "properties": {"highway": "footway", "footway": null, "name": null, "surface": null, "lit": "yes", "length_m": 4.95, "type_element": "Way", "__fid": 12855}, "geometry": {"type": "LineString", "coordinates": [[2.2845193, 48.8338696], [2.2844763, 48.83383529999998]]}}, {"type": "Feature", "properties": {"highway": "footway", "footway": null, "name": null, "surface": null, "lit": "yes", "length_m": 33.42, "type_element": "Way", "__fid": 12856}, "geometry": {"type": "LineString", "coordinates": [[2.2844763, 48.83383529999998], [2.2848678, 48.833681900000016]]}}, {"type": "Feature", "properties": {"highway": "footway", "footway": "crossing", "name": null, "surface": null, "lit": "yes", "length_m": 25.3, "type_element": "Way", "__fid": 12869}, "geometry": {"type": "LineString", "coordinates": [[2.284567, 48.8303954], [2.2847616, 48.830583200000014]]}}, {"type": "Feature", "properties": {"highway": "footway", "footway": "sidewalk", "name": null, "surface": "concrete", "lit": "yes", "length_m": 55.01, "type_element": "Way", "__fid": 12891}, "geometry": {"type": "LineString", "coordinates": [[2.2846527, 48.8300514], [2.2851726, 48.8304077]]}}, {"type": "Feature", "properties": {"highway": "footway", "footway": null, "name": null, "surface": null, "lit": "yes", "length_m": 28.28, "type_element": "Way", "__fid": 12896}, "geometry": {"type": "LineString", "coordinates": [[2.2848678, 48.833681900000016], [2.2847689, 48.8336202], [2.2846258, 48.8334855]]}}, {"type": "Feature", "properties": {"highway": "footway", "footway": "sidewalk", "name": null, "surface": null, "lit": "yes", "length_m": 2.14, "type_element": "Way", "__fid": 12936}, "geometry": {"type": "LineString", "coordinates": [[2.2847903, 48.83057989999999], [2.2847616, 48.830583200000014]]}}, {"type": "Feature", "properties": {"highway": "footway", "footway": "sidewalk", "name": null, "surface": null, "lit": "yes", "length_m": 210.71, "type_element": "Way", "__fid": 12952}, "geometry": {"type": "LineString", "coordinates": [[2.286841296291385, 48.831905407105], [2.2857757, 48.831212], [2.2850664, 48.8307651], [2.2847903, 48.83057989999999]]}}, {"type": "Feature", "properties": {"highway": "footway", "footway": "crossing", "name": null, "surface": null, "lit": "yes", "length_m": 33.97, "type_element": "Way", "__fid": 12953}, "geometry": {"type": "LineString", "coordinates": [[2.2847903, 48.83057989999999], [2.2851726, 48.8304077]]}}, {"type": "Feature", "properties": {"highway": "footway", "footway": null, "name": null, "surface": null, "lit": "yes", "length_m": 5.82, "type_element": "Way", "__fid": 13013}, "geometry": {"type": "LineString", "coordinates": [[2.2849253, 48.8337179], [2.2848678, 48.833681900000016]]}}, {"type": "Feature", "properties": {"highway": "footway", "footway": null, "name": null, "surface": null, "lit": "yes", "length_m": 41.01, "type_element": "Way", "__fid": 13014}, "geometry": {"type": "LineString", "coordinates": [[2.2848678, 48.833681900000016], [2.2853523, 48.8334983]]}}, {"type": "Feature", "properties": {"highway": "footway", "footway": "sidewalk", "name": null, "surface": "asphalt", "lit": "yes", "length_m": 9.12, "type_element": "Way", "__fid": 13037}, "geometry": {"type": "LineString", "coordinates": [[2.285005368970602, 48.83506936284519], [2.284905813660158, 48.83502025099164]]}}, {"type": "Feature", "properties": {"highway": "footway", "footway": null, "name": "Ligne d'Auteuil à La Râpée (Petite Ceinture)", "surface": "compacted", "lit": "no", "length_m": 9.47, "type_element": "Way", "__fid": 13038}, "geometry": {"type": "LineString", "coordinates": [[2.285027701471719, 48.8349924495413], [2.284905813660158, 48.83502025099164]]}}, {"type": "Feature", "properties": {"highway": "footway", "footway": null, "name": null, "surface": null, "lit": "yes", "length_m": 39.06, "type_element": "Way", "__fid": 13080}, "geometry": {"type": "LineString", "coordinates": [[2.2853523, 48.8334983], [2.2851317, 48.8333267], [2.2850271, 48.8332211]]}}, {"type": "Feature", "properties": {"highway": "footway", "footway": "sidewalk", "name": null, "surface": "asphalt", "lit": "yes", "length_m": 27.78, "type_element": "Way", "__fid": 13082}, "geometry": {"type": "LineString", "coordinates": [[2.2853085, 48.835218900000015], [2.285005368970602, 48.83506936284519]]}}, {"type": "Feature", "properties": {"highway": "footway", "footway": null, "name": "Raccordement de Vaugirard", "surface": "metal", "lit": "no", "length_m": 9.17, "type_element": "Way", "__fid": 13083}, "geometry": {"type": "LineString", "coordinates": [[2.285005368970602, 48.83506936284519], [2.285122391163981, 48.83504052828587]]}}, {"type": "Feature", "properties": {"highway": "footway", "footway": "sidewalk", "name": null, "surface": "asphalt", "lit": "yes", "length_m": 8.77, "type_element": "Way", "__fid": 13088}, "geometry": {"type": "LineString", "coordinates": [[2.285122391163981, 48.83504052828587], [2.285027701471719, 48.8349924495413]]}}, {"type": "Feature", "properties": {"highway": "footway", "footway": null, "name": "Ligne d'Auteuil à La Râpée (Petite Ceinture)", "surface": "compacted", "lit": "no", "length_m": 25.32, "type_element": "Way", "__fid": 13089}, "geometry": {"type": "LineString", "coordinates": [[2.2853541, 48.8349187], [2.285027701471719, 48.8349924495413]]}}, {"type": "Feature", "properties": {"highway": "footway", "footway": "sidewalk", "name": null, "surface": "concrete", "lit": "yes", "length_m": 140.8, "type_element": "Way", "__fid": 13125}, "geometry": {"type": "LineString", "coordinates": [[2.2851726, 48.8304077], [2.2865196, 48.8313092]]}}, {"type": "Feature", "properties": {"highway": "footway", "footway": "sidewalk", "name": null, "surface": "asphalt", "lit": "yes", "length_m": 17.78, "type_element": "Way", "__fid": 13130}, "geometry": {"type": "LineString", "coordinates": [[2.2853145, 48.8351379], [2.285122391163981, 48.83504052828587]]}}, {"type": "Feature", "properties": {"highway": "footway", "footway": null, "name": "Raccordement de Vaugirard", "surface": "concrete", "lit": "no", "length_m": 20.43, "type_element": "Way", "__fid": 13131}, "geometry": {"type": "LineString", "coordinates": [[2.285122391163981, 48.83504052828587], [2.285389, 48.8349878]]}}, {"type": "Feature", "properties": {"highway": "footway", "footway": "sidewalk", "name": null, "surface": "asphalt", "lit": "yes", "length_m": 6.99, "type_element": "Way", "__fid": 13248}, "geometry": {"type": "LineString", "coordinates": [[2.2853085, 48.835218900000015], [2.285338, 48.835234], [2.2853459, 48.8352719]]}}, {"type": "Feature", "properties": {"highway": "footway", "footway": "crossing", "name": null, "surface": "asphalt", "lit": "yes", "length_m": 7.43, "type_element": "Way", "__fid": 13249}, "geometry": {"type": "LineString", "coordinates": [[2.2853729, 48.835167300000016], [2.2853085, 48.835218900000015]]}}, {"type": "Feature", "properties": {"highway": "footway", "footway": "sidewalk", "name": null, "surface": "asphalt", "lit": "yes", "length_m": 5.39, "type_element": "Way", "__fid": 13252}, "geometry": {"type": "LineString", "coordinates": [[2.2853729, 48.835167300000016], [2.2853145, 48.8351379]]}}, {"type": "Feature", "properties": {"highway": "steps", "footway": null, "name": null, "surface": "wood", "lit": "no", "length_m": 20.57, "type_element": "Way", "__fid": 13253}, "geometry": {"type": "LineString", "coordinates": [[2.285389, 48.8349878], [2.2854137, 48.835039], [2.2853621, 48.8350514], [2.2853477, 48.83511089999999], [2.2853145, 48.8351379]]}}, {"type": "Feature", "properties": {"highway": "footway", "footway": null, "name": null, "surface": null, "lit": "yes", "length_m": 5.67, "type_element": "Way", "__fid": 13263}, "geometry": {"type": "LineString", "coordinates": [[2.2854039, 48.8335363], [2.2853523, 48.8334983]]}}, {"type": "Feature", "properties": {"highway": "footway", "footway": null, "name": null, "surface": null, "lit": "yes", "length_m": 59.51, "type_element": "Way", "__fid": 13264}, "geometry": {"type": "LineString", "coordinates": [[2.2853523, 48.8334983], [2.2857682, 48.8333632], [2.2860723, 48.8332526]]}}, {"type": "Feature", "properties": {"highway": "footway", "footway": "crossing", "name": null, "surface": "asphalt", "lit": "yes", "length_m": 9.2, "type_element": "Way", "__fid": 13280}, "geometry": {"type": "LineString", "coordinates": [[2.2853459, 48.8352719], [2.285444899999814, 48.83532256666674]]}}, {"type": "Feature", "properties": {"highway": "footway", "footway": null, "name": null, "surface": "wood", "lit": "no", "length_m": 8.1, "type_element": "Way", "__fid": 13284}, "geometry": {"type": "LineString", "coordinates": [[2.2853541, 48.8349187], [2.285389, 48.8349878]]}}, {"type": "Feature", "properties": {"highway": "footway", "footway": null, "name": "Ligne d'Auteuil à La Râpée (Petite Ceinture)", "surface": "compacted", "lit": "no", "length_m": 193.28, "type_element": "Way", "__fid": 13285}, "geometry": {"type": "LineString", "coordinates": [[2.287833673471369, 48.83433401410156], [2.2865483, 48.8346446], [2.2853541, 48.8349187]]}}, {"type": "Feature", "properties": {"highway": "footway", "footway": "crossing", "name": null, "surface": "asphalt", "lit": "yes", "length_m": 10.19, "type_element": "Way", "__fid": 13287}, "geometry": {"type": "LineString", "coordinates": [[2.2853703, 48.8340343], [2.2854927, 48.833991]]}}, {"type": "Feature", "properties": {"highway": "footway", "footway": "sidewalk", "name": null, "surface": "asphalt", "lit": "yes", "length_m": 17.52, "type_element": "Way", "__fid": 13300}, "geometry": {"type": "LineString", "coordinates": [[2.285562, 48.8352634], [2.2853729, 48.835167300000016]]}}, {"type": "Feature", "properties": {"highway": "footway", "footway": null, "name": "Raccordement de Vaugirard", "surface": "metal", "lit": "yes", "length_m": 269.79, "type_element": "Way", "__fid": 13309}, "geometry": {"type": "LineString", "coordinates": [[2.285389, 48.8349878], [2.2854901, 48.8349598], [2.2858697, 48.83489710000001], [2.2861859, 48.8348535], [2.2862931, 48.83484740000002], [2.2866089, 48.8348636], [2.2867473, 48.8348977], [2.2880471, 48.83551219999999], [2.2881969, 48.83561430000002], [2.2882628, 48.8357354], [2.2882718, 48.8359138]]}}, {"type": "Feature", "properties": {"highway": "footway", "footway": "sidewalk", "name": null, "surface": null, "lit": "yes", "length_m": 63.28, "type_element": "Way", "__fid": 13336}, "geometry": {"type": "LineString", "coordinates": [[2.2854637, 48.8336733], [2.2860104, 48.8334786], [2.2862065, 48.8333863]]}}, {"type": "Feature", "properties": {"highway": "footway", "footway": "sidewalk", "name": null, "surface": "asphalt", "lit": "yes", "length_m": 3.68, "type_element": "Way", "__fid": 13337}, "geometry": {"type": "LineString", "coordinates": [[2.285444899999814, 48.83532256666674], [2.285494766666839, 48.83531883333339]]}}, {"type": "Feature", "properties": {"highway": "footway", "footway": "sidewalk", "name": null, "surface": "asphalt", "lit": "yes", "length_m": 79.91, "type_element": "Way", "__fid": 13342}, "geometry": {"type": "LineString", "coordinates": [[2.2854927, 48.833991], [2.2864334, 48.8336294]]}}, {"type": "Feature", "properties": {"highway": "footway", "footway": "sidewalk", "name": null, "surface": "asphalt", "lit": "yes", "length_m": 234.3, "type_element": "Way", "__fid": 13349}, "geometry": {"type": "LineString", "coordinates": [[2.285494766666839, 48.83531883333339], [2.2859146, 48.8355341], [2.2866312, 48.835789], [2.2873017, 48.8359273], [2.2874776, 48.83594750000001], [2.2876806, 48.835991], [2.2884325, 48.8359878]]}}, {"type": "Feature", "properties": {"highway": "footway", "footway": "crossing", "name": null, "surface": "asphalt", "lit": "yes", "length_m": 7.9, "type_element": "Way", "__fid": 13350}, "geometry": {"type": "LineString", "coordinates": [[2.285494766666839, 48.83531883333339], [2.285562, 48.8352634]]}}, {"type": "Feature", "properties": {"highway": "footway", "footway": "sidewalk", "name": null, "surface": "asphalt", "lit": "yes", "length_m": 216.45, "type_element": "Way", "__fid": 13389}, "geometry": {"type": "LineString", "coordinates": [[2.2882718, 48.8359138], [2.2882426, 48.83589770000001], [2.2877057, 48.8358987], [2.2866837, 48.8356865], [2.2860275, 48.8354549], [2.2859706, 48.8354542], [2.2858528, 48.8354103], [2.285562, 48.8352634]]}}, {"type": "Feature", "properties": {"highway": "footway", "footway": null, "name": "Porte de Versailles", "surface": null, "lit": "yes", "length_m": 79.07, "type_element": "Way", "__fid": 13392}, "geometry": {"type": "LineString", "coordinates": [[2.2856278, 48.830894100000016], [2.2863875, 48.8313982]]}}, {"type": "Feature", "properties": {"highway": "service", "footway": null, "name": null, "surface": null, "lit": "yes", "length_m": 71.92, "type_element": "Way", "__fid": 13401}, "geometry": {"type": "LineString", "coordinates": [[2.2856236, 48.8327038], [2.2857061, 48.8327793], [2.285855, 48.83301320000001], [2.2859998, 48.8331077], [2.2862042, 48.8332036]]}}, {"type": "Feature", "properties": {"highway": "service", "footway": null, "name": null, "surface": null, "lit": "yes", "length_m": 76.11, "type_element": "Way", "__fid": 13402}, "geometry": {"type": "LineString", "coordinates": [[2.2856236, 48.8327038], [2.2863436, 48.83221129999997]]}}, {"type": "Feature", "properties": {"highway": "footway", "footway": null, "name": "Porte de Versailles", "surface": null, "lit": "yes", "length_m": 80.73, "type_element": "Way", "__fid": 13438}, "geometry": {"type": "LineString", "coordinates": [[2.2857176, 48.830814], [2.2865022, 48.8313227]]}}, {"type": "Feature", "properties": {"highway": "service", "footway": null, "name": null, "surface": null, "lit": "yes", "length_m": 220.86, "type_element": "Way", "__fid": 13461}, "geometry": {"type": "LineString", "coordinates": [[2.2878082, 48.8310737], [2.2878091, 48.8311957], [2.2876679, 48.8313348], [2.2873655, 48.831532299999985], [2.2870538, 48.831532299999985], [2.2857679, 48.8306698]]}}, {"type": "Feature", "properties": {"highway": "service", "footway": null, "name": null, "surface": null, "lit": "yes", "length_m": 240.79, "type_element": "Way", "__fid": 13606}, "geometry": {"type": "LineString", "coordinates": [[2.2860814, 48.828331], [2.2857052, 48.8294718], [2.28676, 48.83018670000001]]}}, {"type": "Feature", "properties": {"highway": "footway", "footway": null, "name": null, "surface": null, "lit": "yes", "length_m": 17.83, "type_element": "Way", "__fid": 13635}, "geometry": {"type": "LineString", "coordinates": [[2.2860723, 48.8332526], [2.2862065, 48.8333863]]}}, {"type": "Feature", "properties": {"highway": "footway", "footway": "sidewalk", "name": null, "surface": null, "lit": "yes", "length_m": 11.11, "type_element": "Way", "__fid": 13636}, "geometry": {"type": "LineString", "coordinates": [[2.2860723, 48.8332526], [2.2862042, 48.8332036]]}}, {"type": "Feature", "properties": {"highway": "service", "footway": null, "name": null, "surface": null, "lit": "yes", "length_m": 7.67, "type_element": "Way", "__fid": 13685}, "geometry": {"type": "LineString", "coordinates": [[2.2862042, 48.8332036], [2.2862635, 48.8332604]]}}, {"type": "Feature", "properties": {"highway": "footway", "footway": "sidewalk", "name": null, "surface": null, "lit": "yes", "length_m": 113.93, "type_element": "Way", "__fid": 13686}, "geometry": {"type": "LineString", "coordinates": [[2.2862042, 48.8332036], [2.2869147, 48.8329261], [2.2869287, 48.8329426], [2.2870965, 48.8328802], [2.2870141, 48.83260829999998], [2.2870471, 48.8325564]]}}, {"type": "Feature", "properties": {"highway": "path", "footway": null, "name": null, "surface": null, "lit": "yes", "length_m": 31.75, "type_element": "Way", "__fid": 13688}, "geometry": {"type": "LineString", "coordinates": [[2.2864334, 48.8336294], [2.2862065, 48.8333863]]}}, {"type": "Feature", "properties": {"highway": "footway", "footway": "sidewalk", "name": null, "surface": null, "lit": "yes", "length_m": 11.5, "type_element": "Way", "__fid": 13689}, "geometry": {"type": "LineString", "coordinates": [[2.2862065, 48.8333863], [2.2863384, 48.8333305]]}}, {"type": "Feature", "properties": {"highway": "service", "footway": null, "name": null, "surface": null, "lit": "yes", "length_m": 9.54, "type_element": "Way", "__fid": 13712}, "geometry": {"type": "LineString", "coordinates": [[2.2863384, 48.8333305], [2.2862635, 48.8332604]]}}, {"type": "Feature", "properties": {"highway": "service", "footway": null, "name": null, "surface": null, "lit": "yes", "length_m": 68.12, "type_element": "Way", "__fid": 13713}, "geometry": {"type": "LineString", "coordinates": [[2.2862635, 48.8332604], [2.2870652, 48.8329519]]}}, {"type": "Feature", "properties": {"highway": "service", "footway": null, "name": null, "surface": null, "lit": "yes", "length_m": 50.01, "type_element": "Way", "__fid": 13736}, "geometry": {"type": "LineString", "coordinates": [[2.2863436, 48.83221129999997], [2.2864697, 48.8321497], [2.286841296291385, 48.831905407105]]}}, {"type": "Feature", "properties": {"highway": "service", "footway": null, "name": null, "surface": null, "lit": "yes", "length_m": 6.63, "type_element": "Way", "__fid": 13742}, "geometry": {"type": "LineString", "coordinates": [[2.2863966, 48.83337610000001], [2.2863384, 48.8333305]]}}, {"type": "Feature", "properties": {"highway": "footway", "footway": "crossing", "name": null, "surface": null, "lit": "yes", "length_m": 49.7, "type_element": "Way", "__fid": 13743}, "geometry": {"type": "LineString", "coordinates": [[2.2863384, 48.8333305], [2.2865359, 48.83324729999999], [2.2867811, 48.8334907]]}}, {"type": "Feature", "properties": {"highway": "footway", "footway": "sidewalk", "name": null, "surface": "paved", "lit": "yes", "length_m": 63.71, "type_element": "Way", "__fid": 13751}, "geometry": {"type": "LineString", "coordinates": [[2.2863875, 48.8313982], [2.28702612372552, 48.83178618469942]]}}, {"type": "Feature", "properties": {"highway": "footway", "footway": "crossing", "name": null, "surface": "paved", "lit": "yes", "length_m": 11.89, "type_element": "Way", "__fid": 13752}, "geometry": {"type": "LineString", "coordinates": [[2.2863875, 48.8313982], [2.2865022, 48.8313227]]}}, {"type": "Feature", "properties": {"highway": "footway", "footway": "sidewalk", "name": null, "surface": "asphalt", "lit": "yes", "length_m": 8.5, "type_element": "Way", "__fid": 13787}, "geometry": {"type": "LineString", "coordinates": [[2.2864334, 48.8336294], [2.2865348, 48.8335925]]}}, {"type": "Feature", "properties": {"highway": "footway", "footway": null, "name": null, "surface": "paved", "lit": "yes", "length_m": 1.97, "type_element": "Way", "__fid": 13801}, "geometry": {"type": "LineString", "coordinates": [[2.2865022, 48.8313227], [2.2865196, 48.8313092]]}}, {"type": "Feature", "properties": {"highway": "footway", "footway": "sidewalk", "name": null, "surface": "concrete", "lit": "yes", "length_m": 63.92, "type_element": "Way", "__fid": 13808}, "geometry": {"type": "LineString", "coordinates": [[2.2865196, 48.8313092], [2.287133591867634, 48.83171686229511]]}}, {"type": "Feature", "properties": {"highway": "footway", "footway": "sidewalk", "name": null, "surface": "asphalt", "lit": "yes", "length_m": 127.14, "type_element": "Way", "__fid": 13838}, "geometry": {"type": "LineString", "coordinates": [[2.2865348, 48.8335925], [2.2872231, 48.8339979], [2.2872955, 48.8340016], [2.287833673471369, 48.83433401410156]]}}, {"type": "Feature", "properties": {"highway": "footway", "footway": "crossing", "name": null, "surface": "asphalt", "lit": "yes", "length_m": 13.62, "type_element": "Way", "__fid": 13839}, "geometry": {"type": "LineString", "coordinates": [[2.2865348, 48.8335925], [2.2866937, 48.8335293]]}}, {"type": "Feature", "properties": {"highway": "footway", "footway": "sidewalk", "name": null, "surface": "asphalt", "lit": "yes", "length_m": 125.72, "type_element": "Way", "__fid": 13890}, "geometry": {"type": "LineString", "coordinates": [[2.2866937, 48.8335293], [2.2867604, 48.8335789], [2.287938269730256, 48.83430556799959]]}}, {"type": "Feature", "properties": {"highway": "footway", "footway": "sidewalk", "name": null, "surface": "paving_stones", "lit": "yes", "length_m": 7.72, "type_element": "Way", "__fid": 13891}, "geometry": {"type": "LineString", "coordinates": [[2.2867811, 48.8334907], [2.2866937, 48.8335293]]}}, {"type": "Feature", "properties": {"highway": "service", "footway": null, "name": null, "surface": null, "lit": "yes", "length_m": 108.33, "type_element": "Way", "__fid": 13898}, "geometry": {"type": "LineString", "coordinates": [[2.287975, 48.830704], [2.2879418, 48.8306674], [2.2873474, 48.8303333], [2.2871409, 48.8302627], [2.28676, 48.83018670000001]]}}, {"type": "Feature", "properties": {"highway": "service", "footway": null, "name": null, "surface": null, "lit": "yes", "length_m": 110.7, "type_element": "Way", "__fid": 13899}, "geometry": {"type": "LineString", "coordinates": [[2.28676, 48.83018670000001], [2.2876612, 48.83078709999999], [2.2877768, 48.8309166]]}}, {"type": "Feature", "properties": {"highway": "service", "footway": null, "name": null, "surface": "asphalt", "lit": "yes", "length_m": 29.08, "type_element": "Way", "__fid": 13920}, "geometry": {"type": "LineString", "coordinates": [[2.2867796, 48.833112], [2.2870331, 48.8330184], [2.2870652, 48.8329519]]}}, {"type": "Feature", "properties": {"highway": "footway", "footway": "sidewalk", "name": null, "surface": "paving_stones", "lit": "yes", "length_m": 121.37, "type_element": "Way", "__fid": 13923}, "geometry": {"type": "LineString", "coordinates": [[2.2881542, 48.8328826], [2.2867811, 48.8334907]]}}, {"type": "Feature", "properties": {"highway": "footway", "footway": "sidewalk", "name": null, "surface": null, "lit": "yes", "length_m": 44.06, "type_element": "Way", "__fid": 13940}, "geometry": {"type": "LineString", "coordinates": [[2.2872885, 48.8321647], [2.2871969, 48.8321368], [2.286841296291385, 48.831905407105]]}}, {"type": "Feature", "properties": {"highway": "service", "footway": null, "name": null, "surface": null, "lit": "yes", "length_m": 18.97, "type_element": "Way", "__fid": 13941}, "geometry": {"type": "LineString", "coordinates": [[2.286841296291385, 48.831905407105], [2.28702612372552, 48.83178618469942]]}}, {"type": "Feature", "properties": {"highway": "footway", "footway": null, "name": null, "surface": null, "lit": "yes", "length_m": 6.17, "type_element": "Way", "__fid": 13992}, "geometry": {"type": "LineString", "coordinates": [[2.2869703, 48.832533800000014], [2.2870471, 48.8325564]]}}, {"type": "Feature", "properties": {"highway": "footway", "footway": "sidewalk", "name": null, "surface": "paved", "lit": "yes", "length_m": 51.73, "type_element": "Way", "__fid": 14044}, "geometry": {"type": "LineString", "coordinates": [[2.28702612372552, 48.83178618469942], [2.2875221, 48.8320875], [2.2875514, 48.8320935]]}}, {"type": "Feature", "properties": {"highway": "service", "footway": null, "name": null, "surface": null, "lit": "yes", "length_m": 11.03, "type_element": "Way", "__fid": 14045}, "geometry": {"type": "LineString", "coordinates": [[2.28702612372552, 48.83178618469942], [2.287133591867634, 48.83171686229511]]}}, {"type": "Feature", "properties": {"highway": "footway", "footway": "sidewalk", "name": null, "surface": null, "lit": "yes", "length_m": 33.85, "type_element": "Way", "__fid": 14059}, "geometry": {"type": "LineString", "coordinates": [[2.2870471, 48.8325564], [2.2871214, 48.83245380000001], [2.2873682, 48.8323547]]}}, {"type": "Feature", "properties": {"highway": "service", "footway": null, "name": null, "surface": null, "lit": "yes", "length_m": 31.49, "type_element": "Way", "__fid": 14074}, "geometry": {"type": "LineString", "coordinates": [[2.2870652, 48.8329519], [2.2872687, 48.8328692], [2.2871821, 48.8327575]]}}, {"type": "Feature", "properties": {"highway": "footway", "footway": "sidewalk", "name": null, "surface": "concrete", "lit": "yes", "length_m": 51.34, "type_element": "Way", "__fid": 14124}, "geometry": {"type": "LineString", "coordinates": [[2.287133591867634, 48.83171686229511], [2.2876271, 48.832044]]}}, {"type": "Feature", "properties": {"highway": "service", "footway": null, "name": null, "surface": null, "lit": "yes", "length_m": 4.0, "type_element": "Way", "__fid": 14125}, "geometry": {"type": "LineString", "coordinates": [[2.287133591867634, 48.83171686229511], [2.2871726, 48.831691700000015]]}}, {"type": "Feature", "properties": {"highway": "footway", "footway": null, "name": null, "surface": null, "lit": "yes", "length_m": 13.22, "type_element": "Way", "__fid": 14146}, "geometry": {"type": "LineString", "coordinates": [[2.2871726, 48.831691700000015], [2.2872024, 48.83161], [2.2872394, 48.8315851]]}}, {"type": "Feature", "properties": {"highway": "service", "footway": null, "name": null, "surface": null, "lit": "yes", "length_m": 53.48, "type_element": "Way", "__fid": 14147}, "geometry": {"type": "LineString", "coordinates": [[2.2871726, 48.831691700000015], [2.2872366, 48.8316829], [2.2876531, 48.8314187], [2.2877366, 48.831431]]}}, {"type": "Feature", "properties": {"highway": "service", "footway": null, "name": null, "surface": null, "lit": "yes", "length_m": 37.0, "type_element": "Way", "__fid": 14173}, "geometry": {"type": "LineString", "coordinates": [[2.2871821, 48.8327575], [2.2873802, 48.83245150000001]]}}, {"type": "Feature", "properties": {"highway": "footway", "footway": "sidewalk", "name": null, "surface": null, "lit": "yes", "length_m": 16.83, "type_element": "Way", "__fid": 14269}, "geometry": {"type": "LineString", "coordinates": [[2.2874414, 48.83227749999999], [2.2872885, 48.8321647]]}}, {"type": "Feature", "properties": {"highway": "footway", "footway": "sidewalk", "name": null, "surface": null, "lit": "yes", "length_m": 11.3, "type_element": "Way", "__fid": 14270}, "geometry": {"type": "LineString", "coordinates": [[2.2872885, 48.8321647], [2.2872436, 48.8321933], [2.2873078, 48.8322364]]}}, {"type": "Feature", "properties": {"highway": "path", "footway": null, "name": null, "surface": null, "lit": null, "length_m": 7.49, "type_element": "Way", "__fid": 14281}, "geometry": {"type": "LineString", "coordinates": [[2.2873391, 48.83480050000002], [2.2872564, 48.8347611]]}}, {"type": "Feature", "properties": {"highway": "path", "footway": null, "name": null, "surface": null, "lit": null, "length_m": 5.93, "type_element": "Way", "__fid": 14326}, "geometry": {"type": "LineString", "coordinates": [[2.2872923, 48.834844], [2.2873391, 48.83480050000002]]}}, {"type": "Feature", "properties": {"highway": "footway", "footway": "sidewalk", "name": null, "surface": null, "lit": "yes", "length_m": 10.8, "type_element": "Way", "__fid": 14363}, "geometry": {"type": "LineString", "coordinates": [[2.2873802, 48.83245150000001], [2.2873682, 48.8323547]]}}, {"type": "Feature", "properties": {"highway": "footway", "footway": "sidewalk", "name": null, "surface": null, "lit": "yes", "length_m": 10.13, "type_element": "Way", "__fid": 14364}, "geometry": {"type": "LineString", "coordinates": [[2.2873682, 48.8323547], [2.2874414, 48.83227749999999]]}}, {"type": "Feature", "properties": {"highway": "path", "footway": null, "name": null, "surface": null, "lit": null, "length_m": 20.9, "type_element": "Way", "__fid": 14365}, "geometry": {"type": "LineString", "coordinates": [[2.287576, 48.8349048], [2.2873391, 48.83480050000002]]}}, {"type": "Feature", "properties": {"highway": "path", "footway": null, "name": null, "surface": null, "lit": null, "length_m": 28.07, "type_element": "Way", "__fid": 14366}, "geometry": {"type": "LineString", "coordinates": [[2.2873391, 48.83480050000002], [2.287498, 48.834777], [2.2876231, 48.8347946], [2.2877134, 48.834784]]}}, {"type": "Feature", "properties": {"highway": "footway", "footway": "crossing", "name": null, "surface": null, "lit": "yes", "length_m": 18.55, "type_element": "Way", "__fid": 14372}, "geometry": {"type": "LineString", "coordinates": [[2.2873802, 48.83245150000001], [2.2876104, 48.8325204]]}}, {"type": "Feature", "properties": {"highway": "service", "footway": null, "name": null, "surface": null, "lit": "yes", "length_m": 19.39, "type_element": "Way", "__fid": 14373}, "geometry": {"type": "LineString", "coordinates": [[2.2873802, 48.83245150000001], [2.2876087, 48.832364]]}}, {"type": "Feature", "properties": {"highway": "footway", "footway": "crossing", "name": null, "surface": null, "lit": "yes", "length_m": 21.17, "type_element": "Way", "__fid": 14421}, "geometry": {"type": "LineString", "coordinates": [[2.2874414, 48.83227749999999], [2.2876924, 48.8321837]]}}, {"type": "Feature", "properties": {"highway": "footway", "footway": "sidewalk", "name": null, "surface": "paving_stones", "lit": "yes", "length_m": 14.41, "type_element": "Way", "__fid": 14482}, "geometry": {"type": "LineString", "coordinates": [[2.2875514, 48.8320935], [2.2876924, 48.8321837]]}}, {"type": "Feature", "properties": {"highway": "footway", "footway": "sidewalk", "name": null, "surface": "concrete", "lit": "yes", "length_m": 7.82, "type_element": "Way", "__fid": 14483}, "geometry": {"type": "LineString", "coordinates": [[2.2875514, 48.8320935], [2.2876271, 48.832044]]}}, {"type": "Feature", "properties": {"highway": "path", "footway": null, "name": null, "surface": null, "lit": null, "length_m": 7.33, "type_element": "Way", "__fid": 14489}, "geometry": {"type": "LineString", "coordinates": [[2.287576, 48.8349048], [2.2875214, 48.83496]]}}, {"type": "Feature", "properties": {"highway": "path", "footway": null, "name": null, "surface": null, "lit": null, "length_m": 21.36, "type_element": "Way", "__fid": 14539}, "geometry": {"type": "LineString", "coordinates": [[2.2878166, 48.8350129], [2.287576, 48.8349048]]}}, {"type": "Feature", "properties": {"highway": "path", "footway": null, "name": null, "surface": null, "lit": null, "length_m": 16.8, "type_element": "Way", "__fid": 14540}, "geometry": {"type": "LineString", "coordinates": [[2.2877134, 48.834784], [2.287576, 48.8349048]]}}, {"type": "Feature", "properties": {"highway": "footway", "footway": "sidewalk", "name": null, "surface": "paving_stones", "lit": "yes", "length_m": 14.17, "type_element": "Way", "__fid": 14541}, "geometry": {"type": "LineString", "coordinates": [[2.2877792, 48.8325823], [2.2876104, 48.8325204]]}}, {"type": "Feature", "properties": {"highway": "footway", "footway": "sidewalk", "name": null, "surface": "paving_stones", "lit": "yes", "length_m": 32.56, "type_element": "Way", "__fid": 14542}, "geometry": {"type": "LineString", "coordinates": [[2.2876104, 48.8325204], [2.2875683, 48.8326852], [2.2876641, 48.8327938]]}}, {"type": "Feature", "properties": {"highway": "footway", "footway": "sidewalk", "name": null, "surface": "paving_stones", "lit": "yes", "length_m": 37.81, "type_element": "Way", "__fid": 14543}, "geometry": {"type": "LineString", "coordinates": [[2.2876104, 48.8325204], [2.2880477, 48.8323408]]}}, {"type": "Feature", "properties": {"highway": "footway", "footway": "sidewalk", "name": null, "surface": "concrete", "lit": "yes", "length_m": 11.51, "type_element": "Way", "__fid": 14550}, "geometry": {"type": "LineString", "coordinates": [[2.2876271, 48.832044], [2.2876759, 48.832014399999984], [2.2877406, 48.8320562]]}}, {"type": "Feature", "properties": {"highway": "footway", "footway": "crossing", "name": null, "surface": "paving_stones", "lit": "yes", "length_m": 11.07, "type_element": "Way", "__fid": 14571}, "geometry": {"type": "LineString", "coordinates": [[2.2877429, 48.8328787], [2.2876641, 48.8327938]]}}, {"type": "Feature", "properties": {"highway": "footway", "footway": null, "name": null, "surface": "paving_stones", "lit": "yes", "length_m": 17.38, "type_element": "Way", "__fid": 14572}, "geometry": {"type": "LineString", "coordinates": [[2.2878657, 48.83271180000001], [2.2876641, 48.8327938]]}}, {"type": "Feature", "properties": {"highway": "footway", "footway": "sidewalk", "name": null, "surface": "paving_stones", "lit": "yes", "length_m": 26.72, "type_element": "Way", "__fid": 14580}, "geometry": {"type": "LineString", "coordinates": [[2.2876924, 48.8321837], [2.2880564, 48.8321794]]}}, {"type": "Feature", "properties": {"highway": "steps", "footway": null, "name": null, "surface": null, "lit": "yes", "length_m": 23.63, "type_element": "Way", "__fid": 14592}, "geometry": {"type": "LineString", "coordinates": [[2.2877366, 48.831431], [2.2880473, 48.8314866]]}}, {"type": "Feature", "properties": {"highway": "footway", "footway": null, "name": null, "surface": null, "lit": "yes", "length_m": 88.02, "type_element": "Way", "__fid": 14593}, "geometry": {"type": "LineString", "coordinates": [[2.2879884, 48.83195450000003], [2.2878401, 48.8319172], [2.287696, 48.831919], [2.2876886, 48.8318506], [2.2875699, 48.83183510000001], [2.2876276, 48.8316767], [2.2877308, 48.8316268], [2.2877366, 48.831431]]}}, {"type": "Feature", "properties": {"highway": "path", "footway": null, "name": null, "surface": null, "lit": null, "length_m": 27.39, "type_element": "Way", "__fid": 14606}, "geometry": {"type": "LineString", "coordinates": [[2.2880654, 48.8347903], [2.2879752, 48.8347523], [2.2877134, 48.834784]]}}, {"type": "Feature", "properties": {"highway": "footway", "footway": "crossing", "name": null, "surface": null, "lit": "yes", "length_m": 16.71, "type_element": "Way", "__fid": 14609}, "geometry": {"type": "LineString", "coordinates": [[2.2877429, 48.8328787], [2.287865899999899, 48.833005133333366]]}}, {"type": "Feature", "properties": {"highway": "footway", "footway": null, "name": null, "surface": "paving_stones", "lit": "yes", "length_m": 67.73, "type_element": "Way", "__fid": 14610}, "geometry": {"type": "LineString", "coordinates": [[2.2877429, 48.8328787], [2.2885156, 48.8325458]]}}, {"type": "Feature", "properties": {"highway": "footway", "footway": null, "name": null, "surface": null, "lit": "yes", "length_m": 24.08, "type_element": "Way", "__fid": 14612}, "geometry": {"type": "LineString", "coordinates": [[2.2877768, 48.8309166], [2.2876796, 48.8309831], [2.2878082, 48.8310737]]}}, {"type": "Feature", "properties": {"highway": "service", "footway": null, "name": null, "surface": null, "lit": "yes", "length_m": 29.59, "type_element": "Way", "__fid": 14613}, "geometry": {"type": "LineString", "coordinates": [[2.287975, 48.830704], [2.2879854, 48.83075010000001], [2.2879689, 48.8307856], [2.2877768, 48.8309166]]}}, {"type": "Feature", "properties": {"highway": "footway", "footway": "sidewalk", "name": null, "surface": "paving_stones", "lit": "yes", "length_m": 15.74, "type_element": "Way", "__fid": 14622}, "geometry": {"type": "LineString", "coordinates": [[2.2877792, 48.8325823], [2.2878657, 48.83271180000001]]}}, {"type": "Feature", "properties": {"highway": "footway", "footway": "sidewalk", "name": null, "surface": "paving_stones", "lit": "yes", "length_m": 23.85, "type_element": "Way", "__fid": 14623}, "geometry": {"type": "LineString", "coordinates": [[2.2880462, 48.8324601], [2.2877792, 48.8325823]]}}, {"type": "Feature", "properties": {"highway": "footway", "footway": null, "name": null, "surface": null, "lit": "yes", "length_m": 14.57, "type_element": "Way", "__fid": 14626}, "geometry": {"type": "LineString", "coordinates": [[2.287944, 48.8311692], [2.2878082, 48.8310737]]}}, {"type": "Feature", "properties": {"highway": "path", "footway": null, "name": null, "surface": null, "lit": null, "length_m": 7.45, "type_element": "Way", "__fid": 14627}, "geometry": {"type": "LineString", "coordinates": [[2.2878166, 48.8350129], [2.2877567, 48.835067]]}}, {"type": "Feature", "properties": {"highway": "path", "footway": null, "name": null, "surface": null, "lit": null, "length_m": 21.88, "type_element": "Way", "__fid": 14644}, "geometry": {"type": "LineString", "coordinates": [[2.288063, 48.8351237], [2.2878166, 48.8350129]]}}, {"type": "Feature", "properties": {"highway": "path", "footway": null, "name": null, "surface": null, "lit": null, "length_m": 30.76, "type_element": "Way", "__fid": 14645}, "geometry": {"type": "LineString", "coordinates": [[2.2880654, 48.8347903], [2.2878166, 48.8350129]]}}, {"type": "Feature", "properties": {"highway": "footway", "footway": "sidewalk", "name": null, "surface": "asphalt", "lit": "yes", "length_m": 50.1, "type_element": "Way", "__fid": 14652}, "geometry": {"type": "LineString", "coordinates": [[2.287833673471369, 48.83433401410156], [2.2879486, 48.834405], [2.2879439, 48.8344539], [2.288266, 48.8346622]]}}, {"type": "Feature", "properties": {"highway": "footway", "footway": null, "name": "Ligne d'Auteuil à La Râpée (Petite Ceinture)", "surface": "compacted", "lit": "no", "length_m": 8.3, "type_element": "Way", "__fid": 14653}, "geometry": {"type": "LineString", "coordinates": [[2.287938269730256, 48.83430556799959], [2.287833673471369, 48.83433401410156]]}}, {"type": "Feature", "properties": {"highway": "footway", "footway": null, "name": null, "surface": "paving_stones", "lit": "yes", "length_m": 37.6, "type_element": "Way", "__fid": 14660}, "geometry": {"type": "LineString", "coordinates": [[2.2882978, 48.8325303], [2.2878657, 48.83271180000001]]}}, {"type": "Feature", "properties": {"highway": "footway", "footway": null, "name": null, "surface": "paving_stones", "lit": "yes", "length_m": 56.12, "type_element": "Way", "__fid": 14699}, "geometry": {"type": "LineString", "coordinates": [[2.2881727, 48.8313612], [2.287778, 48.831344], [2.2877502, 48.8313347], [2.2877387, 48.8313166], [2.287748, 48.831293299999984], [2.287944, 48.8311692]]}}, {"type": "Feature", "properties": {"highway": "footway", "footway": null, "name": null, "surface": null, "lit": "yes", "length_m": 28.71, "type_element": "Way", "__fid": 14709}, "geometry": {"type": "LineString", "coordinates": [[2.287975, 48.830704], [2.2883581, 48.830756]]}}, {"type": "Feature", "properties": {"highway": "footway", "footway": "sidewalk", "name": null, "surface": "asphalt", "lit": "yes", "length_m": 36.14, "type_element": "Way", "__fid": 14712}, "geometry": {"type": "LineString", "coordinates": [[2.287938269730256, 48.83430556799959], [2.2882583, 48.834503], [2.2883109, 48.8345118]]}}, {"type": "Feature", "properties": {"highway": "footway", "footway": null, "name": "Ligne d'Auteuil à La Râpée (Petite Ceinture)", "surface": "wood", "lit": "no", "length_m": 146.24, "type_element": "Way", "__fid": 14713}, "geometry": {"type": "LineString", "coordinates": [[2.289629786099387, 48.83363171887811], [2.2892493, 48.8338219], [2.2889231, 48.8339539], [2.2889236, 48.833966900000014], [2.2884416, 48.8341561], [2.287938269730256, 48.83430556799959]]}}, {"type": "Feature", "properties": {"highway": "footway", "footway": "sidewalk", "name": null, "surface": null, "lit": "yes", "length_m": 26.34, "type_element": "Way", "__fid": 14720}, "geometry": {"type": "LineString", "coordinates": [[2.2880564, 48.8321794], [2.2880542, 48.8320275], [2.2879884, 48.83195450000003]]}}, {"type": "Feature", "properties": {"highway": "footway", "footway": "sidewalk", "name": null, "surface": null, "lit": "yes", "length_m": 27.04, "type_element": "Way", "__fid": 14721}, "geometry": {"type": "LineString", "coordinates": [[2.2879884, 48.83195450000003], [2.2882345, 48.8317735]]}}, {"type": "Feature", "properties": {"highway": "footway", "footway": null, "name": null, "surface": "asphalt", "lit": "yes", "length_m": 37.43, "type_element": "Way", "__fid": 14735}, "geometry": {"type": "LineString", "coordinates": [[2.2882345, 48.8317735], [2.2881644, 48.8317416], [2.2881069, 48.83170029999998], [2.2880648, 48.8316516], [2.2880401, 48.8315979], [2.2880342, 48.831542], [2.2880473, 48.8314866]]}}, {"type": "Feature", "properties": {"highway": "footway", "footway": null, "name": null, "surface": "asphalt", "lit": "yes", "length_m": 16.93, "type_element": "Way", "__fid": 14736}, "geometry": {"type": "LineString", "coordinates": [[2.2880473, 48.8314866], [2.2880884, 48.8314234], [2.2881727, 48.8313612]]}}, {"type": "Feature", "properties": {"highway": "path", "footway": null, "name": null, "surface": null, "lit": null, "length_m": 7.44, "type_element": "Way", "__fid": 14739}, "geometry": {"type": "LineString", "coordinates": [[2.2880074, 48.83517959999999], [2.288063, 48.8351237]]}}, {"type": "Feature", "properties": {"highway": "footway", "footway": "sidewalk", "name": null, "surface": "paving_stones", "lit": "yes", "length_m": 32.43, "type_element": "Way", "__fid": 14742}, "geometry": {"type": "LineString", "coordinates": [[2.2880477, 48.8323408], [2.2884452, 48.8324681]]}}, {"type": "Feature", "properties": {"highway": "footway", "footway": "sidewalk", "name": null, "surface": null, "lit": "yes", "length_m": 13.27, "type_element": "Way", "__fid": 14743}, "geometry": {"type": "LineString", "coordinates": [[2.2880477, 48.8323408], [2.2880462, 48.8324601]]}}, {"type": "Feature", "properties": {"highway": "footway", "footway": "crossing", "name": null, "surface": "sett", "lit": "yes", "length_m": 17.96, "type_element": "Way", "__fid": 14744}, "geometry": {"type": "LineString", "coordinates": [[2.2880477, 48.8323408], [2.2880564, 48.8321794]]}}, {"type": "Feature", "properties": {"highway": "footway", "footway": "sidewalk", "name": null, "surface": "paving_stones", "lit": "yes", "length_m": 21.93, "type_element": "Way", "__fid": 14745}, "geometry": {"type": "LineString", "coordinates": [[2.2882978, 48.8325303], [2.288238, 48.8324725], [2.2880462, 48.8324601]]}}, {"type": "Feature", "properties": {"highway": "footway", "footway": "sidewalk", "name": null, "surface": "concrete", "lit": "yes", "length_m": 40.21, "type_element": "Way", "__fid": 14750}, "geometry": {"type": "LineString", "coordinates": [[2.2880564, 48.8321794], [2.288604, 48.832188]]}}, {"type": "Feature", "properties": {"highway": "footway", "footway": "sidewalk", "name": null, "surface": null, "lit": "yes", "length_m": 18.83, "type_element": "Way", "__fid": 14751}, "geometry": {"type": "LineString", "coordinates": [[2.2882694, 48.832085], [2.2880564, 48.8321794]]}}, {"type": "Feature", "properties": {"highway": "path", "footway": null, "name": null, "surface": null, "lit": null, "length_m": 41.42, "type_element": "Way", "__fid": 14768}, "geometry": {"type": "LineString", "coordinates": [[2.288063, 48.8351237], [2.2881636, 48.8350336], [2.2881392, 48.8348537], [2.2880654, 48.8347903]]}}, {"type": "Feature", "properties": {"highway": "path", "footway": null, "name": null, "surface": null, "lit": null, "length_m": 20.49, "type_element": "Way", "__fid": 14769}, "geometry": {"type": "LineString", "coordinates": [[2.288266, 48.8346622], [2.2880654, 48.8347903]]}}, {"type": "Feature", "properties": {"highway": "path", "footway": null, "name": null, "surface": null, "lit": null, "length_m": 31.97, "type_element": "Way", "__fid": 14770}, "geometry": {"type": "LineString", "coordinates": [[2.2884231, 48.8352855], [2.288063, 48.8351237]]}}, {"type": "Feature", "properties": {"highway": "footway", "footway": null, "name": null, "surface": "asphalt", "lit": "yes", "length_m": 13.66, "type_element": "Way", "__fid": 14810}, "geometry": {"type": "LineString", "coordinates": [[2.2881727, 48.8313612], [2.2882394, 48.8313301], [2.2883379, 48.8313072]]}}, {"type": "Feature", "properties": {"highway": "footway", "footway": "sidewalk", "name": null, "surface": "paving_stones", "lit": "yes", "length_m": 19.73, "type_element": "Way", "__fid": 14813}, "geometry": {"type": "LineString", "coordinates": [[2.2883576, 48.8327962], [2.2883431, 48.8327863], [2.2883187, 48.8327832], [2.2881542, 48.8328826]]}}, {"type": "Feature", "properties": {"highway": "footway", "footway": "sidewalk", "name": null, "surface": "paving_stones", "lit": "yes", "length_m": 19.11, "type_element": "Way", "__fid": 14814}, "geometry": {"type": "LineString", "coordinates": [[2.2883908, 48.832818], [2.2883078, 48.8328571], [2.2881542, 48.8328826]]}}, {"type": "Feature", "properties": {"highway": "footway", "footway": null, "name": null, "surface": "asphalt", "lit": "yes", "length_m": 11.58, "type_element": "Way", "__fid": 14838}, "geometry": {"type": "LineString", "coordinates": [[2.288385, 48.8318031], [2.288315, 48.831794600000016], [2.2882345, 48.8317735]]}}, {"type": "Feature", "properties": {"highway": "footway", "footway": null, "name": null, "surface": null, "lit": "yes", "length_m": 33.44, "type_element": "Way", "__fid": 14857}, "geometry": {"type": "LineString", "coordinates": [[2.288385, 48.8318031], [2.2882655, 48.831959], [2.2882694, 48.832085]]}}, {"type": "Feature", "properties": {"highway": "footway", "footway": "sidewalk", "name": null, "surface": null, "lit": "yes", "length_m": 29.31, "type_element": "Way", "__fid": 14858}, "geometry": {"type": "LineString", "coordinates": [[2.288604, 48.832188], [2.2884439, 48.8320838], [2.2882694, 48.832085]]}}, {"type": "Feature", "properties": {"highway": "steps", "footway": null, "name": null, "surface": "asphalt", "lit": "yes", "length_m": 7.38, "type_element": "Way", "__fid": 14869}, "geometry": {"type": "LineString", "coordinates": [[2.2882791, 48.8328377], [2.2883576, 48.8327962]]}}, {"type": "Feature", "properties": {"highway": "footway", "footway": "sidewalk", "name": null, "surface": "asphalt", "lit": "yes", "length_m": 4.08, "type_element": "Way", "__fid": 14871}, "geometry": {"type": "LineString", "coordinates": [[2.288266, 48.8346622], [2.2883052, 48.8346882]]}}, {"type": "Feature", "properties": {"highway": "footway", "footway": null, "name": null, "surface": "paving_stones", "lit": "yes", "length_m": 12.84, "type_element": "Way", "__fid": 14872}, "geometry": {"type": "LineString", "coordinates": [[2.2884452, 48.8324681], [2.2882978, 48.8325303]]}}, {"type": "Feature", "properties": {"highway": "footway", "footway": null, "name": null, "surface": null, "lit": "yes", "length_m": 61.31, "type_element": "Way", "__fid": 14881}, "geometry": {"type": "LineString", "coordinates": [[2.2883379, 48.8313072], [2.2883581, 48.830756]]}}, {"type": "Feature", "properties": {"highway": "footway", "footway": null, "name": null, "surface": "asphalt", "lit": "yes", "length_m": 8.19, "type_element": "Way", "__fid": 14882}, "geometry": {"type": "LineString", "coordinates": [[2.2883379, 48.8313072], [2.2884493, 48.8313031]]}}, {"type": "Feature", "properties": {"highway": "footway", "footway": null, "name": null, "surface": "asphalt", "lit": "yes", "length_m": 237.32, "type_element": "Way", "__fid": 14886}, "geometry": {"type": "LineString", "coordinates": [[2.2883581, 48.830756], [2.2884668, 48.8286229]]}}, {"type": "Feature", "properties": {"highway": "footway", "footway": "sidewalk", "name": null, "surface": "asphalt", "lit": "yes", "length_m": 66.86, "type_element": "Way", "__fid": 14887}, "geometry": {"type": "LineString", "coordinates": [[2.2883052, 48.8346882], [2.2886441, 48.8349243], [2.288765, 48.8349662], [2.2889402, 48.83511170000001]]}}, {"type": "Feature", "properties": {"highway": "footway", "footway": "crossing", "name": null, "surface": "asphalt", "lit": "yes", "length_m": 12.76, "type_element": "Way", "__fid": 14888}, "geometry": {"type": "LineString", "coordinates": [[2.2883052, 48.8346882], [2.2884225, 48.834616900000015], [2.2884367, 48.8346153]]}}, {"type": "Feature", "properties": {"highway": "footway", "footway": "crossing", "name": null, "surface": null, "lit": "yes", "length_m": 12.65, "type_element": "Way", "__fid": 14889}, "geometry": {"type": "LineString", "coordinates": [[2.2883109, 48.8345118], [2.2883147, 48.8345224], [2.2884148, 48.8345871], [2.2884301, 48.83458959999999]]}}, {"type": "Feature", "properties": {"highway": "footway", "footway": "sidewalk", "name": null, "surface": "asphalt", "lit": "yes", "length_m": 137.66, "type_element": "Way", "__fid": 14890}, "geometry": {"type": "LineString", "coordinates": [[2.2883109, 48.8345118], [2.2883534, 48.8345054], [2.289757399999764, 48.8337287000001]]}}, {"type": "Feature", "properties": {"highway": "footway", "footway": "sidewalk", "name": null, "surface": "paving_stones", "lit": "yes", "length_m": 3.44, "type_element": "Way", "__fid": 14895}, "geometry": {"type": "LineString", "coordinates": [[2.2883908, 48.832818], [2.2883576, 48.8327962]]}}, {"type": "Feature", "properties": {"highway": "footway", "footway": null, "name": null, "surface": "asphalt", "lit": "yes", "length_m": 13.41, "type_element": "Way", "__fid": 14903}, "geometry": {"type": "LineString", "coordinates": [[2.288564, 48.8317832], [2.2884841, 48.8317991], [2.288385, 48.8318031]]}}, {"type": "Feature", "properties": {"highway": "footway", "footway": "sidewalk", "name": null, "surface": "paving_stones", "lit": "yes", "length_m": 2.29, "type_element": "Way", "__fid": 14910}, "geometry": {"type": "LineString", "coordinates": [[2.2884129, 48.8328325], [2.2883908, 48.832818]]}}, {"type": "Feature", "properties": {"highway": "footway", "footway": "sidewalk", "name": null, "surface": "paving_stones", "lit": "yes", "length_m": 94.09, "type_element": "Way", "__fid": 14916}, "geometry": {"type": "LineString", "coordinates": [[2.2893168, 48.8334325], [2.2884129, 48.8328325]]}}, {"type": "Feature", "properties": {"highway": "footway", "footway": "crossing", "name": null, "surface": "asphalt", "lit": "yes", "length_m": 15.69, "type_element": "Way", "__fid": 14917}, "geometry": {"type": "LineString", "coordinates": [[2.2884129, 48.8328325], [2.2885628, 48.83273190000001]]}}, {"type": "Feature", "properties": {"highway": "footway", "footway": null, "name": null, "surface": "asphalt", "lit": "yes", "length_m": 20.16, "type_element": "Way", "__fid": 14924}, "geometry": {"type": "LineString", "coordinates": [[2.2884493, 48.8313031], [2.2885578, 48.83132039999999], [2.2886539, 48.8313577], [2.2886889, 48.8313827]]}}, {"type": "Feature", "properties": {"highway": "footway", "footway": null, "name": null, "surface": null, "lit": "yes", "length_m": 143.07, "type_element": "Way", "__fid": 14925}, "geometry": {"type": "LineString", "coordinates": [[2.2884493, 48.8313031], [2.2885946, 48.8311781], [2.2900224, 48.8305566]]}}, {"type": "Feature", "properties": {"highway": "footway", "footway": "crossing", "name": null, "surface": "paving_stones", "lit": "yes", "length_m": 10.07, "type_element": "Way", "__fid": 14928}, "geometry": {"type": "LineString", "coordinates": [[2.2885156, 48.8325458], [2.2884452, 48.8324681]]}}, {"type": "Feature", "properties": {"highway": "footway", "footway": "sidewalk", "name": null, "surface": "asphalt", "lit": "yes", "length_m": 2.9, "type_element": "Way", "__fid": 14933}, "geometry": {"type": "LineString", "coordinates": [[2.2884367, 48.8346153], [2.2884301, 48.83458959999999]]}}, {"type": "Feature", "properties": {"highway": "footway", "footway": "sidewalk", "name": null, "surface": "asphalt", "lit": "yes", "length_m": 137.75, "type_element": "Way", "__fid": 14934}, "geometry": {"type": "LineString", "coordinates": [[2.2884301, 48.83458959999999], [2.2884463, 48.8345643], [2.2898138, 48.8338132], [2.2898684, 48.8338049]]}}, {"type": "Feature", "properties": {"highway": "footway", "footway": "sidewalk", "name": null, "surface": "asphalt", "lit": "yes", "length_m": 63.15, "type_element": "Way", "__fid": 14937}, "geometry": {"type": "LineString", "coordinates": [[2.2890052, 48.83504070000002], [2.2886899, 48.8347839], [2.2884367, 48.8346153]]}}, {"type": "Feature", "properties": {"highway": "footway", "footway": "crossing", "name": null, "surface": "sett", "lit": "yes", "length_m": 17.76, "type_element": "Way", "__fid": 14955}, "geometry": {"type": "LineString", "coordinates": [[2.2885156, 48.8325458], [2.2885997, 48.8326339], [2.2886577, 48.8326742]]}}, {"type": "Feature", "properties": {"highway": "footway", "footway": "sidewalk", "name": null, "surface": "asphalt", "lit": "yes", "length_m": 88.65, "type_element": "Way", "__fid": 14970}, "geometry": {"type": "LineString", "coordinates": [[2.2889417, 48.8351444], [2.2884927, 48.8358845]]}}, {"type": "Feature", "properties": {"highway": "footway", "footway": null, "name": null, "surface": "concrete", "lit": "yes", "length_m": 52.43, "type_element": "Way", "__fid": 14983}, "geometry": {"type": "LineString", "coordinates": [[2.288564, 48.8317832], [2.2887504, 48.8319464], [2.2886574, 48.8320217], [2.288604, 48.832188]]}}, {"type": "Feature", "properties": {"highway": "footway", "footway": null, "name": null, "surface": "asphalt", "lit": "yes", "length_m": 53.43, "type_element": "Way", "__fid": 14984}, "geometry": {"type": "LineString", "coordinates": [[2.2886889, 48.8313827], [2.2887295, 48.8314117], [2.288778, 48.8314779], [2.2887953, 48.8315504], [2.28878, 48.8316232], [2.2887332, 48.8316899], [2.2886591, 48.8317448], [2.288564, 48.8317832]]}}, {"type": "Feature", "properties": {"highway": "footway", "footway": "sidewalk", "name": null, "surface": null, "lit": "yes", "length_m": 2.15, "type_element": "Way", "__fid": 14992}, "geometry": {"type": "LineString", "coordinates": [[2.2885628, 48.83273190000001], [2.2885851, 48.8327445]]}}, {"type": "Feature", "properties": {"highway": "steps", "footway": null, "name": null, "surface": null, "lit": "yes", "length_m": 8.58, "type_element": "Way", "__fid": 14993}, "geometry": {"type": "LineString", "coordinates": [[2.2885628, 48.83273190000001], [2.2885954, 48.8327021], [2.2886011, 48.8326619]]}}, {"type": "Feature", "properties": {"highway": "footway", "footway": "sidewalk", "name": null, "surface": null, "lit": "yes", "length_m": 90.07, "type_element": "Way", "__fid": 14999}, "geometry": {"type": "LineString", "coordinates": [[2.2885851, 48.8327445], [2.2894571, 48.8333144]]}}, {"type": "Feature", "properties": {"highway": "footway", "footway": "sidewalk", "name": null, "surface": null, "lit": "yes", "length_m": 9.46, "type_element": "Way", "__fid": 15000}, "geometry": {"type": "LineString", "coordinates": [[2.2886577, 48.8326742], [2.2885851, 48.8327445]]}}, {"type": "Feature", "properties": {"highway": "footway", "footway": "sidewalk", "name": null, "surface": "concrete", "lit": "yes", "length_m": 31.32, "type_element": "Way", "__fid": 15008}, "geometry": {"type": "LineString", "coordinates": [[2.288604, 48.832188], [2.2888675, 48.8321522], [2.2889796, 48.83215320000002], [2.2890175, 48.83216980000001]]}}, {"type": "Feature", "properties": {"highway": "footway", "footway": "sidewalk", "name": null, "surface": null, "lit": "yes", "length_m": 284.28, "type_element": "Way", "__fid": 15034}, "geometry": {"type": "LineString", "coordinates": [[2.2919008, 48.831277], [2.2886577, 48.8326742]]}}, {"type": "Feature", "properties": {"highway": "service", "footway": null, "name": null, "surface": null, "lit": "yes", "length_m": 137.46, "type_element": "Way", "__fid": 15040}, "geometry": {"type": "LineString", "coordinates": [[2.2886889, 48.8313827], [2.2890014, 48.83125860000001], [2.2899298, 48.8308642], [2.2900989, 48.8308559], [2.2901619, 48.83084289999997], [2.2902213, 48.8308109], [2.2902609, 48.8307564]]}}, {"type": "Feature", "properties": {"highway": "footway", "footway": "sidewalk", "name": null, "surface": "asphalt", "lit": "yes", "length_m": 78.7, "type_element": "Way", "__fid": 15082}, "geometry": {"type": "LineString", "coordinates": [[2.2890392, 48.8352395], [2.2890131, 48.835256], [2.2886582, 48.8358387], [2.2887149, 48.835880199999984]]}}, {"type": "Feature", "properties": {"highway": "steps", "footway": null, "name": null, "surface": null, "lit": "yes", "length_m": 9.02, "type_element": "Way", "__fid": 15148}, "geometry": {"type": "LineString", "coordinates": [[2.2888987, 48.8321842], [2.288975, 48.8321822], [2.2890175, 48.83216980000001]]}}, {"type": "Feature", "properties": {"highway": "footway", "footway": "sidewalk", "name": null, "surface": "asphalt", "lit": "yes", "length_m": 3.64, "type_element": "Way", "__fid": 15190}, "geometry": {"type": "LineString", "coordinates": [[2.2889402, 48.83511170000001], [2.2889417, 48.8351444]]}}, {"type": "Feature", "properties": {"highway": "footway", "footway": "crossing", "name": null, "surface": "asphalt", "lit": "yes", "length_m": 9.22, "type_element": "Way", "__fid": 15191}, "geometry": {"type": "LineString", "coordinates": [[2.2890052, 48.83504070000002], [2.2889402, 48.83511170000001]]}}, {"type": "Feature", "properties": {"highway": "footway", "footway": "crossing", "name": null, "surface": "asphalt", "lit": "yes", "length_m": 12.77, "type_element": "Way", "__fid": 15192}, "geometry": {"type": "LineString", "coordinates": [[2.2889417, 48.8351444], [2.2890392, 48.8352395]]}}, {"type": "Feature", "properties": {"highway": "service", "footway": null, "name": null, "surface": null, "lit": "yes", "length_m": 96.7, "type_element": "Way", "__fid": 15201}, "geometry": {"type": "LineString", "coordinates": [[2.289023, 48.8310786], [2.2900234, 48.830625], [2.2900224, 48.8305566]]}}, {"type": "Feature", "properties": {"highway": "footway", "footway": "sidewalk", "name": null, "surface": null, "lit": "yes", "length_m": 263.41, "type_element": "Way", "__fid": 15207}, "geometry": {"type": "LineString", "coordinates": [[2.2919912, 48.8308633], [2.291857, 48.830923], [2.2916977, 48.8310232], [2.2890492, 48.8321768], [2.2890175, 48.83216980000001]]}}, {"type": "Feature", "properties": {"highway": "footway", "footway": "sidewalk", "name": null, "surface": "asphalt", "lit": "yes", "length_m": 2.01, "type_element": "Way", "__fid": 15211}, "geometry": {"type": "LineString", "coordinates": [[2.2890325, 48.83504], [2.2890052, 48.83504070000002]]}}, {"type": "Feature", "properties": {"highway": "footway", "footway": "crossing", "name": null, "surface": "asphalt", "lit": "yes", "length_m": 10.91, "type_element": "Way", "__fid": 15226}, "geometry": {"type": "LineString", "coordinates": [[2.2891289, 48.8351147], [2.2890325, 48.83504]]}}, {"type": "Feature", "properties": {"highway": "footway", "footway": "sidewalk", "name": null, "surface": "asphalt", "lit": "yes", "length_m": 95.81, "type_element": "Way", "__fid": 15227}, "geometry": {"type": "LineString", "coordinates": [[2.2898177, 48.8343529], [2.2892811, 48.8348185], [2.2892225, 48.8348823], [2.2890628, 48.83502269999999], [2.2890325, 48.83504]]}}, {"type": "Feature", "properties": {"highway": "footway", "footway": "sidewalk", "name": null, "surface": "asphalt", "lit": "yes", "length_m": 2.52, "type_element": "Way", "__fid": 15228}, "geometry": {"type": "LineString", "coordinates": [[2.2890392, 48.8352395], [2.2890734, 48.8352379]]}}, {"type": "Feature", "properties": {"highway": "footway", "footway": "sidewalk", "name": null, "surface": "asphalt", "lit": "yes", "length_m": 54.67, "type_element": "Way", "__fid": 15244}, "geometry": {"type": "LineString", "coordinates": [[2.28954836666688, 48.83561326666672], [2.2891008, 48.8352447], [2.2890734, 48.8352379]]}}, {"type": "Feature", "properties": {"highway": "footway", "footway": "crossing", "name": null, "surface": "asphalt", "lit": "yes", "length_m": 10.02, "type_element": "Way", "__fid": 15245}, "geometry": {"type": "LineString", "coordinates": [[2.2890734, 48.8352379], [2.289128500000162, 48.83515550000001]]}}, {"type": "Feature", "properties": {"highway": "footway", "footway": "sidewalk", "name": null, "surface": "asphalt", "lit": "yes", "length_m": 4.54, "type_element": "Way", "__fid": 15264}, "geometry": {"type": "LineString", "coordinates": [[2.289128500000162, 48.83515550000001], [2.2891289, 48.8351147]]}}, {"type": "Feature", "properties": {"highway": "footway", "footway": "sidewalk", "name": null, "surface": "asphalt", "lit": "yes", "length_m": 78.33, "type_element": "Way", "__fid": 15265}, "geometry": {"type": "LineString", "coordinates": [[2.2891289, 48.8351147], [2.2897276, 48.8345745], [2.2897779, 48.8345631]]}}, {"type": "Feature", "properties": {"highway": "footway", "footway": "sidewalk", "name": null, "surface": "asphalt", "lit": "yes", "length_m": 56.65, "type_element": "Way", "__fid": 15267}, "geometry": {"type": "LineString", "coordinates": [[2.289610300000104, 48.835553500000024], [2.289128500000162, 48.83515550000001]]}}, {"type": "Feature", "properties": {"highway": "footway", "footway": "sidewalk", "name": null, "surface": "paving_stones", "lit": "yes", "length_m": 31.91, "type_element": "Way", "__fid": 15342}, "geometry": {"type": "LineString", "coordinates": [[2.289629786099387, 48.83363171887811], [2.2893168, 48.8334325]]}}, {"type": "Feature", "properties": {"highway": "footway", "footway": "crossing", "name": null, "surface": null, "lit": "yes", "length_m": 16.69, "type_element": "Way", "__fid": 15343}, "geometry": {"type": "LineString", "coordinates": [[2.2894571, 48.8333144], [2.2893168, 48.8334325]]}}, {"type": "Feature", "properties": {"highway": "footway", "footway": "crossing", "name": null, "surface": "asphalt", "lit": "yes", "length_m": 7.8, "type_element": "Way", "__fid": 15416}, "geometry": {"type": "LineString", "coordinates": [[2.289534933333299, 48.833362200000025], [2.2894571, 48.8333144]]}}, {"type": "Feature", "properties": {"highway": "footway", "footway": "sidewalk", "name": null, "surface": null, "lit": "yes", "length_m": 284.37, "type_element": "Way", "__fid": 15417}, "geometry": {"type": "LineString", "coordinates": [[2.2894571, 48.8333144], [2.2895279, 48.833289], [2.2905549, 48.8325005], [2.2906124, 48.8324881], [2.2920221, 48.8314098]]}}, {"type": "Feature", "properties": {"highway": "footway", "footway": "sidewalk", "name": null, "surface": "paving_stones", "lit": "yes", "length_m": 10.99, "type_element": "Way", "__fid": 15491}, "geometry": {"type": "LineString", "coordinates": [[2.2897426, 48.8336967], [2.289629786099387, 48.83363171887811]]}}, {"type": "Feature", "properties": {"highway": "footway", "footway": null, "name": null, "surface": "wood", "lit": "no", "length_m": 16.46, "type_element": "Way", "__fid": 15492}, "geometry": {"type": "LineString", "coordinates": [[2.289807464974889, 48.833541426800025], [2.289629786099387, 48.83363171887811]]}}, {"type": "Feature", "properties": {"highway": "footway", "footway": "sidewalk", "name": null, "surface": "asphalt", "lit": "yes", "length_m": 111.34, "type_element": "Way", "__fid": 15532}, "geometry": {"type": "LineString", "coordinates": [[2.2897779, 48.8345631], [2.2898238, 48.83459269999999], [2.289658966666484, 48.83554543333338]]}}, {"type": "Feature", "properties": {"highway": "service", "footway": null, "name": null, "surface": null, "lit": "yes", "length_m": 254.61, "type_element": "Way", "__fid": 15553}, "geometry": {"type": "LineString", "coordinates": [[2.2898397, 48.8305336], [2.2899175, 48.829603100000014], [2.2899041, 48.8287608], [2.2898016, 48.82824970000002]]}}, {"type": "Feature", "properties": {"highway": "footway", "footway": "sidewalk", "name": null, "surface": "asphalt", "lit": "yes", "length_m": 3.72, "type_element": "Way", "__fid": 15558}, "geometry": {"type": "LineString", "coordinates": [[2.2897426, 48.8336967], [2.289757399999764, 48.8337287000001]]}}, {"type": "Feature", "properties": {"highway": "footway", "footway": "crossing", "name": null, "surface": "asphalt", "lit": "yes", "length_m": 15.6, "type_element": "Way", "__fid": 15559}, "geometry": {"type": "LineString", "coordinates": [[2.2897426, 48.8336967], [2.289894, 48.833598299999984]]}}, {"type": "Feature", "properties": {"highway": "footway", "footway": "crossing", "name": null, "surface": null, "lit": "yes", "length_m": 12.08, "type_element": "Way", "__fid": 15565}, "geometry": {"type": "LineString", "coordinates": [[2.289757399999764, 48.8337287000001], [2.2898637, 48.8337892], [2.2898684, 48.8338049]]}}, {"type": "Feature", "properties": {"highway": "footway", "footway": "crossing", "name": null, "surface": "asphalt", "lit": "yes", "length_m": 24.52, "type_element": "Way", "__fid": 15580}, "geometry": {"type": "LineString", "coordinates": [[2.2898177, 48.8343529], [2.2898411, 48.83437829999998], [2.2898261, 48.83447330000002], [2.2897779, 48.8345631]]}}, {"type": "Feature", "properties": {"highway": "footway", "footway": "sidewalk", "name": null, "surface": null, "lit": "yes", "length_m": 8.96, "type_element": "Way", "__fid": 15585}, "geometry": {"type": "LineString", "coordinates": [[2.289807464974889, 48.833541426800025], [2.289894, 48.833598299999984]]}}, {"type": "Feature", "properties": {"highway": "footway", "footway": "sidewalk", "name": null, "surface": null, "lit": "yes", "length_m": 360.37, "type_element": "Way", "__fid": 15586}, "geometry": {"type": "LineString", "coordinates": [[2.292474, 48.8318249], [2.2923529, 48.831857], [2.2920314, 48.8315091], [2.292012, 48.8315003], [2.2919855, 48.8315085], [2.2895372, 48.8333638], [2.289807464974889, 48.833541426800025]]}}, {"type": "Feature", "properties": {"highway": "footway", "footway": null, "name": null, "surface": "wood", "lit": "no", "length_m": 14.38, "type_element": "Way", "__fid": 15587}, "geometry": {"type": "LineString", "coordinates": [[2.2899556, 48.8334568], [2.289807464974889, 48.833541426800025]]}}, {"type": "Feature", "properties": {"highway": "footway", "footway": "sidewalk", "name": null, "surface": "asphalt", "lit": "yes", "length_m": 8.51, "type_element": "Way", "__fid": 15595}, "geometry": {"type": "LineString", "coordinates": [[2.2898177, 48.8343529], [2.2898675, 48.8343097], [2.2898719, 48.8342876]]}}, {"type": "Feature", "properties": {"highway": "footway", "footway": "sidewalk", "name": null, "surface": "asphalt", "lit": "yes", "length_m": 142.07, "type_element": "Way", "__fid": 15606}, "geometry": {"type": "LineString", "coordinates": [[2.2898239, 48.835567], [2.2900386, 48.8343025], [2.290030666666627, 48.83430196666679]]}}, {"type": "Feature", "properties": {"highway": "footway", "footway": "sidewalk", "name": null, "surface": "asphalt", "lit": "yes", "length_m": 6.26, "type_element": "Way", "__fid": 15615}, "geometry": {"type": "LineString", "coordinates": [[2.2898684, 48.8338049], [2.2899444, 48.83383050000001]]}}, {"type": "Feature", "properties": {"highway": "footway", "footway": "crossing", "name": null, "surface": "asphalt", "lit": "yes", "length_m": 11.76, "type_element": "Way", "__fid": 15618}, "geometry": {"type": "LineString", "coordinates": [[2.2898719, 48.8342876], [2.290030666666627, 48.83430196666679]]}}, {"type": "Feature", "properties": {"highway": "footway", "footway": "sidewalk", "name": null, "surface": "asphalt", "lit": "yes", "length_m": 44.9, "type_element": "Way", "__fid": 15619}, "geometry": {"type": "LineString", "coordinates": [[2.289952, 48.8338873], [2.2898719, 48.8342876]]}}, {"type": "Feature", "properties": {"highway": "footway", "footway": "sidewalk", "name": null, "surface": null, "lit": "yes", "length_m": 20.84, "type_element": "Way", "__fid": 15626}, "geometry": {"type": "LineString", "coordinates": [[2.289894, 48.833598299999984], [2.2900974, 48.833729]]}}, {"type": "Feature", "properties": {"highway": "footway", "footway": null, "name": null, "surface": "asphalt", "lit": "yes", "length_m": 6.34, "type_element": "Way", "__fid": 15627}, "geometry": {"type": "LineString", "coordinates": [[2.289894, 48.833598299999984], [2.28995, 48.8335549]]}}, {"type": "Feature", "properties": {"highway": "footway", "footway": "sidewalk", "name": null, "surface": "asphalt", "lit": "yes", "length_m": 6.53, "type_element": "Way", "__fid": 15652}, "geometry": {"type": "LineString", "coordinates": [[2.2899444, 48.83383050000001], [2.2899583, 48.833855300000025], [2.289952, 48.8338873]]}}, {"type": "Feature", "properties": {"highway": "footway", "footway": "crossing", "name": null, "surface": null, "lit": "yes", "length_m": 15.92, "type_element": "Way", "__fid": 15653}, "geometry": {"type": "LineString", "coordinates": [[2.2899444, 48.83383050000001], [2.2900974, 48.833729]]}}, {"type": "Feature", "properties": {"highway": "steps", "footway": null, "name": null, "surface": "concrete", "lit": "no", "length_m": 63.05, "type_element": "Way", "__fid": 15654}, "geometry": {"type": "LineString", "coordinates": [[2.2899556, 48.8334568], [2.2900005, 48.8334848], [2.2902454, 48.8333424], [2.2902694, 48.8333595], [2.28995, 48.8335549]]}}, {"type": "Feature", "properties": {"highway": "footway", "footway": null, "name": null, "surface": "asphalt", "lit": "no", "length_m": 30.21, "type_element": "Way", "__fid": 15655}, "geometry": {"type": "LineString", "coordinates": [[2.28995, 48.8335549], [2.2899819, 48.8335514], [2.2902608, 48.8333818]]}}, {"type": "Feature", "properties": {"highway": "footway", "footway": null, "name": null, "surface": "compacted", "lit": "no", "length_m": 219.85, "type_element": "Way", "__fid": 15660}, "geometry": {"type": "LineString", "coordinates": [[2.2922366, 48.8321777], [2.2913964, 48.83260279999999], [2.2899556, 48.8334568]]}}, {"type": "Feature", "properties": {"highway": "footway", "footway": "traffic_island", "name": null, "surface": "asphalt", "lit": "yes", "length_m": 22.0, "type_element": "Way", "__fid": 15661}, "geometry": {"type": "LineString", "coordinates": [[2.289952, 48.8338873], [2.2900398, 48.83392970000001], [2.2900552, 48.8339792], [2.2901382, 48.8340311]]}}, {"type": "Feature", "properties": {"highway": "service", "footway": null, "name": null, "surface": null, "lit": "yes", "length_m": 31.87, "type_element": "Way", "__fid": 15667}, "geometry": {"type": "LineString", "coordinates": [[2.2902609, 48.8307564], [2.2900218, 48.8305172]]}}, {"type": "Feature", "properties": {"highway": "service", "footway": null, "name": null, "surface": null, "lit": "yes", "length_m": 4.38, "type_element": "Way", "__fid": 15668}, "geometry": {"type": "LineString", "coordinates": [[2.2900224, 48.8305566], [2.2900218, 48.8305172]]}}, {"type": "Feature", "properties": {"highway": "pedestrian", "footway": null, "name": null, "surface": null, "lit": "yes", "length_m": 317.43, "type_element": "Way", "__fid": 15669}, "geometry": {"type": "LineString", "coordinates": [[2.2900218, 48.8305172], [2.2900198, 48.83037619999998], [2.2900342, 48.8303075], [2.2900701, 48.8302637], [2.2901033, 48.8301777], [2.2900834, 48.8300778], [2.2900826, 48.8299836], [2.2900647, 48.8298607], [2.2900797, 48.82946640000003], [2.2900742, 48.8289715], [2.2900917, 48.8287491], [2.2901421, 48.8286737], [2.2902722, 48.8285779], [2.2903624, 48.8285709], [2.2906641, 48.8283836], [2.2910436, 48.828238], [2.2913982, 48.82818009999998]]}}, {"type": "Feature", "properties": {"highway": "footway", "footway": "sidewalk", "name": null, "surface": "asphalt", "lit": "yes", "length_m": 32.88, "type_element": "Way", "__fid": 15686}, "geometry": {"type": "LineString", "coordinates": [[2.290030666666627, 48.83430196666679], [2.2900824, 48.8340499], [2.2901382, 48.8340311]]}}, {"type": "Feature", "properties": {"highway": "service", "footway": null, "name": "Rue de Vaugirard", "surface": null, "lit": "yes", "length_m": 7.3, "type_element": "Way", "__fid": 15699}, "geometry": {"type": "LineString", "coordinates": [[2.2901266, 48.8337478], [2.2900887, 48.83380850000001]]}}, {"type": "Feature", "properties": {"highway": "footway", "footway": "sidewalk", "name": null, "surface": null, "lit": "yes", "length_m": 2.99, "type_element": "Way", "__fid": 15700}, "geometry": {"type": "LineString", "coordinates": [[2.2900974, 48.833729], [2.2901266, 48.8337478]]}}, {"type": "Feature", "properties": {"highway": "footway", "footway": "sidewalk", "name": null, "surface": null, "lit": "yes", "length_m": 25.91, "type_element": "Way", "__fid": 15716}, "geometry": {"type": "LineString", "coordinates": [[2.2901266, 48.8337478], [2.2903703, 48.8339164]]}}, {"type": "Feature", "properties": {"highway": "service", "footway": null, "name": "Rue de Vaugirard", "surface": null, "lit": "yes", "length_m": 25.97, "type_element": "Way", "__fid": 15717}, "geometry": {"type": "LineString", "coordinates": [[2.2903521, 48.8335678], [2.2901266, 48.8337478]]}}, {"type": "Feature", "properties": {"highway": "footway", "footway": "sidewalk", "name": null, "surface": "asphalt", "lit": "yes", "length_m": 5.59, "type_element": "Way", "__fid": 15728}, "geometry": {"type": "LineString", "coordinates": [[2.2901382, 48.8340311], [2.2902141, 48.8340273]]}}, {"type": "Feature", "properties": {"highway": "footway", "footway": "sidewalk", "name": null, "surface": "asphalt", "lit": "yes", "length_m": 23.59, "type_element": "Way", "__fid": 15763}, "geometry": {"type": "LineString", "coordinates": [[2.2902141, 48.8340273], [2.2904482, 48.83417270000001]]}}, {"type": "Feature", "properties": {"highway": "footway", "footway": "crossing", "name": null, "surface": "asphalt", "lit": "yes", "length_m": 16.89, "type_element": "Way", "__fid": 15764}, "geometry": {"type": "LineString", "coordinates": [[2.2902141, 48.8340273], [2.290236, 48.8340051], [2.2903703, 48.8339164]]}}, {"type": "Feature", "properties": {"highway": "service", "footway": null, "name": null, "surface": null, "lit": "yes", "length_m": 83.76, "type_element": "Way", "__fid": 15768}, "geometry": {"type": "LineString", "coordinates": [[2.2912138, 48.83035180000001], [2.2904174, 48.83072090000001], [2.290331, 48.8307505], [2.2902609, 48.8307564]]}}, {"type": "Feature", "properties": {"highway": "footway", "footway": "sidewalk", "name": null, "surface": null, "lit": "yes", "length_m": 9.5, "type_element": "Way", "__fid": 15852}, "geometry": {"type": "LineString", "coordinates": [[2.2903703, 48.8339164], [2.2904597, 48.83397820000001]]}}, {"type": "Feature", "properties": {"highway": "footway", "footway": "sidewalk", "name": null, "surface": "asphalt", "lit": "yes", "length_m": 113.34, "type_element": "Way", "__fid": 15890}, "geometry": {"type": "LineString", "coordinates": [[2.2904482, 48.83417270000001], [2.2915728, 48.8348712]]}}, {"type": "Feature", "properties": {"highway": "footway", "footway": "crossing", "name": null, "surface": null, "lit": "yes", "length_m": 15.5, "type_element": "Way", "__fid": 15891}, "geometry": {"type": "LineString", "coordinates": [[2.2905951, 48.8340726], [2.2904482, 48.83417270000001]]}}, {"type": "Feature", "properties": {"highway": "footway", "footway": "sidewalk", "name": null, "surface": null, "lit": "yes", "length_m": 166.21, "type_element": "Way", "__fid": 15896}, "geometry": {"type": "LineString", "coordinates": [[2.2904597, 48.83397820000001], [2.2905208, 48.83397859999999], [2.2905514, 48.8339692], [2.2919743, 48.8328881]]}}, {"type": "Feature", "properties": {"highway": "footway", "footway": "crossing", "name": null, "surface": null, "lit": "yes", "length_m": 14.46, "type_element": "Way", "__fid": 15897}, "geometry": {"type": "LineString", "coordinates": [[2.2904597, 48.83397820000001], [2.2905951, 48.8340726]]}}, {"type": "Feature", "properties": {"highway": "footway", "footway": "sidewalk", "name": null, "surface": null, "lit": "yes", "length_m": 141.82, "type_element": "Way", "__fid": 15948}, "geometry": {"type": "LineString", "coordinates": [[2.2916892, 48.8349464], [2.2916453, 48.8349613], [2.2905355, 48.83591759999999], [2.2905462, 48.8359551]]}}, {"type": "Feature", "properties": {"highway": "footway", "footway": "sidewalk", "name": null, "surface": "asphalt", "lit": "yes", "length_m": 110.32, "type_element": "Way", "__fid": 15967}, "geometry": {"type": "LineString", "coordinates": [[2.2905951, 48.8340726], [2.2916853, 48.834755500000014]]}}, {"type": "Feature", "properties": {"highway": "footway", "footway": "sidewalk", "name": null, "surface": null, "lit": "yes", "length_m": 181.84, "type_element": "Way", "__fid": 15968}, "geometry": {"type": "LineString", "coordinates": [[2.2905951, 48.8340726], [2.2920751, 48.83294430000003], [2.2922124, 48.832938800000015], [2.2922743, 48.832971]]}}]}