{"type": "FeatureCollection", "features": [{"type": "Feature", "geometry": {"type": "Point", "coordinates": [2.289959, 48.886947]}, "properties": {"id": 2632, "name": "Square du Caporal Peugeot", "categorie": "Parcs, jardins et bois", "photo_url": "https://cdn.paris.fr/eqpts-prod/2022/05/10/04ea252c8a542764ae2dc9dee6300369.jpg", "photo_credit": "Clement Dorval/ Ville de Paris", "photo_alt": null, "address_street": "2 rue du Caporal Peugeot", "address_postcode": "75017", "address_city": "PARIS", "phone": null, "accessibility": "{\"handicaps\": [{\"name\": \"Personnes à mobilité réduite\", \"status\": \"accessible\"}, {\"name\": \"Personnes déficientes visuelles\", \"status\": \"undefined\"}, {\"name\": \"Personnes déficientes auditives\", \"status\": \"undefined\"}, {\"name\": \"Personnes déficientes mentales\", \"status\": \"undefined\"}, {\"name\": \"Accueil en langue des signes\", \"status\": \"undefined\"}]}", "latitude": 48.886947, "longitude": 2.289959, "url": "https://www.paris.fr/lieux/square-du-caporal-peugeot-2632", "type_element": "Parcs, Jardins et Bois", "__fid": 1177}}, {"type": "Feature", "geometry": {"type": "Point", "coordinates": [2.284841, 48.885002]}, "properties": {"id": 2636, "name": "Square Jacques Audiberti", "categorie": "Parcs, jardins et bois", "photo_url": "https://cdn.paris.fr/eqpts-prod/2022/05/10/d57c96fe9a1c36bac86eb3a95bd27612.jpg", "photo_credit": "Clement Dorval/ Ville de Paris", "photo_alt": null, "address_street": "25 avenue de la porte de Villiers", "address_postcode": "75017", "address_city": "PARIS", "phone": null, "accessibility": "{\"handicaps\": [{\"name\": \"Personnes à mobilité réduite\", \"status\": \"accessible\"}, {\"name\": \"Personnes déficientes visuelles\", \"status\": \"undefined\"}, {\"name\": \"Personnes déficientes auditives\", \"status\": \"undefined\"}, {\"name\": \"Personnes déficientes mentales\", \"status\": \"undefined\"}, {\"name\": \"Accueil en langue des signes\", \"status\": \"undefined\"}]}", "latitude": 48.885002, "longitude": 2.284841, "url": "https://www.paris.fr/lieux/square-jacques-audiberti-2636", "type_element": "Parcs, Jardins et Bois", "__fid": 1263}}, {"type": "Feature", "geometry": {"type": "Point", "coordinates": [2.287792, 48.887471]}, "properties": {"id": 2639, "name": "Jardin Lily Laskine", "categorie": "Parcs, jardins et bois", "photo_url": "https://cdn.paris.fr/eqpts-prod/2022/05/10/49a7bd4c078d6483025e20a191685da2.jpg", "photo_credit": "Clement Dorval  / Ville de Paris", "photo_alt": null, "address_street": "35 rue Jacques Ibert", "address_postcode": "75017", "address_city": "PARIS", "phone": null, "accessibility": "{\"handicaps\": [{\"name\": \"Personnes à mobilité réduite\", \"status\": \"accessible\"}, {\"name\": \"Personnes déficientes visuelles\", \"status\": \"undefined\"}, {\"name\": \"Personnes déficientes auditives\", \"status\": \"undefined\"}, {\"name\": \"Personnes déficientes mentales\", \"status\": \"undefined\"}, {\"name\": \"Accueil en langue des signes\", \"status\": \"undefined\"}]}", "latitude": 48.887471, "longitude": 2.287792, "url": "https://www.paris.fr/lieux/jardin-lily-laskine-2639", "type_element": "Parcs, Jardins et Bois", "__fid": 1337}}, {"type": "Feature", "geometry": {"type": "Point", "coordinates": [2.282594, 48.883966]}, "properties": {"id": 2640, "name": "Square Lucien Fontanarosa", "categorie": "Parcs, jardins et bois", "photo_url": "https://cdn.paris.fr/eqpts-prod/2022/05/10/69d90ea0584bb77e75ffd99e26f49c03.jpg", "photo_credit": "Clement Dorval  / Ville de Paris", "photo_alt": null, "address_street": "29 rue Cino Del Duca", "address_postcode": "75017", "address_city": "PARIS", "phone": null, "accessibility": "{\"handicaps\": [{\"name\": \"Personnes à mobilité réduite\", \"status\": \"accessible\"}, {\"name\": \"Personnes déficientes visuelles\", \"status\": \"undefined\"}, {\"name\": \"Personnes déficientes auditives\", \"status\": \"undefined\"}, {\"name\": \"Personnes déficientes mentales\", \"status\": \"undefined\"}, {\"name\": \"Accueil en langue des signes\", \"status\": \"undefined\"}]}", "latitude": 48.883966, "longitude": 2.282594, "url": "https://www.paris.fr/lieux/square-lucien-fontanarosa-2640", "type_element": "Parcs, Jardins et Bois", "__fid": 1482}}, {"type": "Feature", "properties": {"highway": "footway", "footway": "sidewalk", "name": null, "surface": null, "lit": "yes", "length_m": 138.59, "type_element": "Way", "__fid": 12020}, "geometry": {"type": "LineString", "coordinates": [[2.2817331, 48.8836408], [2.2817146, 48.8835323], [2.2824633, 48.8826544], [2.2825817, 48.8825506]]}}, {"type": "Feature", "properties": {"highway": "footway", "footway": "sidewalk", "name": null, "surface": null, "lit": "yes", "length_m": 275.89, "type_element": "Way", "__fid": 12048}, "geometry": {"type": "LineString", "coordinates": [[2.2818306, 48.8838472], [2.2823181, 48.8839035], [2.2844308, 48.8855471]]}}, {"type": "Feature", "properties": {"highway": "service", "footway": null, "name": null, "surface": null, "lit": "yes", "length_m": 130.55, "type_element": "Way", "__fid": 12057}, "geometry": {"type": "LineString", "coordinates": [[2.2818729, 48.88361190000002], [2.2818006, 48.88350239999998], [2.2825004, 48.8826882], [2.2825424, 48.882674], [2.282675, 48.8826688]]}}, {"type": "Feature", "properties": {"highway": "footway", "footway": "sidewalk", "name": null, "surface": null, "lit": "yes", "length_m": 26.33, "type_element": "Way", "__fid": 12058}, "geometry": {"type": "LineString", "coordinates": [[2.2820906, 48.88359530000001], [2.2819568, 48.883696], [2.2819081, 48.8837043], [2.2818729, 48.88377]]}}, {"type": "Feature", "properties": {"highway": "service", "footway": null, "name": null, "surface": "asphalt", "lit": "yes", "length_m": 33.41, "type_element": "Way", "__fid": 12108}, "geometry": {"type": "LineString", "coordinates": [[2.2822262, 48.8833512], [2.282004, 48.8836135]]}}, {"type": "Feature", "properties": {"highway": "footway", "footway": "sidewalk", "name": null, "surface": null, "lit": "yes", "length_m": 43.66, "type_element": "Way", "__fid": 12150}, "geometry": {"type": "LineString", "coordinates": [[2.2824707, 48.88389749999999], [2.2820906, 48.88359530000001]]}}, {"type": "Feature", "properties": {"highway": "footway", "footway": "sidewalk", "name": null, "surface": null, "lit": "yes", "length_m": 28.76, "type_element": "Way", "__fid": 12151}, "geometry": {"type": "LineString", "coordinates": [[2.2820906, 48.88359530000001], [2.2822999, 48.88337659999998]]}}, {"type": "Feature", "properties": {"highway": "footway", "footway": null, "name": null, "surface": null, "lit": "yes", "length_m": 6.1, "type_element": "Way", "__fid": 12208}, "geometry": {"type": "LineString", "coordinates": [[2.2822262, 48.8833512], [2.2822999, 48.88337659999998]]}}, {"type": "Feature", "properties": {"highway": "service", "footway": null, "name": null, "surface": "asphalt", "lit": "yes", "length_m": 62.35, "type_element": "Way", "__fid": 12209}, "geometry": {"type": "LineString", "coordinates": [[2.2826457, 48.88286350000001], [2.2822262, 48.8833512]]}}, {"type": "Feature", "properties": {"highway": "footway", "footway": null, "name": null, "surface": null, "lit": null, "length_m": 12.7, "type_element": "Way", "__fid": 12236}, "geometry": {"type": "LineString", "coordinates": [[2.2822999, 48.88337659999998], [2.2823808, 48.8834088], [2.2823641, 48.883459500000015]]}}, {"type": "Feature", "properties": {"highway": "footway", "footway": "sidewalk", "name": null, "surface": null, "lit": "yes", "length_m": 52.31, "type_element": "Way", "__fid": 12237}, "geometry": {"type": "LineString", "coordinates": [[2.2822999, 48.88337659999998], [2.2826806, 48.88297879999999]]}}, {"type": "Feature", "properties": {"highway": "footway", "footway": null, "name": null, "surface": null, "lit": null, "length_m": 9.4, "type_element": "Way", "__fid": 12261}, "geometry": {"type": "LineString", "coordinates": [[2.2824921, 48.883463100000014], [2.2823641, 48.883459500000015]]}}, {"type": "Feature", "properties": {"highway": "footway", "footway": null, "name": null, "surface": null, "lit": null, "length_m": 28.12, "type_element": "Way", "__fid": 12262}, "geometry": {"type": "LineString", "coordinates": [[2.2823641, 48.883459500000015], [2.2823812, 48.883533], [2.2824251, 48.8835962], [2.2825438, 48.8836721]]}}, {"type": "Feature", "properties": {"highway": "footway", "footway": null, "name": null, "surface": null, "lit": null, "length_m": 87.82, "type_element": "Way", "__fid": 12289}, "geometry": {"type": "LineString", "coordinates": [[2.2824707, 48.88389749999999], [2.2828553, 48.88392850000001], [2.2836542, 48.8840169]]}}, {"type": "Feature", "properties": {"highway": "footway", "footway": "sidewalk", "name": null, "surface": null, "lit": "yes", "length_m": 231.07, "type_element": "Way", "__fid": 12290}, "geometry": {"type": "LineString", "coordinates": [[2.2845313, 48.885466], [2.2844515, 48.8854323], [2.2839743, 48.885070099999986], [2.2824707, 48.88389749999999]]}}, {"type": "Feature", "properties": {"highway": "footway", "footway": null, "name": null, "surface": null, "lit": null, "length_m": 32.8, "type_element": "Way", "__fid": 12291}, "geometry": {"type": "LineString", "coordinates": [[2.2824707, 48.88389749999999], [2.2827347, 48.8837609], [2.2828027, 48.8837024]]}}, {"type": "Feature", "properties": {"highway": "footway", "footway": null, "name": null, "surface": null, "lit": null, "length_m": 36.79, "type_element": "Way", "__fid": 12295}, "geometry": {"type": "LineString", "coordinates": [[2.2828027, 48.8837024], [2.2825619, 48.8835857], [2.2825176, 48.8835455], [2.2824921, 48.883463100000014]]}}, {"type": "Feature", "properties": {"highway": "footway", "footway": null, "name": null, "surface": null, "lit": null, "length_m": 71.77, "type_element": "Way", "__fid": 12296}, "geometry": {"type": "LineString", "coordinates": [[2.2824921, 48.883463100000014], [2.2824875, 48.8834291], [2.282517, 48.8833511], [2.2825666, 48.8833123], [2.2826417, 48.8832726], [2.2826987, 48.8832642], [2.2827664, 48.8832646], [2.2828905, 48.8832898], [2.2829475, 48.8833096], [2.2830514, 48.8833899], [2.2831803, 48.8833375]]}}, {"type": "Feature", "properties": {"highway": "service", "footway": null, "name": null, "surface": null, "lit": "yes", "length_m": 13.83, "type_element": "Way", "__fid": 12316}, "geometry": {"type": "LineString", "coordinates": [[2.2826136, 48.8827409], [2.2826457, 48.88286350000001]]}}, {"type": "Feature", "properties": {"highway": "footway", "footway": null, "name": "Promenade Bernard Lafay", "surface": null, "lit": "yes", "length_m": 13.07, "type_element": "Way", "__fid": 12332}, "geometry": {"type": "LineString", "coordinates": [[2.2826457, 48.88286350000001], [2.2826806, 48.88297879999999]]}}, {"type": "Feature", "properties": {"highway": "footway", "footway": null, "name": "Promenade Bernard Lafay", "surface": null, "lit": "yes", "length_m": 57.99, "type_element": "Way", "__fid": 12345}, "geometry": {"type": "LineString", "coordinates": [[2.2826806, 48.88297879999999], [2.2827174, 48.8830913], [2.2827709, 48.8831761], [2.2831803, 48.8833375]]}}, {"type": "Feature", "properties": {"highway": "footway", "footway": "sidewalk", "name": null, "surface": null, "lit": "yes", "length_m": 20.82, "type_element": "Way", "__fid": 12346}, "geometry": {"type": "LineString", "coordinates": [[2.2827755, 48.8828027], [2.2827467, 48.8828718], [2.2826806, 48.88297879999999]]}}, {"type": "Feature", "properties": {"highway": "footway", "footway": null, "name": null, "surface": null, "lit": null, "length_m": 45.73, "type_element": "Way", "__fid": 12366}, "geometry": {"type": "LineString", "coordinates": [[2.2828027, 48.8837024], [2.2828898, 48.8836275], [2.2828549, 48.8835685], [2.2828254, 48.8834794], [2.282761, 48.8833471], [2.2827322, 48.8833334]]}}, {"type": "Feature", "properties": {"highway": "footway", "footway": null, "name": "Promenade Bernard Lafay", "surface": null, "lit": "yes", "length_m": 86.7, "type_element": "Way", "__fid": 12548}, "geometry": {"type": "LineString", "coordinates": [[2.2831803, 48.8833375], [2.2833796, 48.883437], [2.2834516, 48.8835103], [2.2835349, 48.8838113], [2.2835676, 48.8838967], [2.2836116, 48.883968500000016], [2.2836542, 48.8840169]]}}, {"type": "Feature", "properties": {"highway": "service", "footway": null, "name": "Boulevard Bineau", "surface": null, "lit": "yes", "length_m": 174.23, "type_element": "Way", "__fid": 12737}, "geometry": {"type": "LineString", "coordinates": [[2.2834789, 48.8865761], [2.2836769, 48.88658980000001], [2.2839264, 48.8865735], [2.2858179, 48.8863337]]}}, {"type": "Feature", "properties": {"highway": "footway", "footway": "sidewalk", "name": null, "surface": null, "lit": "yes", "length_m": 115.45, "type_element": "Way", "__fid": 12738}, "geometry": {"type": "LineString", "coordinates": [[2.2843936, 48.8855819], [2.2834863, 48.8864304]]}}, {"type": "Feature", "properties": {"highway": "footway", "footway": null, "name": "Promenade Bernard Lafay", "surface": null, "lit": "yes", "length_m": 106.12, "type_element": "Way", "__fid": 12802}, "geometry": {"type": "LineString", "coordinates": [[2.2836542, 48.8840169], [2.2838586, 48.88421550000001], [2.2840786, 48.8843745], [2.2844111, 48.88456270000001], [2.2846895, 48.8846649]]}}, {"type": "Feature", "properties": {"highway": "footway", "footway": "sidewalk", "name": null, "surface": null, "lit": "yes", "length_m": 7.53, "type_element": "Way", "__fid": 12822}, "geometry": {"type": "LineString", "coordinates": [[2.2837458, 48.8864758], [2.2836815, 48.8865286]]}}, {"type": "Feature", "properties": {"highway": "footway", "footway": "sidewalk", "name": null, "surface": null, "lit": "yes", "length_m": 106.07, "type_element": "Way", "__fid": 12852}, "geometry": {"type": "LineString", "coordinates": [[2.284549, 48.8856825], [2.2837458, 48.8864758]]}}, {"type": "Feature", "properties": {"highway": "footway", "footway": "sidewalk", "name": null, "surface": null, "lit": "yes", "length_m": 124.03, "type_element": "Way", "__fid": 12853}, "geometry": {"type": "LineString", "coordinates": [[2.2854084, 48.8863341], [2.2852876, 48.88633580000001], [2.2839827, 48.886489], [2.2838569, 48.8864916], [2.283806, 48.8864722], [2.2837458, 48.8864758]]}}, {"type": "Feature", "properties": {"highway": "footway", "footway": "sidewalk", "name": null, "surface": null, "lit": "yes", "length_m": 93.36, "type_element": "Way", "__fid": 12968}, "geometry": {"type": "LineString", "coordinates": [[2.2846413, 48.88293750000001], [2.2841605, 48.88264109999999], [2.2840872, 48.8823277], [2.2841173, 48.8822415]]}}, {"type": "Feature", "properties": {"highway": "footway", "footway": "crossing", "name": null, "surface": null, "lit": "yes", "length_m": 15.97, "type_element": "Way", "__fid": 13111}, "geometry": {"type": "LineString", "coordinates": [[2.2843936, 48.8855819], [2.284549, 48.8856825]]}}, {"type": "Feature", "properties": {"highway": "footway", "footway": "sidewalk", "name": null, "surface": null, "lit": "yes", "length_m": 4.73, "type_element": "Way", "__fid": 13112}, "geometry": {"type": "LineString", "coordinates": [[2.2844308, 48.8855471], [2.2843936, 48.8855819]]}}, {"type": "Feature", "properties": {"highway": "footway", "footway": "crossing", "name": null, "surface": null, "lit": "yes", "length_m": 11.65, "type_element": "Way", "__fid": 13132}, "geometry": {"type": "LineString", "coordinates": [[2.2845313, 48.885466], [2.2844308, 48.8855471]]}}, {"type": "Feature", "properties": {"highway": "footway", "footway": "crossing", "name": null, "surface": null, "lit": "yes", "length_m": 18.08, "type_element": "Way", "__fid": 13190}, "geometry": {"type": "LineString", "coordinates": [[2.2845313, 48.885466], [2.2847112, 48.8855772]]}}, {"type": "Feature", "properties": {"highway": "footway", "footway": "sidewalk", "name": null, "surface": null, "lit": "yes", "length_m": 53.9, "type_element": "Way", "__fid": 13191}, "geometry": {"type": "LineString", "coordinates": [[2.2845313, 48.885466], [2.2844951, 48.8852573], [2.2845937, 48.8851924], [2.2845789, 48.88515140000001], [2.2846802, 48.885061], [2.284723, 48.8850622]]}}, {"type": "Feature", "properties": {"highway": "footway", "footway": "sidewalk", "name": null, "surface": null, "lit": "yes", "length_m": 93.88, "type_element": "Way", "__fid": 13192}, "geometry": {"type": "LineString", "coordinates": [[2.285317, 48.8848002], [2.2845973, 48.8854237], [2.2845313, 48.885466]]}}, {"type": "Feature", "properties": {"highway": "footway", "footway": "sidewalk", "name": null, "surface": null, "lit": "yes", "length_m": 96.03, "type_element": "Way", "__fid": 13204}, "geometry": {"type": "LineString", "coordinates": [[2.284549, 48.8856825], [2.2854084, 48.8863341]]}}, {"type": "Feature", "properties": {"highway": "footway", "footway": "crossing", "name": null, "surface": null, "lit": "yes", "length_m": 16.69, "type_element": "Way", "__fid": 13205}, "geometry": {"type": "LineString", "coordinates": [[2.284549, 48.8856825], [2.2847112, 48.8855772]]}}, {"type": "Feature", "properties": {"highway": "footway", "footway": "crossing", "name": null, "surface": null, "lit": "yes", "length_m": 22.71, "type_element": "Way", "__fid": 13244}, "geometry": {"type": "LineString", "coordinates": [[2.284886, 48.8830609], [2.2846641, 48.8829577], [2.2846413, 48.88293750000001]]}}, {"type": "Feature", "properties": {"highway": "footway", "footway": "sidewalk", "name": null, "surface": null, "lit": "yes", "length_m": 138.13, "type_element": "Way", "__fid": 13245}, "geometry": {"type": "LineString", "coordinates": [[2.2851167, 48.8817636], [2.2847553, 48.8828942], [2.2846413, 48.88293750000001]]}}, {"type": "Feature", "properties": {"highway": "footway", "footway": null, "name": "Promenade Bernard Lafay", "surface": null, "lit": "yes", "length_m": 48.89, "type_element": "Way", "__fid": 13297}, "geometry": {"type": "LineString", "coordinates": [[2.2846895, 48.8846649], [2.2849007, 48.8847167], [2.2851036, 48.8847504], [2.2851991, 48.884755], [2.285317, 48.8848002]]}}, {"type": "Feature", "properties": {"highway": "footway", "footway": null, "name": null, "surface": null, "lit": "yes", "length_m": 44.25, "type_element": "Way", "__fid": 13298}, "geometry": {"type": "LineString", "coordinates": [[2.284723, 48.8850622], [2.2846895, 48.8846649]]}}, {"type": "Feature", "properties": {"highway": "footway", "footway": "sidewalk", "name": null, "surface": null, "lit": "yes", "length_m": 66.29, "type_element": "Way", "__fid": 13319}, "geometry": {"type": "LineString", "coordinates": [[2.2847112, 48.8855772], [2.2847843, 48.8854879], [2.2852187, 48.8850846]]}}, {"type": "Feature", "properties": {"highway": "footway", "footway": "sidewalk", "name": null, "surface": null, "lit": "yes", "length_m": 4.4, "type_element": "Way", "__fid": 13321}, "geometry": {"type": "LineString", "coordinates": [[2.284723, 48.8850622], [2.284783, 48.8850639]]}}, {"type": "Feature", "properties": {"highway": "footway", "footway": "sidewalk", "name": null, "surface": null, "lit": "yes", "length_m": 60.53, "type_element": "Way", "__fid": 13376}, "geometry": {"type": "LineString", "coordinates": [[2.285462, 48.883445], [2.2849289, 48.88312], [2.284886, 48.8830609]]}}, {"type": "Feature", "properties": {"highway": "footway", "footway": "sidewalk", "name": null, "surface": null, "lit": "yes", "length_m": 137.43, "type_element": "Way", "__fid": 13377}, "geometry": {"type": "LineString", "coordinates": [[2.284886, 48.8830609], [2.2852464, 48.8818481]]}}, {"type": "Feature", "properties": {"highway": "pedestrian", "footway": null, "name": "Rue Charles Tournemire", "surface": null, "lit": "yes", "length_m": 7.91, "type_element": "Way", "__fid": 13517}, "geometry": {"type": "LineString", "coordinates": [[2.2851252, 48.88504910000001], [2.2852187, 48.8850846]]}}, {"type": "Feature", "properties": {"highway": "footway", "footway": "sidewalk", "name": null, "surface": null, "lit": "yes", "length_m": 37.39, "type_element": "Way", "__fid": 13553}, "geometry": {"type": "LineString", "coordinates": [[2.2851906, 48.8865755], [2.285634, 48.8865225], [2.2856933, 48.8865231]]}}, {"type": "Feature", "properties": {"highway": "pedestrian", "footway": null, "name": "Rue Charles Tournemire", "surface": null, "lit": "yes", "length_m": 159.33, "type_element": "Way", "__fid": 13558}, "geometry": {"type": "LineString", "coordinates": [[2.2852187, 48.8850846], [2.2854308, 48.8851651], [2.285473, 48.885201], [2.2854879, 48.8853204], [2.2855252, 48.88539059999999], [2.2856147, 48.88551], [2.2859378, 48.8857322], [2.2861491, 48.8858205], [2.2863231, 48.8859463], [2.2864101, 48.8860542], [2.2864632, 48.886182900000016]]}}, {"type": "Feature", "properties": {"highway": "footway", "footway": "sidewalk", "name": null, "surface": null, "lit": "yes", "length_m": 32.45, "type_element": "Way", "__fid": 13559}, "geometry": {"type": "LineString", "coordinates": [[2.2852187, 48.8850846], [2.285475, 48.8848467]]}}, {"type": "Feature", "properties": {"highway": "footway", "footway": "sidewalk", "name": null, "surface": "asphalt", "lit": "yes", "length_m": 129.46, "type_element": "Way", "__fid": 13579}, "geometry": {"type": "LineString", "coordinates": [[2.2856933, 48.8865231], [2.2860217, 48.886735600000016], [2.286024, 48.88675730000001], [2.2852285, 48.8874122]]}}, {"type": "Feature", "properties": {"highway": "footway", "footway": null, "name": "Promenade Bernard Lafay", "surface": null, "lit": "yes", "length_m": 12.74, "type_element": "Way", "__fid": 13609}, "geometry": {"type": "LineString", "coordinates": [[2.285317, 48.8848002], [2.2853799, 48.8848243], [2.285475, 48.8848467]]}}, {"type": "Feature", "properties": {"highway": "footway", "footway": "sidewalk", "name": null, "surface": null, "lit": "yes", "length_m": 95.55, "type_element": "Way", "__fid": 13610}, "geometry": {"type": "LineString", "coordinates": [[2.2860699, 48.8840992], [2.2860041, 48.8841713], [2.285317, 48.8848002]]}}, {"type": "Feature", "properties": {"highway": "footway", "footway": "sidewalk", "name": null, "surface": null, "lit": "yes", "length_m": 79.23, "type_element": "Way", "__fid": 13654}, "geometry": {"type": "LineString", "coordinates": [[2.2864632, 48.886182900000016], [2.2854984, 48.88633], [2.2854084, 48.8863341]]}}, {"type": "Feature", "properties": {"highway": "footway", "footway": "sidewalk", "name": null, "surface": null, "lit": "yes", "length_m": 3.21, "type_element": "Way", "__fid": 13666}, "geometry": {"type": "LineString", "coordinates": [[2.2854949, 48.883464], [2.285462, 48.883445]]}}, {"type": "Feature", "properties": {"highway": "footway", "footway": "sidewalk", "name": null, "surface": null, "lit": "yes", "length_m": 135.22, "type_element": "Way", "__fid": 13667}, "geometry": {"type": "LineString", "coordinates": [[2.2859153, 48.8822941], [2.2855733, 48.8834027], [2.285462, 48.883445]]}}, {"type": "Feature", "properties": {"highway": "footway", "footway": null, "name": "Promenade Bernard Lafay", "surface": null, "lit": "yes", "length_m": 191.93, "type_element": "Way", "__fid": 13677}, "geometry": {"type": "LineString", "coordinates": [[2.285475, 48.8848467], [2.2855256, 48.8848586], [2.2857512, 48.885004600000016], [2.2858809, 48.8850459], [2.2860085, 48.885075], [2.2861086, 48.88512050000001], [2.2863008, 48.8853006], [2.2864896, 48.8854008], [2.2866251, 48.8855176], [2.2866765, 48.8856249], [2.2867624, 48.885693899999985], [2.286895, 48.885752], [2.2869849, 48.8858068], [2.2870185, 48.8858589], [2.2871119, 48.8860978]]}}, {"type": "Feature", "properties": {"highway": "footway", "footway": "sidewalk", "name": null, "surface": null, "lit": "yes", "length_m": 91.37, "type_element": "Way", "__fid": 13678}, "geometry": {"type": "LineString", "coordinates": [[2.285475, 48.8848467], [2.2860969, 48.8842914], [2.2861911, 48.8842122], [2.2862291, 48.8841945]]}}, {"type": "Feature", "properties": {"highway": "footway", "footway": "sidewalk", "name": null, "surface": null, "lit": "yes", "length_m": 7.01, "type_element": "Way", "__fid": 13728}, "geometry": {"type": "LineString", "coordinates": [[2.2856002, 48.8835301], [2.2856766, 48.883568]]}}, {"type": "Feature", "properties": {"highway": "footway", "footway": "sidewalk", "name": null, "surface": null, "lit": "yes", "length_m": 3.81, "type_element": "Way", "__fid": 13739}, "geometry": {"type": "LineString", "coordinates": [[2.2856766, 48.883568], [2.2856471, 48.8835962]]}}, {"type": "Feature", "properties": {"highway": "footway", "footway": "sidewalk", "name": null, "surface": null, "lit": "yes", "length_m": 53.9, "type_element": "Way", "__fid": 13753}, "geometry": {"type": "LineString", "coordinates": [[2.2856766, 48.883568], [2.2862054, 48.8839046]]}}, {"type": "Feature", "properties": {"highway": "footway", "footway": "sidewalk", "name": null, "surface": null, "lit": "yes", "length_m": 135.65, "type_element": "Way", "__fid": 13754}, "geometry": {"type": "LineString", "coordinates": [[2.2860736, 48.8823783], [2.2860233, 48.8824542], [2.2856766, 48.883568]]}}, {"type": "Feature", "properties": {"highway": "footway", "footway": "crossing", "name": null, "surface": null, "lit": "yes", "length_m": 12.72, "type_element": "Way", "__fid": 13783}, "geometry": {"type": "LineString", "coordinates": [[2.2856933, 48.8865231], [2.2858473, 48.8864704]]}}, {"type": "Feature", "properties": {"highway": "footway", "footway": "crossing", "name": null, "surface": "asphalt", "lit": "yes", "length_m": 15.35, "type_element": "Way", "__fid": 13842}, "geometry": {"type": "LineString", "coordinates": [[2.2858473, 48.8864704], [2.2858179, 48.8863337]]}}, {"type": "Feature", "properties": {"highway": "service", "footway": null, "name": "Avenue de la Porte de Champerret", "surface": null, "lit": "yes", "length_m": 50.24, "type_element": "Way", "__fid": 13843}, "geometry": {"type": "LineString", "coordinates": [[2.2858179, 48.8863337], [2.2864915, 48.8862513]]}}, {"type": "Feature", "properties": {"highway": "footway", "footway": "sidewalk", "name": null, "surface": "asphalt", "lit": "yes", "length_m": 75.88, "type_element": "Way", "__fid": 13852}, "geometry": {"type": "LineString", "coordinates": [[2.2866116, 48.8869228], [2.2861692, 48.8867166], [2.2858473, 48.8864704]]}}, {"type": "Feature", "properties": {"highway": "footway", "footway": "sidewalk", "name": null, "surface": null, "lit": "yes", "length_m": 50.53, "type_element": "Way", "__fid": 13853}, "geometry": {"type": "LineString", "coordinates": [[2.2865274, 48.8863974], [2.2858473, 48.8864704]]}}, {"type": "Feature", "properties": {"highway": "footway", "footway": "crossing", "name": null, "surface": null, "lit": "yes", "length_m": 15.77, "type_element": "Way", "__fid": 13913}, "geometry": {"type": "LineString", "coordinates": [[2.2860699, 48.8840992], [2.2862291, 48.8841945]]}}, {"type": "Feature", "properties": {"highway": "footway", "footway": "crossing", "name": null, "surface": null, "lit": "yes", "length_m": 24.04, "type_element": "Way", "__fid": 13914}, "geometry": {"type": "LineString", "coordinates": [[2.2862054, 48.8839046], [2.2861782, 48.8839525], [2.2861217, 48.8840019], [2.2860699, 48.8840992]]}}, {"type": "Feature", "properties": {"highway": "footway", "footway": "sidewalk", "name": null, "surface": null, "lit": "yes", "length_m": 104.29, "type_element": "Way", "__fid": 13961}, "geometry": {"type": "LineString", "coordinates": [[2.2861959, 48.8824213], [2.2872195, 48.8830723]]}}, {"type": "Feature", "properties": {"highway": "footway", "footway": "crossing", "name": null, "surface": null, "lit": "yes", "length_m": 36.51, "type_element": "Way", "__fid": 13972}, "geometry": {"type": "LineString", "coordinates": [[2.286565, 48.8841314], [2.2863963, 48.8840174], [2.2862054, 48.8839046]]}}, {"type": "Feature", "properties": {"highway": "footway", "footway": "sidewalk", "name": null, "surface": null, "lit": "yes", "length_m": 115.63, "type_element": "Way", "__fid": 13973}, "geometry": {"type": "LineString", "coordinates": [[2.2862054, 48.8839046], [2.2871907, 48.8831244], [2.2872245, 48.8831142]]}}, {"type": "Feature", "properties": {"highway": "footway", "footway": "sidewalk", "name": null, "surface": null, "lit": "yes", "length_m": 14.58, "type_element": "Way", "__fid": 13984}, "geometry": {"type": "LineString", "coordinates": [[2.2862291, 48.8841945], [2.2862696, 48.8841915], [2.286304, 48.8841995], [2.2864011, 48.88424780000001]]}}, {"type": "Feature", "properties": {"highway": "footway", "footway": "sidewalk", "name": null, "surface": null, "lit": "yes", "length_m": 39.15, "type_element": "Way", "__fid": 14107}, "geometry": {"type": "LineString", "coordinates": [[2.2864011, 48.88424780000001], [2.2867973, 48.8844838]]}}, {"type": "Feature", "properties": {"highway": "footway", "footway": "crossing", "name": null, "surface": null, "lit": "yes", "length_m": 17.66, "type_element": "Way", "__fid": 14108}, "geometry": {"type": "LineString", "coordinates": [[2.286565, 48.8841314], [2.2864011, 48.88424780000001]]}}, {"type": "Feature", "properties": {"highway": "pedestrian", "footway": null, "name": "Rue Charles Tournemire", "surface": null, "lit": "yes", "length_m": 7.88, "type_element": "Way", "__fid": 14185}, "geometry": {"type": "LineString", "coordinates": [[2.2864632, 48.886182900000016], [2.2864915, 48.8862513]]}}, {"type": "Feature", "properties": {"highway": "footway", "footway": "sidewalk", "name": null, "surface": null, "lit": "yes", "length_m": 48.5, "type_element": "Way", "__fid": 14186}, "geometry": {"type": "LineString", "coordinates": [[2.2871119, 48.8860978], [2.2864632, 48.886182900000016]]}}, {"type": "Feature", "properties": {"highway": "service", "footway": null, "name": "Rue Charles Tournemire", "surface": null, "lit": "yes", "length_m": 7.55, "type_element": "Way", "__fid": 14209}, "geometry": {"type": "LineString", "coordinates": [[2.2864915, 48.8862513], [2.2865051, 48.88631860000002]]}}, {"type": "Feature", "properties": {"highway": "service", "footway": null, "name": "Avenue de la Porte de Champerret", "surface": null, "lit": "yes", "length_m": 88.21, "type_element": "Way", "__fid": 14210}, "geometry": {"type": "LineString", "coordinates": [[2.2864915, 48.8862513], [2.2876737, 48.8861046]]}}, {"type": "Feature", "properties": {"highway": "service", "footway": null, "name": null, "surface": "asphalt", "lit": "yes", "length_m": 9.68, "type_element": "Way", "__fid": 14216}, "geometry": {"type": "LineString", "coordinates": [[2.2865785, 48.8863909], [2.2865051, 48.88631860000002]]}}, {"type": "Feature", "properties": {"highway": "pedestrian", "footway": null, "name": "Rue Jaïc Domergue", "surface": "asphalt", "lit": "yes", "length_m": 8.91, "type_element": "Way", "__fid": 14217}, "geometry": {"type": "LineString", "coordinates": [[2.2865274, 48.8863974], [2.2865051, 48.88631860000002]]}}, {"type": "Feature", "properties": {"highway": "pedestrian", "footway": null, "name": "Rue Jaïc Domergue", "surface": "asphalt", "lit": "yes", "length_m": 59.46, "type_element": "Way", "__fid": 14253}, "geometry": {"type": "LineString", "coordinates": [[2.2866116, 48.8869228], [2.286637, 48.886867], [2.2866399, 48.8867941], [2.2865274, 48.8863974]]}}, {"type": "Feature", "properties": {"highway": "footway", "footway": "sidewalk", "name": null, "surface": null, "lit": "yes", "length_m": 3.82, "type_element": "Way", "__fid": 14254}, "geometry": {"type": "LineString", "coordinates": [[2.2865785, 48.8863909], [2.2865274, 48.8863974]]}}, {"type": "Feature", "properties": {"highway": "footway", "footway": "sidewalk", "name": null, "surface": null, "lit": "yes", "length_m": 39.68, "type_element": "Way", "__fid": 14262}, "geometry": {"type": "LineString", "coordinates": [[2.2869527, 48.8843794], [2.2868726, 48.8843394], [2.286565, 48.8841314]]}}, {"type": "Feature", "properties": {"highway": "pedestrian", "footway": null, "name": "Rue Jaïc Domergue", "surface": "asphalt", "lit": "yes", "length_m": 6.47, "type_element": "Way", "__fid": 14301}, "geometry": {"type": "LineString", "coordinates": [[2.2865625, 48.8869711], [2.2866116, 48.8869228]]}}, {"type": "Feature", "properties": {"highway": "service", "footway": null, "name": null, "surface": "asphalt", "lit": "yes", "length_m": 38.0, "type_element": "Way", "__fid": 14309}, "geometry": {"type": "LineString", "coordinates": [[2.2870529, 48.88641], [2.2866985, 48.8864553], [2.2866422, 48.88643680000001], [2.2865785, 48.8863909]]}}, {"type": "Feature", "properties": {"highway": "footway", "footway": "sidewalk", "name": null, "surface": null, "lit": "yes", "length_m": 88.12, "type_element": "Way", "__fid": 14310}, "geometry": {"type": "LineString", "coordinates": [[2.2877696, 48.8862918], [2.2869831, 48.8863736], [2.2865785, 48.8863909]]}}, {"type": "Feature", "properties": {"highway": "footway", "footway": "sidewalk", "name": null, "surface": "asphalt", "lit": "yes", "length_m": 9.32, "type_element": "Way", "__fid": 14354}, "geometry": {"type": "LineString", "coordinates": [[2.2867172, 48.8869695], [2.2866116, 48.8869228]]}}, {"type": "Feature", "properties": {"highway": "footway", "footway": "sidewalk", "name": null, "surface": "asphalt", "lit": "yes", "length_m": 35.84, "type_element": "Way", "__fid": 14441}, "geometry": {"type": "LineString", "coordinates": [[2.2871077, 48.8871633], [2.2867172, 48.8869695]]}}, {"type": "Feature", "properties": {"highway": "footway", "footway": null, "name": null, "surface": null, "lit": "yes", "length_m": 98.74, "type_element": "Way", "__fid": 14442}, "geometry": {"type": "LineString", "coordinates": [[2.2880407, 48.8868342], [2.2876717, 48.8868435], [2.2875681, 48.8868756], [2.2867172, 48.8869695]]}}, {"type": "Feature", "properties": {"highway": "service", "footway": null, "name": "Square du Graisivaudan", "surface": null, "lit": null, "length_m": 61.48, "type_element": "Way", "__fid": 14448}, "geometry": {"type": "LineString", "coordinates": [[2.2867734, 48.8836309], [2.2874253, 48.8839785]]}}, {"type": "Feature", "properties": {"highway": "footway", "footway": "sidewalk", "name": null, "surface": null, "lit": "yes", "length_m": 70.57, "type_element": "Way", "__fid": 14454}, "geometry": {"type": "LineString", "coordinates": [[2.287497, 48.8829147], [2.2867963, 48.8824797]]}}, {"type": "Feature", "properties": {"highway": "footway", "footway": "sidewalk", "name": null, "surface": null, "lit": "yes", "length_m": 49.99, "type_element": "Way", "__fid": 14469}, "geometry": {"type": "LineString", "coordinates": [[2.2867973, 48.8844838], [2.2871137, 48.8846864], [2.2872836, 48.884574]]}}, {"type": "Feature", "properties": {"highway": "footway", "footway": "crossing", "name": null, "surface": null, "lit": "yes", "length_m": 16.27, "type_element": "Way", "__fid": 14470}, "geometry": {"type": "LineString", "coordinates": [[2.2867973, 48.8844838], [2.2869527, 48.8843794]]}}, {"type": "Feature", "properties": {"highway": "footway", "footway": "crossing", "name": null, "surface": null, "lit": "yes", "length_m": 32.58, "type_element": "Way", "__fid": 14567}, "geometry": {"type": "LineString", "coordinates": [[2.2869527, 48.8843794], [2.2870199, 48.8844093], [2.2872836, 48.884574]]}}, {"type": "Feature", "properties": {"highway": "footway", "footway": "crossing", "name": null, "surface": null, "lit": "yes", "length_m": 14.45, "type_element": "Way", "__fid": 14603}, "geometry": {"type": "LineString", "coordinates": [[2.2871077, 48.8871633], [2.2869893, 48.8872672]]}}, {"type": "Feature", "properties": {"highway": "footway", "footway": null, "name": "Promenade Bernard Lafay", "surface": null, "lit": "yes", "length_m": 40.4, "type_element": "Way", "__fid": 14640}, "geometry": {"type": "LineString", "coordinates": [[2.2871119, 48.8860978], [2.2876535, 48.8860315]]}}, {"type": "Feature", "properties": {"highway": "footway", "footway": "sidewalk", "name": null, "surface": "asphalt", "lit": "yes", "length_m": 58.74, "type_element": "Way", "__fid": 14648}, "geometry": {"type": "LineString", "coordinates": [[2.2877478, 48.8874809], [2.2871077, 48.8871633]]}}, {"type": "Feature", "properties": {"highway": "footway", "footway": "sidewalk", "name": null, "surface": null, "lit": "yes", "length_m": 4.67, "type_element": "Way", "__fid": 14683}, "geometry": {"type": "LineString", "coordinates": [[2.2872195, 48.8830723], [2.2872245, 48.8831142]]}}, {"type": "Feature", "properties": {"highway": "footway", "footway": "crossing", "name": null, "surface": null, "lit": "yes", "length_m": 27.83, "type_element": "Way", "__fid": 14684}, "geometry": {"type": "LineString", "coordinates": [[2.2872195, 48.8830723], [2.2874454, 48.8829156], [2.287497, 48.8829147]]}}, {"type": "Feature", "properties": {"highway": "service", "footway": null, "name": null, "surface": null, "lit": "yes", "length_m": 132.55, "type_element": "Way", "__fid": 14687}, "geometry": {"type": "LineString", "coordinates": [[2.2871968, 48.8848976], [2.2873154, 48.8850408], [2.2883337, 48.885682], [2.288457875739827, 48.885739953395365]]}}, {"type": "Feature", "properties": {"highway": "footway", "footway": "crossing", "name": null, "surface": null, "lit": "yes", "length_m": 27.72, "type_element": "Way", "__fid": 14693}, "geometry": {"type": "LineString", "coordinates": [[2.2872245, 48.8831142], [2.2874237, 48.8832491], [2.287516, 48.8832533]]}}, {"type": "Feature", "properties": {"highway": "footway", "footway": "sidewalk", "name": null, "surface": null, "lit": "yes", "length_m": 150.95, "type_element": "Way", "__fid": 14726}, "geometry": {"type": "LineString", "coordinates": [[2.2872836, 48.884574], [2.2887697, 48.885513300000014]]}}, {"type": "Feature", "properties": {"highway": "service", "footway": null, "name": "Square du Graisivaudan", "surface": null, "lit": null, "length_m": 44.09, "type_element": "Way", "__fid": 14794}, "geometry": {"type": "LineString", "coordinates": [[2.2874253, 48.8839785], [2.287545, 48.8842765], [2.2875591, 48.8843642]]}}, {"type": "Feature", "properties": {"highway": "service", "footway": null, "name": "Square du Vivarais", "surface": null, "lit": null, "length_m": 63.57, "type_element": "Way", "__fid": 14795}, "geometry": {"type": "LineString", "coordinates": [[2.2880179, 48.8835613], [2.2874253, 48.8839785]]}}, {"type": "Feature", "properties": {"highway": "footway", "footway": "sidewalk", "name": null, "surface": null, "lit": "yes", "length_m": 3.0, "type_element": "Way", "__fid": 14827}, "geometry": {"type": "LineString", "coordinates": [[2.2875371, 48.8829201], [2.287497, 48.8829147]]}}, {"type": "Feature", "properties": {"highway": "footway", "footway": "sidewalk", "name": null, "surface": null, "lit": "yes", "length_m": 50.28, "type_element": "Way", "__fid": 14831}, "geometry": {"type": "LineString", "coordinates": [[2.287516, 48.8832533], [2.2880179, 48.8835613]]}}, {"type": "Feature", "properties": {"highway": "footway", "footway": "crossing", "name": null, "surface": null, "lit": "yes", "length_m": 26.32, "type_element": "Way", "__fid": 14832}, "geometry": {"type": "LineString", "coordinates": [[2.287516, 48.8832533], [2.287739, 48.8830999], [2.28775, 48.8830768]]}}, {"type": "Feature", "properties": {"highway": "service", "footway": null, "name": null, "surface": "asphalt", "lit": "yes", "length_m": 22.32, "type_element": "Way", "__fid": 14835}, "geometry": {"type": "LineString", "coordinates": [[2.2877839, 48.8863176], [2.2874848, 48.8863546]]}}, {"type": "Feature", "properties": {"highway": "footway", "footway": "crossing", "name": null, "surface": null, "lit": "yes", "length_m": 11.45, "type_element": "Way", "__fid": 14841}, "geometry": {"type": "LineString", "coordinates": [[2.2875371, 48.8829201], [2.287661066666451, 48.8829826333334]]}}, {"type": "Feature", "properties": {"highway": "footway", "footway": "sidewalk", "name": null, "surface": null, "lit": "yes", "length_m": 101.33, "type_element": "Way", "__fid": 14842}, "geometry": {"type": "LineString", "coordinates": [[2.2883754, 48.882202600000014], [2.2876021, 48.8828999], [2.2875371, 48.8829201]]}}, {"type": "Feature", "properties": {"highway": "footway", "footway": "sidewalk", "name": null, "surface": "asphalt", "lit": "yes", "length_m": 8.26, "type_element": "Way", "__fid": 14907}, "geometry": {"type": "LineString", "coordinates": [[2.2876535, 48.8860315], [2.2876737, 48.8861046]]}}, {"type": "Feature", "properties": {"highway": "footway", "footway": "sidewalk", "name": null, "surface": null, "lit": "yes", "length_m": 109.24, "type_element": "Way", "__fid": 14908}, "geometry": {"type": "LineString", "coordinates": [[2.2876535, 48.8860315], [2.287727, 48.8859848], [2.2878959, 48.8859569], [2.2879381, 48.88598720000001], [2.287993, 48.8860066], [2.2880546, 48.8860131], [2.2886648, 48.8859316], [2.2886813, 48.885912699999984], [2.2886769, 48.885891100000016], [2.2884434, 48.8857505], [2.288457875739827, 48.885739953395365]]}}, {"type": "Feature", "properties": {"highway": "footway", "footway": "crossing", "name": null, "surface": "asphalt", "lit": "yes", "length_m": 13.65, "type_element": "Way", "__fid": 14909}, "geometry": {"type": "LineString", "coordinates": [[2.2876351, 48.8875786], [2.2877478, 48.8874809]]}}, {"type": "Feature", "properties": {"highway": "footway", "footway": "crossing", "name": null, "surface": "asphalt", "lit": "yes", "length_m": 21.97, "type_element": "Way", "__fid": 14913}, "geometry": {"type": "LineString", "coordinates": [[2.2876737, 48.8861046], [2.2877696, 48.8862918]]}}, {"type": "Feature", "properties": {"highway": "service", "footway": null, "name": "Avenue de la Porte de Champerret", "surface": null, "lit": "yes", "length_m": 28.71, "type_element": "Way", "__fid": 14914}, "geometry": {"type": "LineString", "coordinates": [[2.2876737, 48.8861046], [2.2877611, 48.8860959], [2.2880561, 48.886142]]}}, {"type": "Feature", "properties": {"highway": "footway", "footway": "sidewalk", "name": null, "surface": null, "lit": "yes", "length_m": 42.99, "type_element": "Way", "__fid": 14926}, "geometry": {"type": "LineString", "coordinates": [[2.2881854, 48.8833335], [2.2881451, 48.8833216], [2.28775, 48.8830768]]}}, {"type": "Feature", "properties": {"highway": "footway", "footway": "sidewalk", "name": null, "surface": null, "lit": "yes", "length_m": 123.3, "type_element": "Way", "__fid": 14927}, "geometry": {"type": "LineString", "coordinates": [[2.28775, 48.8830768], [2.2876913, 48.8830405], [2.2876682, 48.8830161], [2.2876666, 48.8829867], [2.2878133, 48.8828561], [2.2878953, 48.8828798], [2.2885794, 48.8822484]]}}, {"type": "Feature", "properties": {"highway": "footway", "footway": "sidewalk", "name": null, "surface": "asphalt", "lit": "yes", "length_m": 8.75, "type_element": "Way", "__fid": 14949}, "geometry": {"type": "LineString", "coordinates": [[2.2878431, 48.8875282], [2.2877478, 48.8874809]]}}, {"type": "Feature", "properties": {"highway": "footway", "footway": "crossing", "name": null, "surface": "asphalt", "lit": "yes", "length_m": 3.05, "type_element": "Way", "__fid": 14951}, "geometry": {"type": "LineString", "coordinates": [[2.2877696, 48.8862918], [2.2877839, 48.8863176]]}}, {"type": "Feature", "properties": {"highway": "footway", "footway": "sidewalk", "name": null, "surface": null, "lit": "yes", "length_m": 36.03, "type_element": "Way", "__fid": 14957}, "geometry": {"type": "LineString", "coordinates": [[2.2877839, 48.8863176], [2.2878112, 48.8863698], [2.2882114, 48.8863187]]}}, {"type": "Feature", "properties": {"highway": "service", "footway": null, "name": null, "surface": "asphalt", "lit": "yes", "length_m": 32.48, "type_element": "Way", "__fid": 14958}, "geometry": {"type": "LineString", "coordinates": [[2.288211, 48.886243], [2.288011, 48.8862887], [2.2877839, 48.8863176]]}}, {"type": "Feature", "properties": {"highway": "footway", "footway": "sidewalk", "name": null, "surface": "asphalt", "lit": "yes", "length_m": 9.5, "type_element": "Way", "__fid": 15004}, "geometry": {"type": "LineString", "coordinates": [[2.2879493, 48.8875771], [2.2878431, 48.8875282]]}}, {"type": "Feature", "properties": {"highway": "footway", "footway": null, "name": null, "surface": "asphalt", "lit": "yes", "length_m": 21.3, "type_element": "Way", "__fid": 15005}, "geometry": {"type": "LineString", "coordinates": [[2.2880289, 48.887381], [2.2878431, 48.8875282]]}}, {"type": "Feature", "properties": {"highway": "footway", "footway": "crossing", "name": null, "surface": "asphalt", "lit": "yes", "length_m": 11.93, "type_element": "Way", "__fid": 15009}, "geometry": {"type": "LineString", "coordinates": [[2.287848, 48.88766110000002], [2.2879493, 48.8875771]]}}, {"type": "Feature", "properties": {"highway": "service", "footway": null, "name": null, "surface": null, "lit": "yes", "length_m": 14.6, "type_element": "Way", "__fid": 15028}, "geometry": {"type": "LineString", "coordinates": [[2.2879446, 48.8836958], [2.2880805, 48.8835998]]}}, {"type": "Feature", "properties": {"highway": "footway", "footway": "sidewalk", "name": null, "surface": "asphalt", "lit": "yes", "length_m": 55.0, "type_element": "Way", "__fid": 15055}, "geometry": {"type": "LineString", "coordinates": [[2.2885646, 48.88786], [2.2879493, 48.8875771]]}}, {"type": "Feature", "properties": {"highway": "footway", "footway": "sidewalk", "name": null, "surface": null, "lit": "yes", "length_m": 6.28, "type_element": "Way", "__fid": 15061}, "geometry": {"type": "LineString", "coordinates": [[2.2880179, 48.8835613], [2.2880805, 48.8835998]]}}, {"type": "Feature", "properties": {"highway": "service", "footway": null, "name": "Square du Vivarais", "surface": null, "lit": null, "length_m": 5.44, "type_element": "Way", "__fid": 15062}, "geometry": {"type": "LineString", "coordinates": [[2.2880687, 48.883525700000014], [2.2880179, 48.8835613]]}}, {"type": "Feature", "properties": {"highway": "footway", "footway": "sidewalk", "name": null, "surface": null, "lit": "yes", "length_m": 77.73, "type_element": "Way", "__fid": 15097}, "geometry": {"type": "LineString", "coordinates": [[2.2880805, 48.8835998], [2.2888523, 48.8840789]]}}, {"type": "Feature", "properties": {"highway": "service", "footway": null, "name": null, "surface": null, "lit": "yes", "length_m": 5.44, "type_element": "Way", "__fid": 15098}, "geometry": {"type": "LineString", "coordinates": [[2.2880805, 48.8835998], [2.2881312, 48.8835641]]}}, {"type": "Feature", "properties": {"highway": "footway", "footway": null, "name": null, "surface": null, "lit": "yes", "length_m": 57.3, "type_element": "Way", "__fid": 15099}, "geometry": {"type": "LineString", "coordinates": [[2.2880289, 48.887381], [2.2880302, 48.8872454], [2.2879551, 48.8869888], [2.2879618, 48.8869509], [2.28799, 48.8869218], [2.2880437, 48.886893]]}}, {"type": "Feature", "properties": {"highway": "footway", "footway": null, "name": null, "surface": "asphalt", "lit": "yes", "length_m": 54.16, "type_element": "Way", "__fid": 15100}, "geometry": {"type": "LineString", "coordinates": [[2.2887558, 48.8873153], [2.2883079, 48.887328099999976], [2.2880289, 48.887381]]}}, {"type": "Feature", "properties": {"highway": "footway", "footway": null, "name": null, "surface": "asphalt", "lit": "yes", "length_m": 6.54, "type_element": "Way", "__fid": 15105}, "geometry": {"type": "LineString", "coordinates": [[2.2880437, 48.886893], [2.2880407, 48.8868342]]}}, {"type": "Feature", "properties": {"highway": "footway", "footway": null, "name": null, "surface": null, "lit": "yes", "length_m": 50.67, "type_element": "Way", "__fid": 15106}, "geometry": {"type": "LineString", "coordinates": [[2.2880407, 48.8868342], [2.2882968, 48.886774], [2.2884726, 48.8866724], [2.2885979, 48.8865823]]}}, {"type": "Feature", "properties": {"highway": "footway", "footway": null, "name": null, "surface": "asphalt", "lit": "yes", "length_m": 43.36, "type_element": "Way", "__fid": 15107}, "geometry": {"type": "LineString", "coordinates": [[2.2886271, 48.88692479999998], [2.2884757, 48.886895], [2.2882531, 48.886883], [2.2880437, 48.886893]]}}, {"type": "Feature", "properties": {"highway": "footway", "footway": "crossing", "name": null, "surface": null, "lit": "yes", "length_m": 14.01, "type_element": "Way", "__fid": 15145}, "geometry": {"type": "LineString", "coordinates": [[2.2881854, 48.8833335], [2.2881892, 48.883355899999984], [2.2882721, 48.883408], [2.2883141, 48.8834116]]}}, {"type": "Feature", "properties": {"highway": "footway", "footway": "sidewalk", "name": null, "surface": null, "lit": "yes", "length_m": 112.41, "type_element": "Way", "__fid": 15146}, "geometry": {"type": "LineString", "coordinates": [[2.2892153, 48.882593700000015], [2.2892018, 48.88262670000001], [2.2882301, 48.88332060000001], [2.2881854, 48.8833335]]}}, {"type": "Feature", "properties": {"highway": "steps", "footway": null, "name": null, "surface": null, "lit": "yes", "length_m": 7.1, "type_element": "Way", "__fid": 15174}, "geometry": {"type": "LineString", "coordinates": [[2.2882064, 48.8863453], [2.2882777, 48.88638849999999]]}}, {"type": "Feature", "properties": {"highway": "footway", "footway": "sidewalk", "name": null, "surface": null, "lit": "yes", "length_m": 11.27, "type_element": "Way", "__fid": 15176}, "geometry": {"type": "LineString", "coordinates": [[2.2882114, 48.8863187], [2.2883002, 48.8863718], [2.2882777, 48.88638849999999]]}}, {"type": "Feature", "properties": {"highway": "footway", "footway": "crossing", "name": null, "surface": null, "lit": "yes", "length_m": 18.6, "type_element": "Way", "__fid": 15177}, "geometry": {"type": "LineString", "coordinates": [[2.2883937, 48.8862473], [2.288339, 48.8862538], [2.2881898, 48.88630530000001], [2.2882114, 48.8863187]]}}, {"type": "Feature", "properties": {"highway": "footway", "footway": "sidewalk", "name": null, "surface": null, "lit": "yes", "length_m": 39.95, "type_element": "Way", "__fid": 15202}, "geometry": {"type": "LineString", "coordinates": [[2.2887124, 48.8836504], [2.2886511, 48.8836334], [2.2883386, 48.8834407], [2.2883141, 48.8834116]]}}, {"type": "Feature", "properties": {"highway": "footway", "footway": "sidewalk", "name": null, "surface": null, "lit": "yes", "length_m": 113.24, "type_element": "Way", "__fid": 15203}, "geometry": {"type": "LineString", "coordinates": [[2.2883141, 48.8834116], [2.2883384, 48.88337050000001], [2.2893063, 48.8826803], [2.2893517, 48.8826639]]}}, {"type": "Feature", "properties": {"highway": "footway", "footway": "sidewalk", "name": null, "surface": "asphalt", "lit": "yes", "length_m": 31.87, "type_element": "Way", "__fid": 15208}, "geometry": {"type": "LineString", "coordinates": [[2.2882777, 48.88638849999999], [2.2885979, 48.8865823]]}}, {"type": "Feature", "properties": {"highway": "footway", "footway": "sidewalk", "name": null, "surface": null, "lit": "yes", "length_m": 52.75, "type_element": "Way", "__fid": 15254}, "geometry": {"type": "LineString", "coordinates": [[2.2883937, 48.8862473], [2.2889255, 48.8865667]]}}, {"type": "Feature", "properties": {"highway": "footway", "footway": "sidewalk", "name": null, "surface": null, "lit": "yes", "length_m": 59.35, "type_element": "Way", "__fid": 15255}, "geometry": {"type": "LineString", "coordinates": [[2.2883937, 48.8862473], [2.289190117406823, 48.886152483783114]]}}, {"type": "Feature", "properties": {"highway": "service", "footway": null, "name": null, "surface": null, "lit": "24/7", "length_m": 70.62, "type_element": "Way", "__fid": 15272}, "geometry": {"type": "LineString", "coordinates": [[2.288457875739827, 48.885739953395365], [2.289190117406823, 48.886152483783114]]}}, {"type": "Feature", "properties": {"highway": "footway", "footway": "traffic_island", "name": null, "surface": null, "lit": "yes", "length_m": 34.03, "type_element": "Way", "__fid": 15273}, "geometry": {"type": "LineString", "coordinates": [[2.288457875739827, 48.885739953395365], [2.2887697, 48.885513300000014]]}}, {"type": "Feature", "properties": {"highway": "footway", "footway": "crossing", "name": null, "surface": "asphalt", "lit": "yes", "length_m": 15.21, "type_element": "Way", "__fid": 15275}, "geometry": {"type": "LineString", "coordinates": [[2.2884395, 48.88796430000002], [2.2885084, 48.8878828], [2.2885646, 48.88786]]}}, {"type": "Feature", "properties": {"highway": "footway", "footway": "sidewalk", "name": null, "surface": "paving_stones", "lit": "yes", "length_m": 12.54, "type_element": "Way", "__fid": 15334}, "geometry": {"type": "LineString", "coordinates": [[2.2885646, 48.88786], [2.2886732, 48.88784230000001], [2.2887323, 48.887842]]}}, {"type": "Feature", "properties": {"highway": "footway", "footway": "sidewalk", "name": null, "surface": "asphalt", "lit": "yes", "length_m": 31.2, "type_element": "Way", "__fid": 15349}, "geometry": {"type": "LineString", "coordinates": [[2.2885979, 48.8865823], [2.2889113, 48.886772]]}}, {"type": "Feature", "properties": {"highway": "footway", "footway": null, "name": null, "surface": null, "lit": "yes", "length_m": 7.85, "type_element": "Way", "__fid": 15350}, "geometry": {"type": "LineString", "coordinates": [[2.2885979, 48.8865823], [2.2886682, 48.8865291]]}}, {"type": "Feature", "properties": {"highway": "footway", "footway": null, "name": null, "surface": "paving_stones", "lit": "yes", "length_m": 18.37, "type_element": "Way", "__fid": 15366}, "geometry": {"type": "LineString", "coordinates": [[2.2886641, 48.8870815], [2.2886233, 48.88704280000001], [2.2886271, 48.88692479999998]]}}, {"type": "Feature", "properties": {"highway": "footway", "footway": null, "name": null, "surface": "paving_stones", "lit": "yes", "length_m": 27.26, "type_element": "Way", "__fid": 15367}, "geometry": {"type": "LineString", "coordinates": [[2.2886271, 48.88692479999998], [2.2887511, 48.8868797], [2.2888528, 48.886823], [2.2889113, 48.886772]]}}, {"type": "Feature", "properties": {"highway": "footway", "footway": null, "name": null, "surface": "paving_stones", "lit": "yes", "length_m": 17.12, "type_element": "Way", "__fid": 15387}, "geometry": {"type": "LineString", "coordinates": [[2.2886764, 48.8872336], [2.2886834, 48.8871279], [2.2886641, 48.8870815]]}}, {"type": "Feature", "properties": {"highway": "steps", "footway": null, "name": null, "surface": "paving_stones", "lit": "yes", "length_m": 19.37, "type_element": "Way", "__fid": 15388}, "geometry": {"type": "LineString", "coordinates": [[2.2886641, 48.8870815], [2.2888499, 48.8869577]]}}, {"type": "Feature", "properties": {"highway": "footway", "footway": "crossing", "name": null, "surface": null, "lit": "yes", "length_m": 14.03, "type_element": "Way", "__fid": 15389}, "geometry": {"type": "LineString", "coordinates": [[2.2887124, 48.8836504], [2.2888228, 48.8837149], [2.2888467, 48.8837391]]}}, {"type": "Feature", "properties": {"highway": "footway", "footway": "sidewalk", "name": null, "surface": null, "lit": "yes", "length_m": 117.49, "type_element": "Way", "__fid": 15390}, "geometry": {"type": "LineString", "coordinates": [[2.2898061, 48.88288550000002], [2.2897802, 48.88292149999999], [2.2887827, 48.8836277], [2.2887124, 48.8836504]]}}, {"type": "Feature", "properties": {"highway": "footway", "footway": null, "name": null, "surface": "paving_stones", "lit": "yes", "length_m": 11.08, "type_element": "Way", "__fid": 15396}, "geometry": {"type": "LineString", "coordinates": [[2.2887558, 48.8873153], [2.2887155, 48.8872893], [2.28868, 48.8872512], [2.2886764, 48.8872336]]}}, {"type": "Feature", "properties": {"highway": "steps", "footway": null, "name": null, "surface": null, "lit": "yes", "length_m": 10.45, "type_element": "Way", "__fid": 15397}, "geometry": {"type": "LineString", "coordinates": [[2.2886764, 48.8872336], [2.2888179, 48.88722220000001]]}}, {"type": "Feature", "properties": {"highway": "footway", "footway": "crossing", "name": null, "surface": "asphalt", "lit": "yes", "length_m": 18.64, "type_element": "Way", "__fid": 15422}, "geometry": {"type": "LineString", "coordinates": [[2.2887323, 48.887842], [2.2889545, 48.887923500000014]]}}, {"type": "Feature", "properties": {"highway": "footway", "footway": "sidewalk", "name": null, "surface": "asphalt", "lit": "yes", "length_m": 30.15, "type_element": "Way", "__fid": 15423}, "geometry": {"type": "LineString", "coordinates": [[2.2887323, 48.887842], [2.28891, 48.88764519999999], [2.2889495, 48.8876121]]}}, {"type": "Feature", "properties": {"highway": "footway", "footway": "sidewalk", "name": null, "surface": null, "lit": "yes", "length_m": 38.34, "type_element": "Way", "__fid": 15427}, "geometry": {"type": "LineString", "coordinates": [[2.2887697, 48.885513300000014], [2.2888702, 48.8855756], [2.2889, 48.8855853], [2.2889652, 48.8855817], [2.2890104, 48.8855506], [2.2892195, 48.8855976]]}}, {"type": "Feature", "properties": {"highway": "footway", "footway": null, "name": null, "surface": "paving_stones", "lit": "yes", "length_m": 7.67, "type_element": "Way", "__fid": 15434}, "geometry": {"type": "LineString", "coordinates": [[2.2888436, 48.8873528], [2.2887558, 48.8873153]]}}, {"type": "Feature", "properties": {"highway": "footway", "footway": "sidewalk", "name": null, "surface": null, "lit": "yes", "length_m": 26.46, "type_element": "Way", "__fid": 15453}, "geometry": {"type": "LineString", "coordinates": [[2.2888467, 48.8837391], [2.2888729, 48.8837728], [2.2890937, 48.88391]]}}, {"type": "Feature", "properties": {"highway": "footway", "footway": "sidewalk", "name": null, "surface": null, "lit": "yes", "length_m": 31.5, "type_element": "Way", "__fid": 15454}, "geometry": {"type": "LineString", "coordinates": [[2.2891121, 48.8835209], [2.2888745, 48.88368830000001], [2.2888467, 48.8837391]]}}, {"type": "Feature", "properties": {"highway": "footway", "footway": "sidewalk", "name": null, "surface": null, "lit": "yes", "length_m": 62.43, "type_element": "Way", "__fid": 15457}, "geometry": {"type": "LineString", "coordinates": [[2.2888523, 48.8840789], [2.2888721, 48.8841514], [2.2893913, 48.88449879999999]]}}, {"type": "Feature", "properties": {"highway": "footway", "footway": "crossing", "name": null, "surface": null, "lit": "yes", "length_m": 25.81, "type_element": "Way", "__fid": 15458}, "geometry": {"type": "LineString", "coordinates": [[2.2888523, 48.8840789], [2.2890937, 48.88391]]}}, {"type": "Feature", "properties": {"highway": "footway", "footway": null, "name": null, "surface": null, "lit": "yes", "length_m": 51.93, "type_element": "Way", "__fid": 15460}, "geometry": {"type": "LineString", "coordinates": [[2.2888179, 48.88722220000001], [2.2888245, 48.8872467], [2.2888524, 48.8872623], [2.2890189, 48.8872499], [2.2893816, 48.8870566]]}}, {"type": "Feature", "properties": {"highway": "steps", "footway": null, "name": null, "surface": null, "lit": "yes", "length_m": 7.22, "type_element": "Way", "__fid": 15461}, "geometry": {"type": "LineString", "coordinates": [[2.2888179, 48.88722220000001], [2.2889155, 48.8872139]]}}, {"type": "Feature", "properties": {"highway": "footway", "footway": null, "name": null, "surface": null, "lit": "yes", "length_m": 24.49, "type_element": "Way", "__fid": 15470}, "geometry": {"type": "LineString", "coordinates": [[2.2889133, 48.8875652], [2.2888648, 48.887497], [2.2888436, 48.8873528]]}}, {"type": "Feature", "properties": {"highway": "footway", "footway": null, "name": null, "surface": "paving_stones", "lit": "yes", "length_m": 20.24, "type_element": "Way", "__fid": 15471}, "geometry": {"type": "LineString", "coordinates": [[2.2891169, 48.887351], [2.2890238, 48.8873396], [2.2888436, 48.8873528]]}}, {"type": "Feature", "properties": {"highway": "footway", "footway": "crossing", "name": null, "surface": "asphalt", "lit": "yes", "length_m": 13.03, "type_element": "Way", "__fid": 15498}, "geometry": {"type": "LineString", "coordinates": [[2.2888911, 48.8881894], [2.2889797, 48.8880878]]}}, {"type": "Feature", "properties": {"highway": "footway", "footway": "sidewalk", "name": null, "surface": "asphalt", "lit": "yes", "length_m": 46.81, "type_element": "Way", "__fid": 15499}, "geometry": {"type": "LineString", "coordinates": [[2.2889113, 48.886772], [2.2893816, 48.8870566]]}}, {"type": "Feature", "properties": {"highway": "footway", "footway": null, "name": null, "surface": "asphalt", "lit": "yes", "length_m": 64.58, "type_element": "Way", "__fid": 15500}, "geometry": {"type": "LineString", "coordinates": [[2.2889113, 48.886772], [2.2889403, 48.8867372], [2.2889937, 48.8866969], [2.2895017, 48.8863427]]}}, {"type": "Feature", "properties": {"highway": "service", "footway": null, "name": null, "surface": "asphalt", "lit": "yes", "length_m": 5.85, "type_element": "Way", "__fid": 15507}, "geometry": {"type": "LineString", "coordinates": [[2.2889495, 48.8876121], [2.2889133, 48.8875652]]}}, {"type": "Feature", "properties": {"highway": "service", "footway": null, "name": null, "surface": "sett", "lit": "yes", "length_m": 28.11, "type_element": "Way", "__fid": 15508}, "geometry": {"type": "LineString", "coordinates": [[2.2889133, 48.8875652], [2.2891169, 48.887351]]}}, {"type": "Feature", "properties": {"highway": "service", "footway": null, "name": null, "surface": "asphalt", "lit": "yes", "length_m": 10.07, "type_element": "Way", "__fid": 15533}, "geometry": {"type": "LineString", "coordinates": [[2.2890119, 48.88769280000001], [2.2889495, 48.8876121]]}}, {"type": "Feature", "properties": {"highway": "footway", "footway": "sidewalk", "name": null, "surface": "asphalt", "lit": "yes", "length_m": 34.64, "type_element": "Way", "__fid": 15534}, "geometry": {"type": "LineString", "coordinates": [[2.2891917, 48.8873446], [2.2889495, 48.8876121]]}}, {"type": "Feature", "properties": {"highway": "footway", "footway": "sidewalk", "name": null, "surface": "asphalt", "lit": "yes", "length_m": 19.67, "type_element": "Way", "__fid": 15537}, "geometry": {"type": "LineString", "coordinates": [[2.2889545, 48.887923500000014], [2.2889355, 48.8879447], [2.2889714, 48.88804], [2.2889622, 48.8880792], [2.2889797, 48.8880878]]}}, {"type": "Feature", "properties": {"highway": "footway", "footway": "sidewalk", "name": null, "surface": "asphalt", "lit": "yes", "length_m": 23.0, "type_element": "Way", "__fid": 15538}, "geometry": {"type": "LineString", "coordinates": [[2.2891144, 48.8877456], [2.2889545, 48.887923500000014]]}}, {"type": "Feature", "properties": {"highway": "footway", "footway": "sidewalk", "name": null, "surface": "asphalt", "lit": "yes", "length_m": 67.9, "type_element": "Way", "__fid": 15549}, "geometry": {"type": "LineString", "coordinates": [[2.2889797, 48.8880878], [2.2897299, 48.8884457]]}}, {"type": "Feature", "properties": {"highway": "footway", "footway": "sidewalk", "name": null, "surface": null, "lit": "yes", "length_m": 21.86, "type_element": "Way", "__fid": 15576}, "geometry": {"type": "LineString", "coordinates": [[2.2890937, 48.88391], [2.2892673, 48.88401790000001], [2.2893243, 48.884029099999985]]}}, {"type": "Feature", "properties": {"highway": "footway", "footway": null, "name": null, "surface": null, "lit": null, "length_m": 61.78, "type_element": "Way", "__fid": 15581}, "geometry": {"type": "LineString", "coordinates": [[2.2891121, 48.8835209], [2.2893811, 48.883681], [2.2894987, 48.8835937], [2.2897185, 48.8837313]]}}, {"type": "Feature", "properties": {"highway": "footway", "footway": "sidewalk", "name": null, "surface": null, "lit": "yes", "length_m": 87.37, "type_element": "Way", "__fid": 15582}, "geometry": {"type": "LineString", "coordinates": [[2.2899392, 48.8829595], [2.2898897, 48.8829732], [2.2891121, 48.8835209]]}}, {"type": "Feature", "properties": {"highway": "service", "footway": null, "name": null, "surface": "asphalt", "lit": "yes", "length_m": 5.53, "type_element": "Way", "__fid": 15605}, "geometry": {"type": "LineString", "coordinates": [[2.2891169, 48.887351], [2.2891917, 48.8873446]]}}, {"type": "Feature", "properties": {"highway": "footway", "footway": null, "name": null, "surface": null, "lit": "yes", "length_m": 73.46, "type_element": "Way", "__fid": 15607}, "geometry": {"type": "LineString", "coordinates": [[2.2898358, 48.8881745], [2.289783, 48.8881431], [2.2896272, 48.8880775], [2.2895752, 48.88797430000001], [2.2894908, 48.8879104], [2.2892762, 48.8878253], [2.2891144, 48.8877456]]}}, {"type": "Feature", "properties": {"highway": "footway", "footway": "sidewalk", "name": null, "surface": "asphalt", "lit": "yes", "length_m": 64.06, "type_element": "Way", "__fid": 15608}, "geometry": {"type": "LineString", "coordinates": [[2.2895848, 48.8872602], [2.2891144, 48.8877456]]}}, {"type": "Feature", "properties": {"highway": "footway", "footway": "crossing", "name": null, "surface": null, "lit": "yes", "length_m": 10.64, "type_element": "Way", "__fid": 15614}, "geometry": {"type": "LineString", "coordinates": [[2.2893125, 48.884644299999984], [2.2891683, 48.884634]]}}, {"type": "Feature", "properties": {"highway": "footway", "footway": "sidewalk", "name": null, "surface": null, "lit": "yes", "length_m": 32.5, "type_element": "Way", "__fid": 15635}, "geometry": {"type": "LineString", "coordinates": [[2.2895046, 48.8869443], [2.2891777, 48.8867469]]}}, {"type": "Feature", "properties": {"highway": "service", "footway": null, "name": null, "surface": null, "lit": "24/7", "length_m": 13.46, "type_element": "Way", "__fid": 15638}, "geometry": {"type": "LineString", "coordinates": [[2.289190117406823, 48.886152483783114], [2.289329479886903, 48.88623121590409]]}}, {"type": "Feature", "properties": {"highway": "footway", "footway": "sidewalk", "name": null, "surface": null, "lit": "yes", "length_m": 1.12, "type_element": "Way", "__fid": 15639}, "geometry": {"type": "LineString", "coordinates": [[2.289190117406823, 48.886152483783114], [2.2892051, 48.8861507]]}}, {"type": "Feature", "properties": {"highway": "footway", "footway": "sidewalk", "name": null, "surface": "asphalt", "lit": "yes", "length_m": 12.78, "type_element": "Way", "__fid": 15642}, "geometry": {"type": "LineString", "coordinates": [[2.289329479886903, 48.88623121590409], [2.2892051, 48.8861507]]}}, {"type": "Feature", "properties": {"highway": "footway", "footway": "crossing", "name": null, "surface": null, "lit": "yes", "length_m": 16.28, "type_element": "Way", "__fid": 15643}, "geometry": {"type": "LineString", "coordinates": [[2.2894158, 48.8861094], [2.2893907, 48.88610770000001], [2.2892051, 48.8861507]]}}, {"type": "Feature", "properties": {"highway": "footway", "footway": "sidewalk", "name": null, "surface": "asphalt", "lit": "yes", "length_m": 26.08, "type_element": "Way", "__fid": 15646}, "geometry": {"type": "LineString", "coordinates": [[2.2893708, 48.887142], [2.2891917, 48.8873446]]}}, {"type": "Feature", "properties": {"highway": "service", "footway": null, "name": null, "surface": "asphalt", "lit": "yes", "length_m": 11.49, "type_element": "Way", "__fid": 15647}, "geometry": {"type": "LineString", "coordinates": [[2.2891917, 48.8873446], [2.2893471, 48.88733120000001]]}}, {"type": "Feature", "properties": {"highway": "footway", "footway": "sidewalk", "name": null, "surface": null, "lit": "yes", "length_m": 48.52, "type_element": "Way", "__fid": 15649}, "geometry": {"type": "LineString", "coordinates": [[2.2895273, 48.8858212], [2.2892933, 48.8858494], [2.2892003, 48.885794], [2.2892195, 48.8855976]]}}, {"type": "Feature", "properties": {"highway": "footway", "footway": "sidewalk", "name": null, "surface": null, "lit": "yes", "length_m": 106.22, "type_element": "Way", "__fid": 15650}, "geometry": {"type": "LineString", "coordinates": [[2.2892195, 48.8855976], [2.2893125, 48.884644299999984]]}}, {"type": "Feature", "properties": {"highway": "footway", "footway": "sidewalk", "name": null, "surface": null, "lit": "yes", "length_m": 17.85, "type_element": "Way", "__fid": 15675}, "geometry": {"type": "LineString", "coordinates": [[2.2893125, 48.884644299999984], [2.2893206, 48.88456449999999], [2.2893913, 48.88449879999999]]}}, {"type": "Feature", "properties": {"highway": "footway", "footway": "crossing", "name": null, "surface": null, "lit": "yes", "length_m": 18.24, "type_element": "Way", "__fid": 15676}, "geometry": {"type": "LineString", "coordinates": [[2.2893243, 48.884029099999985], [2.2893435, 48.88405190000001], [2.289502466666667, 48.8841415]]}}, {"type": "Feature", "properties": {"highway": "footway", "footway": "sidewalk", "name": null, "surface": null, "lit": "yes", "length_m": 11.21, "type_element": "Way", "__fid": 15677}, "geometry": {"type": "LineString", "coordinates": [[2.2893243, 48.884029099999985], [2.2893869, 48.8840066], [2.2894376, 48.8839645]]}}, {"type": "Feature", "properties": {"highway": "service", "footway": null, "name": null, "surface": null, "lit": "24/7", "length_m": 17.74, "type_element": "Way", "__fid": 15689}, "geometry": {"type": "LineString", "coordinates": [[2.289329479886903, 48.88623121590409], [2.289513163907892, 48.88633498663301]]}}, {"type": "Feature", "properties": {"highway": "footway", "footway": "sidewalk", "name": null, "surface": "asphalt", "lit": "yes", "length_m": 17.7, "type_element": "Way", "__fid": 15690}, "geometry": {"type": "LineString", "coordinates": [[2.2895017, 48.8863427], [2.289329479886903, 48.88623121590409]]}}, {"type": "Feature", "properties": {"highway": "footway", "footway": "sidewalk", "name": null, "surface": null, "lit": "yes", "length_m": 119.3, "type_element": "Way", "__fid": 15696}, "geometry": {"type": "LineString", "coordinates": [[2.2893913, 48.88449879999999], [2.2894373, 48.8844664], [2.2905684, 48.8851745]]}}, {"type": "Feature", "properties": {"highway": "footway", "footway": "crossing", "name": "Promenade Bernard Lafray", "surface": "asphalt", "lit": "yes", "length_m": 20.47, "type_element": "Way", "__fid": 15701}, "geometry": {"type": "LineString", "coordinates": [[2.2893708, 48.887142], [2.2895848, 48.8872602]]}}, {"type": "Feature", "properties": {"highway": "footway", "footway": "sidewalk", "name": null, "surface": "asphalt", "lit": "yes", "length_m": 8.34, "type_element": "Way", "__fid": 15702}, "geometry": {"type": "LineString", "coordinates": [[2.2894096, 48.8870736], [2.2894075, 48.887101], [2.2893708, 48.887142]]}}, {"type": "Feature", "properties": {"highway": "footway", "footway": "sidewalk", "name": null, "surface": "asphalt", "lit": "yes", "length_m": 2.79, "type_element": "Way", "__fid": 15703}, "geometry": {"type": "LineString", "coordinates": [[2.2893816, 48.8870566], [2.2894096, 48.8870736]]}}, {"type": "Feature", "properties": {"highway": "footway", "footway": "crossing", "name": null, "surface": null, "lit": "yes", "length_m": 8.3, "type_element": "Way", "__fid": 15712}, "geometry": {"type": "LineString", "coordinates": [[2.2895291, 48.8840085], [2.2894376, 48.8839645]]}}, {"type": "Feature", "properties": {"highway": "footway", "footway": "sidewalk", "name": null, "surface": null, "lit": "yes", "length_m": 33.12, "type_element": "Way", "__fid": 15713}, "geometry": {"type": "LineString", "coordinates": [[2.2894376, 48.8839645], [2.2897185, 48.8837313]]}}, {"type": "Feature", "properties": {"highway": "footway", "footway": "sidewalk", "name": null, "surface": "asphalt", "lit": "yes", "length_m": 22.64, "type_element": "Way", "__fid": 15720}, "geometry": {"type": "LineString", "coordinates": [[2.2896418, 48.8862481], [2.2894158, 48.8861094]]}}, {"type": "Feature", "properties": {"highway": "footway", "footway": "sidewalk", "name": null, "surface": null, "lit": "yes", "length_m": 11.5, "type_element": "Way", "__fid": 15721}, "geometry": {"type": "LineString", "coordinates": [[2.2895396, 48.88604590000001], [2.2894158, 48.8861094]]}}, {"type": "Feature", "properties": {"highway": "footway", "footway": "sidewalk", "name": null, "surface": null, "lit": "yes", "length_m": 33.11, "type_element": "Way", "__fid": 15722}, "geometry": {"type": "LineString", "coordinates": [[2.2894688, 48.8826917], [2.2897706, 48.882846], [2.2898061, 48.88288550000002]]}}, {"type": "Feature", "properties": {"highway": "footway", "footway": "crossing", "name": null, "surface": "asphalt", "lit": "yes", "length_m": 16.32, "type_element": "Way", "__fid": 15724}, "geometry": {"type": "LineString", "coordinates": [[2.2894096, 48.8870736], [2.289493, 48.8869924], [2.2895046, 48.8869443]]}}, {"type": "Feature", "properties": {"highway": "footway", "footway": "sidewalk", "name": null, "surface": null, "lit": "yes", "length_m": 136.28, "type_element": "Way", "__fid": 15752}, "geometry": {"type": "LineString", "coordinates": [[2.289502466666667, 48.8841415], [2.2895184, 48.8841695], [2.2908346, 48.8849918]]}}, {"type": "Feature", "properties": {"highway": "footway", "footway": "sidewalk", "name": null, "surface": null, "lit": "yes", "length_m": 1.91, "type_element": "Way", "__fid": 15753}, "geometry": {"type": "LineString", "coordinates": [[2.2895189, 48.8841282], [2.289502466666667, 48.8841415]]}}, {"type": "Feature", "properties": {"highway": "footway", "footway": "sidewalk", "name": null, "surface": null, "lit": "yes", "length_m": 85.74, "type_element": "Way", "__fid": 15756}, "geometry": {"type": "LineString", "coordinates": [[2.290462, 48.8831006], [2.2895356, 48.8826302]]}}, {"type": "Feature", "properties": {"highway": "footway", "footway": "crossing", "name": null, "surface": null, "lit": "yes", "length_m": 10.91, "type_element": "Way", "__fid": 15757}, "geometry": {"type": "LineString", "coordinates": [[2.289534, 48.88403060000001], [2.2895189, 48.8841282]]}}, {"type": "Feature", "properties": {"highway": "footway", "footway": "sidewalk", "name": null, "surface": null, "lit": "yes", "length_m": 93.02, "type_element": "Way", "__fid": 15758}, "geometry": {"type": "LineString", "coordinates": [[2.2907789, 48.88404149999999], [2.2907242, 48.8840367], [2.2895189, 48.8841282]]}}, {"type": "Feature", "properties": {"highway": "footway", "footway": "sidewalk", "name": null, "surface": null, "lit": "yes", "length_m": 2.48, "type_element": "Way", "__fid": 15761}, "geometry": {"type": "LineString", "coordinates": [[2.2895291, 48.8840085], [2.289534, 48.88403060000001]]}}, {"type": "Feature", "properties": {"highway": "footway", "footway": "sidewalk", "name": null, "surface": null, "lit": "yes", "length_m": 122.32, "type_element": "Way", "__fid": 15762}, "geometry": {"type": "LineString", "coordinates": [[2.290562399999904, 48.883145033333385], [2.2895291, 48.8840085]]}}, {"type": "Feature", "properties": {"highway": "footway", "footway": "sidewalk", "name": null, "surface": "asphalt", "lit": "yes", "length_m": 33.68, "type_element": "Way", "__fid": 15765}, "geometry": {"type": "LineString", "coordinates": [[2.2898304, 48.8865542], [2.2895017, 48.8863427]]}}, {"type": "Feature", "properties": {"highway": "footway", "footway": null, "name": null, "surface": "asphalt", "lit": "yes", "length_m": 1.2, "type_element": "Way", "__fid": 15766}, "geometry": {"type": "LineString", "coordinates": [[2.289513163907892, 48.88633498663301], [2.2895017, 48.8863427]]}}, {"type": "Feature", "properties": {"highway": "footway", "footway": "sidewalk", "name": null, "surface": null, "lit": "yes", "length_m": 91.62, "type_element": "Way", "__fid": 15767}, "geometry": {"type": "LineString", "coordinates": [[2.289534, 48.88403060000001], [2.2895761, 48.8840376], [2.2907735, 48.8839433]]}}, {"type": "Feature", "properties": {"highway": "footway", "footway": "sidewalk", "name": null, "surface": "asphalt", "lit": "yes", "length_m": 41.19, "type_element": "Way", "__fid": 15773}, "geometry": {"type": "LineString", "coordinates": [[2.2895046, 48.8869443], [2.2898079, 48.8866325]]}}, {"type": "Feature", "properties": {"highway": "service", "footway": null, "name": null, "surface": null, "lit": "24/7", "length_m": 33.61, "type_element": "Way", "__fid": 15774}, "geometry": {"type": "LineString", "coordinates": [[2.289513163907892, 48.88633498663301], [2.289861196353294, 48.88653160267583]]}}, {"type": "Feature", "properties": {"highway": "footway", "footway": "crossing", "name": null, "surface": "asphalt", "lit": "yes", "length_m": 13.5, "type_element": "Way", "__fid": 15775}, "geometry": {"type": "LineString", "coordinates": [[2.2896418, 48.8862481], [2.289513163907892, 48.88633498663301]]}}, {"type": "Feature", "properties": {"highway": "footway", "footway": "traffic_island", "name": null, "surface": null, "lit": "yes", "length_m": 28.82, "type_element": "Way", "__fid": 15781}, "geometry": {"type": "LineString", "coordinates": [[2.2895273, 48.8858212], [2.2895575, 48.8859229], [2.2895022, 48.88593010000002], [2.2895396, 48.88604590000001]]}}, {"type": "Feature", "properties": {"highway": "footway", "footway": "sidewalk", "name": null, "surface": null, "lit": "yes", "length_m": 73.92, "type_element": "Way", "__fid": 15782}, "geometry": {"type": "LineString", "coordinates": [[2.2905175, 48.8856968], [2.2895273, 48.8858212]]}}, {"type": "Feature", "properties": {"highway": "footway", "footway": "sidewalk", "name": null, "surface": "asphalt", "lit": "yes", "length_m": 77.2, "type_element": "Way", "__fid": 15791}, "geometry": {"type": "LineString", "coordinates": [[2.2905704, 48.8859071], [2.2897104, 48.886013700000014], [2.2895396, 48.88604590000001]]}}, {"type": "Feature", "properties": {"highway": "footway", "footway": null, "name": "Promenade Bernard Lafray", "surface": "asphalt", "lit": "yes", "length_m": 117.01, "type_element": "Way", "__fid": 15812}, "geometry": {"type": "LineString", "coordinates": [[2.2895848, 48.8872602], [2.2896315, 48.887375], [2.2896934, 48.887439], [2.2898447, 48.8875362], [2.2899962, 48.8876126], [2.2900811, 48.8876686], [2.2901581, 48.8877512], [2.2902483, 48.88787760000001], [2.2903086, 48.8880053], [2.2903824, 48.8880738], [2.2904564, 48.8881067]]}}, {"type": "Feature", "properties": {"highway": "footway", "footway": "crossing", "name": null, "surface": "asphalt", "lit": "yes", "length_m": 31.22, "type_element": "Way", "__fid": 15813}, "geometry": {"type": "LineString", "coordinates": [[2.2898145, 48.887025], [2.2896553, 48.887207], [2.2895848, 48.8872602]]}}, {"type": "Feature", "properties": {"highway": "footway", "footway": "sidewalk", "name": null, "surface": "asphalt", "lit": "yes", "length_m": 33.39, "type_element": "Way", "__fid": 15845}, "geometry": {"type": "LineString", "coordinates": [[2.2899753, 48.8864526], [2.2896418, 48.8862481]]}}, {"type": "Feature", "properties": {"highway": "footway", "footway": "sidewalk", "name": null, "surface": null, "lit": "yes", "length_m": 78.05, "type_element": "Way", "__fid": 15865}, "geometry": {"type": "LineString", "coordinates": [[2.2897185, 48.8837313], [2.2903388, 48.8832162], [2.2903648, 48.8831756]]}}, {"type": "Feature", "properties": {"highway": "footway", "footway": "crossing", "name": null, "surface": "asphalt", "lit": "yes", "length_m": 13.65, "type_element": "Way", "__fid": 15893}, "geometry": {"type": "LineString", "coordinates": [[2.2897108, 48.8885898], [2.289812, 48.88848680000002]]}}, {"type": "Feature", "properties": {"highway": "footway", "footway": "sidewalk", "name": null, "surface": "asphalt", "lit": "yes", "length_m": 7.56, "type_element": "Way", "__fid": 15902}, "geometry": {"type": "LineString", "coordinates": [[2.2897299, 48.8884457], [2.289812, 48.88848680000002]]}}, {"type": "Feature", "properties": {"highway": "footway", "footway": null, "name": "Rue Louis Vierne", "surface": "asphalt", "lit": "yes", "length_m": 18.0, "type_element": "Way", "__fid": 15903}, "geometry": {"type": "LineString", "coordinates": [[2.2897299, 48.8884457], [2.2898703, 48.88831290000002]]}}, {"type": "Feature", "properties": {"highway": "footway", "footway": "crossing", "name": null, "surface": null, "lit": "yes", "length_m": 13.29, "type_element": "Way", "__fid": 15904}, "geometry": {"type": "LineString", "coordinates": [[2.2898061, 48.88288550000002], [2.2898389, 48.882891600000015], [2.2899211, 48.8829337], [2.2899392, 48.8829595]]}}, {"type": "Feature", "properties": {"highway": "footway", "footway": "crossing", "name": null, "surface": null, "lit": "yes", "length_m": 23.48, "type_element": "Way", "__fid": 15927}, "geometry": {"type": "LineString", "coordinates": [[2.2900851, 48.88673819999999], [2.2898079, 48.8866325]]}}, {"type": "Feature", "properties": {"highway": "footway", "footway": "sidewalk", "name": null, "surface": "asphalt", "lit": "yes", "length_m": 8.86, "type_element": "Way", "__fid": 15928}, "geometry": {"type": "LineString", "coordinates": [[2.2898079, 48.8866325], [2.2898304, 48.8865542]]}}, {"type": "Feature", "properties": {"highway": "footway", "footway": "sidewalk", "name": null, "surface": null, "lit": "yes", "length_m": 28.24, "type_element": "Way", "__fid": 15933}, "geometry": {"type": "LineString", "coordinates": [[2.2900146, 48.886808], [2.2898145, 48.887025]]}}, {"type": "Feature", "properties": {"highway": "footway", "footway": "sidewalk", "name": null, "surface": "asphalt", "lit": "yes", "length_m": 3.38, "type_element": "Way", "__fid": 15934}, "geometry": {"type": "LineString", "coordinates": [[2.2898304, 48.8865542], [2.289861196353294, 48.88653160267583]]}}, {"type": "Feature", "properties": {"highway": "footway", "footway": "sidewalk", "name": null, "surface": "asphalt", "lit": "yes", "length_m": 66.99, "type_element": "Way", "__fid": 15940}, "geometry": {"type": "LineString", "coordinates": [[2.289812, 48.88848680000002], [2.2905387, 48.8888519]]}}, {"type": "Feature", "properties": {"highway": "footway", "footway": null, "name": "Rue Louis Vierne", "surface": "asphalt", "lit": "yes", "length_m": 15.6, "type_element": "Way", "__fid": 15949}, "geometry": {"type": "LineString", "coordinates": [[2.2898703, 48.88831290000002], [2.2898358, 48.8881745]]}}, {"type": "Feature", "properties": {"highway": "footway", "footway": null, "name": null, "surface": "asphalt", "lit": "yes", "length_m": 18.94, "type_element": "Way", "__fid": 15950}, "geometry": {"type": "LineString", "coordinates": [[2.2900883, 48.8881387], [2.2898358, 48.8881745]]}}, {"type": "Feature", "properties": {"highway": "service", "footway": null, "name": null, "surface": null, "lit": "24/7", "length_m": 26.82, "type_element": "Way", "__fid": 15952}, "geometry": {"type": "LineString", "coordinates": [[2.289861196353294, 48.88653160267583], [2.290138940153723, 48.886688508319445]]}}, {"type": "Feature", "properties": {"highway": "footway", "footway": "crossing", "name": null, "surface": "asphalt", "lit": "yes", "length_m": 12.13, "type_element": "Way", "__fid": 15953}, "geometry": {"type": "LineString", "coordinates": [[2.289861196353294, 48.88653160267583], [2.2899753, 48.8864526]]}}, {"type": "Feature", "properties": {"highway": "footway", "footway": "sidewalk", "name": null, "surface": null, "lit": "yes", "length_m": 40.43, "type_element": "Way", "__fid": 15971}, "geometry": {"type": "LineString", "coordinates": [[2.2903648, 48.8831756], [2.2903378, 48.8831401], [2.2900049, 48.8829663], [2.2899392, 48.8829595]]}}, {"type": "Feature", "properties": {"highway": "footway", "footway": null, "name": "Rue Louis Vierne", "surface": "paving_stones", "lit": "yes", "length_m": 32.05, "type_element": "Way", "__fid": 15974}, "geometry": {"type": "LineString", "coordinates": [[2.2898703, 48.88831290000002], [2.2900473, 48.888295699999986], [2.2901059, 48.8882427], [2.2900883, 48.8881387]]}}, {"type": "Feature", "properties": {"highway": "pedestrian", "footway": null, "name": "Rue Roger Bacon", "surface": "sett", "lit": "yes", "length_m": 39.39, "type_element": "Way", "__fid": 15992}, "geometry": {"type": "LineString", "coordinates": [[2.2904295, 48.8831319], [2.2900087, 48.8829118]]}}, {"type": "Feature", "properties": {"highway": "footway", "footway": "sidewalk", "name": null, "surface": "asphalt", "lit": "yes", "length_m": 6.2, "type_element": "Way", "__fid": 16008}, "geometry": {"type": "LineString", "coordinates": [[2.2899753, 48.8864526], [2.2900556, 48.8864351]]}}, {"type": "Feature", "properties": {"highway": "footway", "footway": "sidewalk", "name": null, "surface": null, "lit": "yes", "length_m": 9.33, "type_element": "Way", "__fid": 16017}, "geometry": {"type": "LineString", "coordinates": [[2.2900851, 48.88673819999999], [2.2900146, 48.886808]]}}, {"type": "Feature", "properties": {"highway": "footway", "footway": "sidewalk", "name": null, "surface": "asphalt", "lit": "yes", "length_m": 71.7, "type_element": "Way", "__fid": 16037}, "geometry": {"type": "LineString", "coordinates": [[2.2900556, 48.8864351], [2.290117, 48.88633], [2.2905757, 48.8860161], [2.2905736, 48.8859199]]}}, {"type": "Feature", "properties": {"highway": "footway", "footway": "crossing", "name": null, "surface": "asphalt", "lit": "yes", "length_m": 20.25, "type_element": "Way", "__fid": 16038}, "geometry": {"type": "LineString", "coordinates": [[2.2900556, 48.8864351], [2.2901237, 48.8864104], [2.2903162, 48.88644209999999]]}}, {"type": "Feature", "properties": {"highway": "footway", "footway": "sidewalk", "name": null, "surface": null, "lit": "yes", "length_m": 6.79, "type_element": "Way", "__fid": 16054}, "geometry": {"type": "LineString", "coordinates": [[2.290138940153723, 48.886688508319445], [2.2900851, 48.88673819999999]]}}, {"type": "Feature", "properties": {"highway": "footway", "footway": null, "name": null, "surface": "asphalt", "lit": "yes", "length_m": 27.23, "type_element": "Way", "__fid": 16069}, "geometry": {"type": "LineString", "coordinates": [[2.2904564, 48.8881067], [2.2900883, 48.8881387]]}}, {"type": "Feature", "properties": {"highway": "service", "footway": null, "name": null, "surface": null, "lit": "24/7", "length_m": 59.68, "type_element": "Way", "__fid": 16084}, "geometry": {"type": "LineString", "coordinates": [[2.290138940153723, 48.886688508319445], [2.2907553, 48.887039]]}}, {"type": "Feature", "properties": {"highway": "footway", "footway": "sidewalk", "name": null, "surface": "asphalt", "lit": "yes", "length_m": 27.06, "type_element": "Way", "__fid": 16085}, "geometry": {"type": "LineString", "coordinates": [[2.2903988, 48.8865157], [2.290138940153723, 48.886688508319445]]}}, {"type": "Feature", "properties": {"highway": "footway", "footway": "sidewalk", "name": null, "surface": "asphalt", "lit": "yes", "length_m": 11.15, "type_element": "Way", "__fid": 16162}, "geometry": {"type": "LineString", "coordinates": [[2.2903162, 48.88644209999999], [2.2903204, 48.8864786], [2.2903988, 48.8865157]]}}, {"type": "Feature", "properties": {"highway": "footway", "footway": "sidewalk", "name": null, "surface": null, "lit": "yes", "length_m": 80.49, "type_element": "Way", "__fid": 16163}, "geometry": {"type": "LineString", "coordinates": [[2.2909525, 48.88587420000001], [2.2908573, 48.886002], [2.29031, 48.8863929], [2.2903162, 48.88644209999999]]}}, {"type": "Feature", "properties": {"highway": "footway", "footway": "crossing", "name": null, "surface": null, "lit": "yes", "length_m": 6.87, "type_element": "Way", "__fid": 16169}, "geometry": {"type": "LineString", "coordinates": [[2.2903648, 48.8831756], [2.2903954, 48.8831616], [2.2904295, 48.8831319]]}}, {"type": "Feature", "properties": {"highway": "footway", "footway": "crossing", "name": null, "surface": null, "lit": "yes", "length_m": 4.22, "type_element": "Way", "__fid": 16203}, "geometry": {"type": "LineString", "coordinates": [[2.2904295, 48.8831319], [2.290462, 48.8831006]]}}, {"type": "Feature", "properties": {"highway": "footway", "footway": "sidewalk", "name": null, "surface": "asphalt", "lit": "yes", "length_m": 19.43, "type_element": "Way", "__fid": 16210}, "geometry": {"type": "LineString", "coordinates": [[2.2903988, 48.8865157], [2.2906104, 48.88662079999998]]}}, {"type": "Feature", "properties": {"highway": "footway", "footway": "sidewalk", "name": null, "surface": null, "lit": "yes", "length_m": 1.72, "type_element": "Way", "__fid": 16222}, "geometry": {"type": "LineString", "coordinates": [[2.290462, 48.8831006], [2.290484833333088, 48.88310396666676]]}}, {"type": "Feature", "properties": {"highway": "footway", "footway": "crossing", "name": null, "surface": null, "lit": "yes", "length_m": 7.29, "type_element": "Way", "__fid": 16228}, "geometry": {"type": "LineString", "coordinates": [[2.290484833333088, 48.88310396666676], [2.290562399999904, 48.883145033333385]]}}, {"type": "Feature", "properties": {"highway": "footway", "footway": "sidewalk", "name": null, "surface": null, "lit": "yes", "length_m": 43.76, "type_element": "Way", "__fid": 16229}, "geometry": {"type": "LineString", "coordinates": [[2.2908515, 48.8827935], [2.290484833333088, 48.88310396666676]]}}, {"type": "Feature", "properties": {"highway": "footway", "footway": null, "name": "Promenade Bernard Lafray", "surface": "asphalt", "lit": "yes", "length_m": 215.17, "type_element": "Way", "__fid": 16254}, "geometry": {"type": "LineString", "coordinates": [[2.2904564, 48.8881067], [2.2908497, 48.8882128], [2.2910184, 48.8882924], [2.2914387, 48.8885357], [2.2915792, 48.8885826], [2.2916695, 48.8885978], [2.2917669, 48.888604], [2.2920453, 48.88859009999999], [2.2924115, 48.8887583], [2.2927308, 48.888965399999975], [2.292936, 48.889019300000015]]}}, {"type": "Feature", "properties": {"highway": "footway", "footway": "crossing", "name": null, "surface": null, "lit": "yes", "length_m": 23.7, "type_element": "Way", "__fid": 16261}, "geometry": {"type": "LineString", "coordinates": [[2.2905175, 48.8856968], [2.2905704, 48.8859071]]}}, {"type": "Feature", "properties": {"highway": "footway", "footway": "sidewalk", "name": null, "surface": null, "lit": "yes", "length_m": 40.14, "type_element": "Way", "__fid": 16262}, "geometry": {"type": "LineString", "coordinates": [[2.2908595, 48.8854275], [2.290858, 48.8854676], [2.2905175, 48.8856968]]}}, {"type": "Feature", "properties": {"highway": "footway", "footway": "sidewalk", "name": null, "surface": null, "lit": "yes", "length_m": 13.63, "type_element": "Way", "__fid": 16268}, "geometry": {"type": "LineString", "coordinates": [[2.2906948, 48.8830623], [2.2906572, 48.8830724], [2.290562399999904, 48.883145033333385]]}}, {"type": "Feature", "properties": {"highway": "footway", "footway": "sidewalk", "name": null, "surface": null, "lit": "yes", "length_m": 37.39, "type_element": "Way", "__fid": 16279}, "geometry": {"type": "LineString", "coordinates": [[2.2905684, 48.8851745], [2.2908621, 48.8853584], [2.2908595, 48.8854275]]}}, {"type": "Feature", "properties": {"highway": "footway", "footway": "crossing", "name": null, "surface": null, "lit": "yes", "length_m": 28.17, "type_element": "Way", "__fid": 16280}, "geometry": {"type": "LineString", "coordinates": [[2.2905684, 48.8851745], [2.2908346, 48.8849918]]}}, {"type": "Feature", "properties": {"highway": "footway", "footway": "sidewalk", "name": null, "surface": "asphalt", "lit": "yes", "length_m": 1.44, "type_element": "Way", "__fid": 16283}, "geometry": {"type": "LineString", "coordinates": [[2.2905704, 48.8859071], [2.2905736, 48.8859199]]}}, {"type": "Feature", "properties": {"highway": "footway", "footway": "crossing", "name": null, "surface": "asphalt", "lit": "yes", "length_m": 28.27, "type_element": "Way", "__fid": 16290}, "geometry": {"type": "LineString", "coordinates": [[2.2905736, 48.8859199], [2.2908205, 48.885895599999984], [2.2909525, 48.88587420000001]]}}, {"type": "Feature", "properties": {"highway": "footway", "footway": "sidewalk", "name": null, "surface": "asphalt", "lit": "yes", "length_m": 19.98, "type_element": "Way", "__fid": 16306}, "geometry": {"type": "LineString", "coordinates": [[2.2906104, 48.88662079999998], [2.290629, 48.886676], [2.290652, 48.8867052], [2.2907022, 48.8867148], [2.2907868, 48.8867138]]}}, {"type": "Feature", "properties": {"highway": "footway", "footway": "sidewalk", "name": null, "surface": null, "lit": "yes", "length_m": 47.88, "type_element": "Way", "__fid": 16307}, "geometry": {"type": "LineString", "coordinates": [[2.2912629, 48.8866049], [2.2906104, 48.88662079999998]]}}, {"type": "Feature", "properties": {"highway": "footway", "footway": "sidewalk", "name": null, "surface": null, "lit": "yes", "length_m": 97.73, "type_element": "Way", "__fid": 16323}, "geometry": {"type": "LineString", "coordinates": [[2.2907938, 48.8839289], [2.2908017, 48.8838869], [2.2907703, 48.883425299999985], [2.2907309, 48.883084], [2.2906948, 48.8830623]]}}, {"type": "Feature", "properties": {"highway": "footway", "footway": "crossing", "name": null, "surface": null, "lit": "yes", "length_m": 18.43, "type_element": "Way", "__fid": 16324}, "geometry": {"type": "LineString", "coordinates": [[2.2906948, 48.8830623], [2.2908357, 48.88293980000001], [2.2908522, 48.8829348]]}}]}