{"type": "FeatureCollection", "features": [{"type": "Feature", "properties": {"highway": "footway", "footway": "sidewalk", "name": null, "surface": "asphalt", "lit": "yes", "length_m": 66.99, "type_element": "Way", "__fid": 15940}, "geometry": {"type": "LineString", "coordinates": [[2.289812, 48.88848680000002], [2.2905387, 48.8888519]]}}, {"type": "Feature", "properties": {"highway": "footway", "footway": "crossing", "name": null, "surface": "asphalt", "lit": "yes", "length_m": 13.18, "type_element": "Way", "__fid": 16243}, "geometry": {"type": "LineString", "coordinates": [[2.2904259, 48.88894419999998], [2.2905387, 48.8888519]]}}, {"type": "Feature", "properties": {"highway": "footway", "footway": null, "name": "Promenade Bernard Lafray", "surface": "asphalt", "lit": "yes", "length_m": 215.17, "type_element": "Way", "__fid": 16254}, "geometry": {"type": "LineString", "coordinates": [[2.2904564, 48.8881067], [2.2908497, 48.8882128], [2.2910184, 48.8882924], [2.2914387, 48.8885357], [2.2915792, 48.8885826], [2.2916695, 48.8885978], [2.2917669, 48.888604], [2.2920453, 48.88859009999999], [2.2924115, 48.8887583], [2.2927308, 48.888965399999975], [2.292936, 48.889019300000015]]}}, {"type": "Feature", "properties": {"highway": "footway", "footway": "sidewalk", "name": null, "surface": "asphalt", "lit": "yes", "length_m": 19.66, "type_element": "Way", "__fid": 16292}, "geometry": {"type": "LineString", "coordinates": [[2.2905387, 48.8888519], [2.290752, 48.888959]]}}, {"type": "Feature", "properties": {"highway": "footway", "footway": "crossing", "name": null, "surface": "asphalt", "lit": "yes", "length_m": 12.38, "type_element": "Way", "__fid": 16340}, "geometry": {"type": "LineString", "coordinates": [[2.2906569, 48.889051], [2.290752, 48.888959]]}}]}