{"type": "FeatureCollection", "features": [{"type": "Feature", "properties": {"@id": "node/918205400", "amenity": "drinking_water", "description": "Fontaine Wallace", "fixme": "verifier la position", "fountain": "wallace", "source": "Eau de Paris", "wikimedia_commons": "File:Wallace fountain, Square de la Porte de la Plaine, Paris 24 December 2016.jpg", "type_element": "Fontaines à boire", "__fid": 227}, "geometry": {"type": "Point", "coordinates": [2.293632, 48.828539]}, "id": "node/918205400"}, {"type": "Feature", "geometry": {"type": "Point", "coordinates": [2.297962, 48.829537]}, "properties": {"id": 2506, "name": "Square des Périchaux", "categorie": "Parcs, jardins et bois", "photo_url": "https://cdn.paris.fr/eqpts-prod/2025/05/14/bc94b69573e86f2ede1ab4d14a1c5aab.jpg", "photo_credit": "Sonia Yassa/ Ville de Paris", "photo_alt": null, "address_street": "121, boulevard Lefebvre", "address_postcode": "75015", "address_city": "PARIS", "phone": null, "accessibility": "{\"handicaps\": [{\"name\": \"Personnes à mobilité réduite\", \"status\": \"accessible\"}, {\"name\": \"Personnes déficientes visuelles\", \"status\": \"undefined\"}, {\"name\": \"Personnes déficientes auditives\", \"status\": \"undefined\"}, {\"name\": \"Personnes déficientes mentales\", \"status\": \"undefined\"}, {\"name\": \"Accueil en langue des signes\", \"status\": \"undefined\"}]}", "latitude": 48.829537, "longitude": 2.297962, "url": "https://www.paris.fr/lieux/square-des-perichaux-2506", "type_element": "Parcs, Jardins et Bois", "__fid": 1176}}, {"type": "Feature", "geometry": {"type": "Point", "coordinates": [2.298717, 48.828924]}, "properties": {"id": 2508, "name": "Square du docteur Calmette", "categorie": "Parcs, jardins et bois", "photo_url": "https://cdn.paris.fr/eqpts-prod/2025/05/14/90ef13c87bb545156974f2686b99a7ce.jpg", "photo_credit": "Sonia Yassa / Ville de Paris", "photo_alt": null, "address_street": "2, rue Jean-Sicard", "address_postcode": "75015", "address_city": "PARIS", "phone": null, "accessibility": "{\"handicaps\": [{\"name\": \"Personnes à mobilité réduite\", \"status\": \"accessible\"}, {\"name\": \"Personnes déficientes visuelles\", \"status\": \"undefined\"}, {\"name\": \"Personnes déficientes auditives\", \"status\": \"undefined\"}, {\"name\": \"Personnes déficientes mentales\", \"status\": \"undefined\"}, {\"name\": \"Accueil en langue des signes\", \"status\": \"undefined\"}]}", "latitude": 48.828924, "longitude": 2.298717, "url": "https://www.paris.fr/lieux/square-du-docteur-calmette-2508", "type_element": "Parcs, Jardins et Bois", "__fid": 1378}}, {"type": "Feature", "geometry": {"type": "Point", "coordinates": [2.296734, 48.828438]}, "properties": {"id": 2869, "name": "Jardin d'immeubles Albert Bartholomé", "categorie": "Parcs, jardins et bois", "photo_url": "https://cdn.paris.fr/eqpts-prod/2025/05/15/9c93b675b611d656f3ebd646b33abe83.jpg", "photo_credit": "Sonia Yassa / Ville de Paris", "photo_alt": null, "address_street": "Avenue Albert-Bartholomé", "address_postcode": "75015", "address_city": "PARIS", "phone": null, "accessibility": "{\"handicaps\": [{\"name\": \"Personnes à mobilité réduite\", \"status\": \"accessible\"}, {\"name\": \"Personnes déficientes visuelles\", \"status\": \"undefined\"}, {\"name\": \"Personnes déficientes auditives\", \"status\": \"undefined\"}, {\"name\": \"Personnes déficientes mentales\", \"status\": \"undefined\"}, {\"name\": \"Accueil en langue des signes\", \"status\": \"undefined\"}]}", "latitude": 48.828438, "longitude": 2.296734, "url": "https://www.paris.fr/lieux/jardin-d-immeubles-albert-bartholome-2869", "type_element": "Parcs, Jardins et Bois", "__fid": 1606}}, {"type": "Feature", "geometry": {"type": "Point", "coordinates": [2.298682, 48.827937]}, "properties": {"id": 2870, "name": "Square de la Porte de la Plaine", "categorie": "Parcs, jardins et bois", "photo_url": "https://cdn.paris.fr/eqpts-prod/2025/05/15/9f114e0cfe59e77c5c047f0a15301c7c.jpg", "photo_credit": "Antoine Polez / Ville de Paris", "photo_alt": null, "address_street": "avenue Albert-Bartholomé", "address_postcode": "75015", "address_city": "PARIS", "phone": null, "accessibility": "{\"handicaps\": [{\"name\": \"Personnes à mobilité réduite\", \"status\": \"accessible\"}, {\"name\": \"Personnes déficientes visuelles\", \"status\": \"undefined\"}, {\"name\": \"Personnes déficientes auditives\", \"status\": \"undefined\"}, {\"name\": \"Personnes déficientes mentales\", \"status\": \"undefined\"}, {\"name\": \"Accueil en langue des signes\", \"status\": \"undefined\"}]}", "latitude": 48.827937, "longitude": 2.298682, "url": "https://www.paris.fr/lieux/square-de-la-porte-de-la-plaine-2870", "type_element": "Parcs, Jardins et Bois", "__fid": 1622}}, {"type": "Feature", "geometry": {"type": "Point", "coordinates": [2.293328, 48.828033]}, "properties": {"id": 2937, "name": "Piscine La Plaine", "categorie": "Piscines", "photo_url": "https://cdn.paris.fr/eqpts-prod/2023/07/05/8278b9af31f43393a45d2948701e6be1.jpg", "photo_credit": null, "photo_alt": null, "address_street": "13, rue du Général Guillaumat", "address_postcode": "75015", "address_city": "PARIS", "phone": "0145323400", "accessibility": "{\"handicaps\": [{\"name\": \"Personnes à mobilité réduite\", \"status\": \"accessible\"}, {\"name\": \"Personnes déficientes visuelles\", \"status\": \"accessible\"}, {\"name\": \"Personnes déficientes auditives\", \"status\": \"accessible\"}, {\"name\": \"Personnes déficientes mentales\", \"status\": \"accessible\"}, {\"name\": \"Accueil en langue des signes\", \"status\": \"non_accessible\"}]}", "latitude": 48.828033, "longitude": 2.293328, "url": "https://www.paris.fr/lieux/piscine-la-plaine-2937", "type_element": "Piscines", "__fid": 1671}}, {"type": "Feature", "properties": {"highway": "footway", "footway": "sidewalk", "name": null, "surface": null, "lit": "yes", "length_m": 234.96, "type_element": "Way", "__fid": 15563}, "geometry": {"type": "LineString", "coordinates": [[2.2919338, 48.8272993], [2.2918353, 48.8272637], [2.2916428, 48.8272364], [2.2913315, 48.8272504], [2.2910947, 48.8272762], [2.2909833, 48.8272773], [2.2908712, 48.8272594], [2.2907569, 48.827224399999984], [2.2906274, 48.8271626], [2.2905123, 48.8270668], [2.2904315, 48.8269783], [2.2898545, 48.8260857], [2.2898562, 48.8260758]]}}, {"type": "Feature", "properties": {"highway": "pedestrian", "footway": null, "name": null, "surface": null, "lit": "yes", "length_m": 317.43, "type_element": "Way", "__fid": 15669}, "geometry": {"type": "LineString", "coordinates": [[2.2900218, 48.8305172], [2.2900198, 48.83037619999998], [2.2900342, 48.8303075], [2.2900701, 48.8302637], [2.2901033, 48.8301777], [2.2900834, 48.8300778], [2.2900826, 48.8299836], [2.2900647, 48.8298607], [2.2900797, 48.82946640000003], [2.2900742, 48.8289715], [2.2900917, 48.8287491], [2.2901421, 48.8286737], [2.2902722, 48.8285779], [2.2903624, 48.8285709], [2.2906641, 48.8283836], [2.2910436, 48.828238], [2.2913982, 48.82818009999998]]}}, {"type": "Feature", "properties": {"highway": "service", "footway": null, "name": null, "surface": null, "lit": "yes", "length_m": 87.82, "type_element": "Way", "__fid": 15868}, "geometry": {"type": "LineString", "coordinates": [[2.2915862, 48.8274884], [2.2914851, 48.8275249], [2.2911779, 48.8275949], [2.2906829, 48.8277674], [2.2906195, 48.82777380000001], [2.29048737260372, 48.82777167851408]]}}, {"type": "Feature", "properties": {"highway": "service", "footway": null, "name": null, "surface": null, "lit": "yes", "length_m": 220.22, "type_element": "Way", "__fid": 16301}, "geometry": {"type": "LineString", "coordinates": [[2.291364910355652, 48.83011968561378], [2.2914809, 48.8299306], [2.2915189, 48.8297994], [2.2915265, 48.82928169999999], [2.2915185, 48.8283021], [2.2913982, 48.82818009999998]]}}, {"type": "Feature", "properties": {"highway": "service", "footway": null, "name": null, "surface": null, "lit": "yes", "length_m": 62.14, "type_element": "Way", "__fid": 16303}, "geometry": {"type": "LineString", "coordinates": [[2.2913982, 48.82818009999998], [2.2921337, 48.8279036]]}}, {"type": "Feature", "properties": {"highway": "service", "footway": null, "name": null, "surface": null, "lit": "yes", "length_m": 25.82, "type_element": "Way", "__fid": 16397}, "geometry": {"type": "LineString", "coordinates": [[2.291937, 48.8275054], [2.2915862, 48.8274884]]}}, {"type": "Feature", "properties": {"highway": "service", "footway": null, "name": null, "surface": null, "lit": "yes", "length_m": 76.76, "type_element": "Way", "__fid": 16398}, "geometry": {"type": "LineString", "coordinates": [[2.2915862, 48.8274884], [2.2912489, 48.8274528], [2.2915971, 48.8274196], [2.2919272, 48.82733850000001]]}}, {"type": "Feature", "properties": {"highway": "service", "footway": null, "name": null, "surface": null, "lit": "yes", "length_m": 37.52, "type_element": "Way", "__fid": 16452}, "geometry": {"type": "LineString", "coordinates": [[2.2921172, 48.8278229], [2.2916597, 48.8279733]]}}, {"type": "Feature", "properties": {"highway": "footway", "footway": "sidewalk", "name": null, "surface": null, "lit": "yes", "length_m": 18.57, "type_element": "Way", "__fid": 16611}, "geometry": {"type": "LineString", "coordinates": [[2.291937, 48.8275054], [2.2919272, 48.82733850000001]]}}, {"type": "Feature", "properties": {"highway": "footway", "footway": "sidewalk", "name": null, "surface": null, "lit": "yes", "length_m": 4.39, "type_element": "Way", "__fid": 16612}, "geometry": {"type": "LineString", "coordinates": [[2.2919272, 48.82733850000001], [2.2919338, 48.8272993]]}}, {"type": "Feature", "properties": {"highway": "service", "footway": null, "name": null, "surface": null, "lit": "yes", "length_m": 24.13, "type_element": "Way", "__fid": 16613}, "geometry": {"type": "LineString", "coordinates": [[2.2919272, 48.82733850000001], [2.2922354, 48.827263]]}}, {"type": "Feature", "properties": {"highway": "footway", "footway": "crossing", "name": null, "surface": null, "lit": "yes", "length_m": 6.75, "type_element": "Way", "__fid": 16616}, "geometry": {"type": "LineString", "coordinates": [[2.2919338, 48.8272993], [2.2919674, 48.8272428]]}}, {"type": "Feature", "properties": {"highway": "service", "footway": null, "name": null, "surface": null, "lit": "yes", "length_m": 13.53, "type_element": "Way", "__fid": 16619}, "geometry": {"type": "LineString", "coordinates": [[2.2921208, 48.8275143], [2.291937, 48.8275054]]}}, {"type": "Feature", "properties": {"highway": "footway", "footway": "sidewalk", "name": null, "surface": null, "lit": "yes", "length_m": 37.99, "type_element": "Way", "__fid": 16620}, "geometry": {"type": "LineString", "coordinates": [[2.2921172, 48.8278229], [2.2921075, 48.8277931], [2.2919626, 48.827595500000015], [2.291937, 48.8275054]]}}, {"type": "Feature", "properties": {"highway": "service", "footway": null, "name": null, "surface": null, "lit": "yes", "length_m": 34.52, "type_element": "Way", "__fid": 16723}, "geometry": {"type": "LineString", "coordinates": [[2.2921337, 48.8279036], [2.2923245, 48.8277899], [2.2921172, 48.8278229]]}}, {"type": "Feature", "properties": {"highway": "footway", "footway": "sidewalk", "name": null, "surface": null, "lit": "yes", "length_m": 18.31, "type_element": "Way", "__fid": 16741}, "geometry": {"type": "LineString", "coordinates": [[2.2921415, 48.8280682], [2.2921337, 48.8279036]]}}, {"type": "Feature", "properties": {"highway": "footway", "footway": "sidewalk", "name": null, "surface": null, "lit": "yes", "length_m": 144.6, "type_element": "Way", "__fid": 16742}, "geometry": {"type": "LineString", "coordinates": [[2.2921274, 48.8302805], [2.2921207, 48.82898010000002]]}}, {"type": "Feature", "properties": {"highway": "footway", "footway": "sidewalk", "name": null, "surface": null, "lit": "yes", "length_m": 101.41, "type_element": "Way", "__fid": 16743}, "geometry": {"type": "LineString", "coordinates": [[2.2921207, 48.82898010000002], [2.2921415, 48.8280682]]}}, {"type": "Feature", "properties": {"highway": "footway", "footway": "crossing", "name": null, "surface": null, "lit": "yes", "length_m": 28.89, "type_element": "Way", "__fid": 16744}, "geometry": {"type": "LineString", "coordinates": [[2.2921207, 48.82898010000002], [2.2925142, 48.8289763]]}}, {"type": "Feature", "properties": {"highway": "footway", "footway": "crossing", "name": "Avenue de la Porte de la Plaine", "surface": null, "lit": "yes", "length_m": 28.8, "type_element": "Way", "__fid": 16757}, "geometry": {"type": "LineString", "coordinates": [[2.2925337, 48.8280729], [2.2921415, 48.8280682]]}}, {"type": "Feature", "properties": {"highway": "footway", "footway": "sidewalk", "name": null, "surface": null, "lit": "yes", "length_m": 9.6, "type_element": "Way", "__fid": 16959}, "geometry": {"type": "LineString", "coordinates": [[2.292534, 48.82556550000001], [2.292553, 48.8256509]]}}, {"type": "Feature", "properties": {"highway": "footway", "footway": "sidewalk", "name": null, "surface": null, "lit": "yes", "length_m": 119.4, "type_element": "Way", "__fid": 16962}, "geometry": {"type": "LineString", "coordinates": [[2.2924671, 48.8306721], [2.2924893, 48.8296383], [2.2924984, 48.829598799999985]]}}, {"type": "Feature", "properties": {"highway": "footway", "footway": null, "name": null, "surface": null, "lit": "no", "length_m": 13.26, "type_element": "Way", "__fid": 16976}, "geometry": {"type": "LineString", "coordinates": [[2.2926836, 48.828814399999985], [2.2925925, 48.8288319], [2.2925068, 48.8288313]]}}, {"type": "Feature", "properties": {"highway": "footway", "footway": "sidewalk", "name": "Avenue de la Porte de la Plaine", "surface": "asphalt", "lit": "yes", "length_m": 16.13, "type_element": "Way", "__fid": 16977}, "geometry": {"type": "LineString", "coordinates": [[2.2925142, 48.8289763], [2.2925068, 48.8288313]]}}, {"type": "Feature", "properties": {"highway": "footway", "footway": "sidewalk", "name": "Avenue de la Porte de la Plaine", "surface": "asphalt", "lit": "yes", "length_m": 84.35, "type_element": "Way", "__fid": 16978}, "geometry": {"type": "LineString", "coordinates": [[2.2925068, 48.8288313], [2.2925337, 48.8280729]]}}, {"type": "Feature", "properties": {"highway": "footway", "footway": "traffic_island", "name": null, "surface": null, "lit": "yes", "length_m": 70.21, "type_element": "Way", "__fid": 16979}, "geometry": {"type": "LineString", "coordinates": [[2.2925142, 48.8289763], [2.2925204, 48.8291009], [2.2925034, 48.82911940000002], [2.2925037, 48.8292502], [2.2924741, 48.8294255], [2.2924817, 48.8295878], [2.2924984, 48.829598799999985]]}}, {"type": "Feature", "properties": {"highway": "footway", "footway": "sidewalk", "name": null, "surface": null, "lit": "yes", "length_m": 63.93, "type_element": "Way", "__fid": 16980}, "geometry": {"type": "LineString", "coordinates": [[2.2924984, 48.829598799999985], [2.2930553, 48.8292467], [2.2931546, 48.82925270000001]]}}, {"type": "Feature", "properties": {"highway": "footway", "footway": "sidewalk", "name": null, "surface": null, "lit": "yes", "length_m": 153.2, "type_element": "Way", "__fid": 16981}, "geometry": {"type": "LineString", "coordinates": [[2.292553, 48.8256509], [2.2926346, 48.825685700000015], [2.2937154, 48.8267886]]}}, {"type": "Feature", "properties": {"highway": "footway", "footway": "sidewalk", "name": null, "surface": null, "lit": "yes", "length_m": 189.67, "type_element": "Way", "__fid": 16982}, "geometry": {"type": "LineString", "coordinates": [[2.292553, 48.8256509], [2.2925082, 48.8257114], [2.2924959, 48.825934], [2.2924512, 48.826308400000016], [2.2924169, 48.8270302], [2.2924623, 48.8270687], [2.2925036, 48.8270789], [2.2925563, 48.8270799], [2.2926309, 48.8270685], [2.2928483, 48.8270107]]}}, {"type": "Feature", "properties": {"highway": "footway", "footway": "sidewalk", "name": null, "surface": null, "lit": "yes", "length_m": 15.39, "type_element": "Way", "__fid": 16988}, "geometry": {"type": "LineString", "coordinates": [[2.2925337, 48.8280729], [2.2925524, 48.8280349], [2.292598, 48.8280076], [2.2926772, 48.82798289999999]]}}, {"type": "Feature", "properties": {"highway": "footway", "footway": "sidewalk", "name": null, "surface": null, "lit": "yes", "length_m": 4.92, "type_element": "Way", "__fid": 17057}, "geometry": {"type": "LineString", "coordinates": [[2.2926772, 48.82798289999999], [2.2927442, 48.8279837]]}}, {"type": "Feature", "properties": {"highway": "footway", "footway": null, "name": null, "surface": null, "lit": "no", "length_m": 62.09, "type_element": "Way", "__fid": 17058}, "geometry": {"type": "LineString", "coordinates": [[2.2926772, 48.82798289999999], [2.2929389, 48.8285139]]}}, {"type": "Feature", "properties": {"highway": "steps", "footway": null, "name": null, "surface": null, "lit": "no", "length_m": 10.14, "type_element": "Way", "__fid": 17067}, "geometry": {"type": "LineString", "coordinates": [[2.2927842, 48.828831], [2.2926973, 48.82884520000001], [2.2926836, 48.828814399999985]]}}, {"type": "Feature", "properties": {"highway": "steps", "footway": null, "name": null, "surface": null, "lit": "no", "length_m": 10.48, "type_element": "Way", "__fid": 17068}, "geometry": {"type": "LineString", "coordinates": [[2.2926836, 48.828814399999985], [2.2926651, 48.8287726], [2.2927387, 48.828758]]}}, {"type": "Feature", "properties": {"highway": "footway", "footway": "sidewalk", "name": "Rue du Général Guillaumat", "surface": "asphalt", "lit": "yes", "length_m": 91.95, "type_element": "Way", "__fid": 17105}, "geometry": {"type": "LineString", "coordinates": [[2.2927442, 48.8279837], [2.2927841, 48.8280056], [2.2935288, 48.8286274]]}}, {"type": "Feature", "properties": {"highway": "footway", "footway": "crossing", "name": null, "surface": "asphalt", "lit": "yes", "length_m": 30.37, "type_element": "Way", "__fid": 17106}, "geometry": {"type": "LineString", "coordinates": [[2.2927442, 48.8279837], [2.2930618, 48.8278087]]}}, {"type": "Feature", "properties": {"highway": "footway", "footway": null, "name": null, "surface": null, "lit": "no", "length_m": 4.49, "type_element": "Way", "__fid": 17109}, "geometry": {"type": "LineString", "coordinates": [[2.2927387, 48.828758], [2.292758, 48.8287963]]}}, {"type": "Feature", "properties": {"highway": "footway", "footway": null, "name": null, "surface": null, "lit": "no", "length_m": 33.14, "type_element": "Way", "__fid": 17110}, "geometry": {"type": "LineString", "coordinates": [[2.2929389, 48.8285139], [2.2928338, 48.8285575], [2.2927815, 48.8286068], [2.292733, 48.8287182], [2.2927387, 48.828758]]}}, {"type": "Feature", "properties": {"highway": "footway", "footway": null, "name": null, "surface": null, "lit": "no", "length_m": 4.31, "type_element": "Way", "__fid": 17121}, "geometry": {"type": "LineString", "coordinates": [[2.292758, 48.8287963], [2.2927842, 48.828831]]}}, {"type": "Feature", "properties": {"highway": "steps", "footway": null, "name": null, "surface": null, "lit": "no", "length_m": 11.2, "type_element": "Way", "__fid": 17122}, "geometry": {"type": "LineString", "coordinates": [[2.292758, 48.8287963], [2.2929029, 48.8287649]]}}, {"type": "Feature", "properties": {"highway": "footway", "footway": null, "name": null, "surface": null, "lit": "no", "length_m": 22.35, "type_element": "Way", "__fid": 17134}, "geometry": {"type": "LineString", "coordinates": [[2.2927842, 48.828831], [2.2928066, 48.8288602], [2.2929451, 48.828956800000014], [2.2929625, 48.8289901]]}}, {"type": "Feature", "properties": {"highway": "footway", "footway": "sidewalk", "name": null, "surface": "asphalt", "lit": "yes", "length_m": 94.43, "type_element": "Way", "__fid": 17163}, "geometry": {"type": "LineString", "coordinates": [[2.2930618, 48.8278087], [2.2930865, 48.82777650000001], [2.2931647, 48.8275701], [2.293158, 48.827527], [2.2931041, 48.827453], [2.2930727, 48.827426], [2.2928483, 48.8270107]]}}, {"type": "Feature", "properties": {"highway": "footway", "footway": "sidewalk", "name": null, "surface": null, "lit": "yes", "length_m": 68.28, "type_element": "Way", "__fid": 17164}, "geometry": {"type": "LineString", "coordinates": [[2.2928483, 48.8270107], [2.2937154, 48.8267886]]}}, {"type": "Feature", "properties": {"highway": "footway", "footway": null, "name": null, "surface": null, "lit": "no", "length_m": 36.53, "type_element": "Way", "__fid": 17210}, "geometry": {"type": "LineString", "coordinates": [[2.2929029, 48.8287649], [2.2929528, 48.8288107], [2.2929971, 48.828828], [2.2930475, 48.82883540000001], [2.2930989, 48.8288321], [2.2931461, 48.8288184], [2.2931844, 48.828795700000015], [2.2932101, 48.8287662], [2.2932206, 48.828733], [2.2932148, 48.8286992]]}}, {"type": "Feature", "properties": {"highway": "footway", "footway": null, "name": null, "surface": null, "lit": "no", "length_m": 18.21, "type_element": "Way", "__fid": 17211}, "geometry": {"type": "LineString", "coordinates": [[2.2929954, 48.8286284], [2.2929554, 48.82864390000001], [2.2929026, 48.82869339999998], [2.2928938, 48.8287179], [2.2929029, 48.8287649]]}}, {"type": "Feature", "properties": {"highway": "footway", "footway": null, "name": null, "surface": null, "lit": "no", "length_m": 13.39, "type_element": "Way", "__fid": 17229}, "geometry": {"type": "LineString", "coordinates": [[2.2929389, 48.8285139], [2.2929954, 48.8286284]]}}, {"type": "Feature", "properties": {"highway": "footway", "footway": null, "name": null, "surface": null, "lit": "no", "length_m": 38.1, "type_element": "Way", "__fid": 17230}, "geometry": {"type": "LineString", "coordinates": [[2.2933427, 48.82867150000001], [2.293302, 48.8286142], [2.2932271, 48.8285618], [2.2931593, 48.8285264], [2.2930916, 48.828508], [2.2930278, 48.8285037], [2.2929389, 48.8285139]]}}, {"type": "Feature", "properties": {"highway": "footway", "footway": null, "name": null, "surface": null, "lit": "yes", "length_m": 18.71, "type_element": "Way", "__fid": 17249}, "geometry": {"type": "LineString", "coordinates": [[2.2929625, 48.8289901], [2.293033, 48.8291518]]}}, {"type": "Feature", "properties": {"highway": "footway", "footway": null, "name": null, "surface": null, "lit": "no", "length_m": 30.18, "type_element": "Way", "__fid": 17250}, "geometry": {"type": "LineString", "coordinates": [[2.2929625, 48.8289901], [2.2933562, 48.828912]]}}, {"type": "Feature", "properties": {"highway": "footway", "footway": null, "name": null, "surface": null, "lit": "no", "length_m": 20.15, "type_element": "Way", "__fid": 17278}, "geometry": {"type": "LineString", "coordinates": [[2.2932148, 48.8286992], [2.2931915, 48.8286665], [2.2931529, 48.8286407], [2.2931036, 48.8286248], [2.293049, 48.8286205], [2.2929954, 48.8286284]]}}, {"type": "Feature", "properties": {"highway": "footway", "footway": "sidewalk", "name": null, "surface": null, "lit": "yes", "length_m": 289.54, "type_element": "Way", "__fid": 17282}, "geometry": {"type": "LineString", "coordinates": [[2.2930584, 48.8253451], [2.2927479, 48.8254038], [2.2927063, 48.82542260000001], [2.292682, 48.8254575], [2.2926787, 48.825491], [2.2927031, 48.8255455], [2.2927872, 48.825641200000014], [2.2931593, 48.826007799999985], [2.2938823, 48.8267444], [2.2939053, 48.8267587], [2.2939398, 48.8267584], [2.2940658, 48.8267254], [2.2950235, 48.826517]]}}, {"type": "Feature", "properties": {"highway": "footway", "footway": "sidewalk", "name": null, "surface": "asphalt", "lit": "yes", "length_m": 74.4, "type_element": "Way", "__fid": 17301}, "geometry": {"type": "LineString", "coordinates": [[2.2930618, 48.8278087], [2.2932471, 48.8280294], [2.2936375, 48.828356900000024]]}}, {"type": "Feature", "properties": {"highway": "footway", "footway": "sidewalk", "name": null, "surface": "asphalt", "lit": "yes", "length_m": 132.64, "type_element": "Way", "__fid": 17353}, "geometry": {"type": "LineString", "coordinates": [[2.2931546, 48.82925270000001], [2.2931835, 48.8292992], [2.2931842, 48.8304418]]}}, {"type": "Feature", "properties": {"highway": "footway", "footway": "crossing", "name": null, "surface": "concrete:plates", "lit": "yes", "length_m": 19.1, "type_element": "Way", "__fid": 17354}, "geometry": {"type": "LineString", "coordinates": [[2.2933842, 48.8291752], [2.2933606, 48.8291759], [2.2931546, 48.82925270000001]]}}, {"type": "Feature", "properties": {"highway": "steps", "footway": null, "name": null, "surface": null, "lit": "no", "length_m": 9.88, "type_element": "Way", "__fid": 17391}, "geometry": {"type": "LineString", "coordinates": [[2.2932148, 48.8286992], [2.2933427, 48.82867150000001]]}}, {"type": "Feature", "properties": {"highway": "footway", "footway": null, "name": null, "surface": null, "lit": "no", "length_m": 27.1, "type_element": "Way", "__fid": 17498}, "geometry": {"type": "LineString", "coordinates": [[2.2933562, 48.828912], [2.2933345, 48.8288389], [2.2933559, 48.8287731], [2.2933427, 48.82867150000001]]}}, {"type": "Feature", "properties": {"highway": "steps", "footway": null, "name": null, "surface": null, "lit": "no", "length_m": 9.79, "type_element": "Way", "__fid": 17499}, "geometry": {"type": "LineString", "coordinates": [[2.2933427, 48.82867150000001], [2.2934695, 48.8286442]]}}, {"type": "Feature", "properties": {"highway": "footway", "footway": "sidewalk", "name": null, "surface": "asphalt", "lit": "yes", "length_m": 138.92, "type_element": "Way", "__fid": 17515}, "geometry": {"type": "LineString", "coordinates": [[2.2933304, 48.8304172], [2.2933832, 48.8303385], [2.2933842, 48.8291752]]}}, {"type": "Feature", "properties": {"highway": "footway", "footway": null, "name": null, "surface": null, "lit": "yes", "length_m": 25.28, "type_element": "Way", "__fid": 17522}, "geometry": {"type": "LineString", "coordinates": [[2.2933562, 48.828912], [2.2934336, 48.8291335]]}}, {"type": "Feature", "properties": {"highway": "footway", "footway": null, "name": null, "surface": null, "lit": "no", "length_m": 37.74, "type_element": "Way", "__fid": 17523}, "geometry": {"type": "LineString", "coordinates": [[2.2934695, 48.8286442], [2.2935385, 48.8287726], [2.2935212, 48.82884050000002], [2.2934907, 48.828868700000015], [2.2934487, 48.828889100000026], [2.2933562, 48.828912]]}}, {"type": "Feature", "properties": {"highway": "footway", "footway": "sidewalk", "name": null, "surface": "asphalt", "lit": "yes", "length_m": 5.89, "type_element": "Way", "__fid": 17544}, "geometry": {"type": "LineString", "coordinates": [[2.2933842, 48.8291752], [2.2934336, 48.8291335]]}}, {"type": "Feature", "properties": {"highway": "footway", "footway": "sidewalk", "name": null, "surface": "asphalt", "lit": "yes", "length_m": 44.22, "type_element": "Way", "__fid": 17560}, "geometry": {"type": "LineString", "coordinates": [[2.2934336, 48.8291335], [2.2934636, 48.8291215], [2.2940118, 48.8290252]]}}, {"type": "Feature", "properties": {"highway": "footway", "footway": null, "name": null, "surface": "asphalt", "lit": "no", "length_m": 4.74, "type_element": "Way", "__fid": 17579}, "geometry": {"type": "LineString", "coordinates": [[2.2934695, 48.8286442], [2.2935288, 48.8286274]]}}, {"type": "Feature", "properties": {"highway": "service", "footway": null, "name": null, "surface": null, "lit": "yes", "length_m": 11.49, "type_element": "Way", "__fid": 17605}, "geometry": {"type": "LineString", "coordinates": [[2.2936375, 48.828356900000024], [2.293512, 48.8284186]]}}, {"type": "Feature", "properties": {"highway": "footway", "footway": "sidewalk", "name": "Rue du Général Guillaumat", "surface": "asphalt", "lit": "yes", "length_m": 35.16, "type_element": "Way", "__fid": 17621}, "geometry": {"type": "LineString", "coordinates": [[2.2935288, 48.8286274], [2.293685, 48.8287628], [2.2936977, 48.8288419], [2.29378, 48.828880099999985]]}}, {"type": "Feature", "properties": {"highway": "footway", "footway": null, "name": null, "surface": "asphalt", "lit": "no", "length_m": 13.61, "type_element": "Way", "__fid": 17622}, "geometry": {"type": "LineString", "coordinates": [[2.2935288, 48.8286274], [2.2936851, 48.828561599999986]]}}, {"type": "Feature", "properties": {"highway": "footway", "footway": "sidewalk", "name": null, "surface": "asphalt", "lit": "yes", "length_m": 57.29, "type_element": "Way", "__fid": 17690}, "geometry": {"type": "LineString", "coordinates": [[2.2936375, 48.828356900000024], [2.2940554, 48.82870590000002], [2.2941501, 48.8287382]]}}, {"type": "Feature", "properties": {"highway": "service", "footway": null, "name": null, "surface": null, "lit": "yes", "length_m": 30.34, "type_element": "Way", "__fid": 17691}, "geometry": {"type": "LineString", "coordinates": [[2.2939837, 48.8282084], [2.2937986, 48.8282805], [2.2936375, 48.828356900000024]]}}, {"type": "Feature", "properties": {"highway": "footway", "footway": "sidewalk", "name": null, "surface": null, "lit": "yes", "length_m": 268.81, "type_element": "Way", "__fid": 17725}, "geometry": {"type": "LineString", "coordinates": [[2.2937154, 48.8267886], [2.293723, 48.8268264], [2.2937915, 48.8269132], [2.2969203, 48.8261964], [2.2968745, 48.8261065]]}}, {"type": "Feature", "properties": {"highway": "footway", "footway": "sidewalk", "name": null, "surface": null, "lit": "yes", "length_m": 3.02, "type_element": "Way", "__fid": 17726}, "geometry": {"type": "LineString", "coordinates": [[2.2937154, 48.8267886], [2.2937461, 48.8267705]]}}, {"type": "Feature", "properties": {"highway": "footway", "footway": "crossing", "name": "Rue du Général Guillaumat", "surface": "asphalt", "lit": "yes", "length_m": 27.37, "type_element": "Way", "__fid": 17789}, "geometry": {"type": "LineString", "coordinates": [[2.29378, 48.828880099999985], [2.2940465, 48.829009700000015], [2.2940118, 48.8290252]]}}, {"type": "Feature", "properties": {"highway": "footway", "footway": "crossing", "name": null, "surface": null, "lit": "yes", "length_m": 31.85, "type_element": "Way", "__fid": 17790}, "geometry": {"type": "LineString", "coordinates": [[2.29378, 48.828880099999985], [2.2938426, 48.8288364], [2.2940818, 48.8287687], [2.2941501, 48.8287382]]}}, {"type": "Feature", "properties": {"highway": "service", "footway": null, "name": null, "surface": null, "lit": "yes", "length_m": 89.14, "type_element": "Way", "__fid": 17900}, "geometry": {"type": "LineString", "coordinates": [[2.2939837, 48.8282084], [2.2939546, 48.828091], [2.2943924, 48.8280464], [2.2944105, 48.8281444], [2.2940639, 48.8281806], [2.2939837, 48.8282084]]}}, {"type": "Feature", "properties": {"highway": "footway", "footway": null, "name": null, "surface": null, "lit": "yes", "length_m": 16.0, "type_element": "Way", "__fid": 17919}, "geometry": {"type": "LineString", "coordinates": [[2.2940118, 48.8290252], [2.2939794, 48.829039700000024], [2.2940098, 48.829156]]}}, {"type": "Feature", "properties": {"highway": "footway", "footway": null, "name": null, "surface": null, "lit": "no", "length_m": 29.48, "type_element": "Way", "__fid": 17920}, "geometry": {"type": "LineString", "coordinates": [[2.2940098, 48.829156], [2.2940885, 48.829156], [2.294168, 48.8291655], [2.2942298, 48.8291891], [2.2942672, 48.8292364], [2.2942805, 48.8292951]]}}, {"type": "Feature", "properties": {"highway": "footway", "footway": "sidewalk", "name": null, "surface": "asphalt", "lit": "yes", "length_m": 26.53, "type_element": "Way", "__fid": 17921}, "geometry": {"type": "LineString", "coordinates": [[2.2940118, 48.8290252], [2.2941089, 48.8290163], [2.2942542, 48.8290733], [2.2943209, 48.829117300000014]]}}, {"type": "Feature", "properties": {"highway": "footway", "footway": "sidewalk", "name": null, "surface": "asphalt", "lit": "yes", "length_m": 15.7, "type_element": "Way", "__fid": 17999}, "geometry": {"type": "LineString", "coordinates": [[2.2941501, 48.8287382], [2.2943525, 48.8287838]]}}, {"type": "Feature", "properties": {"highway": "footway", "footway": null, "name": null, "surface": null, "lit": "no", "length_m": 17.27, "type_element": "Way", "__fid": 18084}, "geometry": {"type": "LineString", "coordinates": [[2.2944476, 48.8291858], [2.2942805, 48.8292951]]}}, {"type": "Feature", "properties": {"highway": "footway", "footway": "sidewalk", "name": null, "surface": "asphalt", "lit": "yes", "length_m": 12.02, "type_element": "Way", "__fid": 18093}, "geometry": {"type": "LineString", "coordinates": [[2.2943209, 48.829117300000014], [2.2944476, 48.8291858]]}}, {"type": "Feature", "properties": {"highway": "footway", "footway": "crossing", "name": null, "surface": "asphalt", "lit": "yes", "length_m": 20.32, "type_element": "Way", "__fid": 18094}, "geometry": {"type": "LineString", "coordinates": [[2.2943209, 48.829117300000014], [2.2945123, 48.8290335], [2.294559, 48.8290294]]}}, {"type": "Feature", "properties": {"highway": "footway", "footway": "sidewalk", "name": null, "surface": "asphalt", "lit": "yes", "length_m": 7.73, "type_element": "Way", "__fid": 18112}, "geometry": {"type": "LineString", "coordinates": [[2.2943525, 48.8287838], [2.2944501, 48.82881]]}}, {"type": "Feature", "properties": {"highway": "service", "footway": null, "name": null, "surface": null, "lit": "yes", "length_m": 13.45, "type_element": "Way", "__fid": 18113}, "geometry": {"type": "LineString", "coordinates": [[2.2943525, 48.8287838], [2.2943803, 48.82890339999999]]}}, {"type": "Feature", "properties": {"highway": "service", "footway": null, "name": null, "surface": null, "lit": "yes", "length_m": 78.08, "type_element": "Way", "__fid": 18114}, "geometry": {"type": "LineString", "coordinates": [[2.2945738, 48.8282729], [2.2942423, 48.828309], [2.2943525, 48.8287838]]}}, {"type": "Feature", "properties": {"highway": "footway", "footway": "crossing", "name": null, "surface": null, "lit": "yes", "length_m": 19.64, "type_element": "Way", "__fid": 18177}, "geometry": {"type": "LineString", "coordinates": [[2.2945875, 48.8289557], [2.2945527, 48.8289433], [2.2944563, 48.8288317], [2.2944501, 48.82881]]}}, {"type": "Feature", "properties": {"highway": "footway", "footway": "sidewalk", "name": null, "surface": null, "lit": "yes", "length_m": 18.85, "type_element": "Way", "__fid": 18178}, "geometry": {"type": "LineString", "coordinates": [[2.2944501, 48.82881], [2.2946978, 48.82876550000001]]}}, {"type": "Feature", "properties": {"highway": "footway", "footway": "sidewalk", "name": null, "surface": "asphalt", "lit": "yes", "length_m": 81.23, "type_element": "Way", "__fid": 18179}, "geometry": {"type": "LineString", "coordinates": [[2.2944476, 48.8291858], [2.2952944, 48.829656]]}}, {"type": "Feature", "properties": {"highway": "footway", "footway": "sidewalk", "name": null, "surface": "asphalt", "lit": "yes", "length_m": 85.88, "type_element": "Way", "__fid": 18252}, "geometry": {"type": "LineString", "coordinates": [[2.294559, 48.8290294], [2.2946443, 48.8290992], [2.295433866666755, 48.82954003333335]]}}, {"type": "Feature", "properties": {"highway": "footway", "footway": "sidewalk", "name": null, "surface": null, "lit": "yes", "length_m": 8.46, "type_element": "Way", "__fid": 18253}, "geometry": {"type": "LineString", "coordinates": [[2.294559, 48.8290294], [2.2945875, 48.8289557]]}}, {"type": "Feature", "properties": {"highway": "service", "footway": null, "name": "Square Albert Bartholomé", "surface": "asphalt", "lit": "yes", "length_m": 45.23, "type_element": "Way", "__fid": 18258}, "geometry": {"type": "LineString", "coordinates": [[2.2946749, 48.8286742], [2.2945738, 48.8282729]]}}, {"type": "Feature", "properties": {"highway": "service", "footway": null, "name": null, "surface": null, "lit": "yes", "length_m": 16.32, "type_element": "Way", "__fid": 18259}, "geometry": {"type": "LineString", "coordinates": [[2.294779, 48.828263800000016], [2.2947767, 48.8282526], [2.2945738, 48.8282729]]}}, {"type": "Feature", "properties": {"highway": "footway", "footway": "sidewalk", "name": null, "surface": null, "lit": "yes", "length_m": 78.25, "type_element": "Way", "__fid": 18269}, "geometry": {"type": "LineString", "coordinates": [[2.2956211, 48.8287837], [2.2945875, 48.8289557]]}}, {"type": "Feature", "properties": {"highway": "service", "footway": null, "name": "Square Albert Bartholomé", "surface": "asphalt", "lit": "yes", "length_m": 10.29, "type_element": "Way", "__fid": 18315}, "geometry": {"type": "LineString", "coordinates": [[2.2946978, 48.82876550000001], [2.2946749, 48.8286742]]}}, {"type": "Feature", "properties": {"highway": "service", "footway": null, "name": null, "surface": null, "lit": "yes", "length_m": 50.12, "type_element": "Way", "__fid": 18316}, "geometry": {"type": "LineString", "coordinates": [[2.2946749, 48.8286742], [2.2948363, 48.828543], [2.294779, 48.828263800000016]]}}, {"type": "Feature", "properties": {"highway": "service", "footway": null, "name": "Square Albert Bartholomé", "surface": "asphalt", "lit": "yes", "length_m": 10.13, "type_element": "Way", "__fid": 18325}, "geometry": {"type": "LineString", "coordinates": [[2.2947204, 48.8288554], [2.2946978, 48.82876550000001]]}}, {"type": "Feature", "properties": {"highway": "footway", "footway": "sidewalk", "name": null, "surface": null, "lit": "yes", "length_m": 24.27, "type_element": "Way", "__fid": 18326}, "geometry": {"type": "LineString", "coordinates": [[2.2946978, 48.82876550000001], [2.2950188, 48.82871319999999]]}}, {"type": "Feature", "properties": {"highway": "footway", "footway": null, "name": null, "surface": "compacted", "lit": "yes", "length_m": 17.71, "type_element": "Way", "__fid": 18363}, "geometry": {"type": "LineString", "coordinates": [[2.294779, 48.828263800000016], [2.2950158, 48.82823360000001]]}}, {"type": "Feature", "properties": {"highway": "service", "footway": null, "name": "Rue Louis Vicat", "surface": null, "lit": "yes", "length_m": 1.02, "type_element": "Way", "__fid": 18464}, "geometry": {"type": "LineString", "coordinates": [[2.2950122, 48.82651169999997], [2.2950235, 48.826517]]}}, {"type": "Feature", "properties": {"highway": "service", "footway": null, "name": "Rue Louis Vicat", "surface": null, "lit": "yes", "length_m": 8.12, "type_element": "Way", "__fid": 18475}, "geometry": {"type": "LineString", "coordinates": [[2.2950235, 48.826517], [2.2951147, 48.8265583]]}}, {"type": "Feature", "properties": {"highway": "footway", "footway": "sidewalk", "name": null, "surface": null, "lit": "yes", "length_m": 143.35, "type_element": "Way", "__fid": 18476}, "geometry": {"type": "LineString", "coordinates": [[2.2950235, 48.826517], [2.2968745, 48.8261065]]}}, {"type": "Feature", "properties": {"highway": "footway", "footway": null, "name": null, "surface": null, "lit": "yes", "length_m": 34.67, "type_element": "Way", "__fid": 18482}, "geometry": {"type": "LineString", "coordinates": [[2.2951068, 48.8285396], [2.2950158, 48.82823360000001]]}}, {"type": "Feature", "properties": {"highway": "footway", "footway": null, "name": null, "surface": "compacted", "lit": "yes", "length_m": 2.31, "type_element": "Way", "__fid": 18483}, "geometry": {"type": "LineString", "coordinates": [[2.2950158, 48.82823360000001], [2.295047, 48.8282312]]}}, {"type": "Feature", "properties": {"highway": "service", "footway": null, "name": null, "surface": null, "lit": "yes", "length_m": 11.14, "type_element": "Way", "__fid": 18491}, "geometry": {"type": "LineString", "coordinates": [[2.2950188, 48.82871319999999], [2.2950175, 48.8288134]]}}, {"type": "Feature", "properties": {"highway": "service", "footway": null, "name": null, "surface": null, "lit": "yes", "length_m": 22.36, "type_element": "Way", "__fid": 18492}, "geometry": {"type": "LineString", "coordinates": [[2.2951068, 48.8285396], [2.2950203, 48.8285852], [2.2950188, 48.82871319999999]]}}, {"type": "Feature", "properties": {"highway": "footway", "footway": "sidewalk", "name": null, "surface": null, "lit": "yes", "length_m": 45.29, "type_element": "Way", "__fid": 18493}, "geometry": {"type": "LineString", "coordinates": [[2.2950188, 48.82871319999999], [2.2956197, 48.8286211]]}}, {"type": "Feature", "properties": {"highway": "footway", "footway": null, "name": null, "surface": "compacted", "lit": "no", "length_m": 411.86, "type_element": "Way", "__fid": 18497}, "geometry": {"type": "LineString", "coordinates": [[2.295047, 48.8282312], [2.2950436, 48.8281997], [2.2950573, 48.8281855], [2.2958757, 48.8280994], [2.2961862, 48.8280592], [2.2963437, 48.8280036], [2.2964951, 48.8279175], [2.2966673, 48.8277729], [2.2967434, 48.8277366], [2.2968097, 48.8277175], [2.2974208, 48.8276411], [2.2983487, 48.8274403], [2.2985572, 48.82742750000002], [2.2986444, 48.827408099999985], [2.2987973, 48.82734940000001], [2.2988838, 48.8273251], [2.2991708, 48.8272633], [2.299199, 48.827265], [2.2992117, 48.8272823], [2.299211, 48.827311], [2.2991192, 48.8273882], [2.2988342, 48.82740629999998], [2.2987014, 48.8274319], [2.298339, 48.827481100000014], [2.2983473, 48.8275147]]}}, {"type": "Feature", "properties": {"highway": "footway", "footway": null, "name": null, "surface": "compacted", "lit": "yes", "length_m": 113.56, "type_element": "Way", "__fid": 18498}, "geometry": {"type": "LineString", "coordinates": [[2.295047, 48.8282312], [2.2951881, 48.8282239], [2.2954553, 48.8282318], [2.2957972, 48.8281685], [2.2960621, 48.8281651], [2.2964584, 48.828076], [2.2965568, 48.828068]]}}, {"type": "Feature", "properties": {"highway": "service", "footway": null, "name": null, "surface": null, "lit": "yes", "length_m": 103.51, "type_element": "Way", "__fid": 18542}, "geometry": {"type": "LineString", "coordinates": [[2.2964329, 48.8284259], [2.2964246, 48.8284061], [2.2963578, 48.8283757], [2.2963045, 48.8283661], [2.2952178, 48.828481199999985], [2.2951068, 48.8285396]]}}, {"type": "Feature", "properties": {"highway": "footway", "footway": "traffic_island", "name": null, "surface": null, "lit": "yes", "length_m": 16.52, "type_element": "Way", "__fid": 18660}, "geometry": {"type": "LineString", "coordinates": [[2.2952944, 48.829656], [2.2953269, 48.8296369], [2.295433866666755, 48.82954003333335]]}}, {"type": "Feature", "properties": {"highway": "footway", "footway": "sidewalk", "name": null, "surface": "asphalt", "lit": "yes", "length_m": 14.92, "type_element": "Way", "__fid": 18739}, "geometry": {"type": "LineString", "coordinates": [[2.295433866666755, 48.82954003333335], [2.2955383, 48.8295419], [2.2956177, 48.8295031]]}}, {"type": "Feature", "properties": {"highway": "footway", "footway": "crossing", "name": null, "surface": null, "lit": "yes", "length_m": 18.08, "type_element": "Way", "__fid": 18841}, "geometry": {"type": "LineString", "coordinates": [[2.2956197, 48.8286211], [2.2956211, 48.8287837]]}}, {"type": "Feature", "properties": {"highway": "footway", "footway": "sidewalk", "name": null, "surface": null, "lit": "yes", "length_m": 18.62, "type_element": "Way", "__fid": 18842}, "geometry": {"type": "LineString", "coordinates": [[2.2956197, 48.8286211], [2.2958665, 48.8285823]]}}, {"type": "Feature", "properties": {"highway": "footway", "footway": "sidewalk", "name": null, "surface": null, "lit": "yes", "length_m": 2.7, "type_element": "Way", "__fid": 18844}, "geometry": {"type": "LineString", "coordinates": [[2.2956569, 48.8287893], [2.2956211, 48.8287837]]}}, {"type": "Feature", "properties": {"highway": "footway", "footway": "crossing", "name": null, "surface": null, "lit": "yes", "length_m": 13.2, "type_element": "Way", "__fid": 18846}, "geometry": {"type": "LineString", "coordinates": [[2.2956177, 48.8295031], [2.2957967, 48.8295143]]}}, {"type": "Feature", "properties": {"highway": "footway", "footway": "sidewalk", "name": null, "surface": null, "lit": "yes", "length_m": 80.32, "type_element": "Way", "__fid": 18847}, "geometry": {"type": "LineString", "coordinates": [[2.2956177, 48.8295031], [2.295705, 48.82887159999998], [2.2956569, 48.8287893]]}}, {"type": "Feature", "properties": {"highway": "footway", "footway": "crossing", "name": null, "surface": null, "lit": "yes", "length_m": 19.73, "type_element": "Way", "__fid": 18867}, "geometry": {"type": "LineString", "coordinates": [[2.2956569, 48.8287893], [2.2959187, 48.8287493]]}}, {"type": "Feature", "properties": {"highway": "footway", "footway": "sidewalk", "name": null, "surface": "paving_stones", "lit": "yes", "length_m": 11.65, "type_element": "Way", "__fid": 18948}, "geometry": {"type": "LineString", "coordinates": [[2.2957949, 48.8296191], [2.2957967, 48.8295143]]}}, {"type": "Feature", "properties": {"highway": "footway", "footway": "sidewalk", "name": null, "surface": "paving_stones", "lit": "yes", "length_m": 12.28, "type_element": "Way", "__fid": 18949}, "geometry": {"type": "LineString", "coordinates": [[2.295961666666592, 48.82961056666667], [2.2957949, 48.8296191]]}}, {"type": "Feature", "properties": {"highway": "footway", "footway": "sidewalk", "name": null, "surface": null, "lit": "yes", "length_m": 85.53, "type_element": "Way", "__fid": 18950}, "geometry": {"type": "LineString", "coordinates": [[2.2957967, 48.8295143], [2.2959187, 48.8287493]]}}, {"type": "Feature", "properties": {"highway": "footway", "footway": "crossing", "name": null, "surface": null, "lit": "yes", "length_m": 19.0, "type_element": "Way", "__fid": 18985}, "geometry": {"type": "LineString", "coordinates": [[2.2959187, 48.8287493], [2.2958933, 48.8286423], [2.2958665, 48.8285823]]}}, {"type": "Feature", "properties": {"highway": "footway", "footway": "sidewalk", "name": null, "surface": null, "lit": "yes", "length_m": 45.2, "type_element": "Way", "__fid": 18986}, "geometry": {"type": "LineString", "coordinates": [[2.2958665, 48.8285823], [2.2961227, 48.82852789999998], [2.2964329, 48.8284259]]}}, {"type": "Feature", "properties": {"highway": "footway", "footway": "sidewalk", "name": null, "surface": null, "lit": "yes", "length_m": 52.12, "type_element": "Way", "__fid": 19017}, "geometry": {"type": "LineString", "coordinates": [[2.2959187, 48.8287493], [2.296573, 48.8285674]]}}, {"type": "Feature", "properties": {"highway": "footway", "footway": "crossing", "name": null, "surface": null, "lit": "yes", "length_m": 10.19, "type_element": "Way", "__fid": 19049}, "geometry": {"type": "LineString", "coordinates": [[2.295961666666592, 48.82961056666667], [2.2960074, 48.82969710000001]]}}, {"type": "Feature", "properties": {"highway": "footway", "footway": "sidewalk", "name": null, "surface": "paving_stones", "lit": "yes", "length_m": 82.92, "type_element": "Way", "__fid": 19050}, "geometry": {"type": "LineString", "coordinates": [[2.2970322, 48.8293728], [2.295961666666592, 48.82961056666667]]}}, {"type": "Feature", "properties": {"highway": "service", "footway": null, "name": null, "surface": null, "lit": "yes", "length_m": 11.66, "type_element": "Way", "__fid": 19385}, "geometry": {"type": "LineString", "coordinates": [[2.2964754, 48.8285269], [2.2964329, 48.8284259]]}}, {"type": "Feature", "properties": {"highway": "footway", "footway": "sidewalk", "name": null, "surface": null, "lit": "yes", "length_m": 3.39, "type_element": "Way", "__fid": 19386}, "geometry": {"type": "LineString", "coordinates": [[2.2964329, 48.8284259], [2.2964745, 48.8284127]]}}, {"type": "Feature", "properties": {"highway": "footway", "footway": "crossing", "name": null, "surface": "asphalt", "lit": "yes", "length_m": 18.71, "type_element": "Way", "__fid": 19415}, "geometry": {"type": "LineString", "coordinates": [[2.296573, 48.8285674], [2.2965007, 48.8284412], [2.2964745, 48.8284127]]}}, {"type": "Feature", "properties": {"highway": "footway", "footway": "sidewalk", "name": null, "surface": "asphalt", "lit": "yes", "length_m": 13.94, "type_element": "Way", "__fid": 19416}, "geometry": {"type": "LineString", "coordinates": [[2.2964745, 48.8284127], [2.2966441, 48.82835630000001]]}}, {"type": "Feature", "properties": {"highway": "footway", "footway": null, "name": null, "surface": "compacted", "lit": "yes", "length_m": 16.03, "type_element": "Way", "__fid": 19466}, "geometry": {"type": "LineString", "coordinates": [[2.2965933, 48.8282101], [2.2965568, 48.828068]]}}, {"type": "Feature", "properties": {"highway": "footway", "footway": null, "name": null, "surface": "compacted", "lit": "yes", "length_m": 147.96, "type_element": "Way", "__fid": 19467}, "geometry": {"type": "LineString", "coordinates": [[2.2965568, 48.828068], [2.2967031, 48.828047799999986], [2.2968541, 48.82800730000002], [2.2969911, 48.8279599], [2.2976265, 48.8276353], [2.2978283, 48.8275879], [2.2983473, 48.8275147]]}}, {"type": "Feature", "properties": {"highway": "footway", "footway": "sidewalk", "name": null, "surface": "asphalt", "lit": "yes", "length_m": 2.01, "type_element": "Way", "__fid": 19484}, "geometry": {"type": "LineString", "coordinates": [[2.296573, 48.8285674], [2.2965977, 48.8285753]]}}, {"type": "Feature", "properties": {"highway": "footway", "footway": null, "name": null, "surface": "compacted", "lit": "yes", "length_m": 51.43, "type_element": "Way", "__fid": 19491}, "geometry": {"type": "LineString", "coordinates": [[2.2965933, 48.8282101], [2.2967101, 48.828235], [2.2968008, 48.82823130000002], [2.2972493, 48.8281061]]}}, {"type": "Feature", "properties": {"highway": "footway", "footway": null, "name": null, "surface": "compacted", "lit": "yes", "length_m": 16.73, "type_element": "Way", "__fid": 19492}, "geometry": {"type": "LineString", "coordinates": [[2.2966441, 48.82835630000001], [2.296618, 48.8283063], [2.2965933, 48.8282101]]}}, {"type": "Feature", "properties": {"highway": "footway", "footway": "sidewalk", "name": null, "surface": "asphalt", "lit": "yes", "length_m": 94.53, "type_element": "Way", "__fid": 19496}, "geometry": {"type": "LineString", "coordinates": [[2.2970322, 48.8293728], [2.2966588, 48.8286334], [2.2965977, 48.8285753]]}}, {"type": "Feature", "properties": {"highway": "footway", "footway": "crossing", "name": null, "surface": "asphalt", "lit": "yes", "length_m": 16.44, "type_element": "Way", "__fid": 19497}, "geometry": {"type": "LineString", "coordinates": [[2.2965977, 48.8285753], [2.2968007, 48.828512900000014]]}}, {"type": "Feature", "properties": {"highway": "footway", "footway": "sidewalk", "name": null, "surface": "asphalt", "lit": "yes", "length_m": 5.43, "type_element": "Way", "__fid": 19521}, "geometry": {"type": "LineString", "coordinates": [[2.2966441, 48.82835630000001], [2.2967082, 48.828332]]}}, {"type": "Feature", "properties": {"highway": "footway", "footway": "crossing", "name": null, "surface": "asphalt", "lit": "yes", "length_m": 21.23, "type_element": "Way", "__fid": 19556}, "geometry": {"type": "LineString", "coordinates": [[2.2967082, 48.828332], [2.2968007, 48.828512900000014]]}}, {"type": "Feature", "properties": {"highway": "footway", "footway": "sidewalk", "name": null, "surface": null, "lit": "yes", "length_m": 148.49, "type_element": "Way", "__fid": 19557}, "geometry": {"type": "LineString", "coordinates": [[2.2967082, 48.828332], [2.2977664, 48.828019], [2.2982013, 48.8279251], [2.2985712, 48.82786870000002], [2.2985777, 48.8278853]]}}, {"type": "Feature", "properties": {"highway": "footway", "footway": "sidewalk", "name": null, "surface": "asphalt", "lit": "yes", "length_m": 20.55, "type_element": "Way", "__fid": 19632}, "geometry": {"type": "LineString", "coordinates": [[2.2968007, 48.828512900000014], [2.296886, 48.8286889]]}}, {"type": "Feature", "properties": {"highway": "footway", "footway": "sidewalk", "name": null, "surface": "asphalt", "lit": "yes", "length_m": 63.73, "type_element": "Way", "__fid": 19633}, "geometry": {"type": "LineString", "coordinates": [[2.2968007, 48.828512900000014], [2.2968868, 48.828448], [2.2975628, 48.8282534]]}}, {"type": "Feature", "properties": {"highway": "footway", "footway": "sidewalk", "name": null, "surface": "asphalt", "lit": "yes", "length_m": 72.52, "type_element": "Way", "__fid": 19644}, "geometry": {"type": "LineString", "coordinates": [[2.2977406, 48.829561], [2.2968041, 48.8297686]]}}, {"type": "Feature", "properties": {"highway": "footway", "footway": "sidewalk", "name": null, "surface": null, "lit": "yes", "length_m": 87.95, "type_element": "Way", "__fid": 19670}, "geometry": {"type": "LineString", "coordinates": [[2.2968745, 48.8261065], [2.2980122, 48.8258587]]}}, {"type": "Feature", "properties": {"highway": "footway", "footway": "sidewalk", "name": null, "surface": "asphalt", "lit": "yes", "length_m": 75.49, "type_element": "Way", "__fid": 19723}, "geometry": {"type": "LineString", "coordinates": [[2.296886, 48.8286889], [2.2972239, 48.8293301]]}}, {"type": "Feature", "properties": {"highway": "footway", "footway": null, "name": null, "surface": "concrete", "lit": "no", "length_m": 7.52, "type_element": "Way", "__fid": 19724}, "geometry": {"type": "LineString", "coordinates": [[2.296886, 48.8286889], [2.2969811, 48.8286637]]}}, {"type": "Feature", "properties": {"highway": "footway", "footway": null, "name": null, "surface": "concrete", "lit": "no", "length_m": 18.16, "type_element": "Way", "__fid": 19787}, "geometry": {"type": "LineString", "coordinates": [[2.2969811, 48.8286637], [2.297218, 48.8287108]]}}, {"type": "Feature", "properties": {"highway": "footway", "footway": null, "name": null, "surface": "concrete", "lit": "no", "length_m": 40.79, "type_element": "Way", "__fid": 19788}, "geometry": {"type": "LineString", "coordinates": [[2.2969811, 48.8286637], [2.297104, 48.828486], [2.297339, 48.828559]]}}, {"type": "Feature", "properties": {"highway": "footway", "footway": "crossing", "name": null, "surface": "concrete", "lit": "yes", "length_m": 14.85, "type_element": "Way", "__fid": 19807}, "geometry": {"type": "LineString", "coordinates": [[2.2970322, 48.8293728], [2.2972239, 48.8293301]]}}, {"type": "Feature", "properties": {"highway": "footway", "footway": null, "name": null, "surface": "concrete", "lit": "yes", "length_m": 73.32, "type_element": "Way", "__fid": 19923}, "geometry": {"type": "LineString", "coordinates": [[2.2972239, 48.8293301], [2.2972554, 48.8292676], [2.2973836, 48.8291012], [2.2973001, 48.8289476], [2.2972307, 48.8287863], [2.297218, 48.8287108]]}}, {"type": "Feature", "properties": {"highway": "footway", "footway": null, "name": null, "surface": "concrete", "lit": "yes", "length_m": 19.07, "type_element": "Way", "__fid": 19924}, "geometry": {"type": "LineString", "coordinates": [[2.297218, 48.8287108], [2.297339, 48.828559]]}}, {"type": "Feature", "properties": {"highway": "footway", "footway": "sidewalk", "name": null, "surface": null, "lit": "yes", "length_m": 118.71, "type_element": "Way", "__fid": 19932}, "geometry": {"type": "LineString", "coordinates": [[2.2987559, 48.8289885], [2.2972239, 48.8293301]]}}, {"type": "Feature", "properties": {"highway": "footway", "footway": null, "name": null, "surface": "concrete", "lit": "yes", "length_m": 8.12, "type_element": "Way", "__fid": 19999}, "geometry": {"type": "LineString", "coordinates": [[2.297339, 48.828559], [2.2974305, 48.8285179]]}}, {"type": "Feature", "properties": {"highway": "footway", "footway": null, "name": null, "surface": "concrete", "lit": "no", "length_m": 27.29, "type_element": "Way", "__fid": 20068}, "geometry": {"type": "LineString", "coordinates": [[2.2974305, 48.8285179], [2.297533, 48.8287538]]}}, {"type": "Feature", "properties": {"highway": "footway", "footway": null, "name": null, "surface": "concrete", "lit": "yes", "length_m": 15.76, "type_element": "Way", "__fid": 20069}, "geometry": {"type": "LineString", "coordinates": [[2.2974305, 48.8285179], [2.2976298, 48.82846519999999]]}}, {"type": "Feature", "properties": {"highway": "footway", "footway": null, "name": null, "surface": "concrete", "lit": "no", "length_m": 6.74, "type_element": "Way", "__fid": 20134}, "geometry": {"type": "LineString", "coordinates": [[2.2975288, 48.8281971], [2.2975628, 48.8282534]]}}, {"type": "Feature", "properties": {"highway": "footway", "footway": null, "name": null, "surface": "concrete", "lit": "no", "length_m": 7.16, "type_element": "Way", "__fid": 20142}, "geometry": {"type": "LineString", "coordinates": [[2.297533, 48.8287538], [2.2975599, 48.828815700000014]]}}, {"type": "Feature", "properties": {"highway": "footway", "footway": null, "name": null, "surface": "concrete", "lit": "no", "length_m": 24.57, "type_element": "Way", "__fid": 20143}, "geometry": {"type": "LineString", "coordinates": [[2.297533, 48.8287538], [2.2977446, 48.8285826]]}}, {"type": "Feature", "properties": {"highway": "footway", "footway": null, "name": null, "surface": "concrete", "lit": "no", "length_m": 16.79, "type_element": "Way", "__fid": 20158}, "geometry": {"type": "LineString", "coordinates": [[2.2975628, 48.8282534], [2.2976488, 48.8283933]]}}, {"type": "Feature", "properties": {"highway": "footway", "footway": "sidewalk", "name": null, "surface": "asphalt", "lit": "yes", "length_m": 58.29, "type_element": "Way", "__fid": 20159}, "geometry": {"type": "LineString", "coordinates": [[2.2975628, 48.8282534], [2.2980966, 48.828109], [2.2983113, 48.82808760000001]]}}, {"type": "Feature", "properties": {"highway": "footway", "footway": null, "name": null, "surface": "concrete", "lit": "no", "length_m": 59.24, "type_element": "Way", "__fid": 20164}, "geometry": {"type": "LineString", "coordinates": [[2.2975599, 48.828815700000014], [2.2977014, 48.8291414], [2.2979818, 48.8290837]]}}, {"type": "Feature", "properties": {"highway": "footway", "footway": null, "name": null, "surface": "concrete", "lit": "no", "length_m": 43.39, "type_element": "Way", "__fid": 20165}, "geometry": {"type": "LineString", "coordinates": [[2.2981222, 48.8286954], [2.2975599, 48.828815700000014]]}}, {"type": "Feature", "properties": {"highway": "footway", "footway": null, "name": null, "surface": "concrete", "lit": "no", "length_m": 9.27, "type_element": "Way", "__fid": 20199}, "geometry": {"type": "LineString", "coordinates": [[2.2976298, 48.82846519999999], [2.297617, 48.828422799999984], [2.2976264, 48.82839950000001], [2.2976488, 48.8283933]]}}, {"type": "Feature", "properties": {"highway": "footway", "footway": null, "name": null, "surface": "concrete", "lit": "yes", "length_m": 4.63, "type_element": "Way", "__fid": 20200}, "geometry": {"type": "LineString", "coordinates": [[2.2976298, 48.82846519999999], [2.2976889, 48.82845070000002]]}}, {"type": "Feature", "properties": {"highway": "footway", "footway": null, "name": null, "surface": "concrete", "lit": "no", "length_m": 10.46, "type_element": "Way", "__fid": 20211}, "geometry": {"type": "LineString", "coordinates": [[2.2976488, 48.8283933], [2.2976785, 48.8283858], [2.2977275, 48.8284029], [2.2977437, 48.8284378]]}}, {"type": "Feature", "properties": {"highway": "service", "footway": null, "name": null, "surface": "asphalt", "lit": "yes", "length_m": 15.0, "type_element": "Way", "__fid": 20249}, "geometry": {"type": "LineString", "coordinates": [[2.2977406, 48.829561], [2.2976741, 48.8294334]]}}, {"type": "Feature", "properties": {"highway": "footway", "footway": null, "name": null, "surface": "concrete", "lit": "no", "length_m": 15.23, "type_element": "Way", "__fid": 20250}, "geometry": {"type": "LineString", "coordinates": [[2.2976889, 48.82845070000002], [2.2977446, 48.8285826]]}}, {"type": "Feature", "properties": {"highway": "footway", "footway": null, "name": null, "surface": "concrete", "lit": "yes", "length_m": 4.27, "type_element": "Way", "__fid": 20251}, "geometry": {"type": "LineString", "coordinates": [[2.2976889, 48.82845070000002], [2.2977437, 48.8284378]]}}, {"type": "Feature", "properties": {"highway": "footway", "footway": null, "name": null, "surface": "concrete", "lit": "yes", "length_m": 18.28, "type_element": "Way", "__fid": 20292}, "geometry": {"type": "LineString", "coordinates": [[2.2977437, 48.8284378], [2.2979763, 48.8283791]]}}, {"type": "Feature", "properties": {"highway": "footway", "footway": null, "name": null, "surface": "concrete", "lit": "no", "length_m": 26.97, "type_element": "Way", "__fid": 20294}, "geometry": {"type": "LineString", "coordinates": [[2.2977446, 48.8285826], [2.2980993, 48.8286458]]}}, {"type": "Feature", "properties": {"highway": "service", "footway": null, "name": null, "surface": "asphalt", "lit": "yes", "length_m": 70.4, "type_element": "Way", "__fid": 20307}, "geometry": {"type": "LineString", "coordinates": [[2.2980525, 48.8301597], [2.2977406, 48.829561]]}}, {"type": "Feature", "properties": {"highway": "footway", "footway": "sidewalk", "name": null, "surface": "asphalt", "lit": "yes", "length_m": 24.93, "type_element": "Way", "__fid": 20308}, "geometry": {"type": "LineString", "coordinates": [[2.2980632, 48.829491], [2.2977406, 48.829561]]}}, {"type": "Feature", "properties": {"highway": "footway", "footway": null, "name": null, "surface": "concrete", "lit": "no", "length_m": 31.0, "type_element": "Way", "__fid": 20477}, "geometry": {"type": "LineString", "coordinates": [[2.2979763, 48.8283791], [2.2980993, 48.8286458]]}}, {"type": "Feature", "properties": {"highway": "footway", "footway": null, "name": null, "surface": "concrete", "lit": "yes", "length_m": 9.82, "type_element": "Way", "__fid": 20478}, "geometry": {"type": "LineString", "coordinates": [[2.2979763, 48.8283791], [2.2981032, 48.8283512]]}}, {"type": "Feature", "properties": {"highway": "footway", "footway": null, "name": null, "surface": null, "lit": "yes", "length_m": 80.59, "type_element": "Way", "__fid": 20480}, "geometry": {"type": "LineString", "coordinates": [[2.298969, 48.8255715], [2.2980888, 48.8257592], [2.298048, 48.8257877], [2.2980122, 48.8258587]]}}, {"type": "Feature", "properties": {"highway": "footway", "footway": "sidewalk", "name": null, "surface": null, "lit": "yes", "length_m": 94.78, "type_element": "Way", "__fid": 20481}, "geometry": {"type": "LineString", "coordinates": [[2.2980122, 48.8258587], [2.2992391, 48.8255934]]}}, {"type": "Feature", "properties": {"highway": "footway", "footway": null, "name": null, "surface": "concrete", "lit": "no", "length_m": 6.46, "type_element": "Way", "__fid": 20497}, "geometry": {"type": "LineString", "coordinates": [[2.2979818, 48.8290837], [2.2980163, 48.8291371]]}}, {"type": "Feature", "properties": {"highway": "footway", "footway": null, "name": null, "surface": "concrete", "lit": "no", "length_m": 60.6, "type_element": "Way", "__fid": 20498}, "geometry": {"type": "LineString", "coordinates": [[2.2979818, 48.8290837], [2.2982736, 48.8290237], [2.2981222, 48.8286954]]}}, {"type": "Feature", "properties": {"highway": "footway", "footway": null, "name": null, "surface": "concrete:plates", "lit": "no", "length_m": 10.07, "type_element": "Way", "__fid": 20548}, "geometry": {"type": "LineString", "coordinates": [[2.2980632, 48.829491], [2.2980437, 48.8294014]]}}, {"type": "Feature", "properties": {"highway": "footway", "footway": null, "name": null, "surface": "concrete:plates", "lit": "no", "length_m": 9.37, "type_element": "Way", "__fid": 20561}, "geometry": {"type": "LineString", "coordinates": [[2.298069, 48.829575200000015], [2.2980632, 48.829491]]}}, {"type": "Feature", "properties": {"highway": "footway", "footway": "sidewalk", "name": null, "surface": "asphalt", "lit": "yes", "length_m": 62.63, "type_element": "Way", "__fid": 20562}, "geometry": {"type": "LineString", "coordinates": [[2.2988727, 48.8293131], [2.2980632, 48.829491]]}}, {"type": "Feature", "properties": {"highway": "footway", "footway": null, "name": null, "surface": "concrete:plates", "lit": "no", "length_m": 20.71, "type_element": "Way", "__fid": 20569}, "geometry": {"type": "LineString", "coordinates": [[2.2982637, 48.8297078], [2.2981533, 48.8296501], [2.298069, 48.829575200000015]]}}, {"type": "Feature", "properties": {"highway": "footway", "footway": null, "name": null, "surface": "concrete:plates", "lit": "no", "length_m": 27.16, "type_element": "Way", "__fid": 20570}, "geometry": {"type": "LineString", "coordinates": [[2.298069, 48.829575200000015], [2.2980873, 48.8297252], [2.2981121, 48.82978520000001], [2.2981472, 48.8298067]]}}, {"type": "Feature", "properties": {"highway": "footway", "footway": null, "name": null, "surface": "concrete", "lit": "no", "length_m": 32.05, "type_element": "Way", "__fid": 20582}, "geometry": {"type": "LineString", "coordinates": [[2.2981032, 48.8283512], [2.298158, 48.8282676], [2.2983069, 48.8283099], [2.2982527, 48.828392600000015]]}}, {"type": "Feature", "properties": {"highway": "footway", "footway": null, "name": null, "surface": "concrete", "lit": "no", "length_m": 5.77, "type_element": "Way", "__fid": 20583}, "geometry": {"type": "LineString", "coordinates": [[2.2980993, 48.8286458], [2.2981222, 48.8286954]]}}, {"type": "Feature", "properties": {"highway": "footway", "footway": null, "name": null, "surface": "concrete", "lit": "yes", "length_m": 82.13, "type_element": "Way", "__fid": 20694}, "geometry": {"type": "LineString", "coordinates": [[2.2982527, 48.828392600000015], [2.2983165, 48.8285129], [2.2984776, 48.8288795], [2.2985208, 48.8289146], [2.2987254, 48.8289483], [2.2987932, 48.82895319999999]]}}, {"type": "Feature", "properties": {"highway": "footway", "footway": null, "name": null, "surface": "concrete", "lit": "no", "length_m": 16.74, "type_element": "Way", "__fid": 20695}, "geometry": {"type": "LineString", "coordinates": [[2.2984761, 48.8283626], [2.2982527, 48.828392600000015]]}}, {"type": "Feature", "properties": {"highway": "footway", "footway": null, "name": null, "surface": "concrete:plates", "lit": "yes", "length_m": 46.51, "type_element": "Way", "__fid": 20708}, "geometry": {"type": "LineString", "coordinates": [[2.2982637, 48.8297078], [2.298543, 48.8296248], [2.2987337, 48.8295845], [2.2988377, 48.82953630000002]]}}, {"type": "Feature", "properties": {"highway": "footway", "footway": "sidewalk", "name": null, "surface": null, "lit": "yes", "length_m": 102.52, "type_element": "Way", "__fid": 20722}, "geometry": {"type": "LineString", "coordinates": [[2.2983113, 48.82808760000001], [2.2984024, 48.8281475], [2.298806, 48.8289411]]}}, {"type": "Feature", "properties": {"highway": "footway", "footway": "crossing", "name": null, "surface": null, "lit": "yes", "length_m": 22.13, "type_element": "Way", "__fid": 20723}, "geometry": {"type": "LineString", "coordinates": [[2.2983113, 48.82808760000001], [2.2985807, 48.8280451], [2.2986019, 48.8280531]]}}, {"type": "Feature", "properties": {"highway": "footway", "footway": null, "name": null, "surface": "compacted", "lit": "yes", "length_m": 52.91, "type_element": "Way", "__fid": 20744}, "geometry": {"type": "LineString", "coordinates": [[2.2983473, 48.8275147], [2.2990573, 48.8274331]]}}, {"type": "Feature", "properties": {"highway": "footway", "footway": "crossing", "name": null, "surface": null, "lit": "yes", "length_m": 17.06, "type_element": "Way", "__fid": 20875}, "geometry": {"type": "LineString", "coordinates": [[2.2985777, 48.8278853], [2.2986345, 48.8280341]]}}, {"type": "Feature", "properties": {"highway": "footway", "footway": "sidewalk", "name": null, "surface": null, "lit": "yes", "length_m": 130.28, "type_element": "Way", "__fid": 20876}, "geometry": {"type": "LineString", "coordinates": [[2.2985777, 48.8278853], [2.3003065, 48.827621]]}}, {"type": "Feature", "properties": {"highway": "footway", "footway": "sidewalk", "name": null, "surface": null, "lit": "yes", "length_m": 101.24, "type_element": "Way", "__fid": 20887}, "geometry": {"type": "LineString", "coordinates": [[2.2986019, 48.8280531], [2.2985996, 48.828126], [2.2987316, 48.828382199999986], [2.2989865, 48.8289236]]}}, {"type": "Feature", "properties": {"highway": "footway", "footway": "sidewalk", "name": null, "surface": null, "lit": "yes", "length_m": 3.19, "type_element": "Way", "__fid": 20888}, "geometry": {"type": "LineString", "coordinates": [[2.2986345, 48.8280341], [2.2986019, 48.8280531]]}}, {"type": "Feature", "properties": {"highway": "footway", "footway": "sidewalk", "name": null, "surface": null, "lit": "yes", "length_m": 46.68, "type_element": "Way", "__fid": 20909}, "geometry": {"type": "LineString", "coordinates": [[2.2992521, 48.8279677], [2.2991307, 48.8279512], [2.2986345, 48.8280341]]}}, {"type": "Feature", "properties": {"highway": "footway", "footway": "crossing", "name": null, "surface": null, "lit": "yes", "length_m": 37.39, "type_element": "Way", "__fid": 20969}, "geometry": {"type": "LineString", "coordinates": [[2.2988727, 48.8293131], [2.298867, 48.8292139], [2.2987559, 48.8289885]]}}, {"type": "Feature", "properties": {"highway": "footway", "footway": "sidewalk", "name": null, "surface": null, "lit": "yes", "length_m": 4.79, "type_element": "Way", "__fid": 20970}, "geometry": {"type": "LineString", "coordinates": [[2.2987932, 48.82895319999999], [2.2987559, 48.8289885]]}}, {"type": "Feature", "properties": {"highway": "footway", "footway": null, "name": null, "surface": "concrete", "lit": "yes", "length_m": 9.45, "type_element": "Way", "__fid": 20989}, "geometry": {"type": "LineString", "coordinates": [[2.2987932, 48.82895319999999], [2.2989212, 48.8289625]]}}, {"type": "Feature", "properties": {"highway": "footway", "footway": "sidewalk", "name": null, "surface": null, "lit": "yes", "length_m": 1.64, "type_element": "Way", "__fid": 20990}, "geometry": {"type": "LineString", "coordinates": [[2.298806, 48.8289411], [2.2987932, 48.82895319999999]]}}, {"type": "Feature", "properties": {"highway": "footway", "footway": "crossing", "name": null, "surface": null, "lit": "yes", "length_m": 13.83, "type_element": "Way", "__fid": 20994}, "geometry": {"type": "LineString", "coordinates": [[2.298806, 48.8289411], [2.2988553, 48.8289501], [2.2989865, 48.8289236]]}}, {"type": "Feature", "properties": {"highway": "footway", "footway": null, "name": null, "surface": "concrete:plates", "lit": "yes", "length_m": 55.86, "type_element": "Way", "__fid": 21022}, "geometry": {"type": "LineString", "coordinates": [[2.2988377, 48.82953630000002], [2.2989134, 48.8295619], [2.2990126, 48.82958310000003], [2.2991557, 48.8295567], [2.2993076, 48.8295104], [2.2995583, 48.8294772]]}}, {"type": "Feature", "properties": {"highway": "footway", "footway": null, "name": null, "surface": "concrete:plates", "lit": "yes", "length_m": 8.44, "type_element": "Way", "__fid": 21023}, "geometry": {"type": "LineString", "coordinates": [[2.2988377, 48.82953630000002], [2.2988923, 48.8294695]]}}, {"type": "Feature", "properties": {"highway": "footway", "footway": null, "name": null, "surface": "concrete", "lit": "yes", "length_m": 19.33, "type_element": "Way", "__fid": 21044}, "geometry": {"type": "LineString", "coordinates": [[2.2991265, 48.8293771], [2.298979, 48.8293701], [2.2988687, 48.829347700000014]]}}, {"type": "Feature", "properties": {"highway": "footway", "footway": null, "name": null, "surface": "concrete:plates", "lit": "yes", "length_m": 13.78, "type_element": "Way", "__fid": 21045}, "geometry": {"type": "LineString", "coordinates": [[2.2988923, 48.8294695], [2.2988926, 48.82940450000002], [2.2988687, 48.829347700000014]]}}, {"type": "Feature", "properties": {"highway": "footway", "footway": null, "name": null, "surface": "concrete:plates", "lit": "yes", "length_m": 3.86, "type_element": "Way", "__fid": 21046}, "geometry": {"type": "LineString", "coordinates": [[2.2988687, 48.829347700000014], [2.2988727, 48.8293131]]}}, {"type": "Feature", "properties": {"highway": "footway", "footway": "sidewalk", "name": null, "surface": "asphalt", "lit": "yes", "length_m": 26.96, "type_element": "Way", "__fid": 21053}, "geometry": {"type": "LineString", "coordinates": [[2.2992206, 48.8292355], [2.2988727, 48.8293131]]}}, {"type": "Feature", "properties": {"highway": "footway", "footway": null, "name": null, "surface": "concrete:plates", "lit": "yes", "length_m": 20.08, "type_element": "Way", "__fid": 21070}, "geometry": {"type": "LineString", "coordinates": [[2.2991265, 48.8293771], [2.2989799, 48.8294275], [2.2988923, 48.8294695]]}}, {"type": "Feature", "properties": {"highway": "service", "footway": null, "name": null, "surface": null, "lit": "yes", "length_m": 101.43, "type_element": "Way", "__fid": 21099}, "geometry": {"type": "LineString", "coordinates": [[2.2990027, 48.824934700000014], [2.2988147, 48.8250991], [2.2987941, 48.8251463], [2.2987941, 48.8251971], [2.2988395, 48.8252243], [2.2990958, 48.8252634], [2.2991785, 48.825290500000015], [2.2992542, 48.825342200000016], [2.2992887, 48.8253994], [2.2992626, 48.8255499], [2.2992391, 48.8255934]]}}, {"type": "Feature", "properties": {"highway": "footway", "footway": "sidewalk", "name": null, "surface": "asphalt", "lit": "yes", "length_m": 6.52, "type_element": "Way", "__fid": 21128}, "geometry": {"type": "LineString", "coordinates": [[2.2989865, 48.8289236], [2.2990753, 48.8289241]]}}, {"type": "Feature", "properties": {"highway": "footway", "footway": null, "name": null, "surface": "compacted", "lit": "yes", "length_m": 48.24, "type_element": "Way", "__fid": 21161}, "geometry": {"type": "LineString", "coordinates": [[2.2990573, 48.8274331], [2.299616, 48.8273675], [2.2996299, 48.827426]]}}, {"type": "Feature", "properties": {"highway": "footway", "footway": "crossing", "name": null, "surface": null, "lit": "yes", "length_m": 36.23, "type_element": "Way", "__fid": 21184}, "geometry": {"type": "LineString", "coordinates": [[2.2990753, 48.8289241], [2.2992206, 48.8292355]]}}, {"type": "Feature", "properties": {"highway": "footway", "footway": "sidewalk", "name": null, "surface": null, "lit": "yes", "length_m": 46.62, "type_element": "Way", "__fid": 21185}, "geometry": {"type": "LineString", "coordinates": [[2.2990753, 48.8289241], [2.2996746, 48.8287853]]}}, {"type": "Feature", "properties": {"highway": "footway", "footway": null, "name": null, "surface": "concrete:plates", "lit": "yes", "length_m": 34.21, "type_element": "Way", "__fid": 21221}, "geometry": {"type": "LineString", "coordinates": [[2.2995583, 48.8294772], [2.2993671, 48.829407400000015], [2.2992282, 48.8293782], [2.2991265, 48.8293771]]}}, {"type": "Feature", "properties": {"highway": "service", "footway": null, "name": null, "surface": null, "lit": "yes", "length_m": 9.76, "type_element": "Way", "__fid": 21234}, "geometry": {"type": "LineString", "coordinates": [[2.2992391, 48.8255934], [2.2991946, 48.8256761]]}}, {"type": "Feature", "properties": {"highway": "footway", "footway": null, "name": null, "surface": null, "lit": "yes", "length_m": 65.81, "type_element": "Way", "__fid": 21259}, "geometry": {"type": "LineString", "coordinates": [[2.3000897, 48.8254067], [2.2992391, 48.8255934]]}}, {"type": "Feature", "properties": {"highway": "footway", "footway": "sidewalk", "name": null, "surface": "asphalt", "lit": "yes", "length_m": 88.39, "type_element": "Way", "__fid": 21271}, "geometry": {"type": "LineString", "coordinates": [[2.3003609, 48.8289803], [2.2992206, 48.8292355]]}}, {"type": "Feature", "properties": {"highway": "footway", "footway": "sidewalk", "name": null, "surface": null, "lit": "yes", "length_m": 96.06, "type_element": "Way", "__fid": 21281}, "geometry": {"type": "LineString", "coordinates": [[2.2996746, 48.8287853], [2.2992521, 48.8279677]]}}, {"type": "Feature", "properties": {"highway": "footway", "footway": "crossing", "name": null, "surface": null, "lit": "yes", "length_m": 12.0, "type_element": "Way", "__fid": 21282}, "geometry": {"type": "LineString", "coordinates": [[2.2992521, 48.8279677], [2.2994114, 48.8279437]]}}, {"type": "Feature", "properties": {"highway": "footway", "footway": null, "name": null, "surface": null, "lit": "yes", "length_m": 110.35, "type_element": "Way", "__fid": 21292}, "geometry": {"type": "LineString", "coordinates": [[2.2993038, 48.8247748], [2.2997993, 48.8250115], [2.3000788, 48.825102600000015], [2.300139, 48.8251519], [2.300182, 48.8252196], [2.3002239, 48.825354200000014], [2.3002171, 48.8253699], [2.3001928, 48.825381], [2.3000897, 48.8254067]]}}, {"type": "Feature", "properties": {"highway": "footway", "footway": "crossing", "name": null, "surface": null, "lit": "yes", "length_m": 8.76, "type_element": "Way", "__fid": 21358}, "geometry": {"type": "LineString", "coordinates": [[2.2994243, 48.8279198], [2.299382, 48.8278461]]}}, {"type": "Feature", "properties": {"highway": "footway", "footway": "sidewalk", "name": null, "surface": null, "lit": "yes", "length_m": 26.13, "type_element": "Way", "__fid": 21380}, "geometry": {"type": "LineString", "coordinates": [[2.2995509, 48.8281527], [2.2994516, 48.8279592], [2.2994114, 48.8279437]]}}, {"type": "Feature", "properties": {"highway": "footway", "footway": "sidewalk", "name": null, "surface": null, "lit": "yes", "length_m": 2.82, "type_element": "Way", "__fid": 21381}, "geometry": {"type": "LineString", "coordinates": [[2.2994114, 48.8279437], [2.2994243, 48.8279198]]}}, {"type": "Feature", "properties": {"highway": "footway", "footway": "sidewalk", "name": null, "surface": null, "lit": "yes", "length_m": 45.95, "type_element": "Way", "__fid": 21387}, "geometry": {"type": "LineString", "coordinates": [[2.2994243, 48.8279198], [2.2995525, 48.8278823], [2.3000281, 48.8278174]]}}, {"type": "Feature", "properties": {"highway": "service", "footway": null, "name": null, "surface": null, "lit": "yes", "length_m": 7.1, "type_element": "Way", "__fid": 21410}, "geometry": {"type": "LineString", "coordinates": [[2.2995509, 48.8281527], [2.2994586, 48.8281717]]}}, {"type": "Feature", "properties": {"highway": "footway", "footway": "sidewalk", "name": null, "surface": null, "lit": "yes", "length_m": 21.81, "type_element": "Way", "__fid": 21471}, "geometry": {"type": "LineString", "coordinates": [[2.2996464, 48.8283384], [2.2995509, 48.8281527]]}}, {"type": "Feature", "properties": {"highway": "service", "footway": null, "name": null, "surface": null, "lit": "yes", "length_m": 141.42, "type_element": "Way", "__fid": 21472}, "geometry": {"type": "LineString", "coordinates": [[2.2997383, 48.82853], [2.2998762, 48.8285055], [2.2999057, 48.828506799999985], [2.2999446, 48.8285187], [2.300005, 48.8285563], [2.3000539, 48.8285607], [2.3001726, 48.8285346], [2.30019, 48.8285223], [2.3001981, 48.828502], [2.3001894, 48.8284552], [2.3001337, 48.8283007], [2.3000546, 48.8281356], [2.2999661, 48.827997], [2.2999319, 48.8279802], [2.2998501, 48.827974], [2.2997582, 48.82799210000001], [2.2997361, 48.8280084], [2.2997253, 48.8280482], [2.2997334, 48.82809719999999], [2.2997186, 48.8281104], [2.2995509, 48.8281527]]}}, {"type": "Feature", "properties": {"highway": "service", "footway": null, "name": null, "surface": null, "lit": "yes", "length_m": 7.27, "type_element": "Way", "__fid": 21479}, "geometry": {"type": "LineString", "coordinates": [[2.2995519, 48.8283579], [2.2996464, 48.8283384]]}}, {"type": "Feature", "properties": {"highway": "footway", "footway": null, "name": null, "surface": "asphalt", "lit": "yes", "length_m": 66.91, "type_element": "Way", "__fid": 21490}, "geometry": {"type": "LineString", "coordinates": [[2.2995583, 48.8294772], [2.2997125, 48.82953340000002], [2.2998311, 48.8295653], [2.3001607, 48.829624], [2.3001657, 48.8297545], [2.3002326, 48.829763]]}}, {"type": "Feature", "properties": {"highway": "footway", "footway": "sidewalk", "name": null, "surface": null, "lit": "yes", "length_m": 98.85, "type_element": "Way", "__fid": 21508}, "geometry": {"type": "LineString", "coordinates": [[2.300617, 48.825276399999986], [2.3003867, 48.8250926], [2.3002299, 48.8250063], [2.3000294, 48.8249151], [2.2999594, 48.824822], [2.2996582, 48.8246689]]}}, {"type": "Feature", "properties": {"highway": "footway", "footway": null, "name": null, "surface": "concrete:plates", "lit": "no", "length_m": 45.91, "type_element": "Way", "__fid": 21510}, "geometry": {"type": "LineString", "coordinates": [[2.2996299, 48.827426], [2.3002481, 48.827364]]}}, {"type": "Feature", "properties": {"highway": "footway", "footway": "sidewalk", "name": null, "surface": null, "lit": "yes", "length_m": 22.35, "type_element": "Way", "__fid": 21535}, "geometry": {"type": "LineString", "coordinates": [[2.2997383, 48.82853], [2.2996464, 48.8283384]]}}, {"type": "Feature", "properties": {"highway": "service", "footway": null, "name": null, "surface": null, "lit": "yes", "length_m": 12.31, "type_element": "Way", "__fid": 21536}, "geometry": {"type": "LineString", "coordinates": [[2.2996464, 48.8283384], [2.2998054, 48.8283033]]}}, {"type": "Feature", "properties": {"highway": "service", "footway": null, "name": null, "surface": null, "lit": "yes", "length_m": 7.06, "type_element": "Way", "__fid": 21537}, "geometry": {"type": "LineString", "coordinates": [[2.2996482, 48.82855210000002], [2.2997383, 48.82853]]}}, {"type": "Feature", "properties": {"highway": "footway", "footway": "crossing", "name": null, "surface": null, "lit": "yes", "length_m": 12.18, "type_element": "Way", "__fid": 21559}, "geometry": {"type": "LineString", "coordinates": [[2.2996746, 48.8287853], [2.2998321, 48.8287508]]}}]}