{"type": "FeatureCollection", "features": [{"type": "Feature", "geometry": {"type": "Point", "coordinates": [2.298941, 48.8899]}, "properties": {"id": 2816, "name": "Jardin de l’Ilot C3", "categorie": "Parcs, jardins et bois", "photo_url": "https://cdn.paris.fr/eqpts-prod/2024/01/17/9ae61919a4beb73f1b647c9d2c8449ac.jpg", "photo_credit": "Frédéric Combeau / Ville de Paris", "photo_alt": "Illustration provisoir d'espace vert", "address_street": "17 boulevard de Reims", "address_postcode": "75017", "address_city": "PARIS", "phone": null, "accessibility": "{\"handicaps\": [{\"name\": \"Personnes à mobilité réduite\", \"status\": \"accessible\"}, {\"name\": \"Personnes déficientes visuelles\", \"status\": \"undefined\"}, {\"name\": \"Personnes déficientes auditives\", \"status\": \"undefined\"}, {\"name\": \"Personnes déficientes mentales\", \"status\": \"undefined\"}, {\"name\": \"Accueil en langue des signes\", \"status\": \"undefined\"}]}", "latitude": 48.8899, "longitude": 2.298941, "url": "https://www.paris.fr/lieux/jardin-de-l-ilot-c3-2816", "type_element": "Parcs, Jardins et Bois", "__fid": 1146}}, {"type": "Feature", "geometry": {"type": "Point", "coordinates": [2.297003, 48.888802]}, "properties": {"id": 2792, "name": "Jardin André Ulmann", "categorie": "Parcs, jardins et bois", "photo_url": "https://cdn.paris.fr/eqpts-prod/2024/02/05/0fdd95466f5d9695f497800bc68393b2.jpg", "photo_credit": "Dana Escalera /Ville de Paris", "photo_alt": "Allée", "address_street": "29 boulevard de Reims", "address_postcode": "75017", "address_city": "PARIS", "phone": null, "accessibility": "{\"handicaps\": [{\"name\": \"Personnes à mobilité réduite\", \"status\": \"accessible\"}, {\"name\": \"Personnes déficientes visuelles\", \"status\": \"undefined\"}, {\"name\": \"Personnes déficientes auditives\", \"status\": \"undefined\"}, {\"name\": \"Personnes déficientes mentales\", \"status\": \"undefined\"}, {\"name\": \"Accueil en langue des signes\", \"status\": \"undefined\"}]}", "latitude": 48.888802, "longitude": 2.297003, "url": "https://www.paris.fr/lieux/jardin-andre-ulmann-2792", "type_element": "Parcs, Jardins et Bois", "__fid": 1598}}, {"type": "Feature", "properties": {"highway": "footway", "footway": null, "name": "Promenade Bernard Lafray", "surface": "asphalt", "lit": "yes", "length_m": 215.17, "type_element": "Way", "__fid": 16254}, "geometry": {"type": "LineString", "coordinates": [[2.2904564, 48.8881067], [2.2908497, 48.8882128], [2.2910184, 48.8882924], [2.2914387, 48.8885357], [2.2915792, 48.8885826], [2.2916695, 48.8885978], [2.2917669, 48.888604], [2.2920453, 48.88859009999999], [2.2924115, 48.8887583], [2.2927308, 48.888965399999975], [2.292936, 48.889019300000015]]}}, {"type": "Feature", "properties": {"highway": "footway", "footway": "sidewalk", "name": null, "surface": "asphalt", "lit": "yes", "length_m": 19.66, "type_element": "Way", "__fid": 16292}, "geometry": {"type": "LineString", "coordinates": [[2.2905387, 48.8888519], [2.290752, 48.888959]]}}, {"type": "Feature", "properties": {"highway": "footway", "footway": "crossing", "name": null, "surface": "asphalt", "lit": "yes", "length_m": 12.38, "type_element": "Way", "__fid": 16340}, "geometry": {"type": "LineString", "coordinates": [[2.2906569, 48.889051], [2.290752, 48.888959]]}}, {"type": "Feature", "properties": {"highway": "footway", "footway": "sidewalk", "name": null, "surface": "asphalt", "lit": "yes", "length_m": 182.11, "type_element": "Way", "__fid": 16400}, "geometry": {"type": "LineString", "coordinates": [[2.290752, 48.888959], [2.2923574, 48.8897368], [2.2924187, 48.88973810000001], [2.2924738, 48.889721600000016], [2.2925182, 48.8896774], [2.2925276, 48.889632], [2.2924842, 48.8895513], [2.292526, 48.8894989]]}}, {"type": "Feature", "properties": {"highway": "service", "footway": null, "name": null, "surface": "asphalt", "lit": "yes", "length_m": 17.23, "type_element": "Way", "__fid": 17507}, "geometry": {"type": "LineString", "coordinates": [[2.2927361, 48.889563], [2.2926175, 48.8895125], [2.292526, 48.8894989]]}}, {"type": "Feature", "properties": {"highway": "service", "footway": null, "name": null, "surface": "asphalt", "lit": "yes", "length_m": 30.27, "type_element": "Way", "__fid": 17508}, "geometry": {"type": "LineString", "coordinates": [[2.292526, 48.8894989], [2.2924964, 48.8894806], [2.2925005, 48.8894491], [2.2926805, 48.88927120000001]]}}, {"type": "Feature", "properties": {"highway": "footway", "footway": "sidewalk", "name": null, "surface": "asphalt", "lit": "yes", "length_m": 61.82, "type_element": "Way", "__fid": 17509}, "geometry": {"type": "LineString", "coordinates": [[2.292526, 48.8894989], [2.2927044, 48.8892804], [2.2927012, 48.8892534], [2.292936, 48.889019300000015]]}}, {"type": "Feature", "properties": {"highway": "footway", "footway": "sidewalk", "name": null, "surface": "asphalt", "lit": "yes", "length_m": 33.2, "type_element": "Way", "__fid": 17772}, "geometry": {"type": "LineString", "coordinates": [[2.2931827, 48.88876890000002], [2.292936, 48.889019300000015]]}}, {"type": "Feature", "properties": {"highway": "footway", "footway": "crossing", "name": null, "surface": "asphalt", "lit": "yes", "length_m": 34.95, "type_element": "Way", "__fid": 17912}, "geometry": {"type": "LineString", "coordinates": [[2.2935868, 48.88892749999999], [2.2935425, 48.888927], [2.2931827, 48.88876890000002]]}}, {"type": "Feature", "properties": {"highway": "footway", "footway": "sidewalk", "name": null, "surface": "asphalt", "lit": "yes", "length_m": 58.73, "type_element": "Way", "__fid": 17913}, "geometry": {"type": "LineString", "coordinates": [[2.293693, 48.8883759], [2.2936108, 48.8883906], [2.2931827, 48.88876890000002]]}}, {"type": "Feature", "properties": {"highway": "footway", "footway": "sidewalk", "name": "Promenade Bernard Lafray", "surface": null, "lit": "yes", "length_m": 66.06, "type_element": "Way", "__fid": 18138}, "geometry": {"type": "LineString", "coordinates": [[2.2935868, 48.88892749999999], [2.2936483, 48.8889281], [2.293901, 48.8889632], [2.2943045, 48.8889917], [2.2944683, 48.889033]]}}, {"type": "Feature", "properties": {"highway": "footway", "footway": "sidewalk", "name": null, "surface": null, "lit": "yes", "length_m": 308.8, "type_element": "Way", "__fid": 18139}, "geometry": {"type": "LineString", "coordinates": [[2.2944046, 48.889657300000025], [2.2936341, 48.89034], [2.292656, 48.8898653], [2.2926542, 48.8898435], [2.2935868, 48.88892749999999]]}}, {"type": "Feature", "properties": {"highway": "footway", "footway": "sidewalk", "name": null, "surface": "asphalt", "lit": "yes", "length_m": 47.69, "type_element": "Way", "__fid": 18140}, "geometry": {"type": "LineString", "coordinates": [[2.2935868, 48.88892749999999], [2.2939498, 48.8885717]]}}, {"type": "Feature", "properties": {"highway": "footway", "footway": "sidewalk", "name": null, "surface": null, "lit": "yes", "length_m": 182.84, "type_element": "Way", "__fid": 18295}, "geometry": {"type": "LineString", "coordinates": [[2.2938093, 48.89042050000001], [2.2945944, 48.8896977], [2.2947419, 48.8896892], [2.2955274, 48.8900942]]}}, {"type": "Feature", "properties": {"highway": "service", "footway": null, "name": null, "surface": null, "lit": "yes", "length_m": 57.16, "type_element": "Way", "__fid": 18352}, "geometry": {"type": "LineString", "coordinates": [[2.2939498, 48.8885717], [2.2944721, 48.88868639999998], [2.2946786, 48.8887516]]}}, {"type": "Feature", "properties": {"highway": "footway", "footway": null, "name": null, "surface": null, "lit": "yes", "length_m": 40.96, "type_element": "Way", "__fid": 18380}, "geometry": {"type": "LineString", "coordinates": [[2.2944046, 48.889657300000025], [2.2940994, 48.8895513], [2.2940572, 48.8895267], [2.2940055, 48.8894764], [2.2939861, 48.8894354]]}}, {"type": "Feature", "properties": {"highway": "footway", "footway": null, "name": null, "surface": null, "lit": "yes", "length_m": 57.46, "type_element": "Way", "__fid": 18496}, "geometry": {"type": "LineString", "coordinates": [[2.2944683, 48.889033], [2.2945962, 48.8888102], [2.2945311, 48.8887712], [2.2942153, 48.8886986]]}}, {"type": "Feature", "properties": {"highway": "footway", "footway": "sidewalk", "name": null, "surface": null, "lit": "yes", "length_m": 23.01, "type_element": "Way", "__fid": 18604}, "geometry": {"type": "LineString", "coordinates": [[2.2946614, 48.88954859999998], [2.2945487, 48.8895699], [2.2944856, 48.8896003], [2.2944046, 48.889657300000025]]}}, {"type": "Feature", "properties": {"highway": "footway", "footway": "sidewalk", "name": "Promenade Bernard Lafray", "surface": null, "lit": "yes", "length_m": 34.31, "type_element": "Way", "__fid": 18641}, "geometry": {"type": "LineString", "coordinates": [[2.2944683, 48.889033], [2.2948437, 48.8891268], [2.2949082, 48.8891372]]}}, {"type": "Feature", "properties": {"highway": "footway", "footway": "sidewalk", "name": null, "surface": null, "lit": "yes", "length_m": 89.06, "type_element": "Way", "__fid": 18764}, "geometry": {"type": "LineString", "coordinates": [[2.2956462, 48.8899977], [2.294862, 48.889583], [2.2947954, 48.8895619], [2.2946614, 48.88954859999998]]}}, {"type": "Feature", "properties": {"highway": "footway", "footway": null, "name": null, "surface": null, "lit": "yes", "length_m": 50.96, "type_element": "Way", "__fid": 18765}, "geometry": {"type": "LineString", "coordinates": [[2.2949082, 48.8891372], [2.2947948, 48.8892502], [2.2946506, 48.889425], [2.2946614, 48.88954859999998]]}}, {"type": "Feature", "properties": {"highway": "footway", "footway": "sidewalk", "name": null, "surface": null, "lit": "yes", "length_m": 103.33, "type_element": "Way", "__fid": 18824}, "geometry": {"type": "LineString", "coordinates": [[2.2947478, 48.89086979999998], [2.2951873, 48.8904626], [2.2955509, 48.89010630000002]]}}, {"type": "Feature", "properties": {"highway": "footway", "footway": "sidewalk", "name": "Promenade Bernard Lafray", "surface": null, "lit": "yes", "length_m": 153.15, "type_element": "Way", "__fid": 18904}, "geometry": {"type": "LineString", "coordinates": [[2.2949082, 48.8891372], [2.2955309, 48.8892312], [2.2961535, 48.8895653], [2.296615, 48.88967860000001], [2.296676, 48.889683], [2.2967462, 48.8897235]]}}, {"type": "Feature", "properties": {"highway": "footway", "footway": "sidewalk", "name": null, "surface": null, "lit": "yes", "length_m": 99.66, "type_element": "Way", "__fid": 18943}, "geometry": {"type": "LineString", "coordinates": [[2.2949557, 48.8909303], [2.2952012, 48.89068070000001], [2.2957176, 48.8901882]]}}, {"type": "Feature", "properties": {"highway": "footway", "footway": "sidewalk", "name": null, "surface": null, "lit": "yes", "length_m": 192.51, "type_element": "Way", "__fid": 19106}, "geometry": {"type": "LineString", "coordinates": [[2.2952462, 48.888116], [2.2961305, 48.888681900000016], [2.2969859, 48.8892114], [2.2970679, 48.8892691], [2.297099, 48.8893317]]}}, {"type": "Feature", "properties": {"highway": "footway", "footway": "sidewalk", "name": null, "surface": "asphalt", "lit": "yes", "length_m": 2.19, "type_element": "Way", "__fid": 19316}, "geometry": {"type": "LineString", "coordinates": [[2.2955274, 48.8900942], [2.2955509, 48.89010630000002]]}}, {"type": "Feature", "properties": {"highway": "footway", "footway": "crossing", "name": null, "surface": "asphalt", "lit": "yes", "length_m": 13.82, "type_element": "Way", "__fid": 19317}, "geometry": {"type": "LineString", "coordinates": [[2.2955274, 48.8900942], [2.2956462, 48.8899977]]}}, {"type": "Feature", "properties": {"highway": "footway", "footway": "crossing", "name": null, "surface": "asphalt", "lit": "yes", "length_m": 15.24, "type_element": "Way", "__fid": 19336}, "geometry": {"type": "LineString", "coordinates": [[2.2955509, 48.89010630000002], [2.2957176, 48.8901882]]}}, {"type": "Feature", "properties": {"highway": "footway", "footway": "sidewalk", "name": null, "surface": null, "lit": "yes", "length_m": 33.38, "type_element": "Way", "__fid": 19417}, "geometry": {"type": "LineString", "coordinates": [[2.295999, 48.8901874], [2.2956462, 48.8899977]]}}, {"type": "Feature", "properties": {"highway": "footway", "footway": "sidewalk", "name": null, "surface": null, "lit": "yes", "length_m": 15.49, "type_element": "Way", "__fid": 19468}, "geometry": {"type": "LineString", "coordinates": [[2.2957176, 48.8901882], [2.2958841, 48.890274]]}}, {"type": "Feature", "properties": {"highway": "footway", "footway": "sidewalk", "name": null, "surface": null, "lit": "yes", "length_m": 31.63, "type_element": "Way", "__fid": 19562}, "geometry": {"type": "LineString", "coordinates": [[2.2958841, 48.890274], [2.2962218, 48.890451]]}}, {"type": "Feature", "properties": {"highway": "footway", "footway": "crossing", "name": null, "surface": null, "lit": "yes", "length_m": 12.8, "type_element": "Way", "__fid": 19563}, "geometry": {"type": "LineString", "coordinates": [[2.2958841, 48.890274], [2.295999, 48.8901874]]}}, {"type": "Feature", "properties": {"highway": "footway", "footway": "sidewalk", "name": null, "surface": null, "lit": "yes", "length_m": 9.02, "type_element": "Way", "__fid": 19656}, "geometry": {"type": "LineString", "coordinates": [[2.29611, 48.8902181], [2.2960469, 48.89020980000002], [2.295999, 48.8901874]]}}, {"type": "Feature", "properties": {"highway": "footway", "footway": "crossing", "name": null, "surface": null, "lit": "yes", "length_m": 19.13, "type_element": "Way", "__fid": 19760}, "geometry": {"type": "LineString", "coordinates": [[2.29611, 48.8902181], [2.2963194, 48.8903207]]}}, {"type": "Feature", "properties": {"highway": "footway", "footway": "sidewalk", "name": null, "surface": null, "lit": "yes", "length_m": 53.56, "type_element": "Way", "__fid": 19761}, "geometry": {"type": "LineString", "coordinates": [[2.2965806, 48.889853400000014], [2.2961718, 48.8901938], [2.29611, 48.8902181]]}}, {"type": "Feature", "properties": {"highway": "service", "footway": null, "name": "Boulevard de Reims", "surface": "asphalt", "lit": "yes", "length_m": 139.78, "type_element": "Way", "__fid": 19765}, "geometry": {"type": "LineString", "coordinates": [[2.2961488, 48.8883014], [2.2975297, 48.889168]]}}, {"type": "Feature", "properties": {"highway": "footway", "footway": null, "name": null, "surface": "asphalt", "lit": "yes", "length_m": 130.82, "type_element": "Way", "__fid": 19789}, "geometry": {"type": "LineString", "coordinates": [[2.2961783, 48.8882118], [2.2966748, 48.88852219999998], [2.2966998, 48.8885536], [2.2974522, 48.88903280000001]]}}, {"type": "Feature", "properties": {"highway": "footway", "footway": "sidewalk", "name": null, "surface": null, "lit": "yes", "length_m": 101.35, "type_element": "Way", "__fid": 19818}, "geometry": {"type": "LineString", "coordinates": [[2.2962218, 48.890451], [2.2972399, 48.89098409999998], [2.2972571, 48.8910371]]}}, {"type": "Feature", "properties": {"highway": "footway", "footway": "crossing", "name": null, "surface": null, "lit": "yes", "length_m": 12.98, "type_element": "Way", "__fid": 19819}, "geometry": {"type": "LineString", "coordinates": [[2.2962218, 48.890451], [2.2963331, 48.89036020000001]]}}, {"type": "Feature", "properties": {"highway": "footway", "footway": "sidewalk", "name": null, "surface": null, "lit": "yes", "length_m": 4.51, "type_element": "Way", "__fid": 19882}, "geometry": {"type": "LineString", "coordinates": [[2.2963194, 48.8903207], [2.2963331, 48.89036020000001]]}}, {"type": "Feature", "properties": {"highway": "footway", "footway": "sidewalk", "name": null, "surface": null, "lit": "yes", "length_m": 72.32, "type_element": "Way", "__fid": 19883}, "geometry": {"type": "LineString", "coordinates": [[2.296898, 48.88980149999998], [2.2963199, 48.89029], [2.2963194, 48.8903207]]}}, {"type": "Feature", "properties": {"highway": "footway", "footway": "sidewalk", "name": null, "surface": null, "lit": "yes", "length_m": 77.44, "type_element": "Way", "__fid": 19892}, "geometry": {"type": "LineString", "coordinates": [[2.2963331, 48.89036020000001], [2.2971556, 48.890797]]}}, {"type": "Feature", "properties": {"highway": "service", "footway": null, "name": null, "surface": null, "lit": null, "length_m": 18.21, "type_element": "Way", "__fid": 19915}, "geometry": {"type": "LineString", "coordinates": [[2.2965806, 48.889853400000014], [2.296375, 48.8897615]]}}, {"type": "Feature", "properties": {"highway": "footway", "footway": "sidewalk", "name": null, "surface": null, "lit": "yes", "length_m": 104.19, "type_element": "Way", "__fid": 20039}, "geometry": {"type": "LineString", "coordinates": [[2.29654, 48.8918105], [2.2973967, 48.89110880000001], [2.2974176, 48.8910754]]}}, {"type": "Feature", "properties": {"highway": "service", "footway": null, "name": null, "surface": null, "lit": null, "length_m": 7.68, "type_element": "Way", "__fid": 20052}, "geometry": {"type": "LineString", "coordinates": [[2.2966673, 48.8898922], [2.2965806, 48.889853400000014]]}}, {"type": "Feature", "properties": {"highway": "footway", "footway": "sidewalk", "name": null, "surface": null, "lit": "yes", "length_m": 18.87, "type_element": "Way", "__fid": 20053}, "geometry": {"type": "LineString", "coordinates": [[2.2967462, 48.8897235], [2.2965806, 48.889853400000014]]}}, {"type": "Feature", "properties": {"highway": "footway", "footway": "crossing", "name": "Promenade Bernard Lafray", "surface": "asphalt", "lit": "yes", "length_m": 14.11, "type_element": "Way", "__fid": 20166}, "geometry": {"type": "LineString", "coordinates": [[2.2967462, 48.8897235], [2.296898, 48.88980149999998]]}}, {"type": "Feature", "properties": {"highway": "footway", "footway": "sidewalk", "name": null, "surface": null, "lit": "yes", "length_m": 51.61, "type_element": "Way", "__fid": 20167}, "geometry": {"type": "LineString", "coordinates": [[2.297099, 48.8893317], [2.2970998, 48.88936], [2.297075, 48.8894242], [2.2967462, 48.8897235]]}}, {"type": "Feature", "properties": {"highway": "footway", "footway": "sidewalk", "name": "Promenade Bernard Lafray", "surface": null, "lit": "yes", "length_m": 3.88, "type_element": "Way", "__fid": 20281}, "geometry": {"type": "LineString", "coordinates": [[2.296898, 48.88980149999998], [2.2969295, 48.88977350000002]]}}, {"type": "Feature", "properties": {"highway": "footway", "footway": "sidewalk", "name": null, "surface": null, "lit": "yes", "length_m": 67.51, "type_element": "Way", "__fid": 20309}, "geometry": {"type": "LineString", "coordinates": [[2.2973036, 48.8893328], [2.2973598, 48.88936290000002], [2.2974166, 48.8894507], [2.297352, 48.8894621], [2.2972948, 48.889486699999985], [2.2972268, 48.88953290000001], [2.2969295, 48.88977350000002]]}}, {"type": "Feature", "properties": {"highway": "footway", "footway": "sidewalk", "name": "Promenade Bernard Lafray", "surface": null, "lit": "yes", "length_m": 151.04, "type_element": "Way", "__fid": 20310}, "geometry": {"type": "LineString", "coordinates": [[2.2969295, 48.88977350000002], [2.2974961, 48.8897732], [2.2975937, 48.88987980000001], [2.2977137, 48.8899155], [2.2978102, 48.89008130000001], [2.297819, 48.8901192], [2.2977683, 48.8903551], [2.2980988, 48.8905882]]}}, {"type": "Feature", "properties": {"highway": "footway", "footway": null, "name": null, "surface": null, "lit": "yes", "length_m": 15.15, "type_element": "Way", "__fid": 20425}, "geometry": {"type": "LineString", "coordinates": [[2.297099, 48.8893317], [2.2972197, 48.8893232], [2.2973036, 48.8893328]]}}, {"type": "Feature", "properties": {"highway": "service", "footway": null, "name": null, "surface": null, "lit": "yes", "length_m": 5.77, "type_element": "Way", "__fid": 20479}, "geometry": {"type": "LineString", "coordinates": [[2.2971878, 48.8908105], [2.2971348, 48.8908489]]}}, {"type": "Feature", "properties": {"highway": "footway", "footway": "sidewalk", "name": null, "surface": null, "lit": "yes", "length_m": 2.8, "type_element": "Way", "__fid": 20502}, "geometry": {"type": "LineString", "coordinates": [[2.2971878, 48.8908105], [2.2971556, 48.890797]]}}, {"type": "Feature", "properties": {"highway": "footway", "footway": null, "name": null, "surface": null, "lit": null, "length_m": 90.92, "type_element": "Way", "__fid": 20503}, "geometry": {"type": "LineString", "coordinates": [[2.2971556, 48.890797], [2.2972074, 48.890762], [2.2973348, 48.8907162], [2.2973737, 48.8906809], [2.2973992, 48.8906139], [2.2974569, 48.8905575], [2.2975427, 48.8905398], [2.2976406, 48.8905504], [2.2978297, 48.8906421], [2.2979266, 48.8906705], [2.2979913, 48.8906553], [2.2980988, 48.8905882]]}}, {"type": "Feature", "properties": {"highway": "service", "footway": null, "name": null, "surface": null, "lit": "yes", "length_m": 119.79, "type_element": "Way", "__fid": 20527}, "geometry": {"type": "LineString", "coordinates": [[2.2974176, 48.8910754], [2.2977023, 48.8912082], [2.2977486, 48.8912161], [2.2978089, 48.8912016], [2.2978558, 48.8911712], [2.2978914, 48.891130199999985], [2.2979102, 48.8910755], [2.297884, 48.8910252], [2.2974394, 48.8907823], [2.2973657, 48.8907589], [2.2973274, 48.89075409999999], [2.2972497, 48.8907656], [2.2971878, 48.8908105]]}}, {"type": "Feature", "properties": {"highway": "footway", "footway": null, "name": null, "surface": null, "lit": "yes", "length_m": 13.28, "type_element": "Way", "__fid": 20596}, "geometry": {"type": "LineString", "coordinates": [[2.2973036, 48.8893328], [2.2973618, 48.8892782], [2.2974177, 48.8892406]]}}, {"type": "Feature", "properties": {"highway": "service", "footway": null, "name": null, "surface": null, "lit": "yes", "length_m": 7.41, "type_element": "Way", "__fid": 20632}, "geometry": {"type": "LineString", "coordinates": [[2.2973284, 48.891044], [2.2974176, 48.8910754]]}}, {"type": "Feature", "properties": {"highway": "steps", "footway": null, "name": null, "surface": "paving_stones", "lit": "yes", "length_m": 7.4, "type_element": "Way", "__fid": 20679}, "geometry": {"type": "LineString", "coordinates": [[2.2974177, 48.8892406], [2.297490300000212, 48.88919440000007]]}}, {"type": "Feature", "properties": {"highway": "footway", "footway": null, "name": null, "surface": null, "lit": "yes", "length_m": 14.54, "type_element": "Way", "__fid": 20700}, "geometry": {"type": "LineString", "coordinates": [[2.2975996, 48.8891202], [2.2974522, 48.88903280000001]]}}, {"type": "Feature", "properties": {"highway": "footway", "footway": null, "name": null, "surface": null, "lit": "yes", "length_m": 32.58, "type_element": "Way", "__fid": 20701}, "geometry": {"type": "LineString", "coordinates": [[2.2974522, 48.88903280000001], [2.2977154, 48.8887967]]}}, {"type": "Feature", "properties": {"highway": "footway", "footway": null, "name": null, "surface": "asphalt", "lit": "yes", "length_m": 4.12, "type_element": "Way", "__fid": 20724}, "geometry": {"type": "LineString", "coordinates": [[2.297490300000212, 48.88919440000007], [2.2975297, 48.889168]]}}, {"type": "Feature", "properties": {"highway": "footway", "footway": null, "name": null, "surface": "asphalt", "lit": "yes", "length_m": 7.38, "type_element": "Way", "__fid": 20752}, "geometry": {"type": "LineString", "coordinates": [[2.2975297, 48.889168], [2.2975996, 48.8891202]]}}, {"type": "Feature", "properties": {"highway": "footway", "footway": null, "name": null, "surface": null, "lit": "yes", "length_m": 202.12, "type_element": "Way", "__fid": 20797}, "geometry": {"type": "LineString", "coordinates": [[2.2975996, 48.8891202], [2.2995699, 48.8903913]]}}, {"type": "Feature", "properties": {"highway": "footway", "footway": "sidewalk", "name": "Promenade Bernard Lafray", "surface": null, "lit": "yes", "length_m": 89.94, "type_element": "Way", "__fid": 21084}, "geometry": {"type": "LineString", "coordinates": [[2.2980988, 48.8905882], [2.2983272, 48.8907492], [2.2984245, 48.8908017], [2.2985844, 48.8910407], [2.2986072, 48.8910611], [2.2986737, 48.89108130000002], [2.2987792, 48.8910682], [2.298893399730273, 48.89113378346872]]}}, {"type": "Feature", "properties": {"highway": "footway", "footway": null, "name": null, "surface": null, "lit": "yes", "length_m": 17.04, "type_element": "Way", "__fid": 21085}, "geometry": {"type": "LineString", "coordinates": [[2.2980988, 48.8905882], [2.2982046, 48.8905271], [2.298295466666679, 48.890518866666696]]}}, {"type": "Feature", "properties": {"highway": "footway", "footway": "sidewalk", "name": null, "surface": null, "lit": "yes", "length_m": 79.29, "type_element": "Way", "__fid": 21215}, "geometry": {"type": "LineString", "coordinates": [[2.2990283, 48.8910432], [2.298295466666679, 48.890518866666696]]}}, {"type": "Feature", "properties": {"highway": "footway", "footway": "crossing", "name": null, "surface": "asphalt", "lit": "yes", "length_m": 9.09, "type_element": "Way", "__fid": 21216}, "geometry": {"type": "LineString", "coordinates": [[2.2983245, 48.89044220000002], [2.2983066, 48.8904547], [2.298295466666679, 48.890518866666696]]}}, {"type": "Feature", "properties": {"highway": "footway", "footway": "sidewalk", "name": null, "surface": "asphalt", "lit": "yes", "length_m": 83.79, "type_element": "Way", "__fid": 21235}, "geometry": {"type": "LineString", "coordinates": [[2.2983245, 48.89044220000002], [2.2991132, 48.8909874]]}}, {"type": "Feature", "properties": {"highway": "footway", "footway": "sidewalk", "name": "Promenade Bernard Lafray", "surface": "sett", "lit": "yes", "length_m": 25.99, "type_element": "Way", "__fid": 21236}, "geometry": {"type": "LineString", "coordinates": [[2.298568, 48.8902723], [2.2983245, 48.89044220000002]]}}, {"type": "Feature", "properties": {"highway": "footway", "footway": "sidewalk", "name": null, "surface": "sett", "lit": "yes", "length_m": 7.55, "type_element": "Way", "__fid": 21327}, "geometry": {"type": "LineString", "coordinates": [[2.2984936, 48.8902254], [2.298568, 48.8902723]]}}, {"type": "Feature", "properties": {"highway": "service", "footway": null, "name": null, "surface": "asphalt", "lit": "yes", "length_m": 83.29, "type_element": "Way", "__fid": 21364}, "geometry": {"type": "LineString", "coordinates": [[2.298893399730273, 48.89113378346872], [2.2987222, 48.8912435], [2.2986384, 48.89127349999998], [2.2985291, 48.8912981], [2.2984976, 48.891314], [2.2983447, 48.8914533], [2.2983366, 48.89150140000001], [2.2983594, 48.891545499999985], [2.2985438, 48.89164860000002]]}}, {"type": "Feature", "properties": {"highway": "footway", "footway": "sidewalk", "name": null, "surface": "sett", "lit": "yes", "length_m": 4.57, "type_element": "Way", "__fid": 21372}, "geometry": {"type": "LineString", "coordinates": [[2.298568, 48.8902723], [2.298613, 48.8903007]]}}, {"type": "Feature", "properties": {"highway": "footway", "footway": "sidewalk", "name": "Promenade Bernard Lafray", "surface": "sett", "lit": "yes", "length_m": 15.57, "type_element": "Way", "__fid": 21373}, "geometry": {"type": "LineString", "coordinates": [[2.2987142, 48.8901707], [2.298568, 48.8902723]]}}, {"type": "Feature", "properties": {"highway": "footway", "footway": "sidewalk", "name": null, "surface": "sett", "lit": "yes", "length_m": 68.07, "type_element": "Way", "__fid": 21465}, "geometry": {"type": "LineString", "coordinates": [[2.2987142, 48.8901707], [2.2991812, 48.8904631], [2.2991822, 48.89048849999999], [2.2993307, 48.8905808], [2.2993018, 48.890600700000014]]}}, {"type": "Feature", "properties": {"highway": "footway", "footway": "sidewalk", "name": null, "surface": "asphalt", "lit": "yes", "length_m": 15.81, "type_element": "Way", "__fid": 21466}, "geometry": {"type": "LineString", "coordinates": [[2.2988635, 48.8900681], [2.2987142, 48.8901707]]}}, {"type": "Feature", "properties": {"highway": "footway", "footway": null, "name": null, "surface": null, "lit": "yes", "length_m": 60.1, "type_element": "Way", "__fid": 21565}, "geometry": {"type": "LineString", "coordinates": [[2.2994173, 48.8904665], [2.2988635, 48.8900681]]}}, {"type": "Feature", "properties": {"highway": "footway", "footway": null, "name": null, "surface": null, "lit": "yes", "length_m": 5.19, "type_element": "Way", "__fid": 21566}, "geometry": {"type": "LineString", "coordinates": [[2.2988635, 48.8900681], [2.2989099, 48.8900329]]}}, {"type": "Feature", "properties": {"highway": "footway", "footway": null, "name": "Promenade Bernard Lafray", "surface": null, "lit": null, "length_m": 48.59, "type_element": "Way", "__fid": 21591}, "geometry": {"type": "LineString", "coordinates": [[2.298893399730273, 48.89113378346872], [2.2990581, 48.89123330000002], [2.2991245, 48.89129730000001], [2.2991453, 48.8913431], [2.299158, 48.8915072]]}}, {"type": "Feature", "properties": {"highway": "service", "footway": null, "name": null, "surface": "asphalt", "lit": "yes", "length_m": 14.12, "type_element": "Way", "__fid": 21592}, "geometry": {"type": "LineString", "coordinates": [[2.2990283, 48.8910432], [2.298893399730273, 48.89113378346872]]}}, {"type": "Feature", "properties": {"highway": "footway", "footway": "sidewalk", "name": null, "surface": null, "lit": "yes", "length_m": 9.39, "type_element": "Way", "__fid": 21654}, "geometry": {"type": "LineString", "coordinates": [[2.2991154, 48.8911051], [2.2990283, 48.8910432]]}}, {"type": "Feature", "properties": {"highway": "service", "footway": null, "name": null, "surface": "asphalt", "lit": "yes", "length_m": 8.79, "type_element": "Way", "__fid": 21655}, "geometry": {"type": "LineString", "coordinates": [[2.2990283, 48.8910432], [2.2991132, 48.8909874]]}}, {"type": "Feature", "properties": {"highway": "footway", "footway": "sidewalk", "name": null, "surface": "asphalt", "lit": "yes", "length_m": 9.79, "type_element": "Way", "__fid": 21702}, "geometry": {"type": "LineString", "coordinates": [[2.2991132, 48.8909874], [2.2992032, 48.8910524]]}}, {"type": "Feature", "properties": {"highway": "footway", "footway": null, "name": null, "surface": null, "lit": "yes", "length_m": 80.99, "type_element": "Way", "__fid": 21703}, "geometry": {"type": "LineString", "coordinates": [[2.2991132, 48.8909874], [2.299651, 48.8906117], [2.2994173, 48.8904665]]}}, {"type": "Feature", "properties": {"highway": "footway", "footway": "sidewalk", "name": null, "surface": null, "lit": "yes", "length_m": 45.64, "type_element": "Way", "__fid": 21704}, "geometry": {"type": "LineString", "coordinates": [[2.2995384, 48.8914062], [2.2991154, 48.8911051]]}}, {"type": "Feature", "properties": {"highway": "footway", "footway": "crossing", "name": null, "surface": null, "lit": "yes", "length_m": 8.71, "type_element": "Way", "__fid": 21705}, "geometry": {"type": "LineString", "coordinates": [[2.2992032, 48.8910524], [2.2991154, 48.8911051]]}}, {"type": "Feature", "properties": {"highway": "footway", "footway": null, "name": null, "surface": null, "lit": null, "length_m": 89.18, "type_element": "Way", "__fid": 21728}, "geometry": {"type": "LineString", "coordinates": [[2.2992509, 48.8915389], [2.2992412, 48.89169780000001], [2.2991916, 48.8917527], [2.2991517, 48.8917736], [2.299087, 48.8917888], [2.2990166, 48.8917844], [2.2989338, 48.89176040000002], [2.2988838, 48.8917271], [2.2988597, 48.8916857], [2.2988586, 48.8916396], [2.2988791, 48.891588700000014], [2.2989244, 48.891555199999985], [2.2989928, 48.8915336], [2.2990628, 48.89152829999998], [2.2991574, 48.8915336]]}}, {"type": "Feature", "properties": {"highway": "footway", "footway": null, "name": null, "surface": null, "lit": null, "length_m": 2.94, "type_element": "Way", "__fid": 21729}, "geometry": {"type": "LineString", "coordinates": [[2.299158, 48.8915072], [2.2991574, 48.8915336]]}}, {"type": "Feature", "properties": {"highway": "footway", "footway": null, "name": "Promenade Bernard Lafray", "surface": null, "lit": null, "length_m": 6.79, "type_element": "Way", "__fid": 21730}, "geometry": {"type": "LineString", "coordinates": [[2.299158, 48.8915072], [2.2992506, 48.8915094]]}}, {"type": "Feature", "properties": {"highway": "footway", "footway": "sidewalk", "name": null, "surface": null, "lit": "yes", "length_m": 172.34, "type_element": "Way", "__fid": 21757}, "geometry": {"type": "LineString", "coordinates": [[2.3008102, 48.8921834], [2.2992032, 48.8910524]]}}, {"type": "Feature", "properties": {"highway": "footway", "footway": null, "name": "Promenade Bernard Lafray", "surface": null, "lit": null, "length_m": 18.65, "type_element": "Way", "__fid": 21779}, "geometry": {"type": "LineString", "coordinates": [[2.2992506, 48.8915094], [2.2995048, 48.8915138]]}}, {"type": "Feature", "properties": {"highway": "footway", "footway": null, "name": null, "surface": null, "lit": null, "length_m": 3.28, "type_element": "Way", "__fid": 21780}, "geometry": {"type": "LineString", "coordinates": [[2.2992506, 48.8915094], [2.2992509, 48.8915389]]}}, {"type": "Feature", "properties": {"highway": "footway", "footway": null, "name": "Rue du Marquis d'Arlandes", "surface": null, "lit": "yes", "length_m": 14.49, "type_element": "Way", "__fid": 21872}, "geometry": {"type": "LineString", "coordinates": [[2.2994173, 48.8904665], [2.2994808, 48.890423], [2.2995376, 48.8904146], [2.2995699, 48.8903913]]}}, {"type": "Feature", "properties": {"highway": "footway", "footway": "sidewalk", "name": null, "surface": null, "lit": "yes", "length_m": 149.79, "type_element": "Way", "__fid": 21885}, "geometry": {"type": "LineString", "coordinates": [[2.2994058, 48.893375599999985], [2.3002615, 48.89267859999999], [2.3006663, 48.892316]]}}, {"type": "Feature", "properties": {"highway": "footway", "footway": null, "name": null, "surface": null, "lit": "yes", "length_m": 67.15, "type_element": "Way", "__fid": 21926}, "geometry": {"type": "LineString", "coordinates": [[2.3001082, 48.8918761], [2.3000737, 48.8918852], [2.300019, 48.8918869], [2.2999282, 48.891868], [2.2995634, 48.8916813], [2.2995191, 48.8916326], [2.2995048, 48.8915138]]}}, {"type": "Feature", "properties": {"highway": "footway", "footway": null, "name": null, "surface": null, "lit": "yes", "length_m": 12.84, "type_element": "Way", "__fid": 21927}, "geometry": {"type": "LineString", "coordinates": [[2.2995048, 48.8915138], [2.2995027, 48.89143749999999], [2.2995384, 48.8914062]]}}, {"type": "Feature", "properties": {"highway": "footway", "footway": "sidewalk", "name": null, "surface": null, "lit": "yes", "length_m": 66.66, "type_element": "Way", "__fid": 21946}, "geometry": {"type": "LineString", "coordinates": [[2.3001564, 48.8918459], [2.2995384, 48.8914062]]}}, {"type": "Feature", "properties": {"highway": "footway", "footway": null, "name": null, "surface": null, "lit": "yes", "length_m": 4.77, "type_element": "Way", "__fid": 21947}, "geometry": {"type": "LineString", "coordinates": [[2.2995384, 48.8914062], [2.2995861, 48.891377]]}}, {"type": "Feature", "properties": {"highway": "footway", "footway": null, "name": "Rue du Marquis d'Arlandes", "surface": null, "lit": "yes", "length_m": 66.36, "type_element": "Way", "__fid": 21958}, "geometry": {"type": "LineString", "coordinates": [[2.3001346, 48.88992660000001], [2.2998538, 48.8901889], [2.2995699, 48.8903913]]}}]}