{"type": "FeatureCollection", "features": [{"type": "Feature", "properties": {"highway": "footway", "footway": "sidewalk", "name": null, "surface": null, "lit": "24/7", "length_m": 256.36, "type_element": "Way", "__fid": 23913}, "geometry": {"type": "LineString", "coordinates": [[2.3052859, 48.89478489999998], [2.3032887, 48.8935464], [2.3026302, 48.893303299999985]]}}, {"type": "Feature", "properties": {"highway": "service", "footway": null, "name": null, "surface": null, "lit": "yes", "length_m": 34.97, "type_element": "Way", "__fid": 25261}, "geometry": {"type": "LineString", "coordinates": [[2.3052859, 48.89478489999998], [2.3049737, 48.89502260000001]]}}, {"type": "Feature", "properties": {"highway": "service", "footway": null, "name": null, "surface": null, "lit": "yes", "length_m": 6.9, "type_element": "Way", "__fid": 25439}, "geometry": {"type": "LineString", "coordinates": [[2.3053475, 48.894738], [2.3052859, 48.89478489999998]]}}, {"type": "Feature", "properties": {"highway": "footway", "footway": "sidewalk", "name": null, "surface": null, "lit": "yes", "length_m": 90.86, "type_element": "Way", "__fid": 27266}, "geometry": {"type": "LineString", "coordinates": [[2.3095275, 48.8965523], [2.3086786, 48.8962397], [2.3085726, 48.8963742], [2.3086041, 48.896387]]}}]}