{"type": "FeatureCollection", "features": [{"type": "Feature", "geometry": {"type": "Point", "coordinates": [2.300994, 48.890673]}, "properties": {"id": 20607, "name": "Baignade estivale - Just Fontaine", "categorie": "Baignades estivales", "photo_url": "https://cdn.paris.fr/eqpts-prod/2025/07/07/a37423e8fb6ee46a63a76fb8859b1d08.jpg", "photo_credit": "@", "photo_alt": "photo de la baignade", "address_street": "6 avenue Brunetière", "address_postcode": "75017", "address_city": "Paris", "phone": "0147665703", "accessibility": "{\"handicaps\": [{\"name\": \"Personnes déficientes visuelles\", \"status\": \"undefined\"}, {\"name\": \"Personnes déficientes auditives\", \"status\": \"undefined\"}, {\"name\": \"Personnes déficientes mentales\", \"status\": \"undefined\"}, {\"name\": \"Personnes à mobilité réduite\", \"status\": \"accessible\"}, {\"name\": \"Accueil en langue des signes\", \"status\": \"undefined\"}]}", "latitude": 48.890673, "longitude": 2.300994, "url": "https://www.paris.fr/lieux/baignade-estivale-just-fontaine-20607", "type_element": "Baignades estivales", "__fid": 5}}, {"type": "Feature", "properties": {"@id": "node/918205811", "amenity": "drinking_water", "fixme": "verifier la position", "source": "Eau de Paris", "type_element": "Fontaines à boire", "__fid": 247}, "geometry": {"type": "Point", "coordinates": [2.308036, 48.889296]}, "id": "node/918205811"}, {"type": "Feature", "geometry": {"type": "Point", "coordinates": [2.308257, 48.889977]}, "properties": {"id": 2810, "name": "Square Paul Paray", "categorie": "Parcs, jardins et bois", "photo_url": "https://cdn.paris.fr/eqpts-prod/2022/05/10/1a0a72aee9405064a1c8357390413a7a.jpg", "photo_credit": "Clement Dorval/Ville de Paris", "photo_alt": null, "address_street": "24 rue Christine de Pisan", "address_postcode": "75017", "address_city": "PARIS", "phone": null, "accessibility": "{\"handicaps\": [{\"name\": \"Personnes à mobilité réduite\", \"status\": \"accessible\"}, {\"name\": \"Personnes déficientes visuelles\", \"status\": \"undefined\"}, {\"name\": \"Personnes déficientes auditives\", \"status\": \"undefined\"}, {\"name\": \"Personnes déficientes mentales\", \"status\": \"undefined\"}, {\"name\": \"Accueil en langue des signes\", \"status\": \"undefined\"}]}", "latitude": 48.889977, "longitude": 2.308257, "url": "https://www.paris.fr/lieux/square-paul-paray-2810", "type_element": "Parcs, Jardins et Bois", "__fid": 1108}}, {"type": "Feature", "geometry": {"type": "Point", "coordinates": [2.303867, 48.891598]}, "properties": {"id": 2820, "name": "Jardin Claire Motte", "categorie": "Parcs, jardins et bois", "photo_url": "https://cdn.paris.fr/eqpts-prod/2024/02/02/05d645a9ad0c1bfa09e1f87fbe8e9ab2.jpg", "photo_credit": "Clement Dorval / Ville de Paris", "photo_alt": "Allée du Jardin Claire Motte", "address_street": "rue Marguerite Long et rue Albert Roussel", "address_postcode": "75017", "address_city": "PARIS", "phone": null, "accessibility": "{\"handicaps\": [{\"name\": \"Personnes à mobilité réduite\", \"status\": \"accessible\"}, {\"name\": \"Personnes déficientes visuelles\", \"status\": \"undefined\"}, {\"name\": \"Personnes déficientes auditives\", \"status\": \"undefined\"}, {\"name\": \"Personnes déficientes mentales\", \"status\": \"undefined\"}, {\"name\": \"Accueil en langue des signes\", \"status\": \"undefined\"}]}", "latitude": 48.891598, "longitude": 2.303867, "url": "https://www.paris.fr/lieux/jardin-claire-motte-2820", "type_element": "Parcs, Jardins et Bois", "__fid": 1417}}, {"type": "Feature", "geometry": {"type": "Point", "coordinates": [2.302533, 48.891068]}, "properties": {"id": 2818, "name": "Promenade Bernard Lafay", "categorie": "Parcs, jardins et bois", "photo_url": "https://cdn.paris.fr/eqpts-prod/2022/05/10/a1276d1c42a578114733940de51af6d6.jpg", "photo_credit": "Christophe Noël / Ville de Paris", "photo_alt": null, "address_street": "située entre bd A.de Paladines et avenue de la porte d'Asnières", "address_postcode": "75017", "address_city": "PARIS", "phone": null, "accessibility": "{\"handicaps\": [{\"name\": \"Personnes à mobilité réduite\", \"status\": \"accessible\"}, {\"name\": \"Personnes déficientes visuelles\", \"status\": \"undefined\"}, {\"name\": \"Personnes déficientes auditives\", \"status\": \"undefined\"}, {\"name\": \"Personnes déficientes mentales\", \"status\": \"undefined\"}, {\"name\": \"Accueil en langue des signes\", \"status\": \"undefined\"}]}", "latitude": 48.891068, "longitude": 2.302533, "url": "https://www.paris.fr/lieux/promenade-bernard-lafay-2818", "type_element": "Parcs, Jardins et Bois", "__fid": 1513}}, {"type": "Feature", "properties": {"highway": "footway", "footway": "sidewalk", "name": null, "surface": null, "lit": "yes", "length_m": 172.34, "type_element": "Way", "__fid": 21757}, "geometry": {"type": "LineString", "coordinates": [[2.3008102, 48.8921834], [2.2992032, 48.8910524]]}}, {"type": "Feature", "properties": {"highway": "footway", "footway": "sidewalk", "name": null, "surface": null, "lit": "yes", "length_m": 149.79, "type_element": "Way", "__fid": 21885}, "geometry": {"type": "LineString", "coordinates": [[2.2994058, 48.893375599999985], [2.3002615, 48.89267859999999], [2.3006663, 48.892316]]}}, {"type": "Feature", "properties": {"highway": "footway", "footway": null, "name": null, "surface": null, "lit": "yes", "length_m": 67.15, "type_element": "Way", "__fid": 21926}, "geometry": {"type": "LineString", "coordinates": [[2.3001082, 48.8918761], [2.3000737, 48.8918852], [2.300019, 48.8918869], [2.2999282, 48.891868], [2.2995634, 48.8916813], [2.2995191, 48.8916326], [2.2995048, 48.8915138]]}}, {"type": "Feature", "properties": {"highway": "footway", "footway": "sidewalk", "name": null, "surface": null, "lit": "yes", "length_m": 66.66, "type_element": "Way", "__fid": 21946}, "geometry": {"type": "LineString", "coordinates": [[2.3001564, 48.8918459], [2.2995384, 48.8914062]]}}, {"type": "Feature", "properties": {"highway": "footway", "footway": null, "name": "Rue du Marquis d'Arlandes", "surface": null, "lit": "yes", "length_m": 66.36, "type_element": "Way", "__fid": 21958}, "geometry": {"type": "LineString", "coordinates": [[2.3001346, 48.88992660000001], [2.2998538, 48.8901889], [2.2995699, 48.8903913]]}}, {"type": "Feature", "properties": {"highway": "service", "footway": null, "name": null, "surface": "asphalt", "lit": "yes", "length_m": 28.7, "type_element": "Way", "__fid": 22125}, "geometry": {"type": "LineString", "coordinates": [[2.3001082, 48.8918761], [2.299872, 48.8920819]]}}, {"type": "Feature", "properties": {"highway": "service", "footway": null, "name": null, "surface": "asphalt", "lit": "yes", "length_m": 2.06, "type_element": "Way", "__fid": 22296}, "geometry": {"type": "LineString", "coordinates": [[2.3001286, 48.8918633], [2.3001082, 48.8918761]]}}, {"type": "Feature", "properties": {"highway": "footway", "footway": "sidewalk", "name": null, "surface": "asphalt", "lit": "yes", "length_m": 55.92, "type_element": "Way", "__fid": 22308}, "geometry": {"type": "LineString", "coordinates": [[2.3001286, 48.8918633], [2.3002287, 48.8919309], [2.300158, 48.8919987], [2.3000097, 48.892095800000014], [2.3000048, 48.8921083], [2.3001823, 48.892239]]}}, {"type": "Feature", "properties": {"highway": "service", "footway": null, "name": null, "surface": "asphalt", "lit": "yes", "length_m": 2.81, "type_element": "Way", "__fid": 22309}, "geometry": {"type": "LineString", "coordinates": [[2.3001564, 48.8918459], [2.3001286, 48.8918633]]}}, {"type": "Feature", "properties": {"highway": "footway", "footway": "sidewalk", "name": null, "surface": null, "lit": "yes", "length_m": 59.92, "type_element": "Way", "__fid": 22327}, "geometry": {"type": "LineString", "coordinates": [[2.3006806, 48.892254399999985], [2.3006595, 48.8922119], [2.3005847, 48.892150700000016], [2.3001564, 48.8918459]]}}, {"type": "Feature", "properties": {"highway": "service", "footway": null, "name": null, "surface": "asphalt", "lit": "yes", "length_m": 4.92, "type_element": "Way", "__fid": 22328}, "geometry": {"type": "LineString", "coordinates": [[2.3002052, 48.8918155], [2.3001564, 48.8918459]]}}, {"type": "Feature", "properties": {"highway": "pedestrian", "footway": null, "name": "Square du Rhône", "surface": null, "lit": null, "length_m": 48.91, "type_element": "Way", "__fid": 22414}, "geometry": {"type": "LineString", "coordinates": [[2.3007363, 48.8887079], [2.3003325, 48.889058]]}}, {"type": "Feature", "properties": {"highway": "footway", "footway": "crossing", "name": null, "surface": "asphalt", "lit": "yes", "length_m": 26.25, "type_element": "Way", "__fid": 22697}, "geometry": {"type": "LineString", "coordinates": [[2.3006663, 48.892316], [2.300713, 48.89232370000001], [2.3009007, 48.89241089999999], [2.3009433, 48.8924557]]}}, {"type": "Feature", "properties": {"highway": "footway", "footway": "sidewalk", "name": null, "surface": null, "lit": "yes", "length_m": 7.02, "type_element": "Way", "__fid": 22698}, "geometry": {"type": "LineString", "coordinates": [[2.3006663, 48.892316], [2.3006808, 48.8922867], [2.3006806, 48.892254399999985]]}}, {"type": "Feature", "properties": {"highway": "footway", "footway": "crossing", "name": null, "surface": null, "lit": "yes", "length_m": 12.97, "type_element": "Way", "__fid": 22709}, "geometry": {"type": "LineString", "coordinates": [[2.3006806, 48.892254399999985], [2.3007196, 48.892251799999976], [2.3008102, 48.8921834]]}}, {"type": "Feature", "properties": {"highway": "footway", "footway": "sidewalk", "name": null, "surface": null, "lit": "yes", "length_m": 27.52, "type_element": "Way", "__fid": 22714}, "geometry": {"type": "LineString", "coordinates": [[2.301042, 48.8888514], [2.3007363, 48.8887079]]}}, {"type": "Feature", "properties": {"highway": "footway", "footway": "sidewalk", "name": null, "surface": null, "lit": "yes", "length_m": 31.97, "type_element": "Way", "__fid": 22745}, "geometry": {"type": "LineString", "coordinates": [[2.3009865, 48.8925018], [2.3007258, 48.89273220000002]]}}, {"type": "Feature", "properties": {"highway": "footway", "footway": "sidewalk", "name": null, "surface": null, "lit": "yes", "length_m": 87.26, "type_element": "Way", "__fid": 22799}, "geometry": {"type": "LineString", "coordinates": [[2.3008102, 48.8921834], [2.3013212, 48.8917662], [2.3015743, 48.8915822]]}}, {"type": "Feature", "properties": {"highway": "footway", "footway": "crossing", "name": null, "surface": "asphalt", "lit": "yes", "length_m": 6.03, "type_element": "Way", "__fid": 22917}, "geometry": {"type": "LineString", "coordinates": [[2.3009433, 48.8924557], [2.3009865, 48.8925018]]}}, {"type": "Feature", "properties": {"highway": "service", "footway": null, "name": "Avenue de la Porte d'Asnières", "surface": null, "lit": "yes", "length_m": 85.03, "type_element": "Way", "__fid": 22918}, "geometry": {"type": "LineString", "coordinates": [[2.3015976, 48.8918764], [2.3016264, 48.891978], [2.3016048, 48.8919994], [2.3012052, 48.8923166], [2.3010467, 48.89241670000001], [2.3009433, 48.8924557]]}}, {"type": "Feature", "properties": {"highway": "footway", "footway": "sidewalk", "name": null, "surface": null, "lit": "yes", "length_m": 5.66, "type_element": "Way", "__fid": 22949}, "geometry": {"type": "LineString", "coordinates": [[2.3010607, 48.8924879], [2.3009865, 48.8925018]]}}, {"type": "Feature", "properties": {"highway": "footway", "footway": "sidewalk", "name": null, "surface": null, "lit": "yes", "length_m": 157.97, "type_element": "Way", "__fid": 22956}, "geometry": {"type": "LineString", "coordinates": [[2.3027166, 48.889661], [2.3025581, 48.88958390000001], [2.3023914, 48.8894822], [2.3020746, 48.889338500000015], [2.301998, 48.8893483], [2.3018125, 48.88926150000001], [2.3018039, 48.8892112], [2.3013351, 48.88898309999998], [2.3012702, 48.88898660000001], [2.3011232, 48.8889181], [2.3011018, 48.8888795], [2.301042, 48.8888514]]}}, {"type": "Feature", "properties": {"highway": "footway", "footway": "crossing", "name": null, "surface": null, "lit": "yes", "length_m": 34.18, "type_element": "Way", "__fid": 22957}, "geometry": {"type": "LineString", "coordinates": [[2.301042, 48.8888514], [2.3013125, 48.88860110000002]]}}, {"type": "Feature", "properties": {"highway": "footway", "footway": "sidewalk", "name": null, "surface": "asphalt", "lit": "yes", "length_m": 137.96, "type_element": "Way", "__fid": 23000}, "geometry": {"type": "LineString", "coordinates": [[2.3025234, 48.8932639], [2.302233, 48.8931508], [2.3010607, 48.8924879]]}}, {"type": "Feature", "properties": {"highway": "footway", "footway": "sidewalk", "name": null, "surface": null, "lit": "yes", "length_m": 101.7, "type_element": "Way", "__fid": 23001}, "geometry": {"type": "LineString", "coordinates": [[2.3019234, 48.8917781], [2.3018511, 48.891885600000016], [2.3010772, 48.892468], [2.3010607, 48.8924879]]}}, {"type": "Feature", "properties": {"highway": "footway", "footway": "sidewalk", "name": null, "surface": null, "lit": "yes", "length_m": 155.62, "type_element": "Way", "__fid": 23123}, "geometry": {"type": "LineString", "coordinates": [[2.3013125, 48.88860110000002], [2.3018466, 48.8888592], [2.302138, 48.88891910000001], [2.3022352, 48.889048], [2.3029937, 48.8894102]]}}, {"type": "Feature", "properties": {"highway": "footway", "footway": "crossing", "name": null, "surface": null, "lit": "yes", "length_m": 33.61, "type_element": "Way", "__fid": 23299}, "geometry": {"type": "LineString", "coordinates": [[2.3019234, 48.8917781], [2.3015743, 48.8915822]]}}, {"type": "Feature", "properties": {"highway": "footway", "footway": "sidewalk", "name": null, "surface": null, "lit": "yes", "length_m": 102.1, "type_element": "Way", "__fid": 23300}, "geometry": {"type": "LineString", "coordinates": [[2.3015743, 48.8915822], [2.3024892, 48.89089]]}}, {"type": "Feature", "properties": {"highway": "footway", "footway": "sidewalk", "name": null, "surface": "asphalt", "lit": "yes", "length_m": 84.25, "type_element": "Way", "__fid": 23514}, "geometry": {"type": "LineString", "coordinates": [[2.3019234, 48.8917781], [2.3026942, 48.8912162]]}}, {"type": "Feature", "properties": {"highway": "service", "footway": null, "name": null, "surface": "asphalt", "lit": "yes", "length_m": 21.37, "type_element": "Way", "__fid": 23799}, "geometry": {"type": "LineString", "coordinates": [[2.3026586, 48.8911916], [2.302606, 48.8912236], [2.3024383, 48.8911298]]}}, {"type": "Feature", "properties": {"highway": "footway", "footway": "crossing", "name": null, "surface": null, "lit": "yes", "length_m": 30.15, "type_element": "Way", "__fid": 23824}, "geometry": {"type": "LineString", "coordinates": [[2.3024892, 48.89089], [2.3027762, 48.891043400000015], [2.3027961, 48.8910676]]}}, {"type": "Feature", "properties": {"highway": "footway", "footway": "sidewalk", "name": null, "surface": null, "lit": "yes", "length_m": 115.8, "type_element": "Way", "__fid": 23825}, "geometry": {"type": "LineString", "coordinates": [[2.3024892, 48.89089], [2.3029638, 48.8905455], [2.303534, 48.8901092]]}}, {"type": "Feature", "properties": {"highway": "service", "footway": null, "name": "Passage de la Hutte au Garde", "surface": "asphalt", "lit": "yes", "length_m": 16.6, "type_element": "Way", "__fid": 23848}, "geometry": {"type": "LineString", "coordinates": [[2.3025282, 48.8910624], [2.3027161, 48.8911457]]}}, {"type": "Feature", "properties": {"highway": "service", "footway": null, "name": null, "surface": "asphalt", "lit": "yes", "length_m": 160.24, "type_element": "Way", "__fid": 23860}, "geometry": {"type": "LineString", "coordinates": [[2.3026302, 48.893303299999985], [2.3026107, 48.893339], [2.3026266, 48.89336830000002], [2.3028505, 48.89347870000001], [2.3032398, 48.89363130000001], [2.3032615, 48.8936569], [2.3032602, 48.8936819], [2.3032155, 48.8937372], [2.3031328, 48.893764], [2.3030756, 48.8937615], [2.3029936, 48.89374320000002], [2.3029484, 48.8937216], [2.3029194, 48.8936975], [2.3028327, 48.8935174], [2.3025367, 48.89338609999999], [2.3025218, 48.8933671], [2.3025234, 48.8932639]]}}, {"type": "Feature", "properties": {"highway": "service", "footway": null, "name": null, "surface": "asphalt", "lit": "yes", "length_m": 9.33, "type_element": "Way", "__fid": 23861}, "geometry": {"type": "LineString", "coordinates": [[2.3025234, 48.8932639], [2.302552, 48.8931821]]}}, {"type": "Feature", "properties": {"highway": "footway", "footway": "sidewalk", "name": null, "surface": null, "lit": "24/7", "length_m": 256.36, "type_element": "Way", "__fid": 23913}, "geometry": {"type": "LineString", "coordinates": [[2.3052859, 48.89478489999998], [2.3032887, 48.8935464], [2.3026302, 48.893303299999985]]}}, {"type": "Feature", "properties": {"highway": "service", "footway": null, "name": null, "surface": "asphalt", "lit": "yes", "length_m": 8.84, "type_element": "Way", "__fid": 23914}, "geometry": {"type": "LineString", "coordinates": [[2.3026954, 48.893236399999985], [2.3026302, 48.893303299999985]]}}, {"type": "Feature", "properties": {"highway": "service", "footway": null, "name": null, "surface": null, "lit": "yes", "length_m": 3.78, "type_element": "Way", "__fid": 23915}, "geometry": {"type": "LineString", "coordinates": [[2.3026586, 48.8911916], [2.3026942, 48.8912162]]}}, {"type": "Feature", "properties": {"highway": "service", "footway": null, "name": null, "surface": "asphalt", "lit": "yes", "length_m": 6.62, "type_element": "Way", "__fid": 23916}, "geometry": {"type": "LineString", "coordinates": [[2.3027161, 48.8911457], [2.3026586, 48.8911916]]}}, {"type": "Feature", "properties": {"highway": "service", "footway": null, "name": null, "surface": null, "lit": "yes", "length_m": 31.54, "type_element": "Way", "__fid": 23932}, "geometry": {"type": "LineString", "coordinates": [[2.3026942, 48.8912162], [2.3030283, 48.8913949]]}}, {"type": "Feature", "properties": {"highway": "footway", "footway": "sidewalk", "name": null, "surface": "asphalt", "lit": "yes", "length_m": 7.36, "type_element": "Way", "__fid": 23933}, "geometry": {"type": "LineString", "coordinates": [[2.3026942, 48.8912162], [2.3027616, 48.8911671]]}}, {"type": "Feature", "properties": {"highway": "footway", "footway": "sidewalk", "name": null, "surface": "asphalt", "lit": "yes", "length_m": 64.45, "type_element": "Way", "__fid": 23936}, "geometry": {"type": "LineString", "coordinates": [[2.3034235, 48.8900054], [2.3027166, 48.889661]]}}, {"type": "Feature", "properties": {"highway": "footway", "footway": "crossing", "name": null, "surface": null, "lit": "yes", "length_m": 11.38, "type_element": "Way", "__fid": 23937}, "geometry": {"type": "LineString", "coordinates": [[2.3027166, 48.889661], [2.3028068, 48.8895777]]}}, {"type": "Feature", "properties": {"highway": "footway", "footway": null, "name": "Passage de la Hutte au Garde", "surface": null, "lit": "yes", "length_m": 4.1, "type_element": "Way", "__fid": 23954}, "geometry": {"type": "LineString", "coordinates": [[2.3027161, 48.8911457], [2.3027616, 48.8911671]]}}, {"type": "Feature", "properties": {"highway": "footway", "footway": null, "name": "Passage de la Hutte au Garde", "surface": null, "lit": "yes", "length_m": 5.62, "type_element": "Way", "__fid": 23989}, "geometry": {"type": "LineString", "coordinates": [[2.3027616, 48.8911671], [2.3028191, 48.89120049999999]]}}, {"type": "Feature", "properties": {"highway": "footway", "footway": null, "name": null, "surface": "paving_stones", "lit": "yes", "length_m": 12.45, "type_element": "Way", "__fid": 24003}, "geometry": {"type": "LineString", "coordinates": [[2.3029447, 48.889643], [2.3028068, 48.8895777]]}}, {"type": "Feature", "properties": {"highway": "footway", "footway": "crossing", "name": null, "surface": null, "lit": "yes", "length_m": 10.15, "type_element": "Way", "__fid": 24004}, "geometry": {"type": "LineString", "coordinates": [[2.3028068, 48.8895777], [2.3028886, 48.8895041]]}}, {"type": "Feature", "properties": {"highway": "footway", "footway": "sidewalk", "name": null, "surface": null, "lit": "yes", "length_m": 15.82, "type_element": "Way", "__fid": 24017}, "geometry": {"type": "LineString", "coordinates": [[2.3027961, 48.8910676], [2.3028427, 48.89112440000001], [2.3028191, 48.89120049999999]]}}, {"type": "Feature", "properties": {"highway": "footway", "footway": "sidewalk", "name": null, "surface": null, "lit": "yes", "length_m": 38.22, "type_element": "Way", "__fid": 24018}, "geometry": {"type": "LineString", "coordinates": [[2.3031368, 48.8908075], [2.3027961, 48.8910676]]}}, {"type": "Feature", "properties": {"highway": "footway", "footway": null, "name": "Passage de la Hutte au Garde", "surface": null, "lit": "yes", "length_m": 4.87, "type_element": "Way", "__fid": 24039}, "geometry": {"type": "LineString", "coordinates": [[2.3028191, 48.89120049999999], [2.3028689, 48.89122949999999]]}}, {"type": "Feature", "properties": {"highway": "footway", "footway": null, "name": null, "surface": "paving_stones", "lit": "yes", "length_m": 11.91, "type_element": "Way", "__fid": 24064}, "geometry": {"type": "LineString", "coordinates": [[2.3030194, 48.8895676], [2.3028886, 48.8895041]]}}, {"type": "Feature", "properties": {"highway": "footway", "footway": "crossing", "name": null, "surface": null, "lit": "yes", "length_m": 12.98, "type_element": "Way", "__fid": 24065}, "geometry": {"type": "LineString", "coordinates": [[2.3028886, 48.8895041], [2.3029937, 48.8894102]]}}, {"type": "Feature", "properties": {"highway": "footway", "footway": null, "name": "Passage de la Hutte au Garde", "surface": null, "lit": "yes", "length_m": 83.2, "type_element": "Way", "__fid": 24070}, "geometry": {"type": "LineString", "coordinates": [[2.3028689, 48.89122949999999], [2.3037201, 48.8917243]]}}, {"type": "Feature", "properties": {"highway": "footway", "footway": "sidewalk", "name": null, "surface": null, "lit": "yes", "length_m": 47.96, "type_element": "Way", "__fid": 24071}, "geometry": {"type": "LineString", "coordinates": [[2.3033082, 48.89091], [2.3028689, 48.89122949999999]]}}, {"type": "Feature", "properties": {"highway": "footway", "footway": "sidewalk", "name": null, "surface": null, "lit": "yes", "length_m": 64.61, "type_element": "Way", "__fid": 24134}, "geometry": {"type": "LineString", "coordinates": [[2.3029937, 48.8894102], [2.3036707, 48.8897335], [2.3037118, 48.889746]]}}, {"type": "Feature", "properties": {"highway": "service", "footway": null, "name": null, "surface": null, "lit": "yes", "length_m": 14.15, "type_element": "Way", "__fid": 24147}, "geometry": {"type": "LineString", "coordinates": [[2.3029963, 48.8907203], [2.3031368, 48.8908075]]}}, {"type": "Feature", "properties": {"highway": "service", "footway": null, "name": null, "surface": null, "lit": "yes", "length_m": 16.97, "type_element": "Way", "__fid": 24211}, "geometry": {"type": "LineString", "coordinates": [[2.3031368, 48.8908075], [2.3033082, 48.89091]]}}, {"type": "Feature", "properties": {"highway": "footway", "footway": "sidewalk", "name": null, "surface": null, "lit": "yes", "length_m": 70.2, "type_element": "Way", "__fid": 24212}, "geometry": {"type": "LineString", "coordinates": [[2.3037627, 48.8903298], [2.3031368, 48.8908075]]}}, {"type": "Feature", "properties": {"highway": "service", "footway": null, "name": null, "surface": null, "lit": "yes", "length_m": 9.91, "type_element": "Way", "__fid": 24334}, "geometry": {"type": "LineString", "coordinates": [[2.3033082, 48.89091], [2.3034091, 48.8909693]]}}, {"type": "Feature", "properties": {"highway": "footway", "footway": "sidewalk", "name": null, "surface": null, "lit": "yes", "length_m": 83.92, "type_element": "Way", "__fid": 24335}, "geometry": {"type": "LineString", "coordinates": [[2.3040751, 48.89034979999999], [2.3033082, 48.89091]]}}, {"type": "Feature", "properties": {"highway": "footway", "footway": "sidewalk", "name": null, "surface": null, "lit": "yes", "length_m": 15.18, "type_element": "Way", "__fid": 24387}, "geometry": {"type": "LineString", "coordinates": [[2.303534, 48.8901092], [2.3035323, 48.8900677], [2.3034235, 48.8900054]]}}, {"type": "Feature", "properties": {"highway": "footway", "footway": "crossing", "name": null, "surface": "paving_stones", "lit": "yes", "length_m": 12.17, "type_element": "Way", "__fid": 24388}, "geometry": {"type": "LineString", "coordinates": [[2.3034235, 48.8900054], [2.303522, 48.8899173]]}}, {"type": "Feature", "properties": {"highway": "footway", "footway": "traffic_island", "name": null, "surface": "paving_stones", "lit": "yes", "length_m": 8.72, "type_element": "Way", "__fid": 24389}, "geometry": {"type": "LineString", "coordinates": [[2.3034261, 48.889871], [2.303522, 48.8899173]]}}, {"type": "Feature", "properties": {"highway": "footway", "footway": "traffic_island", "name": null, "surface": "paving_stones", "lit": "yes", "length_m": 9.19, "type_element": "Way", "__fid": 24421}, "geometry": {"type": "LineString", "coordinates": [[2.3035011, 48.8897957], [2.3036017, 48.889845]]}}, {"type": "Feature", "properties": {"highway": "footway", "footway": "crossing", "name": null, "surface": "paving_stones", "lit": "yes", "length_m": 9.94, "type_element": "Way", "__fid": 24431}, "geometry": {"type": "LineString", "coordinates": [[2.303522, 48.8899173], [2.3036017, 48.889845]]}}, {"type": "Feature", "properties": {"highway": "footway", "footway": "crossing", "name": null, "surface": null, "lit": "yes", "length_m": 28.81, "type_element": "Way", "__fid": 24438}, "geometry": {"type": "LineString", "coordinates": [[2.303534, 48.8901092], [2.3038501, 48.8902631]]}}, {"type": "Feature", "properties": {"highway": "footway", "footway": "crossing", "name": null, "surface": "paving_stones", "lit": "yes", "length_m": 13.65, "type_element": "Way", "__fid": 24477}, "geometry": {"type": "LineString", "coordinates": [[2.3036017, 48.889845], [2.3037118, 48.889746]]}}, {"type": "Feature", "properties": {"highway": "service", "footway": null, "name": null, "surface": null, "lit": "yes", "length_m": 23.89, "type_element": "Way", "__fid": 24484}, "geometry": {"type": "LineString", "coordinates": [[2.3037627, 48.8903298], [2.3037856, 48.8903681], [2.3036119, 48.8904986]]}}, {"type": "Feature", "properties": {"highway": "footway", "footway": "crossing", "name": null, "surface": null, "lit": "yes", "length_m": 35.4, "type_element": "Way", "__fid": 24532}, "geometry": {"type": "LineString", "coordinates": [[2.3037118, 48.889746], [2.3038596, 48.8897967], [2.304123, 48.889912]]}}, {"type": "Feature", "properties": {"highway": "footway", "footway": "sidewalk", "name": null, "surface": "asphalt", "lit": "yes", "length_m": 78.38, "type_element": "Way", "__fid": 24533}, "geometry": {"type": "LineString", "coordinates": [[2.3037118, 48.889746], [2.3038823, 48.889596], [2.3039067, 48.8894826], [2.3040284, 48.88908780000002]]}}, {"type": "Feature", "properties": {"highway": "service", "footway": null, "name": null, "surface": null, "lit": "yes", "length_m": 11.93, "type_element": "Way", "__fid": 24534}, "geometry": {"type": "LineString", "coordinates": [[2.3037058, 48.8902293], [2.3037627, 48.8903298]]}}, {"type": "Feature", "properties": {"highway": "footway", "footway": "sidewalk", "name": null, "surface": null, "lit": "yes", "length_m": 9.8, "type_element": "Way", "__fid": 24564}, "geometry": {"type": "LineString", "coordinates": [[2.3038501, 48.8902631], [2.3037627, 48.8903298]]}}, {"type": "Feature", "properties": {"highway": "footway", "footway": "sidewalk", "name": null, "surface": null, "lit": "yes", "length_m": 7.48, "type_element": "Way", "__fid": 24600}, "geometry": {"type": "LineString", "coordinates": [[2.3038501, 48.8902631], [2.3038991, 48.8902792], [2.3039457, 48.8902845]]}}, {"type": "Feature", "properties": {"highway": "footway", "footway": "sidewalk", "name": null, "surface": null, "lit": "yes", "length_m": 11.95, "type_element": "Way", "__fid": 24643}, "geometry": {"type": "LineString", "coordinates": [[2.3039457, 48.8902845], [2.3040751, 48.89034979999999]]}}, {"type": "Feature", "properties": {"highway": "footway", "footway": "crossing", "name": null, "surface": null, "lit": "yes", "length_m": 41.5, "type_element": "Way", "__fid": 24644}, "geometry": {"type": "LineString", "coordinates": [[2.3043322, 48.8900119], [2.3039457, 48.8902845]]}}, {"type": "Feature", "properties": {"highway": "footway", "footway": "crossing", "name": null, "surface": "asphalt", "lit": "yes", "length_m": 23.27, "type_element": "Way", "__fid": 24657}, "geometry": {"type": "LineString", "coordinates": [[2.3043393, 48.8891296], [2.3040284, 48.88908780000002]]}}, {"type": "Feature", "properties": {"highway": "footway", "footway": "sidewalk", "name": null, "surface": "asphalt", "lit": "yes", "length_m": 39.68, "type_element": "Way", "__fid": 24658}, "geometry": {"type": "LineString", "coordinates": [[2.3040284, 48.88908780000002], [2.3041331, 48.8887377]]}}, {"type": "Feature", "properties": {"highway": "service", "footway": null, "name": null, "surface": null, "lit": null, "length_m": 50.0, "type_element": "Way", "__fid": 24672}, "geometry": {"type": "LineString", "coordinates": [[2.3039974, 48.8933019], [2.3042613, 48.8931369], [2.304395, 48.8930771], [2.3044779, 48.8930614], [2.3045482, 48.8930582]]}}, {"type": "Feature", "properties": {"highway": "footway", "footway": "sidewalk", "name": null, "surface": null, "lit": "yes", "length_m": 254.92, "type_element": "Way", "__fid": 24687}, "geometry": {"type": "LineString", "coordinates": [[2.3040751, 48.89034979999999], [2.3061329, 48.89134330000001], [2.306892626559204, 48.89169264001943]]}}, {"type": "Feature", "properties": {"highway": "footway", "footway": "crossing", "name": null, "surface": "asphalt", "lit": "yes", "length_m": 23.05, "type_element": "Way", "__fid": 24711}, "geometry": {"type": "LineString", "coordinates": [[2.3041331, 48.8887377], [2.3044428, 48.8887732]]}}, {"type": "Feature", "properties": {"highway": "footway", "footway": "sidewalk", "name": null, "surface": "asphalt", "lit": "yes", "length_m": 119.38, "type_element": "Way", "__fid": 24712}, "geometry": {"type": "LineString", "coordinates": [[2.3041331, 48.8887377], [2.3044388, 48.8877032], [2.3044294, 48.8876846]]}}, {"type": "Feature", "properties": {"highway": "footway", "footway": "crossing", "name": null, "surface": null, "lit": "yes", "length_m": 18.98, "type_element": "Way", "__fid": 24716}, "geometry": {"type": "LineString", "coordinates": [[2.304123, 48.889912], [2.3042126, 48.88994839999999], [2.3043322, 48.8900119]]}}, {"type": "Feature", "properties": {"highway": "footway", "footway": "sidewalk", "name": null, "surface": null, "lit": "yes", "length_m": 88.48, "type_element": "Way", "__fid": 24717}, "geometry": {"type": "LineString", "coordinates": [[2.3043393, 48.8891296], [2.3041294, 48.889852], [2.304123, 48.889912]]}}, {"type": "Feature", "properties": {"highway": "footway", "footway": "sidewalk", "name": null, "surface": null, "lit": "yes", "length_m": 40.35, "type_element": "Way", "__fid": 24832}, "geometry": {"type": "LineString", "coordinates": [[2.3044428, 48.8887732], [2.3043393, 48.8891296]]}}, {"type": "Feature", "properties": {"highway": "footway", "footway": "sidewalk", "name": null, "surface": "asphalt", "lit": "yes", "length_m": 18.79, "type_element": "Way", "__fid": 24833}, "geometry": {"type": "LineString", "coordinates": [[2.3045203, 48.8901169], [2.3043343, 48.89003119999999], [2.3043322, 48.8900119]]}}, {"type": "Feature", "properties": {"highway": "footway", "footway": "sidewalk", "name": null, "surface": "asphalt", "lit": "yes", "length_m": 241.58, "type_element": "Way", "__fid": 24834}, "geometry": {"type": "LineString", "coordinates": [[2.3043322, 48.8900119], [2.30433, 48.8899911], [2.3044645, 48.8898805], [2.3064773, 48.8883712]]}}, {"type": "Feature", "properties": {"highway": "footway", "footway": "sidewalk", "name": null, "surface": "asphalt", "lit": "yes", "length_m": 121.81, "type_element": "Way", "__fid": 24904}, "geometry": {"type": "LineString", "coordinates": [[2.304767, 48.8877087], [2.3047335, 48.8877237], [2.3047412, 48.88774650000001], [2.3044428, 48.8887732]]}}, {"type": "Feature", "properties": {"highway": "footway", "footway": "crossing", "name": null, "surface": null, "lit": "yes", "length_m": 22.86, "type_element": "Way", "__fid": 24950}, "geometry": {"type": "LineString", "coordinates": [[2.3045203, 48.8901169], [2.304709, 48.8902282], [2.3047583, 48.890249]]}}, {"type": "Feature", "properties": {"highway": "footway", "footway": "sidewalk", "name": null, "surface": "asphalt", "lit": "yes", "length_m": 276.36, "type_element": "Way", "__fid": 24951}, "geometry": {"type": "LineString", "coordinates": [[2.3078313, 48.889018600000014], [2.3059804, 48.8896425], [2.305974, 48.8896918], [2.3053651, 48.88989760000002], [2.3052892, 48.8898809], [2.3045799, 48.890111199999986], [2.3045203, 48.8901169]]}}, {"type": "Feature", "properties": {"highway": "service", "footway": null, "name": null, "surface": null, "lit": null, "length_m": 271.9, "type_element": "Way", "__fid": 24987}, "geometry": {"type": "LineString", "coordinates": [[2.3045482, 48.8930582], [2.3053895, 48.8931921], [2.3063014, 48.8928571], [2.3076503, 48.8920723]]}}, {"type": "Feature", "properties": {"highway": "track", "footway": null, "name": "Voie BP/17", "surface": null, "lit": null, "length_m": 233.18, "type_element": "Way", "__fid": 24988}, "geometry": {"type": "LineString", "coordinates": [[2.3045482, 48.8930582], [2.3047922, 48.8928548], [2.3049333, 48.8927589], [2.3051856, 48.8926534], [2.3055168, 48.892479], [2.3059356, 48.89215520000001], [2.3062043, 48.8919827], [2.3062439, 48.89197390000001], [2.3063532, 48.89197390000001], [2.3064044, 48.891954800000015], [2.3065653, 48.8918861], [2.306892626559204, 48.89169264001943]]}}, {"type": "Feature", "properties": {"highway": "footway", "footway": "sidewalk", "name": null, "surface": "concrete", "lit": "yes", "length_m": 223.36, "type_element": "Way", "__fid": 25079}, "geometry": {"type": "LineString", "coordinates": [[2.3047583, 48.890249], [2.307234073364076, 48.89141922586827]]}}, {"type": "Feature", "properties": {"highway": "footway", "footway": "sidewalk", "name": null, "surface": "concrete", "lit": "yes", "length_m": 263.8, "type_element": "Way", "__fid": 25080}, "geometry": {"type": "LineString", "coordinates": [[2.3079221, 48.8891407], [2.3059396, 48.8898199], [2.3059033, 48.88981540000001], [2.3050595, 48.8901004], [2.3050132, 48.8901349], [2.304965, 48.8901508], [2.3047583, 48.890249]]}}, {"type": "Feature", "properties": {"highway": "footway", "footway": "sidewalk", "name": null, "surface": null, "lit": "yes", "length_m": 170.9, "type_element": "Way", "__fid": 26230}, "geometry": {"type": "LineString", "coordinates": [[2.306892626559204, 48.89169264001943], [2.3083717, 48.8923754], [2.3085337, 48.8924577], [2.3088117, 48.89256330000001]]}}, {"type": "Feature", "properties": {"highway": "track", "footway": null, "name": null, "surface": null, "lit": null, "length_m": 39.39, "type_element": "Way", "__fid": 26231}, "geometry": {"type": "LineString", "coordinates": [[2.306892626559204, 48.89169264001943], [2.307234073364076, 48.89141922586827]]}}, {"type": "Feature", "properties": {"highway": "footway", "footway": null, "name": null, "surface": null, "lit": null, "length_m": 20.88, "type_element": "Way", "__fid": 26262}, "geometry": {"type": "LineString", "coordinates": [[2.3069894, 48.8900869], [2.3070934, 48.8899969], [2.3071898, 48.8899579]]}}, {"type": "Feature", "properties": {"highway": "footway", "footway": null, "name": null, "surface": "paving_stones", "lit": "yes", "length_m": 48.26, "type_element": "Way", "__fid": 26321}, "geometry": {"type": "LineString", "coordinates": [[2.3070699, 48.8901934], [2.3073844, 48.890151], [2.3075467, 48.8901025], [2.3076652, 48.8900327]]}}, {"type": "Feature", "properties": {"highway": "footway", "footway": null, "name": null, "surface": null, "lit": null, "length_m": 18.16, "type_element": "Way", "__fid": 26326}, "geometry": {"type": "LineString", "coordinates": [[2.3070783, 48.8898121], [2.3071898, 48.8899579]]}}, {"type": "Feature", "properties": {"highway": "path", "footway": null, "name": null, "surface": null, "lit": "yes", "length_m": 31.8, "type_element": "Way", "__fid": 26382}, "geometry": {"type": "LineString", "coordinates": [[2.3071816, 48.8904193], [2.3074438, 48.8903841], [2.3075077, 48.8904019], [2.3075648, 48.8904534]]}}, {"type": "Feature", "properties": {"highway": "footway", "footway": null, "name": null, "surface": null, "lit": null, "length_m": 4.69, "type_element": "Way", "__fid": 26386}, "geometry": {"type": "LineString", "coordinates": [[2.3071898, 48.8899579], [2.3072186, 48.8899956]]}}, {"type": "Feature", "properties": {"highway": "footway", "footway": null, "name": null, "surface": null, "lit": null, "length_m": 20.51, "type_element": "Way", "__fid": 26387}, "geometry": {"type": "LineString", "coordinates": [[2.3071898, 48.8899579], [2.3072543, 48.8899336], [2.3073143, 48.8898699], [2.3073923, 48.8898381]]}}, {"type": "Feature", "properties": {"highway": "service", "footway": null, "name": null, "surface": null, "lit": "yes", "length_m": 5.42, "type_element": "Way", "__fid": 26418}, "geometry": {"type": "LineString", "coordinates": [[2.3072281, 48.8908026], [2.3072804, 48.890837]]}}, {"type": "Feature", "properties": {"highway": "footway", "footway": "sidewalk", "name": null, "surface": "concrete", "lit": "yes", "length_m": 394.63, "type_element": "Way", "__fid": 26429}, "geometry": {"type": "LineString", "coordinates": [[2.307234073364076, 48.89141922586827], [2.3093057, 48.8924249], [2.3105152, 48.8929992], [2.3116622, 48.8934288]]}}, {"type": "Feature", "properties": {"highway": "track", "footway": null, "name": null, "surface": null, "lit": null, "length_m": 14.0, "type_element": "Way", "__fid": 26430}, "geometry": {"type": "LineString", "coordinates": [[2.307234073364076, 48.89141922586827], [2.3073422, 48.89131549999998]]}}, {"type": "Feature", "properties": {"highway": "footway", "footway": null, "name": null, "surface": null, "lit": null, "length_m": 11.09, "type_element": "Way", "__fid": 26444}, "geometry": {"type": "LineString", "coordinates": [[2.3073452, 48.8897751], [2.3072783, 48.8896857]]}}, {"type": "Feature", "properties": {"highway": "service", "footway": null, "name": null, "surface": null, "lit": "yes", "length_m": 27.92, "type_element": "Way", "__fid": 26450}, "geometry": {"type": "LineString", "coordinates": [[2.3072804, 48.890837], [2.3073439, 48.89099479999998], [2.3074731, 48.8909735]]}}, {"type": "Feature", "properties": {"highway": "path", "footway": null, "name": null, "surface": null, "lit": "yes", "length_m": 61.16, "type_element": "Way", "__fid": 26451}, "geometry": {"type": "LineString", "coordinates": [[2.3072804, 48.890837], [2.3076102, 48.8907711], [2.3076304, 48.8907123], [2.3075648, 48.8904534]]}}, {"type": "Feature", "properties": {"highway": "footway", "footway": null, "name": null, "surface": null, "lit": null, "length_m": 7.81, "type_element": "Way", "__fid": 26474}, "geometry": {"type": "LineString", "coordinates": [[2.3073923, 48.8898381], [2.3073452, 48.8897751]]}}, {"type": "Feature", "properties": {"highway": "footway", "footway": null, "name": null, "surface": null, "lit": null, "length_m": 8.41, "type_element": "Way", "__fid": 26475}, "geometry": {"type": "LineString", "coordinates": [[2.3073452, 48.8897751], [2.3074484, 48.889742]]}}, {"type": "Feature", "properties": {"highway": "track", "footway": null, "name": null, "surface": null, "lit": null, "length_m": 101.48, "type_element": "Way", "__fid": 26483}, "geometry": {"type": "LineString", "coordinates": [[2.3073422, 48.89131549999998], [2.3075218, 48.8910567], [2.3076197, 48.8909765], [2.3077803, 48.8907929], [2.3080854, 48.890553]]}}, {"type": "Feature", "properties": {"highway": "service", "footway": null, "name": null, "surface": null, "lit": null, "length_m": 93.52, "type_element": "Way", "__fid": 26484}, "geometry": {"type": "LineString", "coordinates": [[2.3081689, 48.89087580000001], [2.3078159, 48.8911518], [2.3077784, 48.8911547], [2.307597, 48.8910667], [2.3075614, 48.8910744], [2.3073894, 48.891279], [2.3073422, 48.89131549999998]]}}, {"type": "Feature", "properties": {"highway": "footway", "footway": null, "name": null, "surface": null, "lit": null, "length_m": 4.97, "type_element": "Way", "__fid": 26495}, "geometry": {"type": "LineString", "coordinates": [[2.3074223, 48.8898782], [2.3073923, 48.8898381]]}}, {"type": "Feature", "properties": {"highway": "footway", "footway": null, "name": null, "surface": null, "lit": null, "length_m": 6.08, "type_element": "Way", "__fid": 26496}, "geometry": {"type": "LineString", "coordinates": [[2.3073923, 48.8898381], [2.3074518, 48.8898]]}}, {"type": "Feature", "properties": {"highway": "footway", "footway": null, "name": null, "surface": null, "lit": null, "length_m": 6.54, "type_element": "Way", "__fid": 26527}, "geometry": {"type": "LineString", "coordinates": [[2.3074518, 48.8898], [2.3074575, 48.8897749], [2.3074484, 48.889742]]}}, {"type": "Feature", "properties": {"highway": "footway", "footway": null, "name": null, "surface": null, "lit": null, "length_m": 22.73, "type_element": "Way", "__fid": 26528}, "geometry": {"type": "LineString", "coordinates": [[2.3074484, 48.889742], [2.3074883, 48.8897184], [2.3074923, 48.8896675], [2.3075292, 48.8896351], [2.3075302, 48.889604], [2.3075104, 48.88955940000002]]}}, {"type": "Feature", "properties": {"highway": "steps", "footway": null, "name": null, "surface": null, "lit": "yes", "length_m": 24.53, "type_element": "Way", "__fid": 26531}, "geometry": {"type": "LineString", "coordinates": [[2.3077248, 48.889916800000016], [2.3075907, 48.8898292], [2.3074518, 48.8898]]}}, {"type": "Feature", "properties": {"highway": "footway", "footway": null, "name": null, "surface": null, "lit": "yes", "length_m": 76.34, "type_element": "Way", "__fid": 26612}, "geometry": {"type": "LineString", "coordinates": [[2.3079188, 48.89005259999998], [2.3079181, 48.89013989999999], [2.3079497, 48.89018140000001], [2.3080342, 48.8902607], [2.3080462, 48.8902868], [2.3079711, 48.890418099999984], [2.3079282, 48.89045250000002], [2.3078524, 48.890471], [2.3075648, 48.8904534]]}}, {"type": "Feature", "properties": {"highway": "footway", "footway": null, "name": null, "surface": "paving_stones", "lit": "yes", "length_m": 13.61, "type_element": "Way", "__fid": 26662}, "geometry": {"type": "LineString", "coordinates": [[2.3076652, 48.8900327], [2.3077248, 48.889916800000016]]}}, {"type": "Feature", "properties": {"highway": "footway", "footway": null, "name": null, "surface": null, "lit": "yes", "length_m": 18.86, "type_element": "Way", "__fid": 26663}, "geometry": {"type": "LineString", "coordinates": [[2.3079188, 48.89005259999998], [2.3077049, 48.89002840000001], [2.3076652, 48.8900327]]}}, {"type": "Feature", "properties": {"highway": "footway", "footway": null, "name": "Rue des Tapisseries", "surface": null, "lit": "yes", "length_m": 103.77, "type_element": "Way", "__fid": 26673}, "geometry": {"type": "LineString", "coordinates": [[2.307719, 48.8888609], [2.3075339, 48.8886007], [2.3076957, 48.8879638]]}}, {"type": "Feature", "properties": {"highway": "footway", "footway": null, "name": null, "surface": "asphalt", "lit": "yes", "length_m": 22.97, "type_element": "Way", "__fid": 26705}, "geometry": {"type": "LineString", "coordinates": [[2.3077502, 48.8889048], [2.3078477, 48.8888735], [2.3078655, 48.88884810000001], [2.307857, 48.8888384], [2.3078013, 48.888837400000014], [2.307719, 48.8888609]]}}, {"type": "Feature", "properties": {"highway": "footway", "footway": null, "name": null, "surface": "paving_stones", "lit": "yes", "length_m": 40.24, "type_element": "Way", "__fid": 26716}, "geometry": {"type": "LineString", "coordinates": [[2.3077248, 48.889916800000016], [2.3077777, 48.8898179], [2.3079316, 48.88976739999998], [2.3080004, 48.8896311]]}}, {"type": "Feature", "properties": {"highway": "footway", "footway": null, "name": null, "surface": "asphalt", "lit": "yes", "length_m": 22.03, "type_element": "Way", "__fid": 26720}, "geometry": {"type": "LineString", "coordinates": [[2.3077789, 48.888945], [2.307679, 48.8889773], [2.3076511, 48.8889733], [2.3076457, 48.888953399999984], [2.3076573, 48.888941199999984], [2.3077502, 48.8889048]]}}, {"type": "Feature", "properties": {"highway": "steps", "footway": null, "name": "Rue des Tapisseries", "surface": "paving_stones", "lit": "yes", "length_m": 9.04, "type_element": "Way", "__fid": 26736}, "geometry": {"type": "LineString", "coordinates": [[2.3078313, 48.889018600000014], [2.3077789, 48.888945]]}}, {"type": "Feature", "properties": {"highway": "footway", "footway": null, "name": null, "surface": "asphalt", "lit": "yes", "length_m": 11.95, "type_element": "Way", "__fid": 26737}, "geometry": {"type": "LineString", "coordinates": [[2.3079337, 48.888914200000016], [2.3078532, 48.88892339999998], [2.3077789, 48.888945]]}}, {"type": "Feature", "properties": {"highway": "footway", "footway": null, "name": "Rue des Tapisseries", "surface": "paving_stones", "lit": "yes", "length_m": 15.12, "type_element": "Way", "__fid": 26767}, "geometry": {"type": "LineString", "coordinates": [[2.3078313, 48.889018600000014], [2.3079221, 48.8891407]]}}, {"type": "Feature", "properties": {"highway": "footway", "footway": "sidewalk", "name": null, "surface": "asphalt", "lit": "yes", "length_m": 199.88, "type_element": "Way", "__fid": 26768}, "geometry": {"type": "LineString", "coordinates": [[2.3102531, 48.88825479999998], [2.309432, 48.8885268], [2.3093776, 48.8884974], [2.3078313, 48.889018600000014]]}}, {"type": "Feature", "properties": {"highway": "footway", "footway": null, "name": "Square Paul Paray", "surface": "paving_stones", "lit": "yes", "length_m": 38.68, "type_element": "Way", "__fid": 26829}, "geometry": {"type": "LineString", "coordinates": [[2.3079221, 48.8891407], [2.3081402, 48.8894024], [2.3080979, 48.889443]]}}, {"type": "Feature", "properties": {"highway": "footway", "footway": "sidewalk", "name": null, "surface": "concrete", "lit": "yes", "length_m": 74.8, "type_element": "Way", "__fid": 26830}, "geometry": {"type": "LineString", "coordinates": [[2.3088356, 48.8888413], [2.3079221, 48.8891407]]}}, {"type": "Feature", "properties": {"highway": "footway", "footway": null, "name": null, "surface": null, "lit": "yes", "length_m": 42.94, "type_element": "Way", "__fid": 26833}, "geometry": {"type": "LineString", "coordinates": [[2.3083285, 48.8898001], [2.3082809, 48.8898728], [2.3082293, 48.8899138], [2.3079899, 48.8900469], [2.3079188, 48.89005259999998]]}}, {"type": "Feature", "properties": {"highway": "footway", "footway": null, "name": null, "surface": null, "lit": "yes", "length_m": 5.71, "type_element": "Way", "__fid": 26883}, "geometry": {"type": "LineString", "coordinates": [[2.3080004, 48.8896311], [2.308075, 48.8896459]]}}, {"type": "Feature", "properties": {"highway": "footway", "footway": null, "name": null, "surface": "concrete", "lit": "yes", "length_m": 5.01, "type_element": "Way", "__fid": 26884}, "geometry": {"type": "LineString", "coordinates": [[2.3080004, 48.8896311], [2.308022, 48.8895884]]}}, {"type": "Feature", "properties": {"highway": "footway", "footway": null, "name": "Square Paul Paray", "surface": null, "lit": "yes", "length_m": 5.71, "type_element": "Way", "__fid": 26892}, "geometry": {"type": "LineString", "coordinates": [[2.3080964, 48.8896035], [2.308022, 48.8895884]]}}, {"type": "Feature", "properties": {"highway": "footway", "footway": null, "name": "Square Paul Paray", "surface": "concrete", "lit": "yes", "length_m": 17.1, "type_element": "Way", "__fid": 26893}, "geometry": {"type": "LineString", "coordinates": [[2.308022, 48.8895884], [2.3080979, 48.889443]]}}, {"type": "Feature", "properties": {"highway": "footway", "footway": null, "name": null, "surface": null, "lit": "yes", "length_m": 13.2, "type_element": "Way", "__fid": 26933}, "geometry": {"type": "LineString", "coordinates": [[2.308075, 48.8896459], [2.308247, 48.8896809]]}}, {"type": "Feature", "properties": {"highway": "steps", "footway": null, "name": null, "surface": null, "lit": "yes", "length_m": 4.97, "type_element": "Way", "__fid": 26934}, "geometry": {"type": "LineString", "coordinates": [[2.3080964, 48.8896035], [2.308075, 48.8896459]]}}, {"type": "Feature", "properties": {"highway": "footway", "footway": null, "name": null, "surface": null, "lit": "yes", "length_m": 11.95, "type_element": "Way", "__fid": 26956}, "geometry": {"type": "LineString", "coordinates": [[2.3080979, 48.889443], [2.3082541, 48.8894735]]}}, {"type": "Feature", "properties": {"highway": "footway", "footway": null, "name": "Square Paul Paray", "surface": null, "lit": "yes", "length_m": 6.76, "type_element": "Way", "__fid": 26957}, "geometry": {"type": "LineString", "coordinates": [[2.3081845, 48.8896215], [2.3080964, 48.8896035]]}}, {"type": "Feature", "properties": {"highway": "footway", "footway": null, "name": "Square Paul Paray", "surface": null, "lit": "yes", "length_m": 11.56, "type_element": "Way", "__fid": 27010}, "geometry": {"type": "LineString", "coordinates": [[2.308247, 48.8896809], [2.3082704, 48.889639], [2.3081845, 48.8896215]]}}, {"type": "Feature", "properties": {"highway": "footway", "footway": null, "name": null, "surface": null, "lit": "yes", "length_m": 17.23, "type_element": "Way", "__fid": 27011}, "geometry": {"type": "LineString", "coordinates": [[2.3082541, 48.8894735], [2.3081845, 48.8896215]]}}, {"type": "Feature", "properties": {"highway": "footway", "footway": null, "name": "Square Paul Paray", "surface": null, "lit": "yes", "length_m": 5.61, "type_element": "Way", "__fid": 27045}, "geometry": {"type": "LineString", "coordinates": [[2.308247, 48.8896809], [2.3083202, 48.8896957]]}}, {"type": "Feature", "properties": {"highway": "footway", "footway": null, "name": "Square Paul Paray", "surface": null, "lit": "yes", "length_m": 34.5, "type_element": "Way", "__fid": 27047}, "geometry": {"type": "LineString", "coordinates": [[2.3082541, 48.8894735], [2.3084132, 48.8895044], [2.3083202, 48.8896957]]}}, {"type": "Feature", "properties": {"highway": "steps", "footway": null, "name": null, "surface": null, "lit": "yes", "length_m": 9.72, "type_element": "Way", "__fid": 27048}, "geometry": {"type": "LineString", "coordinates": [[2.3082541, 48.8894735], [2.3082964, 48.8893907]]}}, {"type": "Feature", "properties": {"highway": "footway", "footway": null, "name": null, "surface": null, "lit": "yes", "length_m": 12.06, "type_element": "Way", "__fid": 27082}, "geometry": {"type": "LineString", "coordinates": [[2.3083202, 48.8896957], [2.3083466, 48.8897541], [2.3083285, 48.8898001]]}}, {"type": "Feature", "properties": {"highway": "footway", "footway": null, "name": null, "surface": "sett", "lit": "yes", "length_m": 21.61, "type_element": "Way", "__fid": 27090}, "geometry": {"type": "LineString", "coordinates": [[2.3083285, 48.8898001], [2.3084117, 48.88981370000001], [2.3086143, 48.8897798]]}}, {"type": "Feature", "properties": {"highway": "footway", "footway": "sidewalk", "name": null, "surface": "concrete", "lit": "yes", "length_m": 76.45, "type_element": "Way", "__fid": 27231}, "geometry": {"type": "LineString", "coordinates": [[2.3089544, 48.8893492], [2.3087886, 48.8896657], [2.3088579, 48.8897584], [2.3088559, 48.889788], [2.308832, 48.8898176], [2.3087917, 48.8898369], [2.3087385, 48.8898485], [2.3086864, 48.8898434], [2.3086496, 48.8898261], [2.3086143, 48.8897798]]}}, {"type": "Feature", "properties": {"highway": "footway", "footway": "sidewalk", "name": null, "surface": "concrete", "lit": "yes", "length_m": 112.64, "type_element": "Way", "__fid": 27232}, "geometry": {"type": "LineString", "coordinates": [[2.3086143, 48.8897798], [2.3086308, 48.8897283], [2.3086907, 48.88968710000001], [2.308845, 48.8893748], [2.3088548, 48.8893042], [2.3089805, 48.8890395], [2.3089844, 48.8890112], [2.3088755, 48.888866], [2.3088356, 48.8888413]]}}, {"type": "Feature", "properties": {"highway": "footway", "footway": null, "name": null, "surface": "sett", "lit": "yes", "length_m": 7.3, "type_element": "Way", "__fid": 27233}, "geometry": {"type": "LineString", "coordinates": [[2.3086143, 48.8897798], [2.3087111, 48.8897643]]}}, {"type": "Feature", "properties": {"highway": "steps", "footway": null, "name": null, "surface": null, "lit": "yes", "length_m": 14.6, "type_element": "Way", "__fid": 27263}, "geometry": {"type": "LineString", "coordinates": [[2.3086495, 48.8925611], [2.3087482, 48.8925998], [2.3088117, 48.89256330000001]]}}]}