{"type": "FeatureCollection", "features": [{"type": "Feature", "properties": {"highway": "footway", "footway": "sidewalk", "name": null, "surface": null, "lit": null, "length_m": 141.47, "type_element": "Way", "__fid": 24374}, "geometry": {"type": "LineString", "coordinates": [[2.3042786, 48.82422160000002], [2.3045917, 48.8237411], [2.3047603, 48.8234619], [2.3048338, 48.823317], [2.3050208, 48.8230482]]}}, {"type": "Feature", "properties": {"highway": "path", "footway": null, "name": null, "surface": "dirt", "lit": null, "length_m": 246.35, "type_element": "Way", "__fid": 24769}, "geometry": {"type": "LineString", "coordinates": [[2.308272833333227, 48.82368846666673], [2.3082056, 48.823713], [2.3051481, 48.8243887], [2.3050957, 48.8243793]]}}, {"type": "Feature", "properties": {"highway": "footway", "footway": null, "name": null, "surface": "asphalt", "lit": null, "length_m": 37.44, "type_element": "Way", "__fid": 26019}, "geometry": {"type": "LineString", "coordinates": [[2.3074759, 48.8237585], [2.3073119, 48.8234397]]}}, {"type": "Feature", "properties": {"highway": "footway", "footway": "sidewalk", "name": null, "surface": "asphalt", "lit": null, "length_m": 54.1, "type_element": "Way", "__fid": 26111}, "geometry": {"type": "LineString", "coordinates": [[2.3074759, 48.8237585], [2.3081721, 48.823599]]}}, {"type": "Feature", "properties": {"highway": "footway", "footway": "sidewalk", "name": null, "surface": "asphalt", "lit": null, "length_m": 63.52, "type_element": "Way", "__fid": 26128}, "geometry": {"type": "LineString", "coordinates": [[2.3081721, 48.823599], [2.3081677, 48.8235686], [2.3075387, 48.8232223]]}}, {"type": "Feature", "properties": {"highway": "footway", "footway": "crossing", "name": null, "surface": null, "lit": null, "length_m": 13.01, "type_element": "Way", "__fid": 26448}, "geometry": {"type": "LineString", "coordinates": [[2.308272833333227, 48.82368846666673], [2.3081759, 48.8236274], [2.3081721, 48.823599]]}}, {"type": "Feature", "properties": {"highway": "footway", "footway": "crossing", "name": null, "surface": null, "lit": null, "length_m": 19.99, "type_element": "Way", "__fid": 26449}, "geometry": {"type": "LineString", "coordinates": [[2.3081721, 48.823599], [2.3084331, 48.8235479]]}}, {"type": "Feature", "properties": {"highway": "footway", "footway": "sidewalk", "name": null, "surface": "asphalt", "lit": null, "length_m": 15.72, "type_element": "Way", "__fid": 26497}, "geometry": {"type": "LineString", "coordinates": [[2.308272833333227, 48.82368846666673], [2.3084408, 48.8237761]]}}, {"type": "Feature", "properties": {"highway": "footway", "footway": "sidewalk", "name": null, "surface": null, "lit": null, "length_m": 220.32, "type_element": "Way", "__fid": 26591}, "geometry": {"type": "LineString", "coordinates": [[2.308991, 48.8234199], [2.3089924, 48.823386800000016], [2.3089293, 48.82334620000001], [2.3080157, 48.82280929999999], [2.3079322, 48.8227996], [2.3078957, 48.8228168], [2.3076741, 48.82311420000001], [2.3076918, 48.8231402], [2.3084331, 48.8235479]]}}, {"type": "Feature", "properties": {"highway": "footway", "footway": "sidewalk", "name": null, "surface": null, "lit": null, "length_m": 7.48, "type_element": "Way", "__fid": 26592}, "geometry": {"type": "LineString", "coordinates": [[2.3084331, 48.8235479], [2.3085309, 48.823529]]}}, {"type": "Feature", "properties": {"highway": "footway", "footway": "crossing", "name": null, "surface": "asphalt", "lit": null, "length_m": 25.73, "type_element": "Way", "__fid": 26604}, "geometry": {"type": "LineString", "coordinates": [[2.3084408, 48.8237761], [2.3087285, 48.823643900000015]]}}, {"type": "Feature", "properties": {"highway": "footway", "footway": "crossing", "name": null, "surface": null, "lit": null, "length_m": 19.41, "type_element": "Way", "__fid": 26643}, "geometry": {"type": "LineString", "coordinates": [[2.3085309, 48.823529], [2.3086861, 48.8236102], [2.3087285, 48.823643900000015]]}}, {"type": "Feature", "properties": {"highway": "footway", "footway": "sidewalk", "name": null, "surface": null, "lit": null, "length_m": 36.25, "type_element": "Way", "__fid": 26644}, "geometry": {"type": "LineString", "coordinates": [[2.3085309, 48.823529], [2.3089307, 48.8234517], [2.308991, 48.8234199]]}}]}