{"type": "FeatureCollection", "features": [{"type": "Feature", "properties": {"@id": "node/6235476127", "amenity": "drinking_water", "man_made": "water_tap", "type_element": "Fontaines à boire", "__fid": 605}, "geometry": {"type": "Point", "coordinates": [2.3173853, 48.8222332]}, "id": "node/6235476127"}, {"type": "Feature", "properties": {"@id": "node/6235690009", "amenity": "drinking_water", "man_made": "water_tap", "type_element": "Fontaines à boire", "__fid": 611}, "geometry": {"type": "Point", "coordinates": [2.3174464, 48.8233826]}, "id": "node/6235690009"}, {"type": "Feature", "properties": {"@id": "node/6235859698", "amenity": "drinking_water", "man_made": "water_tap", "type_element": "Fontaines à boire", "__fid": 612}, "geometry": {"type": "Point", "coordinates": [2.3168549, 48.8229592]}, "id": "node/6235859698"}, {"type": "Feature", "properties": {"highway": "footway", "footway": "sidewalk", "name": null, "surface": null, "lit": null, "length_m": 220.32, "type_element": "Way", "__fid": 26591}, "geometry": {"type": "LineString", "coordinates": [[2.308991, 48.8234199], [2.3089924, 48.823386800000016], [2.3089293, 48.82334620000001], [2.3080157, 48.82280929999999], [2.3079322, 48.8227996], [2.3078957, 48.8228168], [2.3076741, 48.82311420000001], [2.3076918, 48.8231402], [2.3084331, 48.8235479]]}}, {"type": "Feature", "properties": {"highway": "footway", "footway": "crossing", "name": null, "surface": "asphalt", "lit": null, "length_m": 25.73, "type_element": "Way", "__fid": 26604}, "geometry": {"type": "LineString", "coordinates": [[2.3084408, 48.8237761], [2.3087285, 48.823643900000015]]}}, {"type": "Feature", "properties": {"highway": "footway", "footway": "crossing", "name": null, "surface": null, "lit": null, "length_m": 19.41, "type_element": "Way", "__fid": 26643}, "geometry": {"type": "LineString", "coordinates": [[2.3085309, 48.823529], [2.3086861, 48.8236102], [2.3087285, 48.823643900000015]]}}, {"type": "Feature", "properties": {"highway": "footway", "footway": "sidewalk", "name": null, "surface": null, "lit": null, "length_m": 36.25, "type_element": "Way", "__fid": 26644}, "geometry": {"type": "LineString", "coordinates": [[2.3085309, 48.823529], [2.3089307, 48.8234517], [2.308991, 48.8234199]]}}, {"type": "Feature", "properties": {"highway": "footway", "footway": "sidewalk", "name": null, "surface": null, "lit": null, "length_m": 125.37, "type_element": "Way", "__fid": 26797}, "geometry": {"type": "LineString", "coordinates": [[2.3100485, 48.82435659999999], [2.3092618, 48.8239319], [2.3091086, 48.82386540000001], [2.3087857, 48.8236886], [2.3087285, 48.823643900000015]]}}, {"type": "Feature", "properties": {"highway": "footway", "footway": "sidewalk", "name": null, "surface": null, "lit": null, "length_m": 412.48, "type_element": "Way", "__fid": 26798}, "geometry": {"type": "LineString", "coordinates": [[2.3087285, 48.823643900000015], [2.3088534, 48.8235702], [2.3092888, 48.8234755], [2.3101813, 48.8233117], [2.3118194, 48.822944], [2.3125678, 48.8227493], [2.3140199, 48.8224286]]}}, {"type": "Feature", "properties": {"highway": "footway", "footway": "crossing", "name": null, "surface": null, "lit": "yes", "length_m": 14.21, "type_element": "Way", "__fid": 26964}, "geometry": {"type": "LineString", "coordinates": [[2.308991, 48.8234199], [2.3091752, 48.8233807]]}}, {"type": "Feature", "properties": {"highway": "footway", "footway": "sidewalk", "name": null, "surface": null, "lit": null, "length_m": 46.07, "type_element": "Way", "__fid": 27071}, "geometry": {"type": "LineString", "coordinates": [[2.30977, 48.8232542], [2.3092042, 48.8233826], [2.3091752, 48.8233807]]}}, {"type": "Feature", "properties": {"highway": "footway", "footway": "sidewalk", "name": null, "surface": null, "lit": null, "length_m": 39.91, "type_element": "Way", "__fid": 27072}, "geometry": {"type": "LineString", "coordinates": [[2.3091752, 48.8233807], [2.3091425, 48.82335710000002], [2.309149, 48.8233397], [2.3094591, 48.8231082]]}}, {"type": "Feature", "properties": {"highway": "service", "footway": null, "name": null, "surface": "asphalt", "lit": null, "length_m": 3.64, "type_element": "Way", "__fid": 27191}, "geometry": {"type": "LineString", "coordinates": [[2.3094591, 48.8231082], [2.3094172, 48.8230907]]}}, {"type": "Feature", "properties": {"highway": "service", "footway": null, "name": null, "surface": "asphalt", "lit": null, "length_m": 32.32, "type_element": "Way", "__fid": 27204}, "geometry": {"type": "LineString", "coordinates": [[2.30977, 48.8232542], [2.3097135, 48.8231502], [2.3095717, 48.8231525], [2.3094591, 48.8231082]]}}, {"type": "Feature", "properties": {"highway": "service", "footway": null, "name": null, "surface": "asphalt", "lit": null, "length_m": 6.44, "type_element": "Way", "__fid": 27387}, "geometry": {"type": "LineString", "coordinates": [[2.3097996, 48.8233087], [2.30977, 48.8232542]]}}, {"type": "Feature", "properties": {"highway": "footway", "footway": null, "name": null, "surface": null, "lit": null, "length_m": 94.79, "type_element": "Way", "__fid": 29001}, "geometry": {"type": "LineString", "coordinates": [[2.3121272, 48.8238375], [2.3124263, 48.8238075], [2.3126838, 48.8237713], [2.3131384, 48.823694500000016], [2.3132457, 48.8236442], [2.3133114, 48.8235744]]}}, {"type": "Feature", "properties": {"highway": "footway", "footway": "crossing", "name": null, "surface": "asphalt", "lit": "yes", "length_m": 20.54, "type_element": "Way", "__fid": 30100}, "geometry": {"type": "LineString", "coordinates": [[2.3140199, 48.8224286], [2.3138566, 48.822337], [2.3137944, 48.8223236]]}}, {"type": "Feature", "properties": {"highway": "footway", "footway": "sidewalk", "name": null, "surface": null, "lit": "yes", "length_m": 74.36, "type_element": "Way", "__fid": 30293}, "geometry": {"type": "LineString", "coordinates": [[2.3148255, 48.822832], [2.3145692, 48.8227195], [2.3141495, 48.822485], [2.3140199, 48.8224286]]}}, {"type": "Feature", "properties": {"highway": "footway", "footway": "sidewalk", "name": null, "surface": null, "lit": "yes", "length_m": 27.06, "type_element": "Way", "__fid": 30457}, "geometry": {"type": "LineString", "coordinates": [[2.3145634, 48.8221904], [2.3143312, 48.8222411], [2.3143011, 48.8222387], [2.3142413, 48.8222139], [2.3142191, 48.8222181]]}}, {"type": "Feature", "properties": {"highway": "footway", "footway": "sidewalk", "name": null, "surface": null, "lit": "yes", "length_m": 68.59, "type_element": "Way", "__fid": 30777}, "geometry": {"type": "LineString", "coordinates": [[2.3145634, 48.8221904], [2.3147093, 48.8222837], [2.3147473, 48.82235720000001], [2.3149696, 48.8225503], [2.3150342, 48.8225682], [2.3151653, 48.82264579999998]]}}, {"type": "Feature", "properties": {"highway": "footway", "footway": "sidewalk", "name": null, "surface": null, "lit": "yes", "length_m": 45.65, "type_element": "Way", "__fid": 30778}, "geometry": {"type": "LineString", "coordinates": [[2.3145634, 48.8221904], [2.3145968, 48.8221683], [2.3146906, 48.8221452], [2.3147346, 48.822148], [2.3151423, 48.8220575]]}}, {"type": "Feature", "properties": {"highway": "footway", "footway": "sidewalk", "name": null, "surface": "asphalt", "lit": "yes", "length_m": 177.74, "type_element": "Way", "__fid": 31020}, "geometry": {"type": "LineString", "coordinates": [[2.3167654, 48.8237144], [2.3167284, 48.8236211], [2.3166816, 48.8235956], [2.3156972, 48.82316250000002], [2.315606, 48.82317490000001], [2.3148919, 48.8228689], [2.3148255, 48.822832]]}}, {"type": "Feature", "properties": {"highway": "footway", "footway": "traffic_island", "name": null, "surface": "asphalt", "lit": "yes", "length_m": 33.62, "type_element": "Way", "__fid": 31021}, "geometry": {"type": "LineString", "coordinates": [[2.3151653, 48.82264579999998], [2.3151445, 48.8226625], [2.3150146, 48.8227075], [2.3149514, 48.8227185], [2.3148255, 48.822832]]}}, {"type": "Feature", "properties": {"highway": "service", "footway": null, "name": null, "surface": null, "lit": null, "length_m": 10.74, "type_element": "Way", "__fid": 31264}, "geometry": {"type": "LineString", "coordinates": [[2.3150948, 48.82196609999998], [2.3151423, 48.8220575]]}}, {"type": "Feature", "properties": {"highway": "service", "footway": null, "name": null, "surface": null, "lit": null, "length_m": 7.08, "type_element": "Way", "__fid": 31300}, "geometry": {"type": "LineString", "coordinates": [[2.3151423, 48.8220575], [2.315176, 48.822117200000015]]}}, {"type": "Feature", "properties": {"highway": "footway", "footway": "sidewalk", "name": null, "surface": null, "lit": "yes", "length_m": 115.7, "type_element": "Way", "__fid": 31301}, "geometry": {"type": "LineString", "coordinates": [[2.3166359, 48.8217257], [2.3151423, 48.8220575]]}}, {"type": "Feature", "properties": {"highway": "footway", "footway": "sidewalk", "name": "Avenue de la Porte de Châtillon", "surface": "asphalt", "lit": "yes", "length_m": 33.61, "type_element": "Way", "__fid": 31324}, "geometry": {"type": "LineString", "coordinates": [[2.3151653, 48.82264579999998], [2.3155458, 48.8228138]]}}, {"type": "Feature", "properties": {"highway": "service", "footway": null, "name": null, "surface": "asphalt", "lit": null, "length_m": 27.64, "type_element": "Way", "__fid": 31580}, "geometry": {"type": "LineString", "coordinates": [[2.3155282, 48.822569600000016], [2.3154751, 48.82258259999998], [2.3154397, 48.82260249999999], [2.315423, 48.8226176], [2.3154136, 48.82265659999999], [2.3154386, 48.8226992], [2.3155376, 48.8227392]]}}, {"type": "Feature", "properties": {"highway": "service", "footway": null, "name": null, "surface": "asphalt", "lit": null, "length_m": 16.71, "type_element": "Way", "__fid": 31595}, "geometry": {"type": "LineString", "coordinates": [[2.3155376, 48.8227392], [2.3155846, 48.8227541], [2.315626, 48.8227805], [2.3156382, 48.822797], [2.3156407, 48.8228565]]}}, {"type": "Feature", "properties": {"highway": "service", "footway": null, "name": null, "surface": "asphalt", "lit": "yes", "length_m": 8.77, "type_element": "Way", "__fid": 31596}, "geometry": {"type": "LineString", "coordinates": [[2.3155458, 48.8228138], [2.315561, 48.8227805], [2.3155376, 48.8227392]]}}, {"type": "Feature", "properties": {"highway": "footway", "footway": "sidewalk", "name": "Avenue de la Porte de Châtillon", "surface": "asphalt", "lit": "yes", "length_m": 8.43, "type_element": "Way", "__fid": 31600}, "geometry": {"type": "LineString", "coordinates": [[2.3155458, 48.8228138], [2.3156407, 48.8228565]]}}, {"type": "Feature", "properties": {"highway": "service", "footway": null, "name": null, "surface": "asphalt", "lit": "yes", "length_m": 31.25, "type_element": "Way", "__fid": 31601}, "geometry": {"type": "LineString", "coordinates": [[2.3156603, 48.823045], [2.3155678, 48.8229505], [2.3154934, 48.8229069], [2.3154907, 48.82287740000001], [2.3155458, 48.8228138]]}}, {"type": "Feature", "properties": {"highway": "service", "footway": null, "name": null, "surface": "asphalt", "lit": null, "length_m": 7.52, "type_element": "Way", "__fid": 31694}, "geometry": {"type": "LineString", "coordinates": [[2.3156407, 48.8228565], [2.3156367, 48.8229241]]}}, {"type": "Feature", "properties": {"highway": "footway", "footway": "sidewalk", "name": "Avenue de la Porte de Châtillon", "surface": "asphalt", "lit": "yes", "length_m": 56.9, "type_element": "Way", "__fid": 31697}, "geometry": {"type": "LineString", "coordinates": [[2.3156407, 48.8228565], [2.3162822, 48.8231436]]}}, {"type": "Feature", "properties": {"highway": "service", "footway": null, "name": null, "surface": "asphalt", "lit": null, "length_m": 6.46, "type_element": "Way", "__fid": 32223}, "geometry": {"type": "LineString", "coordinates": [[2.3162314, 48.823191], [2.3162822, 48.8231436]]}}, {"type": "Feature", "properties": {"highway": "service", "footway": null, "name": null, "surface": null, "lit": null, "length_m": 64.49, "type_element": "Way", "__fid": 32249}, "geometry": {"type": "LineString", "coordinates": [[2.3166359, 48.8217257], [2.3165723, 48.82161780000002], [2.316284, 48.8211944]]}}, {"type": "Feature", "properties": {"highway": "service", "footway": null, "name": null, "surface": "asphalt", "lit": null, "length_m": 229.97, "type_element": "Way", "__fid": 32272}, "geometry": {"type": "LineString", "coordinates": [[2.3162822, 48.8231436], [2.316306, 48.8231085], [2.3165783, 48.8222791], [2.3165998, 48.8222694], [2.3166326, 48.8222707], [2.3168494, 48.8223023], [2.3168935, 48.822325], [2.3168962, 48.8223542], [2.3166101, 48.8231374], [2.316543, 48.823253]]}}, {"type": "Feature", "properties": {"highway": "service", "footway": null, "name": null, "surface": "asphalt", "lit": null, "length_m": 7.74, "type_element": "Way", "__fid": 32555}, "geometry": {"type": "LineString", "coordinates": [[2.316543, 48.823253], [2.3165135, 48.823292], [2.3165143, 48.823318]]}}, {"type": "Feature", "properties": {"highway": "footway", "footway": "sidewalk", "name": "Avenue de la Porte de Châtillon", "surface": "asphalt", "lit": "yes", "length_m": 52.61, "type_element": "Way", "__fid": 32597}, "geometry": {"type": "LineString", "coordinates": [[2.316543, 48.823253], [2.3171404, 48.8235142]]}}, {"type": "Feature", "properties": {"highway": "service", "footway": null, "name": null, "surface": null, "lit": null, "length_m": 6.31, "type_element": "Way", "__fid": 32658}, "geometry": {"type": "LineString", "coordinates": [[2.3166683, 48.821778299999984], [2.3166359, 48.8217257]]}}, {"type": "Feature", "properties": {"highway": "footway", "footway": "sidewalk", "name": null, "surface": null, "lit": "yes", "length_m": 19.52, "type_element": "Way", "__fid": 32659}, "geometry": {"type": "LineString", "coordinates": [[2.3168879, 48.8216697], [2.3166359, 48.8217257]]}}, {"type": "Feature", "properties": {"highway": "service", "footway": null, "name": "Allée de Châtillon", "surface": "asphalt", "lit": null, "length_m": 28.11, "type_element": "Way", "__fid": 32784}, "geometry": {"type": "LineString", "coordinates": [[2.3168593, 48.8228379], [2.3168739, 48.8228943], [2.3169906, 48.8230741]]}}, {"type": "Feature", "properties": {"highway": "path", "footway": null, "name": null, "surface": "grass", "lit": null, "length_m": 95.35, "type_element": "Way", "__fid": 32785}, "geometry": {"type": "LineString", "coordinates": [[2.3172495, 48.8234729], [2.3171551, 48.8234663], [2.3167134, 48.82327090000002], [2.3168167, 48.8229395], [2.3168593, 48.8228379]]}}, {"type": "Feature", "properties": {"highway": "service", "footway": null, "name": "Allée de Châtillon", "surface": "asphalt", "lit": null, "length_m": 20.45, "type_element": "Way", "__fid": 32786}, "geometry": {"type": "LineString", "coordinates": [[2.3169141, 48.8226576], [2.3168593, 48.8228379]]}}, {"type": "Feature", "properties": {"highway": "service", "footway": null, "name": null, "surface": null, "lit": null, "length_m": 1.53, "type_element": "Way", "__fid": 32787}, "geometry": {"type": "LineString", "coordinates": [[2.3168879, 48.8216697], [2.316881, 48.82165670000002]]}}, {"type": "Feature", "properties": {"highway": "service", "footway": null, "name": null, "surface": null, "lit": null, "length_m": 6.21, "type_element": "Way", "__fid": 32791}, "geometry": {"type": "LineString", "coordinates": [[2.3169161, 48.8217224], [2.3168879, 48.8216697]]}}, {"type": "Feature", "properties": {"highway": "footway", "footway": "sidewalk", "name": null, "surface": null, "lit": "yes", "length_m": 8.34, "type_element": "Way", "__fid": 32792}, "geometry": {"type": "LineString", "coordinates": [[2.3169955, 48.8216458], [2.3168879, 48.8216697]]}}, {"type": "Feature", "properties": {"highway": "service", "footway": null, "name": null, "surface": null, "lit": null, "length_m": 19.59, "type_element": "Way", "__fid": 32801}, "geometry": {"type": "LineString", "coordinates": [[2.3169041, 48.8214803], [2.3169955, 48.8216458]]}}, {"type": "Feature", "properties": {"highway": "service", "footway": null, "name": "Allée de Châtillon", "surface": "asphalt", "lit": null, "length_m": 32.17, "type_element": "Way", "__fid": 32812}, "geometry": {"type": "LineString", "coordinates": [[2.3170011, 48.822374], [2.3169141, 48.8226576]]}}, {"type": "Feature", "properties": {"highway": "service", "footway": null, "name": "Allée des Chapelles", "surface": "paved", "lit": null, "length_m": 19.42, "type_element": "Way", "__fid": 32813}, "geometry": {"type": "LineString", "coordinates": [[2.3171643, 48.8226009], [2.3169141, 48.8226576]]}}, {"type": "Feature", "properties": {"highway": "service", "footway": null, "name": null, "surface": null, "lit": null, "length_m": 6.22, "type_element": "Way", "__fid": 32856}, "geometry": {"type": "LineString", "coordinates": [[2.3169955, 48.8216458], [2.3170227, 48.8216988]]}}, {"type": "Feature", "properties": {"highway": "footway", "footway": "sidewalk", "name": null, "surface": null, "lit": "yes", "length_m": 105.87, "type_element": "Way", "__fid": 32857}, "geometry": {"type": "LineString", "coordinates": [[2.3183621, 48.8213422], [2.3169955, 48.8216458]]}}, {"type": "Feature", "properties": {"highway": "service", "footway": null, "name": "Allée de Châtillon", "surface": "asphalt", "lit": null, "length_m": 48.25, "type_element": "Way", "__fid": 32863}, "geometry": {"type": "LineString", "coordinates": [[2.3169906, 48.8230741], [2.3172495, 48.8234729]]}}, {"type": "Feature", "properties": {"highway": "footway", "footway": null, "name": null, "surface": "grass", "lit": null, "length_m": 32.0, "type_element": "Way", "__fid": 32864}, "geometry": {"type": "LineString", "coordinates": [[2.3173924, 48.8229625], [2.3169906, 48.8230741]]}}, {"type": "Feature", "properties": {"highway": "service", "footway": null, "name": "Allée de Châtillon", "surface": "asphalt", "lit": null, "length_m": 13.79, "type_element": "Way", "__fid": 32865}, "geometry": {"type": "LineString", "coordinates": [[2.3170985, 48.8222747], [2.3170464, 48.8222986], [2.3170118, 48.822339], [2.3170011, 48.822374]]}}, {"type": "Feature", "properties": {"highway": "footway", "footway": null, "name": null, "surface": "grass", "lit": "no", "length_m": 31.34, "type_element": "Way", "__fid": 32866}, "geometry": {"type": "LineString", "coordinates": [[2.3170011, 48.822374], [2.3174056, 48.822284]]}}, {"type": "Feature", "properties": {"highway": "service", "footway": null, "name": null, "surface": "paved", "lit": null, "length_m": 22.94, "type_element": "Way", "__fid": 32910}, "geometry": {"type": "LineString", "coordinates": [[2.3170985, 48.8222747], [2.3170599, 48.8221887], [2.3170588, 48.82212410000002], [2.3170765, 48.8220734]]}}, {"type": "Feature", "properties": {"highway": "service", "footway": null, "name": "Allée du Four", "surface": "asphalt", "lit": null, "length_m": 20.67, "type_element": "Way", "__fid": 32920}, "geometry": {"type": "LineString", "coordinates": [[2.3173652, 48.82221520000002], [2.3170985, 48.8222747]]}}, {"type": "Feature", "properties": {"highway": "service", "footway": null, "name": "Allée des Arbres", "surface": "asphalt", "lit": "yes", "length_m": 6.89, "type_element": "Way", "__fid": 32922}, "geometry": {"type": "LineString", "coordinates": [[2.3170897, 48.82356630000001], [2.3171404, 48.8235142]]}}, {"type": "Feature", "properties": {"highway": "footway", "footway": "sidewalk", "name": "Avenue de la Porte de Châtillon", "surface": "asphalt", "lit": "yes", "length_m": 26.74, "type_element": "Way", "__fid": 32945}, "geometry": {"type": "LineString", "coordinates": [[2.3171404, 48.8235142], [2.317444, 48.823647]]}}, {"type": "Feature", "properties": {"highway": "service", "footway": null, "name": "Allée des Arbres", "surface": "asphalt", "lit": "yes", "length_m": 9.23, "type_element": "Way", "__fid": 32946}, "geometry": {"type": "LineString", "coordinates": [[2.3171404, 48.8235142], [2.3172495, 48.8234729]]}}, {"type": "Feature", "properties": {"highway": "footway", "footway": null, "name": null, "surface": "grass", "lit": "no", "length_m": 43.56, "type_element": "Way", "__fid": 32947}, "geometry": {"type": "LineString", "coordinates": [[2.3171643, 48.8226009], [2.3173924, 48.8229625]]}}, {"type": "Feature", "properties": {"highway": "service", "footway": null, "name": "Allée des Chapelles", "surface": "paved", "lit": null, "length_m": 29.27, "type_element": "Way", "__fid": 32948}, "geometry": {"type": "LineString", "coordinates": [[2.3175413, 48.8225154], [2.3171643, 48.8226009]]}}, {"type": "Feature", "properties": {"highway": "service", "footway": null, "name": null, "surface": "asphalt", "lit": null, "length_m": 28.73, "type_element": "Way", "__fid": 32986}, "geometry": {"type": "LineString", "coordinates": [[2.3172392, 48.8219706], [2.3173652, 48.82221520000002]]}}, {"type": "Feature", "properties": {"highway": "service", "footway": null, "name": "Allée des Arbres", "surface": "asphalt", "lit": "yes", "length_m": 16.05, "type_element": "Way", "__fid": 32996}, "geometry": {"type": "LineString", "coordinates": [[2.3172495, 48.8234729], [2.3174441, 48.8234072]]}}, {"type": "Feature", "properties": {"highway": "footway", "footway": "traffic_island", "name": null, "surface": "asphalt", "lit": "yes", "length_m": 24.85, "type_element": "Way", "__fid": 33003}, "geometry": {"type": "LineString", "coordinates": [[2.3172589, 48.8238341], [2.317444, 48.823647]]}}, {"type": "Feature", "properties": {"highway": "service", "footway": null, "name": "Allée du Four", "surface": "asphalt", "lit": null, "length_m": 37.29, "type_element": "Way", "__fid": 33067}, "geometry": {"type": "LineString", "coordinates": [[2.3178465, 48.822108], [2.3173652, 48.82221520000002]]}}, {"type": "Feature", "properties": {"highway": "footway", "footway": null, "name": null, "surface": "grass", "lit": "no", "length_m": 45.82, "type_element": "Way", "__fid": 33096}, "geometry": {"type": "LineString", "coordinates": [[2.3173924, 48.8229625], [2.3176365, 48.8233418]]}}, {"type": "Feature", "properties": {"highway": "footway", "footway": null, "name": null, "surface": "grass", "lit": null, "length_m": 29.07, "type_element": "Way", "__fid": 33097}, "geometry": {"type": "LineString", "coordinates": [[2.3177589, 48.82286350000001], [2.3173924, 48.8229625]]}}, {"type": "Feature", "properties": {"highway": "footway", "footway": null, "name": null, "surface": "grass", "lit": "no", "length_m": 27.59, "type_element": "Way", "__fid": 33102}, "geometry": {"type": "LineString", "coordinates": [[2.3174056, 48.822284], [2.3175413, 48.8225154]]}}, {"type": "Feature", "properties": {"highway": "footway", "footway": null, "name": null, "surface": "grass", "lit": "no", "length_m": 29.03, "type_element": "Way", "__fid": 33103}, "geometry": {"type": "LineString", "coordinates": [[2.3174056, 48.822284], [2.3177803, 48.8222007]]}}, {"type": "Feature", "properties": {"highway": "service", "footway": null, "name": null, "surface": "paved", "lit": null, "length_m": 24.39, "type_element": "Way", "__fid": 33121}, "geometry": {"type": "LineString", "coordinates": [[2.3174441, 48.8234072], [2.3175359, 48.8235272], [2.3174205, 48.8235647]]}}, {"type": "Feature", "properties": {"highway": "service", "footway": null, "name": "Allée des Arbres", "surface": "asphalt", "lit": "yes", "length_m": 15.89, "type_element": "Way", "__fid": 33131}, "geometry": {"type": "LineString", "coordinates": [[2.3174441, 48.8234072], [2.3176365, 48.8233418]]}}, {"type": "Feature", "properties": {"highway": "footway", "footway": "sidewalk", "name": "Avenue de la Porte de Châtillon", "surface": "asphalt", "lit": "yes", "length_m": 48.26, "type_element": "Way", "__fid": 33132}, "geometry": {"type": "LineString", "coordinates": [[2.317444, 48.823647], [2.3177344, 48.8237693], [2.3177574, 48.823774700000016], [2.3178262, 48.8237658], [2.3180071, 48.82384660000001]]}}, {"type": "Feature", "properties": {"highway": "service", "footway": null, "name": "Allée des Houx", "surface": "asphalt", "lit": null, "length_m": 41.87, "type_element": "Way", "__fid": 33191}, "geometry": {"type": "LineString", "coordinates": [[2.3177589, 48.82286350000001], [2.3175413, 48.8225154]]}}, {"type": "Feature", "properties": {"highway": "service", "footway": null, "name": "Allée des Chapelles", "surface": "paved", "lit": null, "length_m": 30.05, "type_element": "Way", "__fid": 33192}, "geometry": {"type": "LineString", "coordinates": [[2.317928350000165, 48.822427600000154], [2.3175413, 48.8225154]]}}, {"type": "Feature", "properties": {"highway": "footway", "footway": null, "name": null, "surface": "grass", "lit": "no", "length_m": 44.89, "type_element": "Way", "__fid": 33271}, "geometry": {"type": "LineString", "coordinates": [[2.3176365, 48.8233418], [2.3178685, 48.82371529999998]]}}, {"type": "Feature", "properties": {"highway": "service", "footway": null, "name": "Allée des Arbres", "surface": "asphalt", "lit": "yes", "length_m": 29.07, "type_element": "Way", "__fid": 33272}, "geometry": {"type": "LineString", "coordinates": [[2.3176365, 48.8233418], [2.317988550000128, 48.82322210000008]]}}]}