{"type": "FeatureCollection", "features": [{"type": "Feature", "properties": {"@id": "node/10936615103", "amenity": "drinking_water", "type_element": "Fontaines à boire", "__fid": 862}, "geometry": {"type": "Point", "coordinates": [2.3147934, 48.8973811]}, "id": "node/10936615103"}, {"type": "Feature", "properties": {"highway": "footway", "footway": "sidewalk", "name": null, "surface": null, "lit": "yes", "length_m": 90.86, "type_element": "Way", "__fid": 27266}, "geometry": {"type": "LineString", "coordinates": [[2.3095275, 48.8965523], [2.3086786, 48.8962397], [2.3085726, 48.8963742], [2.3086041, 48.896387]]}}, {"type": "Feature", "properties": {"highway": "footway", "footway": "crossing", "name": null, "surface": null, "lit": "yes", "length_m": 15.8, "type_element": "Way", "__fid": 27790}, "geometry": {"type": "LineString", "coordinates": [[2.3095275, 48.8965523], [2.3094403, 48.896581], [2.3093843, 48.8966495]]}}, {"type": "Feature", "properties": {"highway": "footway", "footway": "sidewalk", "name": null, "surface": null, "lit": "yes", "length_m": 75.12, "type_element": "Way", "__fid": 27877}, "geometry": {"type": "LineString", "coordinates": [[2.3101216, 48.89600449999998], [2.3100559, 48.896040700000015], [2.3099582, 48.8961287], [2.3098343, 48.8962588], [2.3095275, 48.8965523]]}}, {"type": "Feature", "properties": {"highway": "service", "footway": null, "name": null, "surface": null, "lit": "yes", "length_m": 29.63, "type_element": "Way", "__fid": 28079}, "geometry": {"type": "LineString", "coordinates": [[2.3097223, 48.8961707], [2.3098205, 48.89591220000001]]}}, {"type": "Feature", "properties": {"highway": "service", "footway": null, "name": null, "surface": null, "lit": "yes", "length_m": 24.35, "type_element": "Way", "__fid": 28140}, "geometry": {"type": "LineString", "coordinates": [[2.3101216, 48.89600449999998], [2.3098205, 48.89591220000001]]}}, {"type": "Feature", "properties": {"highway": "service", "footway": null, "name": null, "surface": null, "lit": "yes", "length_m": 194.81, "type_element": "Way", "__fid": 28141}, "geometry": {"type": "LineString", "coordinates": [[2.3098205, 48.89591220000001], [2.3091241, 48.8956929], [2.3091159, 48.8956683], [2.3100458, 48.894616]]}}, {"type": "Feature", "properties": {"highway": "service", "footway": null, "name": null, "surface": null, "lit": "yes", "length_m": 16.55, "type_element": "Way", "__fid": 28351}, "geometry": {"type": "LineString", "coordinates": [[2.3103263, 48.8960672], [2.3101216, 48.89600449999998]]}}, {"type": "Feature", "properties": {"highway": "footway", "footway": "crossing", "name": null, "surface": null, "lit": "yes", "length_m": 5.83, "type_element": "Way", "__fid": 28352}, "geometry": {"type": "LineString", "coordinates": [[2.3101826, 48.8959709], [2.3101216, 48.89600449999998]]}}, {"type": "Feature", "properties": {"highway": "footway", "footway": null, "name": null, "surface": "concrete:plates", "lit": "yes", "length_m": 83.33, "type_element": "Way", "__fid": 28364}, "geometry": {"type": "LineString", "coordinates": [[2.3101348, 48.8969629], [2.3102456, 48.8969343], [2.3102822, 48.8969132], [2.3103327, 48.8968371], [2.3104978, 48.8965217], [2.3105679, 48.8964089], [2.3106638, 48.89633110000001]]}}, {"type": "Feature", "properties": {"highway": "footway", "footway": null, "name": null, "surface": "paving_stones", "lit": "yes", "length_m": 62.22, "type_element": "Way", "__fid": 28382}, "geometry": {"type": "LineString", "coordinates": [[2.3105415, 48.8954703], [2.3101857, 48.8959081], [2.3101826, 48.8959709]]}}, {"type": "Feature", "properties": {"highway": "footway", "footway": "sidewalk", "name": null, "surface": "paving_stones", "lit": "yes", "length_m": 15.8, "type_element": "Way", "__fid": 28383}, "geometry": {"type": "LineString", "coordinates": [[2.3103811, 48.8959157], [2.3101826, 48.8959709]]}}, {"type": "Feature", "properties": {"highway": "footway", "footway": "sidewalk", "name": null, "surface": "paving_stones", "lit": "yes", "length_m": 72.41, "type_element": "Way", "__fid": 28486}, "geometry": {"type": "LineString", "coordinates": [[2.3103811, 48.8959157], [2.3104148, 48.8959316], [2.3105413, 48.8960228], [2.3103187, 48.8962173], [2.3103575, 48.8962399], [2.3105152, 48.8962975], [2.3106638, 48.89633110000001]]}}, {"type": "Feature", "properties": {"highway": "footway", "footway": "sidewalk", "name": null, "surface": "paving_stones", "lit": "yes", "length_m": 52.53, "type_element": "Way", "__fid": 28487}, "geometry": {"type": "LineString", "coordinates": [[2.3109131, 48.8955993], [2.3103811, 48.8959157]]}}, {"type": "Feature", "properties": {"highway": "footway", "footway": null, "name": null, "surface": "paving_stones", "lit": null, "length_m": 10.15, "type_element": "Way", "__fid": 28508}, "geometry": {"type": "LineString", "coordinates": [[2.3105415, 48.8954703], [2.3104162, 48.8954315]]}}, {"type": "Feature", "properties": {"highway": "footway", "footway": null, "name": null, "surface": "paving_stones", "lit": "yes", "length_m": 14.22, "type_element": "Way", "__fid": 28577}, "geometry": {"type": "LineString", "coordinates": [[2.3106262, 48.8953553], [2.3105415, 48.8954703]]}}, {"type": "Feature", "properties": {"highway": "footway", "footway": null, "name": null, "surface": "paving_stones", "lit": "yes", "length_m": 36.92, "type_element": "Way", "__fid": 28648}, "geometry": {"type": "LineString", "coordinates": [[2.3106262, 48.8953553], [2.3108263, 48.8954343], [2.3108478, 48.8955295], [2.3109131, 48.8955993]]}}, {"type": "Feature", "properties": {"highway": "footway", "footway": null, "name": null, "surface": "paving_stones", "lit": "yes", "length_m": 40.71, "type_element": "Way", "__fid": 28649}, "geometry": {"type": "LineString", "coordinates": [[2.3108264, 48.8950138], [2.3106262, 48.8953553]]}}, {"type": "Feature", "properties": {"highway": "footway", "footway": "sidewalk", "name": null, "surface": "concrete:plates", "lit": "yes", "length_m": 70.53, "type_element": "Way", "__fid": 28683}, "geometry": {"type": "LineString", "coordinates": [[2.3106638, 48.89633110000001], [2.3109557, 48.895981], [2.3112206, 48.8958241]]}}, {"type": "Feature", "properties": {"highway": "footway", "footway": null, "name": null, "surface": "paving_stones", "lit": "yes", "length_m": 11.46, "type_element": "Way", "__fid": 28779}, "geometry": {"type": "LineString", "coordinates": [[2.3109689, 48.89505620000001], [2.3108264, 48.8950138]]}}, {"type": "Feature", "properties": {"highway": "footway", "footway": null, "name": "Cours des Avocats", "surface": "paving_stones", "lit": "yes", "length_m": 66.76, "type_element": "Way", "__fid": 28780}, "geometry": {"type": "LineString", "coordinates": [[2.3112209, 48.8944745], [2.3111834, 48.8945018], [2.3108264, 48.8950138]]}}, {"type": "Feature", "properties": {"highway": "footway", "footway": "crossing", "name": null, "surface": "asphalt", "lit": "yes", "length_m": 33.66, "type_element": "Way", "__fid": 28831}, "geometry": {"type": "LineString", "coordinates": [[2.3109131, 48.8955993], [2.3112206, 48.8958241]]}}, {"type": "Feature", "properties": {"highway": "footway", "footway": "sidewalk", "name": null, "surface": "paving_stones", "lit": "yes", "length_m": 62.14, "type_element": "Way", "__fid": 28832}, "geometry": {"type": "LineString", "coordinates": [[2.3115582, 48.8952368], [2.3109131, 48.8955993]]}}, {"type": "Feature", "properties": {"highway": "steps", "footway": null, "name": null, "surface": "paving_stones", "lit": "yes", "length_m": 21.8, "type_element": "Way", "__fid": 28861}, "geometry": {"type": "LineString", "coordinates": [[2.3112307, 48.8950946], [2.3111688, 48.89512160000001], [2.3109689, 48.89505620000001]]}}, {"type": "Feature", "properties": {"highway": "footway", "footway": null, "name": null, "surface": "paving_stones", "lit": "yes", "length_m": 8.7, "type_element": "Way", "__fid": 28862}, "geometry": {"type": "LineString", "coordinates": [[2.311016600000205, 48.894984566666714], [2.3109689, 48.89505620000001]]}}, {"type": "Feature", "properties": {"highway": "steps", "footway": null, "name": null, "surface": "metal", "lit": "yes", "length_m": 16.81, "type_element": "Way", "__fid": 28897}, "geometry": {"type": "LineString", "coordinates": [[2.3112176, 48.8950573], [2.311016600000205, 48.894984566666714]]}}, {"type": "Feature", "properties": {"highway": "footway", "footway": "sidewalk", "name": null, "surface": "paving_stones", "lit": "yes", "length_m": 78.03, "type_element": "Way", "__fid": 29020}, "geometry": {"type": "LineString", "coordinates": [[2.3117202, 48.8950887], [2.3112884, 48.894617400000016], [2.3112687, 48.8945871], [2.3112549, 48.8945234], [2.3112209, 48.8944745]]}}, {"type": "Feature", "properties": {"highway": "footway", "footway": "sidewalk", "name": null, "surface": "asphalt", "lit": "yes", "length_m": 89.81, "type_element": "Way", "__fid": 29021}, "geometry": {"type": "LineString", "coordinates": [[2.3112209, 48.8944745], [2.3113644, 48.894421], [2.3118892, 48.8950283]]}}, {"type": "Feature", "properties": {"highway": "footway", "footway": null, "name": null, "surface": null, "lit": null, "length_m": 4.26, "type_element": "Way", "__fid": 29025}, "geometry": {"type": "LineString", "coordinates": [[2.3112176, 48.8950573], [2.3112307, 48.8950946]]}}, {"type": "Feature", "properties": {"highway": "footway", "footway": "sidewalk", "name": null, "surface": "paving_stones", "lit": "yes", "length_m": 61.6, "type_element": "Way", "__fid": 29035}, "geometry": {"type": "LineString", "coordinates": [[2.3118455, 48.8954538], [2.3112206, 48.8958241]]}}, {"type": "Feature", "properties": {"highway": "footway", "footway": null, "name": null, "surface": null, "lit": null, "length_m": 3.62, "type_element": "Way", "__fid": 29038}, "geometry": {"type": "LineString", "coordinates": [[2.3112307, 48.8950946], [2.3112794, 48.89509970000001]]}}, {"type": "Feature", "properties": {"highway": "footway", "footway": null, "name": null, "surface": null, "lit": null, "length_m": 4.98, "type_element": "Way", "__fid": 29070}, "geometry": {"type": "LineString", "coordinates": [[2.3112794, 48.89509970000001], [2.3113472, 48.8951025]]}}, {"type": "Feature", "properties": {"highway": "footway", "footway": null, "name": null, "surface": null, "lit": null, "length_m": 7.37, "type_element": "Way", "__fid": 29071}, "geometry": {"type": "LineString", "coordinates": [[2.3113041, 48.8950355], [2.3112794, 48.89509970000001]]}}, {"type": "Feature", "properties": {"highway": "footway", "footway": null, "name": null, "surface": null, "lit": null, "length_m": 7.21, "type_element": "Way", "__fid": 29072}, "geometry": {"type": "LineString", "coordinates": [[2.3112794, 48.89509970000001], [2.3113284, 48.8950435]]}}, {"type": "Feature", "properties": {"highway": "footway", "footway": null, "name": null, "surface": null, "lit": null, "length_m": 8.03, "type_element": "Way", "__fid": 29122}, "geometry": {"type": "LineString", "coordinates": [[2.3113472, 48.8951025], [2.3114015, 48.8950814], [2.3114216, 48.895109]]}}, {"type": "Feature", "properties": {"highway": "footway", "footway": null, "name": null, "surface": null, "lit": null, "length_m": 23.28, "type_element": "Way", "__fid": 29169}, "geometry": {"type": "LineString", "coordinates": [[2.3114216, 48.895109], [2.311736282386667, 48.89513668154856]]}}, {"type": "Feature", "properties": {"highway": "footway", "footway": "crossing", "name": null, "surface": "asphalt", "lit": "yes", "length_m": 32.03, "type_element": "Way", "__fid": 29239}, "geometry": {"type": "LineString", "coordinates": [[2.3118455, 48.8954538], [2.3115582, 48.8952368]]}}, {"type": "Feature", "properties": {"highway": "footway", "footway": "sidewalk", "name": null, "surface": "paving_stones", "lit": "yes", "length_m": 17.16, "type_element": "Way", "__fid": 29240}, "geometry": {"type": "LineString", "coordinates": [[2.311736282386667, 48.89513668154856], [2.3115582, 48.8952368]]}}, {"type": "Feature", "properties": {"highway": "footway", "footway": "sidewalk", "name": null, "surface": "paving_stones", "lit": "yes", "length_m": 6.38, "type_element": "Way", "__fid": 29354}, "geometry": {"type": "LineString", "coordinates": [[2.3117202, 48.8950887], [2.311751, 48.8951284], [2.311736282386667, 48.89513668154856]]}}, {"type": "Feature", "properties": {"highway": "footway", "footway": "crossing", "name": null, "surface": "asphalt", "lit": "yes", "length_m": 14.09, "type_element": "Way", "__fid": 29355}, "geometry": {"type": "LineString", "coordinates": [[2.3118892, 48.8950283], [2.3117202, 48.8950887]]}}, {"type": "Feature", "properties": {"highway": "footway", "footway": null, "name": null, "surface": null, "lit": null, "length_m": 42.59, "type_element": "Way", "__fid": 29362}, "geometry": {"type": "LineString", "coordinates": [[2.311736282386667, 48.89513668154856], [2.312312055986192, 48.89518732819225]]}}, {"type": "Feature", "properties": {"highway": "footway", "footway": "crossing", "name": null, "surface": "asphalt", "lit": "yes", "length_m": 45.2, "type_element": "Way", "__fid": 29421}, "geometry": {"type": "LineString", "coordinates": [[2.3123176, 48.8951924], [2.3118455, 48.8954538]]}}, {"type": "Feature", "properties": {"highway": "footway", "footway": "sidewalk", "name": null, "surface": "paving_stones", "lit": "yes", "length_m": 11.55, "type_element": "Way", "__fid": 29442}, "geometry": {"type": "LineString", "coordinates": [[2.3118892, 48.8950283], [2.3119522, 48.8950089], [2.3120186, 48.8949708]]}}, {"type": "Feature", "properties": {"highway": "footway", "footway": "crossing", "name": null, "surface": "asphalt", "lit": "yes", "length_m": 32.31, "type_element": "Way", "__fid": 29523}, "geometry": {"type": "LineString", "coordinates": [[2.3120186, 48.8949708], [2.3122525, 48.8951364], [2.312312055986192, 48.89518732819225]]}}, {"type": "Feature", "properties": {"highway": "footway", "footway": "sidewalk", "name": null, "surface": "paving_stones", "lit": "yes", "length_m": 83.05, "type_element": "Way", "__fid": 29524}, "geometry": {"type": "LineString", "coordinates": [[2.3120186, 48.8949708], [2.3126537, 48.8946062], [2.312861129364967, 48.89447195425995]]}}, {"type": "Feature", "properties": {"highway": "footway", "footway": null, "name": null, "surface": null, "lit": null, "length_m": 0.93, "type_element": "Way", "__fid": 29734}, "geometry": {"type": "LineString", "coordinates": [[2.312312055986192, 48.89518732819225], [2.312324666753625, 48.89518843743825]]}}, {"type": "Feature", "properties": {"highway": "footway", "footway": "sidewalk", "name": null, "surface": "paving_stones", "lit": "yes", "length_m": 0.7, "type_element": "Way", "__fid": 29735}, "geometry": {"type": "LineString", "coordinates": [[2.312312055986192, 48.89518732819225], [2.3123176, 48.8951924]]}}, {"type": "Feature", "properties": {"highway": "footway", "footway": "sidewalk", "name": null, "surface": "asphalt", "lit": "yes", "length_m": 0.68, "type_element": "Way", "__fid": 29743}, "geometry": {"type": "LineString", "coordinates": [[2.312324666753625, 48.89518843743825], [2.3123176, 48.8951924]]}}, {"type": "Feature", "properties": {"highway": "footway", "footway": null, "name": null, "surface": null, "lit": null, "length_m": 7.76, "type_element": "Way", "__fid": 29748}, "geometry": {"type": "LineString", "coordinates": [[2.312324666753625, 48.89518843743825], [2.3123538, 48.895191], [2.3124035, 48.8952293]]}}, {"type": "Feature", "properties": {"highway": "footway", "footway": "sidewalk", "name": null, "surface": "asphalt", "lit": "yes", "length_m": 76.99, "type_element": "Way", "__fid": 29749}, "geometry": {"type": "LineString", "coordinates": [[2.313124523656715, 48.89473992461561], [2.312324666753625, 48.89518843743825]]}}, {"type": "Feature", "properties": {"highway": "footway", "footway": null, "name": null, "surface": null, "lit": null, "length_m": 82.47, "type_element": "Way", "__fid": 29796}, "geometry": {"type": "LineString", "coordinates": [[2.3124035, 48.8952293], [2.3125289, 48.8953263], [2.3132427, 48.8949317]]}}, {"type": "Feature", "properties": {"highway": "footway", "footway": null, "name": null, "surface": null, "lit": null, "length_m": 68.28, "type_element": "Way", "__fid": 29797}, "geometry": {"type": "LineString", "coordinates": [[2.3124035, 48.8952293], [2.3130949, 48.8948179]]}}, {"type": "Feature", "properties": {"highway": "footway", "footway": null, "name": null, "surface": null, "lit": null, "length_m": 35.51, "type_element": "Way", "__fid": 30122}, "geometry": {"type": "LineString", "coordinates": [[2.313124523656715, 48.89473992461561], [2.312861129364967, 48.89447195425995]]}}, {"type": "Feature", "properties": {"highway": "footway", "footway": null, "name": null, "surface": null, "lit": null, "length_m": 1.19, "type_element": "Way", "__fid": 30321}, "geometry": {"type": "LineString", "coordinates": [[2.3130949, 48.8948179], [2.3131053, 48.8948261]]}}, {"type": "Feature", "properties": {"highway": "footway", "footway": null, "name": null, "surface": null, "lit": null, "length_m": 6.59, "type_element": "Way", "__fid": 30322}, "geometry": {"type": "LineString", "coordinates": [[2.31316385893479, 48.894779912307555], [2.3130949, 48.8948179]]}}, {"type": "Feature", "properties": {"highway": "steps", "footway": null, "name": null, "surface": "paving_stones", "lit": null, "length_m": 9.02, "type_element": "Way", "__fid": 30336}, "geometry": {"type": "LineString", "coordinates": [[2.3131053, 48.8948261], [2.3131279, 48.8948438], [2.3131953, 48.8948066]]}}, {"type": "Feature", "properties": {"highway": "steps", "footway": null, "name": null, "surface": null, "lit": null, "length_m": 6.44, "type_element": "Way", "__fid": 30337}, "geometry": {"type": "LineString", "coordinates": [[2.3131053, 48.8948261], [2.3131727, 48.8947889]]}}, {"type": "Feature", "properties": {"highway": "footway", "footway": null, "name": null, "surface": null, "lit": null, "length_m": 5.3, "type_element": "Way", "__fid": 30359}, "geometry": {"type": "LineString", "coordinates": [[2.31316385893479, 48.894779912307555], [2.313124523656715, 48.89473992461561]]}}, {"type": "Feature", "properties": {"highway": "footway", "footway": "sidewalk", "name": null, "surface": "asphalt", "lit": "yes", "length_m": 27.86, "type_element": "Way", "__fid": 30360}, "geometry": {"type": "LineString", "coordinates": [[2.313414, 48.89457759999998], [2.313124523656715, 48.89473992461561]]}}, {"type": "Feature", "properties": {"highway": "footway", "footway": null, "name": null, "surface": null, "lit": null, "length_m": 1.19, "type_element": "Way", "__fid": 30385}, "geometry": {"type": "LineString", "coordinates": [[2.3131727, 48.8947889], [2.31316385893479, 48.894779912307555]]}}, {"type": "Feature", "properties": {"highway": "footway", "footway": null, "name": null, "surface": null, "lit": null, "length_m": 20.02, "type_element": "Way", "__fid": 30386}, "geometry": {"type": "LineString", "coordinates": [[2.31316385893479, 48.894779912307555], [2.3132777, 48.89471719999999], [2.3133597, 48.8947791]]}}, {"type": "Feature", "properties": {"highway": "footway", "footway": null, "name": null, "surface": null, "lit": null, "length_m": 2.57, "type_element": "Way", "__fid": 30397}, "geometry": {"type": "LineString", "coordinates": [[2.3131727, 48.8947889], [2.3131953, 48.8948066]]}}, {"type": "Feature", "properties": {"highway": "footway", "footway": null, "name": null, "surface": null, "lit": null, "length_m": 2.68, "type_element": "Way", "__fid": 30419}, "geometry": {"type": "LineString", "coordinates": [[2.3131953, 48.8948066], [2.3132188, 48.8948251]]}}, {"type": "Feature", "properties": {"highway": "footway", "footway": null, "name": null, "surface": null, "lit": null, "length_m": 2.88, "type_element": "Way", "__fid": 30430}, "geometry": {"type": "LineString", "coordinates": [[2.3132188, 48.8948251], [2.3132441, 48.8948449]]}}, {"type": "Feature", "properties": {"highway": "steps", "footway": null, "name": null, "surface": null, "lit": null, "length_m": 8.6, "type_element": "Way", "__fid": 30431}, "geometry": {"type": "LineString", "coordinates": [[2.3132188, 48.8948251], [2.3132779, 48.8947916], [2.3133036, 48.8948112]]}}, {"type": "Feature", "properties": {"highway": "footway", "footway": null, "name": null, "surface": null, "lit": null, "length_m": 1.19, "type_element": "Way", "__fid": 30438}, "geometry": {"type": "LineString", "coordinates": [[2.3132427, 48.8949317], [2.313232, 48.8949237]]}}, {"type": "Feature", "properties": {"highway": "steps", "footway": null, "name": null, "surface": null, "lit": null, "length_m": 7.48, "type_element": "Way", "__fid": 30439}, "geometry": {"type": "LineString", "coordinates": [[2.313232, 48.8949237], [2.3132968, 48.8948863], [2.3132866, 48.8948783]]}}, {"type": "Feature", "properties": {"highway": "footway", "footway": null, "name": null, "surface": null, "lit": null, "length_m": 24.6, "type_element": "Way", "__fid": 30448}, "geometry": {"type": "LineString", "coordinates": [[2.3133597, 48.8947791], [2.3134222, 48.8948273], [2.3132427, 48.8949317]]}}, {"type": "Feature", "properties": {"highway": "footway", "footway": null, "name": null, "surface": null, "lit": null, "length_m": 1.64, "type_element": "Way", "__fid": 30449}, "geometry": {"type": "LineString", "coordinates": [[2.3132441, 48.8948449], [2.3132585, 48.8948562]]}}, {"type": "Feature", "properties": {"highway": "steps", "footway": null, "name": null, "surface": "paving_stones", "lit": null, "length_m": 5.75, "type_element": "Way", "__fid": 30450}, "geometry": {"type": "LineString", "coordinates": [[2.3132441, 48.8948449], [2.3133036, 48.8948112]]}}, {"type": "Feature", "properties": {"highway": "footway", "footway": null, "name": null, "surface": null, "lit": null, "length_m": 3.21, "type_element": "Way", "__fid": 30455}, "geometry": {"type": "LineString", "coordinates": [[2.3132585, 48.8948562], [2.3132866, 48.8948783]]}}, {"type": "Feature", "properties": {"highway": "steps", "footway": null, "name": null, "surface": null, "lit": null, "length_m": 7.41, "type_element": "Way", "__fid": 30456}, "geometry": {"type": "LineString", "coordinates": [[2.3132585, 48.8948562], [2.3133182, 48.8948223], [2.3133036, 48.8948112]]}}, {"type": "Feature", "properties": {"highway": "footway", "footway": null, "name": null, "surface": null, "lit": null, "length_m": 5.45, "type_element": "Way", "__fid": 30499}, "geometry": {"type": "LineString", "coordinates": [[2.3133597, 48.8947791], [2.3133036, 48.8948112]]}}, {"type": "Feature", "properties": {"highway": "footway", "footway": null, "name": null, "surface": null, "lit": null, "length_m": 18.08, "type_element": "Way", "__fid": 30534}, "geometry": {"type": "LineString", "coordinates": [[2.3135405, 48.8946686], [2.3133597, 48.8947791]]}}, {"type": "Feature", "properties": {"highway": "footway", "footway": "sidewalk", "name": null, "surface": "asphalt", "lit": "yes", "length_m": 11.52, "type_element": "Way", "__fid": 30570}, "geometry": {"type": "LineString", "coordinates": [[2.313551, 48.894628300000015], [2.313414, 48.89457759999998]]}}, {"type": "Feature", "properties": {"highway": "footway", "footway": "sidewalk", "name": null, "surface": "asphalt", "lit": "yes", "length_m": 22.69, "type_element": "Way", "__fid": 30710}, "geometry": {"type": "LineString", "coordinates": [[2.313551, 48.894628300000015], [2.313819, 48.89473029999998]]}}, {"type": "Feature", "properties": {"highway": "footway", "footway": "crossing", "name": null, "surface": "concrete", "lit": "yes", "length_m": 19.22, "type_element": "Way", "__fid": 30711}, "geometry": {"type": "LineString", "coordinates": [[2.3137365, 48.8945066], [2.3136266, 48.8945721], [2.313551, 48.894628300000015]]}}, {"type": "Feature", "properties": {"highway": "footway", "footway": "sidewalk", "name": null, "surface": "asphalt", "lit": "yes", "length_m": 17.78, "type_element": "Way", "__fid": 30970}, "geometry": {"type": "LineString", "coordinates": [[2.314036573046131, 48.89480088583371], [2.313819, 48.89473029999998]]}}, {"type": "Feature", "properties": {"highway": "footway", "footway": "sidewalk", "name": null, "surface": "asphalt", "lit": "yes", "length_m": 11.01, "type_element": "Way", "__fid": 30971}, "geometry": {"type": "LineString", "coordinates": [[2.313819, 48.89473029999998], [2.313828, 48.8948291]]}}, {"type": "Feature", "properties": {"highway": "steps", "footway": null, "name": "Sortie de Métro \"Porte de Clichy (1)\"", "surface": null, "lit": "yes", "length_m": 14.87, "type_element": "Way", "__fid": 30983}, "geometry": {"type": "LineString", "coordinates": [[2.31403, 48.8948268], [2.3139741, 48.894822], [2.313828, 48.8948291]]}}, {"type": "Feature", "properties": {"highway": "footway", "footway": null, "name": null, "surface": null, "lit": "24/7", "length_m": 2.92, "type_element": "Way", "__fid": 31170}, "geometry": {"type": "LineString", "coordinates": [[2.314036573046131, 48.89480088583371], [2.31403, 48.8948268]]}}, {"type": "Feature", "properties": {"highway": "footway", "footway": "sidewalk", "name": null, "surface": "asphalt", "lit": "yes", "length_m": 34.79, "type_element": "Way", "__fid": 31176}, "geometry": {"type": "LineString", "coordinates": [[2.3144623, 48.894939], [2.314036573046131, 48.89480088583371]]}}, {"type": "Feature", "properties": {"highway": "footway", "footway": null, "name": null, "surface": null, "lit": "24/7", "length_m": 41.52, "type_element": "Way", "__fid": 31177}, "geometry": {"type": "LineString", "coordinates": [[2.3142477, 48.8944599], [2.31407, 48.8946691], [2.314036573046131, 48.89480088583371]]}}, {"type": "Feature", "properties": {"highway": "footway", "footway": null, "name": null, "surface": "paving_stones", "lit": "yes", "length_m": 11.7, "type_element": "Way", "__fid": 31493}, "geometry": {"type": "LineString", "coordinates": [[2.3144376, 48.894769], [2.3145754, 48.894822]]}}, {"type": "Feature", "properties": {"highway": "footway", "footway": "sidewalk", "name": null, "surface": "asphalt", "lit": "yes", "length_m": 106.11, "type_element": "Way", "__fid": 31507}, "geometry": {"type": "LineString", "coordinates": [[2.3157607, 48.89536039999999], [2.3144623, 48.894939]]}}, {"type": "Feature", "properties": {"highway": "footway", "footway": "crossing", "name": null, "surface": "grass", "lit": "yes", "length_m": 15.43, "type_element": "Way", "__fid": 31508}, "geometry": {"type": "LineString", "coordinates": [[2.3144623, 48.894939], [2.3145754, 48.894822]]}}, {"type": "Feature", "properties": {"highway": "footway", "footway": null, "name": null, "surface": "paving_stones", "lit": "yes", "length_m": 12.26, "type_element": "Way", "__fid": 31543}, "geometry": {"type": "LineString", "coordinates": [[2.3145255, 48.8946693], [2.3146687, 48.8947262]]}}, {"type": "Feature", "properties": {"highway": "service", "footway": null, "name": "Route d'Accès Collège", "surface": "asphalt", "lit": null, "length_m": 43.64, "type_element": "Way", "__fid": 31564}, "geometry": {"type": "LineString", "coordinates": [[2.3150757, 48.8954782], [2.3150244, 48.89546030000002], [2.3145508, 48.8956274]]}}, {"type": "Feature", "properties": {"highway": "footway", "footway": "crossing", "name": null, "surface": "grass", "lit": "yes", "length_m": 12.66, "type_element": "Way", "__fid": 31578}, "geometry": {"type": "LineString", "coordinates": [[2.3145754, 48.894822], [2.3146687, 48.8947262]]}}, {"type": "Feature", "properties": {"highway": "footway", "footway": "crossing", "name": null, "surface": "grass", "lit": "yes", "length_m": 14.36, "type_element": "Way", "__fid": 31666}, "geometry": {"type": "LineString", "coordinates": [[2.3146687, 48.8947262], [2.314773, 48.8946169]]}}, {"type": "Feature", "properties": {"highway": "footway", "footway": "sidewalk", "name": null, "surface": "paving_stones", "lit": "yes", "length_m": 40.23, "type_element": "Way", "__fid": 31763}, "geometry": {"type": "LineString", "coordinates": [[2.314773, 48.8946169], [2.315256, 48.8947885]]}}, {"type": "Feature", "properties": {"highway": "footway", "footway": "sidewalk", "name": null, "surface": "paving_stones", "lit": "yes", "length_m": 62.46, "type_element": "Way", "__fid": 31931}, "geometry": {"type": "LineString", "coordinates": [[2.315256, 48.8947885], [2.3153398, 48.89471179999998], [2.3150079, 48.89429910000001]]}}, {"type": "Feature", "properties": {"highway": "service", "footway": null, "name": "Route d'Accès Collège", "surface": "asphalt", "lit": null, "length_m": 44.66, "type_element": "Way", "__fid": 32005}, "geometry": {"type": "LineString", "coordinates": [[2.3156143, 48.89566580000001], [2.3150757, 48.8954782]]}}, {"type": "Feature", "properties": {"highway": "footway", "footway": null, "name": null, "surface": "asphalt", "lit": "yes", "length_m": 66.84, "type_element": "Way", "__fid": 32006}, "geometry": {"type": "LineString", "coordinates": [[2.3150757, 48.8954782], [2.3151549, 48.8954677], [2.3151813, 48.8952252], [2.3150359, 48.89536680000002], [2.3150003, 48.89541220000001], [2.3150757, 48.8954782]]}}, {"type": "Feature", "properties": {"highway": "footway", "footway": "sidewalk", "name": null, "surface": null, "lit": "yes", "length_m": 117.18, "type_element": "Way", "__fid": 32136}, "geometry": {"type": "LineString", "coordinates": [[2.315229066666664, 48.89435096666669], [2.3152751, 48.8943529], [2.3156168, 48.8944235], [2.3156543, 48.8944523], [2.3161435, 48.895087199999985], [2.3161314, 48.8951235]]}}, {"type": "Feature", "properties": {"highway": "footway", "footway": "sidewalk", "name": null, "surface": null, "lit": "yes", "length_m": 60.62, "type_element": "Way", "__fid": 32137}, "geometry": {"type": "LineString", "coordinates": [[2.3154008, 48.8948409], [2.3154934, 48.894706], [2.3152376, 48.8943851], [2.315229066666664, 48.89435096666669]]}}, {"type": "Feature", "properties": {"highway": "footway", "footway": "crossing", "name": null, "surface": null, "lit": "yes", "length_m": 12.11, "type_element": "Way", "__fid": 32179}, "geometry": {"type": "LineString", "coordinates": [[2.3154008, 48.8948409], [2.315256, 48.8947885]]}}, {"type": "Feature", "properties": {"highway": "footway", "footway": "sidewalk", "name": null, "surface": null, "lit": "yes", "length_m": 62.1, "type_element": "Way", "__fid": 32357}, "geometry": {"type": "LineString", "coordinates": [[2.3161314, 48.8951235], [2.3154008, 48.8948409]]}}, {"type": "Feature", "properties": {"highway": "service", "footway": null, "name": "Route d'Accès Lycée", "surface": "asphalt", "lit": null, "length_m": 47.93, "type_element": "Way", "__fid": 32619}, "geometry": {"type": "LineString", "coordinates": [[2.3156143, 48.89566580000001], [2.3161671, 48.8958959]]}}, {"type": "Feature", "properties": {"highway": "service", "footway": null, "name": "Route d'Accès Lycée", "surface": "asphalt", "lit": null, "length_m": 34.74, "type_element": "Way", "__fid": 32620}, "geometry": {"type": "LineString", "coordinates": [[2.3158502, 48.8953949], [2.3156143, 48.89566580000001]]}}, {"type": "Feature", "properties": {"highway": "footway", "footway": "sidewalk", "name": null, "surface": null, "lit": "yes", "length_m": 7.6, "type_element": "Way", "__fid": 32718}, "geometry": {"type": "LineString", "coordinates": [[2.3158502, 48.8953949], [2.3157607, 48.89536039999999]]}}, {"type": "Feature", "properties": {"highway": "footway", "footway": "crossing", "name": null, "surface": "paving_stones", "lit": "yes", "length_m": 28.47, "type_element": "Way", "__fid": 32719}, "geometry": {"type": "LineString", "coordinates": [[2.3157607, 48.89536039999999], [2.3159494, 48.8951366]]}}, {"type": "Feature", "properties": {"highway": "footway", "footway": "sidewalk", "name": null, "surface": null, "lit": "yes", "length_m": 202.23, "type_element": "Way", "__fid": 32751}, "geometry": {"type": "LineString", "coordinates": [[2.3182558, 48.8962844], [2.3162829, 48.8955467], [2.3158502, 48.8953949]]}}, {"type": "Feature", "properties": {"highway": "service", "footway": null, "name": "Route d'Accès Lycée", "surface": "asphalt", "lit": null, "length_m": 9.09, "type_element": "Way", "__fid": 32752}, "geometry": {"type": "LineString", "coordinates": [[2.3159097, 48.8953232], [2.3158502, 48.8953949]]}}, {"type": "Feature", "properties": {"highway": "service", "footway": null, "name": "Impasse de la Jonquière", "surface": null, "lit": null, "length_m": 56.83, "type_element": "Way", "__fid": 32882}, "geometry": {"type": "LineString", "coordinates": [[2.3164445, 48.8949773], [2.3162827, 48.8948013], [2.3160758, 48.89452820000001]]}}, {"type": "Feature", "properties": {"highway": "footway", "footway": "crossing", "name": null, "surface": null, "lit": "yes", "length_m": 12.13, "type_element": "Way", "__fid": 32916}, "geometry": {"type": "LineString", "coordinates": [[2.3161314, 48.8951235], [2.3162762, 48.8951762]]}}, {"type": "Feature", "properties": {"highway": "service", "footway": null, "name": "Route d'Accès Lycée", "surface": "asphalt", "lit": null, "length_m": 315.16, "type_element": "Way", "__fid": 32936}, "geometry": {"type": "LineString", "coordinates": [[2.3161671, 48.8958959], [2.3160195, 48.8961692], [2.3161644, 48.896313800000016], [2.3173901, 48.8967582], [2.3176315, 48.8965395], [2.3174921, 48.8963932], [2.3161671, 48.8958959]]}}, {"type": "Feature", "properties": {"highway": "footway", "footway": "sidewalk", "name": null, "surface": "asphalt", "lit": "yes", "length_m": 12.19, "type_element": "Way", "__fid": 32984}, "geometry": {"type": "LineString", "coordinates": [[2.3164181, 48.8952333], [2.3162762, 48.8951762]]}}, {"type": "Feature", "properties": {"highway": "footway", "footway": "sidewalk", "name": null, "surface": "asphalt", "lit": "yes", "length_m": 138.53, "type_element": "Way", "__fid": 32985}, "geometry": {"type": "LineString", "coordinates": [[2.3162762, 48.8951762], [2.3162716, 48.8951275], [2.31617, 48.8950142], [2.3157177, 48.894419], [2.3159346, 48.8944543], [2.3162196, 48.8944307], [2.3163112, 48.89444850000001]]}}, {"type": "Feature", "properties": {"highway": "service", "footway": null, "name": "Impasse du Pélerin", "surface": null, "lit": null, "length_m": 51.09, "type_element": "Way", "__fid": 32990}, "geometry": {"type": "LineString", "coordinates": [[2.3165471, 48.8948728], [2.3165448, 48.8947682], [2.3163112, 48.89444850000001]]}}, {"type": "Feature", "properties": {"highway": "footway", "footway": "crossing", "name": null, "surface": null, "lit": "yes", "length_m": 15.34, "type_element": "Way", "__fid": 33071}, "geometry": {"type": "LineString", "coordinates": [[2.3164181, 48.8952333], [2.3166008, 48.8953005]]}}, {"type": "Feature", "properties": {"highway": "footway", "footway": "sidewalk", "name": null, "surface": "asphalt", "lit": "yes", "length_m": 14.02, "type_element": "Way", "__fid": 33072}, "geometry": {"type": "LineString", "coordinates": [[2.3165962, 48.8951875], [2.3164181, 48.8952333]]}}, {"type": "Feature", "properties": {"highway": "service", "footway": null, "name": "Impasse de la Jonquière", "surface": null, "lit": null, "length_m": 25.89, "type_element": "Way", "__fid": 33094}, "geometry": {"type": "LineString", "coordinates": [[2.3165962, 48.8951875], [2.3164445, 48.8949773]]}}, {"type": "Feature", "properties": {"highway": "service", "footway": null, "name": "Impasse du Pélerin", "surface": null, "lit": null, "length_m": 13.84, "type_element": "Way", "__fid": 33095}, "geometry": {"type": "LineString", "coordinates": [[2.3164445, 48.8949773], [2.3165471, 48.8948728]]}}, {"type": "Feature", "properties": {"highway": "footway", "footway": null, "name": null, "surface": null, "lit": null, "length_m": 34.85, "type_element": "Way", "__fid": 33160}, "geometry": {"type": "LineString", "coordinates": [[2.3167809, 48.8951452], [2.3166927, 48.8950263], [2.3165471, 48.8948728]]}}, {"type": "Feature", "properties": {"highway": "service", "footway": null, "name": "Impasse de la Jonquière", "surface": null, "lit": null, "length_m": 5.45, "type_element": "Way", "__fid": 33199}, "geometry": {"type": "LineString", "coordinates": [[2.3166283, 48.89523169999999], [2.3165962, 48.8951875]]}}, {"type": "Feature", "properties": {"highway": "footway", "footway": "sidewalk", "name": null, "surface": "asphalt", "lit": "yes", "length_m": 14.34, "type_element": "Way", "__fid": 33200}, "geometry": {"type": "LineString", "coordinates": [[2.3167809, 48.8951452], [2.3165962, 48.8951875]]}}, {"type": "Feature", "properties": {"highway": "footway", "footway": "crossing", "name": null, "surface": null, "lit": "yes", "length_m": 160.27, "type_element": "Way", "__fid": 33208}, "geometry": {"type": "LineString", "coordinates": [[2.3185109, 48.8960001], [2.3183313, 48.8959481], [2.3166008, 48.8953005]]}}, {"type": "Feature", "properties": {"highway": "footway", "footway": "sidewalk", "name": null, "surface": "concrete", "lit": "yes", "length_m": 81.92, "type_element": "Way", "__fid": 33209}, "geometry": {"type": "LineString", "coordinates": [[2.3176173, 48.8950539], [2.3175952, 48.8950531], [2.3169944, 48.8951836], [2.3169899, 48.8952195], [2.3166008, 48.8953005]]}}, {"type": "Feature", "properties": {"highway": "footway", "footway": null, "name": null, "surface": null, "lit": "yes", "length_m": 5.17, "type_element": "Way", "__fid": 33335}, "geometry": {"type": "LineString", "coordinates": [[2.3168119, 48.895187], [2.3167809, 48.8951452]]}}, {"type": "Feature", "properties": {"highway": "footway", "footway": "sidewalk", "name": null, "surface": "asphalt", "lit": "yes", "length_m": 70.81, "type_element": "Way", "__fid": 33336}, "geometry": {"type": "LineString", "coordinates": [[2.3176878, 48.8949337], [2.3176405, 48.8949591], [2.3167809, 48.8951452]]}}, {"type": "Feature", "properties": {"highway": "footway", "footway": "sidewalk", "name": null, "surface": "asphalt", "lit": "yes", "length_m": 70.55, "type_element": "Way", "__fid": 33433}, "geometry": {"type": "LineString", "coordinates": [[2.3169062, 48.8945636], [2.3176878, 48.8949337]]}}, {"type": "Feature", "properties": {"highway": "pedestrian", "footway": null, "name": "Passage Rose-Valland", "surface": "asphalt", "lit": "yes", "length_m": 111.55, "type_element": "Way", "__fid": 34104}, "geometry": {"type": "LineString", "coordinates": [[2.3175613, 48.8971772], [2.318322, 48.8963084]]}}, {"type": "Feature", "properties": {"highway": "service", "footway": null, "name": null, "surface": "asphalt", "lit": "yes", "length_m": 25.17, "type_element": "Way", "__fid": 34128}, "geometry": {"type": "LineString", "coordinates": [[2.3176135, 48.8947527], [2.3177753, 48.894826299999984], [2.3178396, 48.8948792], [2.3178563, 48.894906]]}}, {"type": "Feature", "properties": {"highway": "footway", "footway": "sidewalk", "name": null, "surface": "concrete", "lit": "yes", "length_m": 1.45, "type_element": "Way", "__fid": 34142}, "geometry": {"type": "LineString", "coordinates": [[2.3176241, 48.8950661], [2.3176173, 48.8950539]]}}, {"type": "Feature", "properties": {"highway": "footway", "footway": "traffic_island", "name": null, "surface": "asphalt", "lit": "yes", "length_m": 36.73, "type_element": "Way", "__fid": 34143}, "geometry": {"type": "LineString", "coordinates": [[2.3176173, 48.8950539], [2.3180956, 48.8949556]]}}]}