{"type": "FeatureCollection", "features": [{"type": "Feature", "properties": {"@id": "node/5546251035", "amenity": "drinking_water", "man_made": "water_tap", "type_element": "Fontaines à boire", "__fid": 547}, "geometry": {"type": "Point", "coordinates": [2.3203981, 48.8954493]}, "id": "node/5546251035"}, {"type": "Feature", "properties": {"@id": "node/8920087500", "amenity": "drinking_water", "fountain": "drinking", "type_element": "Fontaines à boire", "__fid": 776}, "geometry": {"type": "Point", "coordinates": [2.3265377, 48.8947488]}, "id": "node/8920087500"}, {"type": "Feature", "properties": {"@id": "node/9216339362", "access": "yes", "amenity": "drinking_water", "fee": "no", "type_element": "Fontaines à boire", "__fid": 790}, "geometry": {"type": "Point", "coordinates": [2.3213144, 48.899913]}, "id": "node/9216339362"}, {"type": "Feature", "properties": {"@id": "node/10936658305", "amenity": "drinking_water", "type_element": "Fontaines à boire", "__fid": 863}, "geometry": {"type": "Point", "coordinates": [2.3194848, 48.899135]}, "id": "node/10936658305"}, {"type": "Feature", "geometry": {"type": "Point", "coordinates": [2.320506, 48.895448]}, "properties": {"id": 2819, "name": "Jardin Paul Didier", "categorie": "Parcs, jardins et bois", "photo_url": "https://cdn.paris.fr/eqpts-prod/2022/05/10/3532a269fc13cb55427da37a1edbe6e3.jpg", "photo_credit": "Antoine Polez/Ville de Paris", "photo_alt": null, "address_street": "12 rue du Colonel-Manhès", "address_postcode": "75017", "address_city": "Paris", "phone": null, "accessibility": "{\"handicaps\": [{\"name\": \"Personnes à mobilité réduite\", \"status\": \"accessible\"}, {\"name\": \"Personnes déficientes visuelles\", \"status\": \"undefined\"}, {\"name\": \"Personnes déficientes auditives\", \"status\": \"undefined\"}, {\"name\": \"Personnes déficientes mentales\", \"status\": \"undefined\"}, {\"name\": \"Accueil en langue des signes\", \"status\": \"undefined\"}]}", "latitude": 48.895448, "longitude": 2.320506, "url": "https://www.paris.fr/lieux/jardin-paul-didier-2819", "type_element": "Parcs, Jardins et Bois", "__fid": 1222}}, {"type": "Feature", "geometry": {"type": "Point", "coordinates": [2.322759, 48.897595]}, "properties": {"id": 19654, "name": "Jardin Hans et Sophie Scholl", "categorie": "Parcs, jardins et bois", "photo_url": "https://cdn.paris.fr/eqpts-prod/2022/05/10/d2ac32669487daacdd94e006f793f457.jpg", "photo_credit": "Clement Dorval/Ville de Paris", "photo_alt": null, "address_street": "Porte Pouchet", "address_postcode": "75017", "address_city": "Paris", "phone": null, "accessibility": "{\"handicaps\": [{\"name\": \"Personnes à mobilité réduite\", \"status\": \"accessible\"}, {\"name\": \"Personnes déficientes visuelles\", \"status\": \"undefined\"}, {\"name\": \"Personnes déficientes auditives\", \"status\": \"undefined\"}, {\"name\": \"Personnes déficientes mentales\", \"status\": \"undefined\"}, {\"name\": \"Accueil en langue des signes\", \"status\": \"undefined\"}]}", "latitude": 48.897595, "longitude": 2.322759, "url": "https://www.paris.fr/lieux/jardin-hans-et-sophie-scholl-19654", "type_element": "Parcs, Jardins et Bois", "__fid": 1307}}, {"type": "Feature", "geometry": {"type": "Point", "coordinates": [2.317759, 48.897157]}, "properties": {"id": 20228, "name": "Jardin Clémence-Annick Burgard", "categorie": "Parcs, jardins et bois", "photo_url": "https://cdn.paris.fr/eqpts-prod/2023/10/17/af1a2abe928897555954ca2e0422513d.jpg", "photo_credit": "Frédéric Combeau", "photo_alt": "Un banc public dans un jardin", "address_street": "49 rue Pierre Rebière", "address_postcode": "75017", "address_city": "Paris", "phone": null, "accessibility": "{\"handicaps\": [{\"name\": \"Personnes déficientes visuelles\", \"status\": \"undefined\"}, {\"name\": \"Personnes déficientes auditives\", \"status\": \"undefined\"}, {\"name\": \"Personnes déficientes mentales\", \"status\": \"undefined\"}, {\"name\": \"Personnes à mobilité réduite\", \"status\": \"undefined\"}, {\"name\": \"Accueil en langue des signes\", \"status\": \"undefined\"}]}", "latitude": 48.897157, "longitude": 2.317759, "url": "https://www.paris.fr/lieux/jardin-clemence-annick-burgard-20228", "type_element": "Parcs, Jardins et Bois", "__fid": 1387}}, {"type": "Feature", "geometry": {"type": "Point", "coordinates": [2.326411, 48.895426]}, "properties": {"id": 2637, "name": "Square Jean Leclaire", "categorie": "Parcs, jardins et bois", "photo_url": "https://cdn.paris.fr/eqpts-prod/2022/05/10/c53f169d7f61f446eaf959cf2257e54d.jpg", "photo_credit": "Clement Dorval/ Ville de Paris", "photo_alt": null, "address_street": "25 bis rue Jean Leclaire", "address_postcode": "75017", "address_city": "PARIS", "phone": null, "accessibility": "{\"handicaps\": [{\"name\": \"Personnes à mobilité réduite\", \"status\": \"accessible\"}, {\"name\": \"Personnes déficientes visuelles\", \"status\": \"undefined\"}, {\"name\": \"Personnes déficientes auditives\", \"status\": \"undefined\"}, {\"name\": \"Personnes déficientes mentales\", \"status\": \"undefined\"}, {\"name\": \"Accueil en langue des signes\", \"status\": \"undefined\"}]}", "latitude": 48.895426, "longitude": 2.326411, "url": "https://www.paris.fr/lieux/square-jean-leclaire-2637", "type_element": "Parcs, Jardins et Bois", "__fid": 1460}}, {"type": "Feature", "geometry": {"type": "Point", "coordinates": [2.324071, 48.899102]}, "properties": {"id": 15878, "name": "Square Jacques Manavian", "categorie": "Parcs, jardins et bois", "photo_url": "https://cdn.paris.fr/eqpts-prod/2022/05/10/e24f357faf4524f7d00a6cf3a0a9ecdd.jpg", "photo_credit": "Clement Dorval/ Ville de Paris", "photo_alt": null, "address_street": "38 rue André Bréchet", "address_postcode": "75017", "address_city": "PARIS", "phone": null, "accessibility": "{\"handicaps\": [{\"name\": \"Personnes à mobilité réduite\", \"status\": \"accessible\"}, {\"name\": \"Personnes déficientes visuelles\", \"status\": \"undefined\"}, {\"name\": \"Personnes déficientes auditives\", \"status\": \"undefined\"}, {\"name\": \"Personnes déficientes mentales\", \"status\": \"undefined\"}, {\"name\": \"Accueil en langue des signes\", \"status\": \"undefined\"}]}", "latitude": 48.899102, "longitude": 2.324071, "url": "https://www.paris.fr/lieux/square-jacques-manavian-15878", "type_element": "Parcs, Jardins et Bois", "__fid": 1480}}, {"type": "Feature", "geometry": {"type": "Point", "coordinates": [2.318817, 48.894648]}, "properties": {"id": 2940, "name": "Piscine Bernard Lafay", "categorie": "Piscines", "photo_url": "https://cdn.paris.fr/eqpts-prod/2023/07/05/b563eaa3a9dba9cf6bb957942d0bdd20.jpg", "photo_credit": null, "photo_alt": null, "address_street": "79, rue de la Jonquière", "address_postcode": "75017", "address_city": "PARIS", "phone": "0142261105", "accessibility": "{\"handicaps\": [{\"name\": \"Personnes à mobilité réduite\", \"status\": \"accessible\"}, {\"name\": \"Personnes déficientes visuelles\", \"status\": \"accessible\"}, {\"name\": \"Personnes déficientes auditives\", \"status\": \"accessible\"}, {\"name\": \"Personnes déficientes mentales\", \"status\": \"undefined\"}, {\"name\": \"Accueil en langue des signes\", \"status\": \"non_accessible\"}], \"additional_info\": \"<p>PMR&nbsp;: chaise de mise à l’eau, rampe d’accès à l’entrée, rampe d’appui à l’accueil, présentoir <br>\\net distributeur de tickets à hauteur de fauteuil, ascenseur, sanitaires, vestiaires et douches avec <br>\\nbarres d’appui&nbsp;; bande podotactile&nbsp;; signalisation.&nbsp;</p>\"}", "latitude": 48.894648, "longitude": 2.318817, "url": "https://www.paris.fr/lieux/piscine-bernard-lafay-2940", "type_element": "Piscines", "__fid": 1634}}, {"type": "Feature", "properties": {"highway": "footway", "footway": "sidewalk", "name": null, "surface": null, "lit": "yes", "length_m": 202.23, "type_element": "Way", "__fid": 32751}, "geometry": {"type": "LineString", "coordinates": [[2.3182558, 48.8962844], [2.3162829, 48.8955467], [2.3158502, 48.8953949]]}}, {"type": "Feature", "properties": {"highway": "footway", "footway": "crossing", "name": null, "surface": null, "lit": "yes", "length_m": 160.27, "type_element": "Way", "__fid": 33208}, "geometry": {"type": "LineString", "coordinates": [[2.3185109, 48.8960001], [2.3183313, 48.8959481], [2.3166008, 48.8953005]]}}, {"type": "Feature", "properties": {"highway": "footway", "footway": "sidewalk", "name": null, "surface": "asphalt", "lit": "yes", "length_m": 70.81, "type_element": "Way", "__fid": 33336}, "geometry": {"type": "LineString", "coordinates": [[2.3176878, 48.8949337], [2.3176405, 48.8949591], [2.3167809, 48.8951452]]}}, {"type": "Feature", "properties": {"highway": "footway", "footway": "sidewalk", "name": null, "surface": "asphalt", "lit": "yes", "length_m": 70.55, "type_element": "Way", "__fid": 33433}, "geometry": {"type": "LineString", "coordinates": [[2.3169062, 48.8945636], [2.3176878, 48.8949337]]}}, {"type": "Feature", "properties": {"highway": "pedestrian", "footway": null, "name": "Passage Rose-Valland", "surface": "asphalt", "lit": "yes", "length_m": 111.55, "type_element": "Way", "__fid": 34104}, "geometry": {"type": "LineString", "coordinates": [[2.3175613, 48.8971772], [2.318322, 48.8963084]]}}, {"type": "Feature", "properties": {"highway": "service", "footway": null, "name": null, "surface": "asphalt", "lit": "yes", "length_m": 25.17, "type_element": "Way", "__fid": 34128}, "geometry": {"type": "LineString", "coordinates": [[2.3176135, 48.8947527], [2.3177753, 48.894826299999984], [2.3178396, 48.8948792], [2.3178563, 48.894906]]}}, {"type": "Feature", "properties": {"highway": "footway", "footway": "traffic_island", "name": null, "surface": "asphalt", "lit": "yes", "length_m": 36.73, "type_element": "Way", "__fid": 34143}, "geometry": {"type": "LineString", "coordinates": [[2.3176173, 48.8950539], [2.3180956, 48.8949556]]}}, {"type": "Feature", "properties": {"highway": "footway", "footway": "crossing", "name": null, "surface": "asphalt", "lit": "yes", "length_m": 12.87, "type_element": "Way", "__fid": 34196}, "geometry": {"type": "LineString", "coordinates": [[2.3176878, 48.8949337], [2.3177214, 48.8949349], [2.3178563, 48.894906]]}}, {"type": "Feature", "properties": {"highway": "service", "footway": null, "name": null, "surface": "asphalt", "lit": "yes", "length_m": 3.99, "type_element": "Way", "__fid": 34369}, "geometry": {"type": "LineString", "coordinates": [[2.3178563, 48.894906], [2.3178735, 48.89494]]}}, {"type": "Feature", "properties": {"highway": "footway", "footway": "sidewalk", "name": null, "surface": "asphalt", "lit": "yes", "length_m": 15.32, "type_element": "Way", "__fid": 34370}, "geometry": {"type": "LineString", "coordinates": [[2.3180565, 48.8948664], [2.3178563, 48.894906]]}}, {"type": "Feature", "properties": {"highway": "footway", "footway": "sidewalk", "name": null, "surface": null, "lit": "yes", "length_m": 30.68, "type_element": "Way", "__fid": 34505}, "geometry": {"type": "LineString", "coordinates": [[2.3180254, 48.89461510000002], [2.3182476, 48.89470690000001], [2.318293, 48.8948055]]}}, {"type": "Feature", "properties": {"highway": "footway", "footway": "crossing", "name": null, "surface": "asphalt", "lit": "yes", "length_m": 10.32, "type_element": "Way", "__fid": 34534}, "geometry": {"type": "LineString", "coordinates": [[2.3180565, 48.8948664], [2.3180956, 48.8949556]]}}, {"type": "Feature", "properties": {"highway": "footway", "footway": "sidewalk", "name": null, "surface": "asphalt", "lit": "yes", "length_m": 17.35, "type_element": "Way", "__fid": 34535}, "geometry": {"type": "LineString", "coordinates": [[2.3182834, 48.89482210000001], [2.3180565, 48.8948664]]}}, {"type": "Feature", "properties": {"highway": "footway", "footway": "traffic_island", "name": null, "surface": "asphalt", "lit": "yes", "length_m": 4.27, "type_element": "Way", "__fid": 34579}, "geometry": {"type": "LineString", "coordinates": [[2.3180956, 48.8949556], [2.3181513, 48.89494430000001]]}}, {"type": "Feature", "properties": {"highway": "footway", "footway": "sidewalk", "name": null, "surface": "asphalt", "lit": "yes", "length_m": 38.98, "type_element": "Way", "__fid": 34582}, "geometry": {"type": "LineString", "coordinates": [[2.3184846, 48.89475879999998], [2.3184131, 48.89466390000001], [2.3181017, 48.894531]]}}, {"type": "Feature", "properties": {"highway": "footway", "footway": null, "name": "Rue du Docteur Paul Brousse", "surface": "asphalt", "lit": "yes", "length_m": 20.19, "type_element": "Way", "__fid": 34638}, "geometry": {"type": "LineString", "coordinates": [[2.3181513, 48.89494430000001], [2.3183904, 48.8950344]]}}, {"type": "Feature", "properties": {"highway": "footway", "footway": "traffic_island", "name": null, "surface": "asphalt", "lit": "yes", "length_m": 18.19, "type_element": "Way", "__fid": 34639}, "geometry": {"type": "LineString", "coordinates": [[2.3181513, 48.89494430000001], [2.3183885, 48.8948963]]}}, {"type": "Feature", "properties": {"highway": "footway", "footway": "sidewalk", "name": null, "surface": "asphalt", "lit": "yes", "length_m": 5.54, "type_element": "Way", "__fid": 34785}, "geometry": {"type": "LineString", "coordinates": [[2.3182558, 48.8962844], [2.318322, 48.8963084]]}}, {"type": "Feature", "properties": {"highway": "footway", "footway": "crossing", "name": null, "surface": "asphalt", "lit": "yes", "length_m": 12.96, "type_element": "Way", "__fid": 34786}, "geometry": {"type": "LineString", "coordinates": [[2.3183493, 48.89618549999999], [2.3182558, 48.8962844]]}}, {"type": "Feature", "properties": {"highway": "footway", "footway": "crossing", "name": null, "surface": "asphalt", "lit": "yes", "length_m": 11.39, "type_element": "Way", "__fid": 34795}, "geometry": {"type": "LineString", "coordinates": [[2.3182834, 48.89482210000001], [2.3183199, 48.89483890000001], [2.3183885, 48.8948963]]}}, {"type": "Feature", "properties": {"highway": "footway", "footway": "sidewalk", "name": null, "surface": "asphalt", "lit": "yes", "length_m": 1.98, "type_element": "Way", "__fid": 34796}, "geometry": {"type": "LineString", "coordinates": [[2.318293, 48.8948055], [2.3182834, 48.89482210000001]]}}, {"type": "Feature", "properties": {"highway": "footway", "footway": "crossing", "name": null, "surface": "asphalt", "lit": "yes", "length_m": 14.98, "type_element": "Way", "__fid": 34805}, "geometry": {"type": "LineString", "coordinates": [[2.318293, 48.8948055], [2.3184846, 48.89475879999998]]}}, {"type": "Feature", "properties": {"highway": "footway", "footway": "sidewalk", "name": null, "surface": "asphalt", "lit": "yes", "length_m": 62.22, "type_element": "Way", "__fid": 34841}, "geometry": {"type": "LineString", "coordinates": [[2.3190512, 48.89659469999999], [2.318322, 48.8963084]]}}, {"type": "Feature", "properties": {"highway": "pedestrian", "footway": null, "name": "Passage Rose-Valland", "surface": "asphalt", "lit": "yes", "length_m": 6.73, "type_element": "Way", "__fid": 34842}, "geometry": {"type": "LineString", "coordinates": [[2.318322, 48.8963084], [2.3183678, 48.896256]]}}, {"type": "Feature", "properties": {"highway": "footway", "footway": null, "name": null, "surface": "paving_stones", "lit": "yes", "length_m": 13.77, "type_element": "Way", "__fid": 34859}, "geometry": {"type": "LineString", "coordinates": [[2.3185121, 48.8962473], [2.3183493, 48.89618549999999]]}}, {"type": "Feature", "properties": {"highway": "footway", "footway": "crossing", "name": null, "surface": "paving_stones", "lit": "yes", "length_m": 10.11, "type_element": "Way", "__fid": 34860}, "geometry": {"type": "LineString", "coordinates": [[2.3184139, 48.8961052], [2.3183493, 48.89618549999999]]}}, {"type": "Feature", "properties": {"highway": "footway", "footway": "traffic_island", "name": null, "surface": "asphalt", "lit": "yes", "length_m": 15.36, "type_element": "Way", "__fid": 34888}, "geometry": {"type": "LineString", "coordinates": [[2.3183885, 48.8948963], [2.3183904, 48.8950344]]}}, {"type": "Feature", "properties": {"highway": "footway", "footway": "crossing", "name": null, "surface": "asphalt", "lit": "yes", "length_m": 12.84, "type_element": "Way", "__fid": 34889}, "geometry": {"type": "LineString", "coordinates": [[2.3183885, 48.8948963], [2.3185337, 48.894862], [2.318553, 48.8948673]]}}, {"type": "Feature", "properties": {"highway": "footway", "footway": "crossing", "name": null, "surface": null, "lit": "yes", "length_m": 12.66, "type_element": "Way", "__fid": 34892}, "geometry": {"type": "LineString", "coordinates": [[2.3183904, 48.8950344], [2.3183911, 48.8950763], [2.3185, 48.895080433333455]]}}, {"type": "Feature", "properties": {"highway": "footway", "footway": null, "name": null, "surface": "paving_stones", "lit": "yes", "length_m": 13.85, "type_element": "Way", "__fid": 34926}, "geometry": {"type": "LineString", "coordinates": [[2.3185764, 48.89616870000001], [2.3184139, 48.8961052]]}}, {"type": "Feature", "properties": {"highway": "footway", "footway": "crossing", "name": null, "surface": null, "lit": "yes", "length_m": 13.68, "type_element": "Way", "__fid": 34927}, "geometry": {"type": "LineString", "coordinates": [[2.3184139, 48.8961052], [2.3185109, 48.8960001]]}}, {"type": "Feature", "properties": {"highway": "footway", "footway": "sidewalk", "name": null, "surface": "asphalt", "lit": "yes", "length_m": 4.06, "type_element": "Way", "__fid": 34962}, "geometry": {"type": "LineString", "coordinates": [[2.318537, 48.8947469], [2.3184846, 48.89475879999998]]}}, {"type": "Feature", "properties": {"highway": "footway", "footway": null, "name": "Cité Marie", "surface": "asphalt", "lit": "yes", "length_m": 8.13, "type_element": "Way", "__fid": 34980}, "geometry": {"type": "LineString", "coordinates": [[2.3184977, 48.8960846], [2.318589, 48.8960431]]}}, {"type": "Feature", "properties": {"highway": "footway", "footway": "sidewalk", "name": null, "surface": null, "lit": "yes", "length_m": 7.46, "type_element": "Way", "__fid": 34987}, "geometry": {"type": "LineString", "coordinates": [[2.3185109, 48.8960001], [2.318589, 48.8960431]]}}, {"type": "Feature", "properties": {"highway": "footway", "footway": "crossing", "name": null, "surface": "asphalt", "lit": "yes", "length_m": 11.37, "type_element": "Way", "__fid": 34993}, "geometry": {"type": "LineString", "coordinates": [[2.3185971, 48.8948412], [2.318537, 48.8947469]]}}, {"type": "Feature", "properties": {"highway": "footway", "footway": "sidewalk", "name": null, "surface": "asphalt", "lit": "yes", "length_m": 47.07, "type_element": "Way", "__fid": 34994}, "geometry": {"type": "LineString", "coordinates": [[2.3191367, 48.89459570000001], [2.318537, 48.8947469]]}}, {"type": "Feature", "properties": {"highway": "footway", "footway": "sidewalk", "name": null, "surface": "asphalt", "lit": "yes", "length_m": 51.02, "type_element": "Way", "__fid": 35014}, "geometry": {"type": "LineString", "coordinates": [[2.318553, 48.8948673], [2.3185236, 48.89491550000001], [2.3185061, 48.89510030000001], [2.3185368, 48.8951449], [2.3185745, 48.8953158]]}}, {"type": "Feature", "properties": {"highway": "footway", "footway": "sidewalk", "name": null, "surface": "asphalt", "lit": "yes", "length_m": 4.34, "type_element": "Way", "__fid": 35015}, "geometry": {"type": "LineString", "coordinates": [[2.3185971, 48.8948412], [2.318553, 48.8948673]]}}, {"type": "Feature", "properties": {"highway": "footway", "footway": null, "name": null, "surface": "compacted", "lit": "no", "length_m": 250.76, "type_element": "Way", "__fid": 35060}, "geometry": {"type": "LineString", "coordinates": [[2.3185971, 48.8948412], [2.3191427, 48.8950709], [2.3191447, 48.8950891], [2.3191641, 48.8951064], [2.3193235, 48.895153], [2.3196454, 48.8952862], [2.3198841, 48.8953691], [2.3199847, 48.89537959999998], [2.3201042, 48.8954209], [2.3202234, 48.89545190000001], [2.3203269, 48.8954536], [2.3207529, 48.8955511], [2.3210373, 48.8956016], [2.3212053, 48.8956396], [2.3214693, 48.8956644], [2.3216936, 48.8956982]]}}, {"type": "Feature", "properties": {"highway": "footway", "footway": "sidewalk", "name": null, "surface": "asphalt", "lit": "yes", "length_m": 46.62, "type_element": "Way", "__fid": 35061}, "geometry": {"type": "LineString", "coordinates": [[2.3191924, 48.894694], [2.3185971, 48.8948412]]}}, {"type": "Feature", "properties": {"highway": "footway", "footway": "sidewalk", "name": null, "surface": null, "lit": "yes", "length_m": 71.63, "type_element": "Way", "__fid": 35072}, "geometry": {"type": "LineString", "coordinates": [[2.318589, 48.8960431], [2.3187106, 48.89610510000003], [2.319294, 48.8963246], [2.3192214, 48.8964123]]}}, {"type": "Feature", "properties": {"highway": "footway", "footway": null, "name": "Cité Marie", "surface": "asphalt", "lit": "yes", "length_m": 31.22, "type_element": "Way", "__fid": 35073}, "geometry": {"type": "LineString", "coordinates": [[2.318589, 48.8960431], [2.318613, 48.8960322], [2.319009, 48.8960471]]}}, {"type": "Feature", "properties": {"highway": "footway", "footway": null, "name": null, "surface": "paving_stones", "lit": "yes", "length_m": 9.2, "type_element": "Way", "__fid": 35458}, "geometry": {"type": "LineString", "coordinates": [[2.3190389, 48.8964493], [2.3191468, 48.8964915]]}}, {"type": "Feature", "properties": {"highway": "footway", "footway": "sidewalk", "name": null, "surface": null, "lit": "yes", "length_m": 283.04, "type_element": "Way", "__fid": 35483}, "geometry": {"type": "LineString", "coordinates": [[2.3225125, 48.89764409999999], [2.3221198, 48.8976389], [2.3215116, 48.897522500000015], [2.321092, 48.8973699], [2.3190512, 48.89659469999999]]}}, {"type": "Feature", "properties": {"highway": "footway", "footway": "crossing", "name": null, "surface": null, "lit": "yes", "length_m": 13.45, "type_element": "Way", "__fid": 35484}, "geometry": {"type": "LineString", "coordinates": [[2.3190512, 48.89659469999999], [2.3191468, 48.8964915]]}}, {"type": "Feature", "properties": {"highway": "footway", "footway": null, "name": null, "surface": "paving_stones", "lit": "yes", "length_m": 9.55, "type_element": "Way", "__fid": 35552}, "geometry": {"type": "LineString", "coordinates": [[2.3191099, 48.8963679], [2.3192214, 48.8964123]]}}, {"type": "Feature", "properties": {"highway": "footway", "footway": "crossing", "name": null, "surface": "asphalt", "lit": "yes", "length_m": 11.67, "type_element": "Way", "__fid": 35558}, "geometry": {"type": "LineString", "coordinates": [[2.3191367, 48.89459570000001], [2.3191924, 48.894694]]}}, {"type": "Feature", "properties": {"highway": "footway", "footway": "crossing", "name": null, "surface": "paving_stones", "lit": "yes", "length_m": 10.37, "type_element": "Way", "__fid": 35605}, "geometry": {"type": "LineString", "coordinates": [[2.3191468, 48.8964915], [2.3192214, 48.8964123]]}}, {"type": "Feature", "properties": {"highway": "footway", "footway": "sidewalk", "name": null, "surface": "asphalt", "lit": "yes", "length_m": 17.76, "type_element": "Way", "__fid": 35626}, "geometry": {"type": "LineString", "coordinates": [[2.3194223, 48.89464380000001], [2.3191924, 48.894694]]}}, {"type": "Feature", "properties": {"highway": "footway", "footway": "crossing", "name": null, "surface": "asphalt", "lit": "yes", "length_m": 9.93, "type_element": "Way", "__fid": 35900}, "geometry": {"type": "LineString", "coordinates": [[2.3193901, 48.894558], [2.3193912, 48.8945858], [2.3194223, 48.89464380000001]]}}, {"type": "Feature", "properties": {"highway": "footway", "footway": "sidewalk", "name": null, "surface": "asphalt", "lit": "yes", "length_m": 24.45, "type_element": "Way", "__fid": 35944}, "geometry": {"type": "LineString", "coordinates": [[2.3197356, 48.8945685], [2.3194223, 48.89464380000001]]}}, {"type": "Feature", "properties": {"highway": "footway", "footway": "sidewalk", "name": null, "surface": "asphalt", "lit": "yes", "length_m": 35.82, "type_element": "Way", "__fid": 36546}, "geometry": {"type": "LineString", "coordinates": [[2.3200059, 48.8948774], [2.3197777, 48.8945926]]}}, {"type": "Feature", "properties": {"highway": "footway", "footway": "sidewalk", "name": null, "surface": "asphalt", "lit": "yes", "length_m": 144.32, "type_element": "Way", "__fid": 36704}, "geometry": {"type": "LineString", "coordinates": [[2.3198764, 48.8955878], [2.319899, 48.89554779999998], [2.3206283, 48.895696], [2.3216188, 48.8958383], [2.321655, 48.895823], [2.3217117, 48.8957824]]}}, {"type": "Feature", "properties": {"highway": "footway", "footway": "sidewalk", "name": null, "surface": "asphalt", "lit": "yes", "length_m": 35.68, "type_element": "Way", "__fid": 36744}, "geometry": {"type": "LineString", "coordinates": [[2.3199318, 48.8945365], [2.3201588, 48.8948203]]}}, {"type": "Feature", "properties": {"highway": "footway", "footway": "sidewalk", "name": null, "surface": "asphalt", "lit": "yes", "length_m": 149.17, "type_element": "Way", "__fid": 36827}, "geometry": {"type": "LineString", "coordinates": [[2.321438739999852, 48.895371520000026], [2.3210322, 48.8955439], [2.3209989, 48.8955514], [2.3205426, 48.895452400000025], [2.3204619, 48.89542010000001], [2.3202286, 48.8951573], [2.3200059, 48.8948774]]}}, {"type": "Feature", "properties": {"highway": "footway", "footway": "crossing", "name": null, "surface": "asphalt", "lit": "yes", "length_m": 12.88, "type_element": "Way", "__fid": 36828}, "geometry": {"type": "LineString", "coordinates": [[2.3200059, 48.8948774], [2.3201588, 48.8948203]]}}, {"type": "Feature", "properties": {"highway": "footway", "footway": "sidewalk", "name": null, "surface": "asphalt", "lit": "yes", "length_m": 105.37, "type_element": "Way", "__fid": 37066}, "geometry": {"type": "LineString", "coordinates": [[2.3201588, 48.8948203], [2.320483, 48.8952237], [2.320599, 48.8952477], [2.3211556, 48.895063]]}}, {"type": "Feature", "properties": {"highway": "footway", "footway": "sidewalk", "name": null, "surface": "asphalt", "lit": "yes", "length_m": 92.24, "type_element": "Way", "__fid": 37425}, "geometry": {"type": "LineString", "coordinates": [[2.3211836, 48.8950325], [2.3205921, 48.8943004]]}}, {"type": "Feature", "properties": {"highway": "footway", "footway": "sidewalk", "name": null, "surface": "asphalt", "lit": "yes", "length_m": 92.41, "type_element": "Way", "__fid": 37519}, "geometry": {"type": "LineString", "coordinates": [[2.321315, 48.8949834], [2.3210857, 48.8946962], [2.3210552, 48.8946841], [2.3207241, 48.89425330000004]]}}, {"type": "Feature", "properties": {"highway": "footway", "footway": "crossing", "name": null, "surface": "asphalt", "lit": "yes", "length_m": 13.0, "type_element": "Way", "__fid": 37793}, "geometry": {"type": "LineString", "coordinates": [[2.3211556, 48.895063], [2.321241366666627, 48.89516536666668]]}}, {"type": "Feature", "properties": {"highway": "footway", "footway": "sidewalk", "name": null, "surface": "asphalt", "lit": "yes", "length_m": 4.6, "type_element": "Way", "__fid": 37794}, "geometry": {"type": "LineString", "coordinates": [[2.3211556, 48.895063], [2.3211868, 48.8950486], [2.3211836, 48.8950325]]}}, {"type": "Feature", "properties": {"highway": "footway", "footway": "crossing", "name": null, "surface": "asphalt", "lit": "yes", "length_m": 11.07, "type_element": "Way", "__fid": 37817}, "geometry": {"type": "LineString", "coordinates": [[2.3211836, 48.8950325], [2.321315, 48.8949834]]}}, {"type": "Feature", "properties": {"highway": "footway", "footway": "sidewalk", "name": null, "surface": "asphalt", "lit": "yes", "length_m": 136.56, "type_element": "Way", "__fid": 37888}, "geometry": {"type": "LineString", "coordinates": [[2.3212938, 48.8951922], [2.3214094, 48.8953336], [2.3210234, 48.8954972], [2.320739, 48.8954503], [2.3206664, 48.8953558], [2.3212431, 48.89516769999998], [2.3212938, 48.8951922]]}}, {"type": "Feature", "properties": {"highway": "footway", "footway": "crossing", "name": null, "surface": "asphalt", "lit": "yes", "length_m": 12.08, "type_element": "Way", "__fid": 37889}, "geometry": {"type": "LineString", "coordinates": [[2.3212938, 48.8951922], [2.321436, 48.8951373]]}}, {"type": "Feature", "properties": {"highway": "footway", "footway": "sidewalk", "name": null, "surface": "asphalt", "lit": "yes", "length_m": 19.28, "type_element": "Way", "__fid": 37895}, "geometry": {"type": "LineString", "coordinates": [[2.321436, 48.8951373], [2.321315, 48.8949834]]}}, {"type": "Feature", "properties": {"highway": "footway", "footway": "sidewalk", "name": null, "surface": "asphalt", "lit": "yes", "length_m": 221.76, "type_element": "Way", "__fid": 37957}, "geometry": {"type": "LineString", "coordinates": [[2.3214244, 48.8940295], [2.3214605, 48.8940598], [2.3228646, 48.89578250000001]]}}, {"type": "Feature", "properties": {"highway": "footway", "footway": "crossing", "name": null, "surface": "asphalt", "lit": "yes", "length_m": 4.29, "type_element": "Way", "__fid": 37962}, "geometry": {"type": "LineString", "coordinates": [[2.321412466666566, 48.895337], [2.321438739999852, 48.895371520000026]]}}, {"type": "Feature", "properties": {"highway": "footway", "footway": "sidewalk", "name": null, "surface": "asphalt", "lit": "yes", "length_m": 68.57, "type_element": "Way", "__fid": 37977}, "geometry": {"type": "LineString", "coordinates": [[2.321862320000232, 48.895686160000096], [2.321436, 48.8951373]]}}, {"type": "Feature", "properties": {"highway": "footway", "footway": "sidewalk", "name": null, "surface": "asphalt", "lit": "yes", "length_m": 41.14, "type_element": "Way", "__fid": 37983}, "geometry": {"type": "LineString", "coordinates": [[2.3216936, 48.8956982], [2.3216927, 48.89568550000001], [2.3214533, 48.895378], [2.321438739999852, 48.895371520000026]]}}, {"type": "Feature", "properties": {"highway": "footway", "footway": "sidewalk", "name": null, "surface": "asphalt", "lit": "yes", "length_m": 3.96, "type_element": "Way", "__fid": 38124}, "geometry": {"type": "LineString", "coordinates": [[2.3217074, 48.8957326], [2.3216936, 48.8956982]]}}, {"type": "Feature", "properties": {"highway": "footway", "footway": "crossing", "name": null, "surface": "asphalt", "lit": "yes", "length_m": 12.87, "type_element": "Way", "__fid": 38127}, "geometry": {"type": "LineString", "coordinates": [[2.3217074, 48.8957326], [2.3217506, 48.895733], [2.321862320000232, 48.895686160000096]]}}, {"type": "Feature", "properties": {"highway": "footway", "footway": "sidewalk", "name": null, "surface": "asphalt", "lit": "yes", "length_m": 5.55, "type_element": "Way", "__fid": 38128}, "geometry": {"type": "LineString", "coordinates": [[2.3217117, 48.8957824], [2.3217074, 48.8957326]]}}, {"type": "Feature", "properties": {"highway": "footway", "footway": "sidewalk", "name": null, "surface": "asphalt", "lit": "yes", "length_m": 33.89, "type_element": "Way", "__fid": 38129}, "geometry": {"type": "LineString", "coordinates": [[2.3217117, 48.8957824], [2.3217492, 48.8957922], [2.3217992, 48.89585370000002], [2.3218755, 48.895924], [2.3219067, 48.8959261], [2.321995, 48.8958943], [2.3220199, 48.895880900000016], [2.322017066666626, 48.89586730000001]]}}, {"type": "Feature", "properties": {"highway": "footway", "footway": "sidewalk", "name": null, "surface": "asphalt", "lit": "yes", "length_m": 8.27, "type_element": "Way", "__fid": 38215}, "geometry": {"type": "LineString", "coordinates": [[2.3219512, 48.8957287], [2.3218963, 48.895712799999984], [2.321862320000232, 48.895686160000096]]}}, {"type": "Feature", "properties": {"highway": "footway", "footway": "sidewalk", "name": null, "surface": "asphalt", "lit": "yes", "length_m": 65.48, "type_element": "Way", "__fid": 38277}, "geometry": {"type": "LineString", "coordinates": [[2.3228349, 48.89580820000001], [2.3226567, 48.895804799999986], [2.3219512, 48.8957287]]}}, {"type": "Feature", "properties": {"highway": "footway", "footway": "crossing", "name": null, "surface": "asphalt", "lit": "yes", "length_m": 16.26, "type_element": "Way", "__fid": 38278}, "geometry": {"type": "LineString", "coordinates": [[2.3219512, 48.8957287], [2.3219585, 48.8957688], [2.322017066666626, 48.89586730000001]]}}, {"type": "Feature", "properties": {"highway": "footway", "footway": "sidewalk", "name": null, "surface": "asphalt", "lit": "yes", "length_m": 62.08, "type_element": "Way", "__fid": 38312}, "geometry": {"type": "LineString", "coordinates": [[2.322017066666626, 48.89586730000001], [2.3224115, 48.8959073], [2.3228567, 48.89593840000001]]}}, {"type": "Feature", "properties": {"highway": "footway", "footway": "sidewalk", "name": null, "surface": "asphalt", "lit": "yes", "length_m": 161.75, "type_element": "Way", "__fid": 38329}, "geometry": {"type": "LineString", "coordinates": [[2.3229884, 48.8957574], [2.3227891, 48.895527], [2.3219812, 48.8945377], [2.3219994, 48.894516], [2.3220539, 48.8944964]]}}, {"type": "Feature", "properties": {"highway": "service", "footway": null, "name": null, "surface": null, "lit": null, "length_m": 44.29, "type_element": "Way", "__fid": 38358}, "geometry": {"type": "LineString", "coordinates": [[2.3222434, 48.8986713], [2.32212, 48.8986863], [2.3220557, 48.8986678], [2.3220496, 48.8983985]]}}, {"type": "Feature", "properties": {"highway": "pedestrian", "footway": null, "name": "Passage Pouchet", "surface": "paving_stones", "lit": "yes", "length_m": 27.78, "type_element": "Way", "__fid": 38456}, "geometry": {"type": "LineString", "coordinates": [[2.3222042, 48.896262], [2.3225384, 48.8961442]]}}, {"type": "Feature", "properties": {"highway": "service", "footway": null, "name": null, "surface": null, "lit": null, "length_m": 37.06, "type_element": "Way", "__fid": 38497}, "geometry": {"type": "LineString", "coordinates": [[2.32232, 48.8983538], [2.3222488, 48.8984157], [2.3222434, 48.8986713]]}}, {"type": "Feature", "properties": {"highway": "service", "footway": null, "name": null, "surface": null, "lit": null, "length_m": 61.93, "type_element": "Way", "__fid": 38498}, "geometry": {"type": "LineString", "coordinates": [[2.3222434, 48.8986713], [2.322639, 48.8985779], [2.3226484, 48.8983557], [2.3225611, 48.8983543]]}}, {"type": "Feature", "properties": {"highway": "service", "footway": null, "name": null, "surface": "asphalt", "lit": null, "length_m": 68.97, "type_element": "Way", "__fid": 38540}, "geometry": {"type": "LineString", "coordinates": [[2.32232, 48.8983538], [2.3223299, 48.89784], [2.3224864, 48.8978139]]}}, {"type": "Feature", "properties": {"highway": "service", "footway": null, "name": null, "surface": "asphalt", "lit": null, "length_m": 17.68, "type_element": "Way", "__fid": 38541}, "geometry": {"type": "LineString", "coordinates": [[2.3225611, 48.8983543], [2.32232, 48.8983538]]}}, {"type": "Feature", "properties": {"highway": "footway", "footway": "sidewalk", "name": null, "surface": "asphalt", "lit": "yes", "length_m": 179.28, "type_element": "Way", "__fid": 38608}, "geometry": {"type": "LineString", "coordinates": [[2.3224911, 48.894345399999985], [2.3225245, 48.894361], [2.3235634, 48.895764], [2.323559, 48.8957878]]}}, {"type": "Feature", "properties": {"highway": "service", "footway": null, "name": null, "surface": "asphalt", "lit": null, "length_m": 66.0, "type_element": "Way", "__fid": 38637}, "geometry": {"type": "LineString", "coordinates": [[2.3224864, 48.8978139], [2.3226136, 48.8978556], [2.3225611, 48.8983543]]}}, {"type": "Feature", "properties": {"highway": "service", "footway": null, "name": null, "surface": "asphalt", "lit": null, "length_m": 18.98, "type_element": "Way", "__fid": 38638}, "geometry": {"type": "LineString", "coordinates": [[2.3225125, 48.89764409999999], [2.3224864, 48.8978139]]}}, {"type": "Feature", "properties": {"highway": "footway", "footway": "sidewalk", "name": null, "surface": "asphalt", "lit": "yes", "length_m": 196.69, "type_element": "Way", "__fid": 38641}, "geometry": {"type": "LineString", "coordinates": [[2.3225402, 48.8941894], [2.3237181, 48.8957786]]}}, {"type": "Feature", "properties": {"highway": "footway", "footway": "crossing", "name": null, "surface": null, "lit": "yes", "length_m": 80.03, "type_element": "Way", "__fid": 38654}, "geometry": {"type": "LineString", "coordinates": [[2.323135, 48.897336], [2.3230112, 48.8973295], [2.3229644, 48.89734], [2.3228804, 48.8973408], [2.3228791, 48.8976489], [2.3225125, 48.89764409999999]]}}, {"type": "Feature", "properties": {"highway": "service", "footway": null, "name": null, "surface": "asphalt", "lit": null, "length_m": 7.53, "type_element": "Way", "__fid": 38655}, "geometry": {"type": "LineString", "coordinates": [[2.3225282, 48.897577199999986], [2.3225125, 48.89764409999999]]}}, {"type": "Feature", "properties": {"highway": "service", "footway": null, "name": "Impasse Deligny", "surface": "paving_stones", "lit": "yes", "length_m": 77.77, "type_element": "Way", "__fid": 38661}, "geometry": {"type": "LineString", "coordinates": [[2.3230389, 48.8967608], [2.3225384, 48.8961442]]}}, {"type": "Feature", "properties": {"highway": "pedestrian", "footway": null, "name": "Passage Pouchet", "surface": "paving_stones", "lit": "yes", "length_m": 38.98, "type_element": "Way", "__fid": 38662}, "geometry": {"type": "LineString", "coordinates": [[2.3225384, 48.8961442], [2.3230048, 48.8959759]]}}, {"type": "Feature", "properties": {"highway": "footway", "footway": "sidewalk", "name": null, "surface": "asphalt", "lit": "yes", "length_m": 206.39, "type_element": "Way", "__fid": 38739}, "geometry": {"type": "LineString", "coordinates": [[2.3239835, 48.8952806], [2.322681, 48.89363519999996]]}}, {"type": "Feature", "properties": {"highway": "footway", "footway": "sidewalk", "name": null, "surface": "asphalt", "lit": "yes", "length_m": 201.97, "type_element": "Way", "__fid": 38869}, "geometry": {"type": "LineString", "coordinates": [[2.3240989, 48.8952392], [2.3228256, 48.893628599999985]]}}, {"type": "Feature", "properties": {"highway": "footway", "footway": "crossing", "name": null, "surface": "asphalt", "lit": "yes", "length_m": 14.57, "type_element": "Way", "__fid": 38892}, "geometry": {"type": "LineString", "coordinates": [[2.3228349, 48.89580820000001], [2.3228567, 48.89593840000001]]}}, {"type": "Feature", "properties": {"highway": "footway", "footway": "sidewalk", "name": null, "surface": "asphalt", "lit": "yes", "length_m": 3.59, "type_element": "Way", "__fid": 38893}, "geometry": {"type": "LineString", "coordinates": [[2.3228646, 48.89578250000001], [2.3228349, 48.89580820000001]]}}, {"type": "Feature", "properties": {"highway": "footway", "footway": "sidewalk", "name": null, "surface": "asphalt", "lit": "yes", "length_m": 12.22, "type_element": "Way", "__fid": 38907}, "geometry": {"type": "LineString", "coordinates": [[2.3228567, 48.89593840000001], [2.3229593, 48.895951], [2.3229682, 48.8959639], [2.3230048, 48.8959759]]}}, {"type": "Feature", "properties": {"highway": "footway", "footway": "crossing", "name": null, "surface": "asphalt", "lit": "yes", "length_m": 9.61, "type_element": "Way", "__fid": 38915}, "geometry": {"type": "LineString", "coordinates": [[2.3228646, 48.89578250000001], [2.3229002, 48.8957814], [2.3229884, 48.8957574]]}}, {"type": "Feature", "properties": {"highway": "living_street", "footway": null, "name": "Place Arnault Tzanck", "surface": null, "lit": "yes", "length_m": 76.95, "type_element": "Way", "__fid": 38919}, "geometry": {"type": "LineString", "coordinates": [[2.3228354, 48.89878450000001], [2.3229108, 48.8988621], [2.3238203, 48.8988772]]}}, {"type": "Feature", "properties": {"highway": "footway", "footway": "sidewalk", "name": null, "surface": "asphalt", "lit": "yes", "length_m": 8.93, "type_element": "Way", "__fid": 39003}, "geometry": {"type": "LineString", "coordinates": [[2.3230866, 48.895804900000016], [2.3229884, 48.8957574]]}}, {"type": "Feature", "properties": {"highway": "footway", "footway": "crossing", "name": null, "surface": "asphalt", "lit": "yes", "length_m": 17.84, "type_element": "Way", "__fid": 39013}, "geometry": {"type": "LineString", "coordinates": [[2.3230048, 48.8959759], [2.323076, 48.8960048], [2.3231665, 48.89598079999998], [2.3232287, 48.8959816]]}}, {"type": "Feature", "properties": {"highway": "pedestrian", "footway": null, "name": "Passage Pouchet", "surface": "paving_stones", "lit": "yes", "length_m": 5.3, "type_element": "Way", "__fid": 39014}, "geometry": {"type": "LineString", "coordinates": [[2.3230048, 48.8959759], [2.3230695, 48.8959547]]}}, {"type": "Feature", "properties": {"highway": "footway", "footway": "crossing", "name": null, "surface": "asphalt", "lit": "yes", "length_m": 21.58, "type_element": "Way", "__fid": 39073}, "geometry": {"type": "LineString", "coordinates": [[2.3230866, 48.895804900000016], [2.3230969, 48.8958382], [2.3231819, 48.8959408], [2.323238, 48.89596310000001]]}}, {"type": "Feature", "properties": {"highway": "footway", "footway": "sidewalk", "name": null, "surface": "asphalt", "lit": "yes", "length_m": 35.21, "type_element": "Way", "__fid": 39074}, "geometry": {"type": "LineString", "coordinates": [[2.323559, 48.8957878], [2.3235215, 48.8958046], [2.3230866, 48.895804900000016]]}}, {"type": "Feature", "properties": {"highway": "footway", "footway": "sidewalk", "name": null, "surface": "asphalt", "lit": "yes", "length_m": 84.5, "type_element": "Way", "__fid": 39217}, "geometry": {"type": "LineString", "coordinates": [[2.3232287, 48.8959816], [2.3232283, 48.89602080000002], [2.3232897, 48.8961251], [2.3236929, 48.8966273], [2.3237367, 48.8966558]]}}, {"type": "Feature", "properties": {"highway": "footway", "footway": "sidewalk", "name": null, "surface": "asphalt", "lit": "yes", "length_m": 2.17, "type_element": "Way", "__fid": 39218}, "geometry": {"type": "LineString", "coordinates": [[2.323238, 48.89596310000001], [2.3232287, 48.8959816]]}}, {"type": "Feature", "properties": {"highway": "footway", "footway": "sidewalk", "name": null, "surface": "asphalt", "lit": "yes", "length_m": 32.58, "type_element": "Way", "__fid": 39223}, "geometry": {"type": "LineString", "coordinates": [[2.323238, 48.89596310000001], [2.3236813, 48.89598380000001]]}}, {"type": "Feature", "properties": {"highway": "footway", "footway": "crossing", "name": null, "surface": "asphalt", "lit": "yes", "length_m": 11.85, "type_element": "Way", "__fid": 39493}, "geometry": {"type": "LineString", "coordinates": [[2.323559, 48.8957878], [2.3237055, 48.8957839], [2.3237181, 48.8957786]]}}, {"type": "Feature", "properties": {"highway": "footway", "footway": "sidewalk", "name": null, "surface": "asphalt", "lit": "yes", "length_m": 76.9, "type_element": "Way", "__fid": 39581}, "geometry": {"type": "LineString", "coordinates": [[2.3246008, 48.8960868], [2.3237523, 48.8961069], [2.3236813, 48.89598380000001]]}}, {"type": "Feature", "properties": {"highway": "footway", "footway": "sidewalk", "name": null, "surface": "asphalt", "lit": "yes", "length_m": 4.86, "type_element": "Way", "__fid": 39582}, "geometry": {"type": "LineString", "coordinates": [[2.3236813, 48.89598380000001], [2.3237475, 48.89598260000002]]}}, {"type": "Feature", "properties": {"highway": "service", "footway": null, "name": null, "surface": "asphalt", "lit": "yes", "length_m": 14.57, "type_element": "Way", "__fid": 39593}, "geometry": {"type": "LineString", "coordinates": [[2.3237475, 48.89598260000002], [2.3236966, 48.8958559]]}}, {"type": "Feature", "properties": {"highway": "footway", "footway": "sidewalk", "name": null, "surface": "asphalt", "lit": "yes", "length_m": 46.78, "type_element": "Way", "__fid": 39610}, "geometry": {"type": "LineString", "coordinates": [[2.3237181, 48.8957786], [2.323764, 48.895798], [2.3242861, 48.8957869], [2.3243454, 48.8957772]]}}, {"type": "Feature", "properties": {"highway": "footway", "footway": "crossing", "name": null, "surface": null, "lit": "yes", "length_m": 6.94, "type_element": "Way", "__fid": 39631}, "geometry": {"type": "LineString", "coordinates": [[2.3237367, 48.8966558], [2.323742, 48.8966784], [2.3237752, 48.8967113]]}}, {"type": "Feature", "properties": {"highway": "footway", "footway": "sidewalk", "name": null, "surface": "asphalt", "lit": "yes", "length_m": 88.5, "type_element": "Way", "__fid": 39632}, "geometry": {"type": "LineString", "coordinates": [[2.3237367, 48.8966558], [2.323815, 48.8966445], [2.3243096, 48.8964757], [2.3247686, 48.8963107], [2.3247962, 48.89628550000002]]}}, {"type": "Feature", "properties": {"highway": "service", "footway": null, "name": null, "surface": "asphalt", "lit": "yes", "length_m": 66.64, "type_element": "Way", "__fid": 39638}, "geometry": {"type": "LineString", "coordinates": [[2.324573, 48.89605020000001], [2.3238458, 48.8960735], [2.3237908, 48.896055], [2.3237653, 48.896026800000016], [2.3237475, 48.89598260000002]]}}, {"type": "Feature", "properties": {"highway": "footway", "footway": "sidewalk", "name": null, "surface": "asphalt", "lit": "yes", "length_m": 54.69, "type_element": "Way", "__fid": 39639}, "geometry": {"type": "LineString", "coordinates": [[2.3237475, 48.89598260000002], [2.3244931, 48.8959691]]}}, {"type": "Feature", "properties": {"highway": "footway", "footway": "sidewalk", "name": null, "surface": null, "lit": "yes", "length_m": 70.5, "type_element": "Way", "__fid": 39671}, "geometry": {"type": "LineString", "coordinates": [[2.3242123, 48.8972716], [2.3241881, 48.8972224], [2.323773, 48.89673120000001], [2.3237752, 48.8967113]]}}, {"type": "Feature", "properties": {"highway": "footway", "footway": "sidewalk", "name": null, "surface": null, "lit": "yes", "length_m": 91.51, "type_element": "Way", "__fid": 39672}, "geometry": {"type": "LineString", "coordinates": [[2.3237752, 48.8967113], [2.3237969, 48.8966941], [2.3238705, 48.8966655], [2.324863399999862, 48.89631150000004]]}}, {"type": "Feature", "properties": {"highway": "living_street", "footway": null, "name": "Place Arnault Tzanck", "surface": null, "lit": "yes", "length_m": 22.56, "type_element": "Way", "__fid": 39720}, "geometry": {"type": "LineString", "coordinates": [[2.3238203, 48.8988772], [2.3238116, 48.89908]]}}, {"type": "Feature", "properties": {"highway": "living_street", "footway": null, "name": "Place Arnault Tzanck", "surface": null, "lit": "yes", "length_m": 15.5, "type_element": "Way", "__fid": 39721}, "geometry": {"type": "LineString", "coordinates": [[2.3238177, 48.8987378], [2.3238203, 48.8988772]]}}, {"type": "Feature", "properties": {"highway": "living_street", "footway": null, "name": "Rue André Bréchet", "surface": null, "lit": "yes", "length_m": 69.15, "type_element": "Way", "__fid": 39730}, "geometry": {"type": "LineString", "coordinates": [[2.324763, 48.898898], [2.3238203, 48.8988772]]}}, {"type": "Feature", "properties": {"highway": "footway", "footway": "sidewalk", "name": null, "surface": null, "lit": "yes", "length_m": 65.72, "type_element": "Way", "__fid": 39820}, "geometry": {"type": "LineString", "coordinates": [[2.3239535, 48.89740770000002], [2.3239368, 48.8976633], [2.3240075, 48.8976907], [2.3242214, 48.8977], [2.324261, 48.8976823], [2.3244252, 48.897683]]}}, {"type": "Feature", "properties": {"highway": "footway", "footway": "sidewalk", "name": null, "surface": "asphalt", "lit": "yes", "length_m": 60.1, "type_element": "Way", "__fid": 39826}, "geometry": {"type": "LineString", "coordinates": [[2.3243493, 48.8957634], [2.324327, 48.8957145], [2.3239835, 48.8952806]]}}, {"type": "Feature", "properties": {"highway": "footway", "footway": "crossing", "name": null, "surface": null, "lit": "yes", "length_m": 9.63, "type_element": "Way", "__fid": 39827}, "geometry": {"type": "LineString", "coordinates": [[2.3239835, 48.8952806], [2.3240989, 48.8952392]]}}, {"type": "Feature", "properties": {"highway": "footway", "footway": "sidewalk", "name": null, "surface": "asphalt", "lit": "yes", "length_m": 66.81, "type_element": "Way", "__fid": 39936}, "geometry": {"type": "LineString", "coordinates": [[2.3245219, 48.89577139999997], [2.3240989, 48.8952392]]}}, {"type": "Feature", "properties": {"highway": "footway", "footway": "crossing", "name": null, "surface": null, "lit": "yes", "length_m": 5.54, "type_element": "Way", "__fid": 40014}, "geometry": {"type": "LineString", "coordinates": [[2.3241436, 48.8972924], [2.3242123, 48.8972716]]}}, {"type": "Feature", "properties": {"highway": "footway", "footway": "crossing", "name": null, "surface": null, "lit": "yes", "length_m": 20.12, "type_element": "Way", "__fid": 40042}, "geometry": {"type": "LineString", "coordinates": [[2.3241557, 48.89737510000001], [2.3242758, 48.8973834], [2.3244293, 48.8973793]]}}, {"type": "Feature", "properties": {"highway": "footway", "footway": "sidewalk", "name": null, "surface": null, "lit": "yes", "length_m": 3.91, "type_element": "Way", "__fid": 40124}, "geometry": {"type": "LineString", "coordinates": [[2.3242655, 48.89726880000003], [2.3242123, 48.8972716]]}}, {"type": "Feature", "properties": {"highway": "footway", "footway": "crossing", "name": null, "surface": null, "lit": "yes", "length_m": 14.61, "type_element": "Way", "__fid": 40173}, "geometry": {"type": "LineString", "coordinates": [[2.3242655, 48.89726880000003], [2.3244287, 48.8973442]]}}, {"type": "Feature", "properties": {"highway": "footway", "footway": "sidewalk", "name": null, "surface": null, "lit": "yes", "length_m": 96.29, "type_element": "Way", "__fid": 40174}, "geometry": {"type": "LineString", "coordinates": [[2.3249321, 48.8965238], [2.3245036, 48.8969637], [2.3242655, 48.89726880000003]]}}, {"type": "Feature", "properties": {"highway": "footway", "footway": "crossing", "name": null, "surface": "asphalt", "lit": "yes", "length_m": 23.93, "type_element": "Way", "__fid": 40232}, "geometry": {"type": "LineString", "coordinates": [[2.3243454, 48.8957772], [2.3244931, 48.8959691]]}}, {"type": "Feature", "properties": {"highway": "footway", "footway": "sidewalk", "name": null, "surface": "asphalt", "lit": "yes", "length_m": 1.56, "type_element": "Way", "__fid": 40233}, "geometry": {"type": "LineString", "coordinates": [[2.3243454, 48.8957772], [2.3243493, 48.8957634]]}}, {"type": "Feature", "properties": {"highway": "footway", "footway": "crossing", "name": null, "surface": "asphalt", "lit": "yes", "length_m": 12.8, "type_element": "Way", "__fid": 40239}, "geometry": {"type": "LineString", "coordinates": [[2.3243493, 48.8957634], [2.3245034, 48.8957753], [2.3245219, 48.89577139999997]]}}, {"type": "Feature", "properties": {"highway": "footway", "footway": "sidewalk", "name": null, "surface": null, "lit": "yes", "length_m": 3.9, "type_element": "Way", "__fid": 40374}, "geometry": {"type": "LineString", "coordinates": [[2.3244293, 48.8973793], [2.3244287, 48.8973442]]}}, {"type": "Feature", "properties": {"highway": "footway", "footway": "sidewalk", "name": null, "surface": null, "lit": "yes", "length_m": 95.03, "type_element": "Way", "__fid": 40375}, "geometry": {"type": "LineString", "coordinates": [[2.3244287, 48.8973442], [2.3245201, 48.8971947], [2.3246987, 48.8969873], [2.3250313, 48.896671], [2.3251136, 48.8966268]]}}, {"type": "Feature", "properties": {"highway": "footway", "footway": "sidewalk", "name": null, "surface": null, "lit": "yes", "length_m": 33.93, "type_element": "Way", "__fid": 40378}, "geometry": {"type": "LineString", "coordinates": [[2.324878, 48.8977187], [2.3246564, 48.89771370000001], [2.3245898, 48.8976893], [2.3244252, 48.897683]]}}, {"type": "Feature", "properties": {"highway": "footway", "footway": "crossing", "name": null, "surface": null, "lit": "yes", "length_m": 10.99, "type_element": "Way", "__fid": 40379}, "geometry": {"type": "LineString", "coordinates": [[2.3244252, 48.897683], [2.3244335, 48.8975843]]}}, {"type": "Feature", "properties": {"highway": "footway", "footway": "sidewalk", "name": null, "surface": null, "lit": "yes", "length_m": 1.66, "type_element": "Way", "__fid": 40380}, "geometry": {"type": "LineString", "coordinates": [[2.324445, 48.8973901], [2.3244293, 48.8973793]]}}, {"type": "Feature", "properties": {"highway": "footway", "footway": null, "name": null, "surface": "paving_stones", "lit": "yes", "length_m": 11.92, "type_element": "Way", "__fid": 40392}, "geometry": {"type": "LineString", "coordinates": [[2.3245961, 48.8975869], [2.3244335, 48.8975843]]}}, {"type": "Feature", "properties": {"highway": "footway", "footway": "crossing", "name": null, "surface": null, "lit": "yes", "length_m": 11.27, "type_element": "Way", "__fid": 40393}, "geometry": {"type": "LineString", "coordinates": [[2.3244335, 48.8975843], [2.3244395, 48.897483]]}}, {"type": "Feature", "properties": {"highway": "footway", "footway": null, "name": null, "surface": null, "lit": "yes", "length_m": 11.11, "type_element": "Way", "__fid": 40397}, "geometry": {"type": "LineString", "coordinates": [[2.324591, 48.8974847], [2.3244395, 48.897483]]}}, {"type": "Feature", "properties": {"highway": "footway", "footway": "crossing", "name": null, "surface": null, "lit": "yes", "length_m": 10.34, "type_element": "Way", "__fid": 40398}, "geometry": {"type": "LineString", "coordinates": [[2.3244395, 48.897483], [2.324445, 48.8973901]]}}, {"type": "Feature", "properties": {"highway": "footway", "footway": "sidewalk", "name": null, "surface": null, "lit": "yes", "length_m": 13.18, "type_element": "Way", "__fid": 40405}, "geometry": {"type": "LineString", "coordinates": [[2.3246247, 48.8973912], [2.324445, 48.8973901]]}}, {"type": "Feature", "properties": {"highway": "footway", "footway": "sidewalk", "name": null, "surface": "asphalt", "lit": "yes", "length_m": 6.01, "type_element": "Way", "__fid": 40429}, "geometry": {"type": "LineString", "coordinates": [[2.3244931, 48.8959691], [2.3245437, 48.8960116]]}}, {"type": "Feature", "properties": {"highway": "footway", "footway": "sidewalk", "name": null, "surface": "asphalt", "lit": "yes", "length_m": 23.35, "type_element": "Way", "__fid": 40442}, "geometry": {"type": "LineString", "coordinates": [[2.3248336, 48.8957726], [2.3245831, 48.895789], [2.3245219, 48.89577139999997]]}}, {"type": "Feature", "properties": {"highway": "footway", "footway": "sidewalk", "name": null, "surface": "asphalt", "lit": "yes", "length_m": 4.8, "type_element": "Way", "__fid": 40479}, "geometry": {"type": "LineString", "coordinates": [[2.3245437, 48.8960116], [2.324573, 48.89605020000001]]}}, {"type": "Feature", "properties": {"highway": "footway", "footway": "crossing", "name": null, "surface": "asphalt", "lit": "yes", "length_m": 18.67, "type_element": "Way", "__fid": 40480}, "geometry": {"type": "LineString", "coordinates": [[2.3245437, 48.8960116], [2.3245963, 48.89600449999998], [2.3247972, 48.89600369999999]]}}, {"type": "Feature", "properties": {"highway": "footway", "footway": "sidewalk", "name": null, "surface": "asphalt", "lit": "yes", "length_m": 4.55, "type_element": "Way", "__fid": 40508}, "geometry": {"type": "LineString", "coordinates": [[2.324573, 48.89605020000001], [2.3246008, 48.8960868]]}}, {"type": "Feature", "properties": {"highway": "service", "footway": null, "name": null, "surface": "asphalt", "lit": "yes", "length_m": 9.98, "type_element": "Way", "__fid": 40509}, "geometry": {"type": "LineString", "coordinates": [[2.324709, 48.89604580000002], [2.324573, 48.89605020000001]]}}, {"type": "Feature", "properties": {"highway": "service", "footway": null, "name": "Passage Châtelet", "surface": null, "lit": null, "length_m": 7.37, "type_element": "Way", "__fid": 40533}, "geometry": {"type": "LineString", "coordinates": [[2.324574, 48.89744839999999], [2.3246247, 48.8973912]]}}, {"type": "Feature", "properties": {"highway": "footway", "footway": "sidewalk", "name": null, "surface": "asphalt", "lit": "yes", "length_m": 26.33, "type_element": "Way", "__fid": 40541}, "geometry": {"type": "LineString", "coordinates": [[2.3246008, 48.8960868], [2.3247962, 48.89628550000002]]}}, {"type": "Feature", "properties": {"highway": "footway", "footway": "sidewalk", "name": null, "surface": null, "lit": "yes", "length_m": 51.57, "type_element": "Way", "__fid": 40563}, "geometry": {"type": "LineString", "coordinates": [[2.325328, 48.8973956], [2.3246247, 48.8973912]]}}, {"type": "Feature", "properties": {"highway": "service", "footway": null, "name": "Passage Châtelet", "surface": null, "lit": null, "length_m": 83.34, "type_element": "Way", "__fid": 40564}, "geometry": {"type": "LineString", "coordinates": [[2.3246247, 48.8973912], [2.3249183, 48.89706010000001], [2.3253703, 48.8968478]]}}, {"type": "Feature", "properties": {"highway": "footway", "footway": "sidewalk", "name": null, "surface": "asphalt", "lit": "yes", "length_m": 46.91, "type_element": "Way", "__fid": 40784}, "geometry": {"type": "LineString", "coordinates": [[2.3251359, 48.896347], [2.3250718, 48.8963244], [2.3247923, 48.8960305], [2.3247972, 48.89600369999999]]}}, {"type": "Feature", "properties": {"highway": "footway", "footway": "sidewalk", "name": null, "surface": "asphalt", "lit": "yes", "length_m": 13.52, "type_element": "Way", "__fid": 40785}, "geometry": {"type": "LineString", "coordinates": [[2.3247972, 48.89600369999999], [2.3248028, 48.8959725], [2.3248804, 48.895898299999985]]}}, {"type": "Feature", "properties": {"highway": "footway", "footway": "sidewalk", "name": null, "surface": "asphalt", "lit": "yes", "length_m": 6.44, "type_element": "Way", "__fid": 40788}, "geometry": {"type": "LineString", "coordinates": [[2.3247962, 48.89628550000002], [2.324843, 48.8962881], [2.324863399999862, 48.89631150000004]]}}, {"type": "Feature", "properties": {"highway": "living_street", "footway": null, "name": "Rue André Bréchet", "surface": "asphalt", "lit": "yes", "length_m": 9.68, "type_element": "Way", "__fid": 40789}, "geometry": {"type": "LineString", "coordinates": [[2.324763, 48.898898], [2.324895, 48.8989009]]}}, {"type": "Feature", "properties": {"highway": "footway", "footway": "sidewalk", "name": null, "surface": "asphalt", "lit": "yes", "length_m": 211.92, "type_element": "Way", "__fid": 40790}, "geometry": {"type": "LineString", "coordinates": [[2.324763, 48.898898], [2.3247671, 48.898711], [2.3242052, 48.8983125], [2.3241549, 48.8982896], [2.3241106, 48.898285600000015], [2.3241569, 48.8981622], [2.324751, 48.8985492], [2.3249347, 48.8985528], [2.3252834, 48.8983509]]}}, {"type": "Feature", "properties": {"highway": "footway", "footway": "crossing", "name": null, "surface": "asphalt", "lit": "yes", "length_m": 14.39, "type_element": "Way", "__fid": 40828}, "geometry": {"type": "LineString", "coordinates": [[2.3248336, 48.8957726], [2.3248804, 48.895898299999985]]}}, {"type": "Feature", "properties": {"highway": "footway", "footway": "sidewalk", "name": null, "surface": "asphalt", "lit": "yes", "length_m": 123.03, "type_element": "Way", "__fid": 40829}, "geometry": {"type": "LineString", "coordinates": [[2.3264805, 48.89556670000001], [2.325485, 48.8956813], [2.3250159, 48.89576070000001], [2.3248336, 48.8957726]]}}, {"type": "Feature", "properties": {"highway": "footway", "footway": "sidewalk", "name": null, "surface": "asphalt", "lit": "yes", "length_m": 16.54, "type_element": "Way", "__fid": 40872}, "geometry": {"type": "LineString", "coordinates": [[2.324863399999862, 48.89631150000004], [2.3248922, 48.89632370000001], [2.3250062, 48.896425]]}}, {"type": "Feature", "properties": {"highway": "footway", "footway": "sidewalk", "name": null, "surface": "asphalt", "lit": "yes", "length_m": 118.56, "type_element": "Way", "__fid": 40890}, "geometry": {"type": "LineString", "coordinates": [[2.3248804, 48.895898299999985], [2.325533, 48.895786], [2.3263855, 48.8956874], [2.3264621, 48.8956928]]}}, {"type": "Feature", "properties": {"highway": "footway", "footway": "sidewalk", "name": null, "surface": null, "lit": "yes", "length_m": 60.11, "type_element": "Way", "__fid": 40908}, "geometry": {"type": "LineString", "coordinates": [[2.3253833, 48.8981265], [2.324878, 48.8977749], [2.324878, 48.8977187]]}}, {"type": "Feature", "properties": {"highway": "footway", "footway": "sidewalk", "name": null, "surface": null, "lit": "yes", "length_m": 33.24, "type_element": "Way", "__fid": 40909}, "geometry": {"type": "LineString", "coordinates": [[2.3253181, 48.8977071], [2.3249186, 48.8976957], [2.324878, 48.8977187]]}}, {"type": "Feature", "properties": {"highway": "living_street", "footway": null, "name": "Rue André Bréchet", "surface": "asphalt", "lit": "yes", "length_m": 110.38, "type_element": "Way", "__fid": 40966}, "geometry": {"type": "LineString", "coordinates": [[2.324895, 48.8989009], [2.3263998, 48.898933599999985]]}}, {"type": "Feature", "properties": {"highway": "footway", "footway": "sidewalk", "name": null, "surface": null, "lit": "yes", "length_m": 68.27, "type_element": "Way", "__fid": 40967}, "geometry": {"type": "LineString", "coordinates": [[2.324895, 48.8989009], [2.3249006, 48.89872250000001], [2.3253746, 48.8984192]]}}, {"type": "Feature", "properties": {"highway": "footway", "footway": "crossing", "name": null, "surface": "sett", "lit": "yes", "length_m": 17.86, "type_element": "Way", "__fid": 40978}, "geometry": {"type": "LineString", "coordinates": [[2.3249321, 48.8965238], [2.3250704, 48.89658410000003], [2.3251136, 48.8966268]]}}, {"type": "Feature", "properties": {"highway": "footway", "footway": "sidewalk", "name": null, "surface": null, "lit": "yes", "length_m": 12.81, "type_element": "Way", "__fid": 40979}, "geometry": {"type": "LineString", "coordinates": [[2.3250062, 48.896425], [2.3250132, 48.8964406], [2.3249321, 48.8965238]]}}, {"type": "Feature", "properties": {"highway": "footway", "footway": "crossing", "name": null, "surface": "asphalt", "lit": "yes", "length_m": 13.07, "type_element": "Way", "__fid": 41061}, "geometry": {"type": "LineString", "coordinates": [[2.3250062, 48.896425], [2.3251248, 48.8963635], [2.3251359, 48.896347]]}}, {"type": "Feature", "properties": {"highway": "footway", "footway": "sidewalk", "name": null, "surface": null, "lit": "yes", "length_m": 31.46, "type_element": "Way", "__fid": 41187}, "geometry": {"type": "LineString", "coordinates": [[2.3251136, 48.8966268], [2.3251801, 48.8966525], [2.3253703, 48.8968478]]}}, {"type": "Feature", "properties": {"highway": "footway", "footway": "crossing", "name": null, "surface": null, "lit": "yes", "length_m": 19.96, "type_element": "Way", "__fid": 41188}, "geometry": {"type": "LineString", "coordinates": [[2.3251136, 48.8966268], [2.3251536, 48.89656819999998], [2.3252579, 48.89650690000001], [2.3252902, 48.8964979]]}}, {"type": "Feature", "properties": {"highway": "footway", "footway": "sidewalk", "name": null, "surface": "asphalt", "lit": "yes", "length_m": 2.76, "type_element": "Way", "__fid": 41197}, "geometry": {"type": "LineString", "coordinates": [[2.3251734, 48.8963494], [2.3251359, 48.896347]]}}, {"type": "Feature", "properties": {"highway": "footway", "footway": "crossing", "name": null, "surface": "sett", "lit": "yes", "length_m": 17.44, "type_element": "Way", "__fid": 41241}, "geometry": {"type": "LineString", "coordinates": [[2.3251734, 48.8963494], [2.3251788, 48.8963672], [2.325311, 48.896475100000025]]}}, {"type": "Feature", "properties": {"highway": "footway", "footway": "sidewalk", "name": null, "surface": "asphalt", "lit": "yes", "length_m": 118.46, "type_element": "Way", "__fid": 41242}, "geometry": {"type": "LineString", "coordinates": [[2.326525, 48.89578439999999], [2.3264818, 48.8958239], [2.3259558, 48.8959931], [2.3256768, 48.8961059], [2.3252615, 48.8963295], [2.3251734, 48.8963494]]}}, {"type": "Feature", "properties": {"highway": "footway", "footway": null, "name": null, "surface": "paving_stones", "lit": "yes", "length_m": 6.04, "type_element": "Way", "__fid": 41374}, "geometry": {"type": "LineString", "coordinates": [[2.3252394, 48.897601], [2.3253217, 48.89760230000002]]}}, {"type": "Feature", "properties": {"highway": "footway", "footway": null, "name": null, "surface": "paving_stones", "lit": "yes", "length_m": 6.06, "type_element": "Way", "__fid": 41377}, "geometry": {"type": "LineString", "coordinates": [[2.3252416, 48.8974956], [2.32532416666667, 48.897492466666655]]}}, {"type": "Feature", "properties": {"highway": "footway", "footway": "sidewalk", "name": null, "surface": null, "lit": "yes", "length_m": 82.47, "type_element": "Way", "__fid": 41409}, "geometry": {"type": "LineString", "coordinates": [[2.3258774, 48.8971222], [2.3258207, 48.8970991], [2.3253098, 48.8965488], [2.3252902, 48.8964979]]}}, {"type": "Feature", "properties": {"highway": "footway", "footway": "sidewalk", "name": null, "surface": null, "lit": "yes", "length_m": 2.96, "type_element": "Way", "__fid": 41410}, "geometry": {"type": "LineString", "coordinates": [[2.3252902, 48.8964979], [2.325311, 48.896475100000025]]}}, {"type": "Feature", "properties": {"highway": "footway", "footway": "crossing", "name": null, "surface": "asphalt", "lit": "yes", "length_m": 10.12, "type_element": "Way", "__fid": 41419}, "geometry": {"type": "LineString", "coordinates": [[2.3253746, 48.8984192], [2.3252834, 48.8983509]]}}, {"type": "Feature", "properties": {"highway": "footway", "footway": "sidewalk", "name": null, "surface": null, "lit": "yes", "length_m": 29.33, "type_element": "Way", "__fid": 41420}, "geometry": {"type": "LineString", "coordinates": [[2.3252834, 48.8983509], [2.3252821, 48.8982102], [2.3252647, 48.8981944], [2.3253833, 48.8981265]]}}, {"type": "Feature", "properties": {"highway": "footway", "footway": "sidewalk", "name": null, "surface": null, "lit": "yes", "length_m": 115.82, "type_element": "Way", "__fid": 41423}, "geometry": {"type": "LineString", "coordinates": [[2.325311, 48.896475100000025], [2.3253579, 48.8964677], [2.3258956, 48.89618989999999], [2.3266624, 48.8959506]]}}, {"type": "Feature", "properties": {"highway": "footway", "footway": "sidewalk", "name": null, "surface": "asphalt", "lit": "yes", "length_m": 63.99, "type_element": "Way", "__fid": 41439}, "geometry": {"type": "LineString", "coordinates": [[2.3261592, 48.89774160000001], [2.3261474, 48.89771510000001], [2.3256916, 48.897702], [2.3255152, 48.897714100000016], [2.3253181, 48.8977071]]}}, {"type": "Feature", "properties": {"highway": "footway", "footway": "crossing", "name": null, "surface": null, "lit": "yes", "length_m": 11.66, "type_element": "Way", "__fid": 41440}, "geometry": {"type": "LineString", "coordinates": [[2.3253217, 48.89760230000002], [2.3253181, 48.8977071]]}}, {"type": "Feature", "properties": {"highway": "footway", "footway": "crossing", "name": null, "surface": null, "lit": "yes", "length_m": 12.21, "type_element": "Way", "__fid": 41445}, "geometry": {"type": "LineString", "coordinates": [[2.32532416666667, 48.897492466666655], [2.3253217, 48.89760230000002]]}}, {"type": "Feature", "properties": {"highway": "footway", "footway": "crossing", "name": null, "surface": null, "lit": "yes", "length_m": 10.78, "type_element": "Way", "__fid": 41450}, "geometry": {"type": "LineString", "coordinates": [[2.32532416666667, 48.897492466666655], [2.325328, 48.8973956]]}}, {"type": "Feature", "properties": {"highway": "footway", "footway": "sidewalk", "name": null, "surface": null, "lit": "yes", "length_m": 5.99, "type_element": "Way", "__fid": 41456}, "geometry": {"type": "LineString", "coordinates": [[2.3254097, 48.89739640000001], [2.325328, 48.8973956]]}}, {"type": "Feature", "properties": {"highway": "footway", "footway": "sidewalk", "name": null, "surface": null, "lit": "yes", "length_m": 46.53, "type_element": "Way", "__fid": 41486}, "geometry": {"type": "LineString", "coordinates": [[2.3253703, 48.8968478], [2.325673, 48.8971586], [2.3256826, 48.8972073]]}}, {"type": "Feature", "properties": {"highway": "service", "footway": null, "name": "Impasse Marty", "surface": null, "lit": null, "length_m": 6.84, "type_element": "Way", "__fid": 41487}, "geometry": {"type": "LineString", "coordinates": [[2.3254463, 48.89681209999998], [2.3253703, 48.8968478]]}}, {"type": "Feature", "properties": {"highway": "footway", "footway": "sidewalk", "name": null, "surface": "asphalt", "lit": "yes", "length_m": 17.68, "type_element": "Way", "__fid": 41517}, "geometry": {"type": "LineString", "coordinates": [[2.325608, 48.8984368], [2.3255852, 48.8984236], [2.3255637, 48.8984218], [2.3253746, 48.8984192]]}}, {"type": "Feature", "properties": {"highway": "footway", "footway": "sidewalk", "name": null, "surface": "asphalt", "lit": "yes", "length_m": 16.11, "type_element": "Way", "__fid": 41523}, "geometry": {"type": "LineString", "coordinates": [[2.3253833, 48.8981265], [2.3254068, 48.8981415], [2.3255938, 48.8981442]]}}, {"type": "Feature", "properties": {"highway": "footway", "footway": "sidewalk", "name": null, "surface": null, "lit": "yes", "length_m": 8.61, "type_element": "Way", "__fid": 41542}, "geometry": {"type": "LineString", "coordinates": [[2.3254097, 48.89739640000001], [2.3255269, 48.8974008]]}}, {"type": "Feature", "properties": {"highway": "footway", "footway": "sidewalk", "name": null, "surface": null, "lit": "yes", "length_m": 29.94, "type_element": "Way", "__fid": 41543}, "geometry": {"type": "LineString", "coordinates": [[2.3256826, 48.8972073], [2.3256647, 48.8972477], [2.3254795, 48.89733360000001], [2.3254097, 48.89739640000001]]}}, {"type": "Feature", "properties": {"highway": "footway", "footway": "sidewalk", "name": null, "surface": "asphalt", "lit": "yes", "length_m": 131.65, "type_element": "Way", "__fid": 41681}, "geometry": {"type": "LineString", "coordinates": [[2.3255873, 48.8939572], [2.3262306, 48.8950625]]}}, {"type": "Feature", "properties": {"highway": "footway", "footway": "sidewalk", "name": null, "surface": "asphalt", "lit": "yes", "length_m": 29.2, "type_element": "Way", "__fid": 41739}, "geometry": {"type": "LineString", "coordinates": [[2.3255938, 48.8981442], [2.3257045, 48.8982182], [2.3256972, 48.8983575], [2.3257119, 48.8983742]]}}, {"type": "Feature", "properties": {"highway": "footway", "footway": "sidewalk", "name": null, "surface": null, "lit": "yes", "length_m": 62.99, "type_element": "Way", "__fid": 41740}, "geometry": {"type": "LineString", "coordinates": [[2.3255938, 48.8981442], [2.3261526, 48.8978114], [2.3261592, 48.89774160000001]]}}, {"type": "Feature", "properties": {"highway": "footway", "footway": "crossing", "name": null, "surface": "asphalt", "lit": "yes", "length_m": 10.32, "type_element": "Way", "__fid": 41757}, "geometry": {"type": "LineString", "coordinates": [[2.3257119, 48.8983742], [2.325608, 48.8984368]]}}, {"type": "Feature", "properties": {"highway": "footway", "footway": "crossing", "name": null, "surface": null, "lit": "yes", "length_m": 18.27, "type_element": "Way", "__fid": 41816}, "geometry": {"type": "LineString", "coordinates": [[2.3256826, 48.8972073], [2.3257124, 48.8972103], [2.3258719, 48.8971395], [2.3258774, 48.8971222]]}}, {"type": "Feature", "properties": {"highway": "footway", "footway": "sidewalk", "name": null, "surface": null, "lit": "yes", "length_m": 107.71, "type_element": "Way", "__fid": 42089}, "geometry": {"type": "LineString", "coordinates": [[2.327062, 48.896564], [2.3270235, 48.8966036], [2.3259403, 48.8971175], [2.3258774, 48.8971222]]}}, {"type": "Feature", "properties": {"highway": "footway", "footway": "sidewalk", "name": null, "surface": null, "lit": "yes", "length_m": 56.96, "type_element": "Way", "__fid": 42144}, "geometry": {"type": "LineString", "coordinates": [[2.3267067, 48.89741069999999], [2.3259298, 48.8974079]]}}, {"type": "Feature", "properties": {"highway": "footway", "footway": "sidewalk", "name": null, "surface": null, "lit": "yes", "length_m": 105.48, "type_element": "Way", "__fid": 42160}, "geometry": {"type": "LineString", "coordinates": [[2.3259419, 48.8972329], [2.3269625, 48.8967683], [2.3270738, 48.8967225], [2.3271409, 48.8967198]]}}, {"type": "Feature", "properties": {"highway": "footway", "footway": "sidewalk", "name": null, "surface": "asphalt", "lit": "yes", "length_m": 65.9, "type_element": "Way", "__fid": 42240}, "geometry": {"type": "LineString", "coordinates": [[2.3263561, 48.8950287], [2.3260345, 48.89447529999999]]}}, {"type": "Feature", "properties": {"highway": "footway", "footway": null, "name": null, "surface": "compacted", "lit": "yes", "length_m": 29.16, "type_element": "Way", "__fid": 42399}, "geometry": {"type": "LineString", "coordinates": [[2.3262959, 48.8946938], [2.3261572, 48.894448]]}}, {"type": "Feature", "properties": {"highway": "footway", "footway": "sidewalk", "name": null, "surface": null, "lit": "yes", "length_m": 45.38, "type_element": "Way", "__fid": 42448}, "geometry": {"type": "LineString", "coordinates": [[2.3267672, 48.8977328], [2.3266481, 48.8977283], [2.3265979, 48.8977509], [2.3261592, 48.89774160000001]]}}, {"type": "Feature", "properties": {"highway": "footway", "footway": "sidewalk", "name": null, "surface": "asphalt", "lit": "yes", "length_m": 57.2, "type_element": "Way", "__fid": 42478}, "geometry": {"type": "LineString", "coordinates": [[2.3262306, 48.8950625], [2.3265064, 48.8955437]]}}, {"type": "Feature", "properties": {"highway": "footway", "footway": "crossing", "name": null, "surface": "asphalt", "lit": "yes", "length_m": 9.94, "type_element": "Way", "__fid": 42479}, "geometry": {"type": "LineString", "coordinates": [[2.3263561, 48.8950287], [2.3262306, 48.8950625]]}}, {"type": "Feature", "properties": {"highway": "footway", "footway": null, "name": null, "surface": "compacted", "lit": "yes", "length_m": 29.62, "type_element": "Way", "__fid": 42514}, "geometry": {"type": "LineString", "coordinates": [[2.3264267, 48.8949458], [2.3262959, 48.8946938]]}}, {"type": "Feature", "properties": {"highway": "footway", "footway": null, "name": null, "surface": "compacted", "lit": "yes", "length_m": 38.1, "type_element": "Way", "__fid": 42515}, "geometry": {"type": "LineString", "coordinates": [[2.326778, 48.8947389], [2.3266995, 48.8947414], [2.326614, 48.894731], [2.326512, 48.8947005], [2.3264299, 48.8946628], [2.3262959, 48.8946938]]}}, {"type": "Feature", "properties": {"highway": "service", "footway": null, "name": "Rue Félix Pécaut", "surface": "asphalt", "lit": "yes", "length_m": 5.13, "type_element": "Way", "__fid": 42537}, "geometry": {"type": "LineString", "coordinates": [[2.3263807, 48.8950719], [2.3263172, 48.8950913]]}}, {"type": "Feature", "properties": {"highway": "footway", "footway": "sidewalk", "name": null, "surface": "asphalt", "lit": "yes", "length_m": 5.13, "type_element": "Way", "__fid": 42571}, "geometry": {"type": "LineString", "coordinates": [[2.3263807, 48.8950719], [2.3263561, 48.8950287]]}}, {"type": "Feature", "properties": {"highway": "footway", "footway": null, "name": null, "surface": "compacted", "lit": "yes", "length_m": 10.57, "type_element": "Way", "__fid": 42572}, "geometry": {"type": "LineString", "coordinates": [[2.3264267, 48.8949458], [2.3263561, 48.8950287]]}}, {"type": "Feature", "properties": {"highway": "footway", "footway": "sidewalk", "name": null, "surface": "asphalt", "lit": "yes", "length_m": 41.59, "type_element": "Way", "__fid": 42585}, "geometry": {"type": "LineString", "coordinates": [[2.3266013, 48.89540989999998], [2.3265664, 48.8953975], [2.3263807, 48.8950719]]}}, {"type": "Feature", "properties": {"highway": "service", "footway": null, "name": "Rue Félix Pécaut", "surface": "asphalt", "lit": "yes", "length_m": 88.66, "type_element": "Way", "__fid": 42586}, "geometry": {"type": "LineString", "coordinates": [[2.3274649, 48.8947189], [2.3263807, 48.8950719]]}}, {"type": "Feature", "properties": {"highway": "footway", "footway": null, "name": null, "surface": "compacted", "lit": "yes", "length_m": 29.78, "type_element": "Way", "__fid": 42623}, "geometry": {"type": "LineString", "coordinates": [[2.3267892, 48.894825], [2.3264267, 48.8949458]]}}, {"type": "Feature", "properties": {"highway": "footway", "footway": "sidewalk", "name": null, "surface": "asphalt", "lit": "yes", "length_m": 2.47, "type_element": "Way", "__fid": 42650}, "geometry": {"type": "LineString", "coordinates": [[2.3264621, 48.8956928], [2.3264891, 48.8957061]]}}, {"type": "Feature", "properties": {"highway": "footway", "footway": "crossing", "name": null, "surface": "asphalt", "lit": "yes", "length_m": 14.09, "type_element": "Way", "__fid": 42651}, "geometry": {"type": "LineString", "coordinates": [[2.3264805, 48.89556670000001], [2.3264621, 48.8956928]]}}, {"type": "Feature", "properties": {"highway": "footway", "footway": "sidewalk", "name": null, "surface": "asphalt", "lit": "yes", "length_m": 3.19, "type_element": "Way", "__fid": 42669}, "geometry": {"type": "LineString", "coordinates": [[2.3265064, 48.8955437], [2.3264805, 48.89556670000001]]}}, {"type": "Feature", "properties": {"highway": "footway", "footway": "sidewalk", "name": null, "surface": "asphalt", "lit": "yes", "length_m": 9.1, "type_element": "Way", "__fid": 42675}, "geometry": {"type": "LineString", "coordinates": [[2.3264891, 48.8957061], [2.326525, 48.89578439999999]]}}, {"type": "Feature", "properties": {"highway": "footway", "footway": "traffic_island", "name": null, "surface": "asphalt", "lit": "yes", "length_m": 29.76, "type_element": "Way", "__fid": 42676}, "geometry": {"type": "LineString", "coordinates": [[2.3268407, 48.8957531], [2.3266891, 48.89576], [2.3266018, 48.8956892], [2.3264891, 48.8957061]]}}, {"type": "Feature", "properties": {"highway": "footway", "footway": "crossing", "name": null, "surface": "asphalt", "lit": "yes", "length_m": 11.45, "type_element": "Way", "__fid": 42691}, "geometry": {"type": "LineString", "coordinates": [[2.3265064, 48.8955437], [2.3265268, 48.895553], [2.3266578, 48.8955465]]}}, {"type": "Feature", "properties": {"highway": "footway", "footway": "crossing", "name": null, "surface": "sett", "lit": "yes", "length_m": 21.37, "type_element": "Way", "__fid": 42714}, "geometry": {"type": "LineString", "coordinates": [[2.326525, 48.89578439999999], [2.3266606, 48.8959254], [2.3266624, 48.8959506]]}}, {"type": "Feature", "properties": {"highway": "footway", "footway": "sidewalk", "name": null, "surface": "asphalt", "lit": "yes", "length_m": 51.44, "type_element": "Way", "__fid": 42779}, "geometry": {"type": "LineString", "coordinates": [[2.3272296, 48.8952122], [2.3266349, 48.8954125], [2.3266013, 48.89540989999998]]}}, {"type": "Feature", "properties": {"highway": "footway", "footway": "crossing", "name": null, "surface": "asphalt", "lit": "yes", "length_m": 8.27, "type_element": "Way", "__fid": 42780}, "geometry": {"type": "LineString", "coordinates": [[2.3266013, 48.89540989999998], [2.3266416, 48.8954794]]}}, {"type": "Feature", "properties": {"highway": "footway", "footway": "sidewalk", "name": null, "surface": "asphalt", "lit": "yes", "length_m": 8.1, "type_element": "Way", "__fid": 42807}, "geometry": {"type": "LineString", "coordinates": [[2.3266416, 48.8954794], [2.3266286, 48.895494200000016], [2.3266578, 48.8955465]]}}]}