{"type": "FeatureCollection", "features": [{"type": "Feature", "properties": {"highway": "footway", "footway": "sidewalk", "name": null, "surface": "asphalt", "lit": "yes", "length_m": 216.66, "type_element": "Way", "__fid": 42016}, "geometry": {"type": "LineString", "coordinates": [[2.3268821, 48.8194436], [2.3268712, 48.8194329], [2.3268096, 48.8175327], [2.3268286, 48.8175]]}}, {"type": "Feature", "properties": {"highway": "footway", "footway": "sidewalk", "name": null, "surface": "asphalt", "lit": null, "length_m": 139.24, "type_element": "Way", "__fid": 46207}, "geometry": {"type": "LineString", "coordinates": [[2.3313694, 48.817144], [2.3313878, 48.8171923], [2.3315889, 48.8183874]]}}, {"type": "Feature", "properties": {"highway": "footway", "footway": "sidewalk", "name": null, "surface": "asphalt", "lit": null, "length_m": 2.84, "type_element": "Way", "__fid": 46289}, "geometry": {"type": "LineString", "coordinates": [[2.3315014, 48.8171311], [2.3314632, 48.8171351]]}}, {"type": "Feature", "properties": {"highway": "footway", "footway": "sidewalk", "name": null, "surface": "asphalt", "lit": null, "length_m": 137.5, "type_element": "Way", "__fid": 46322}, "geometry": {"type": "LineString", "coordinates": [[2.3315014, 48.8171311], [2.3317073, 48.8183298], [2.3317345, 48.8183541]]}}, {"type": "Feature", "properties": {"highway": "footway", "footway": "sidewalk", "name": null, "surface": "asphalt", "lit": null, "length_m": 37.84, "type_element": "Way", "__fid": 46323}, "geometry": {"type": "LineString", "coordinates": [[2.3320104, 48.8170777], [2.3315014, 48.8171311]]}}, {"type": "Feature", "properties": {"highway": "footway", "footway": "crossing", "name": null, "surface": "asphalt", "lit": "yes", "length_m": 8.84, "type_element": "Way", "__fid": 46686}, "geometry": {"type": "LineString", "coordinates": [[2.3319785, 48.8170023], [2.3319944, 48.81706169999998], [2.3320104, 48.8170777]]}}, {"type": "Feature", "properties": {"highway": "footway", "footway": "crossing", "name": null, "surface": "asphalt", "lit": "yes", "length_m": 20.98, "type_element": "Way", "__fid": 46719}, "geometry": {"type": "LineString", "coordinates": [[2.3320104, 48.8170777], [2.33205, 48.8170944], [2.3322844, 48.8170644]]}}, {"type": "Feature", "properties": {"highway": "footway", "footway": "sidewalk", "name": null, "surface": "asphalt", "lit": "yes", "length_m": 110.14, "type_element": "Way", "__fid": 47097}, "geometry": {"type": "LineString", "coordinates": [[2.3322844, 48.8170644], [2.3322884, 48.8171134], [2.3327039, 48.818014]]}}, {"type": "Feature", "properties": {"highway": "footway", "footway": "sidewalk", "name": null, "surface": "paving_stones", "lit": "yes", "length_m": 106.91, "type_element": "Way", "__fid": 47098}, "geometry": {"type": "LineString", "coordinates": [[2.3322844, 48.8170644], [2.3323601, 48.8170268], [2.3336918, 48.8168406]]}}, {"type": "Feature", "properties": {"highway": "footway", "footway": "sidewalk", "name": null, "surface": "asphalt", "lit": "yes", "length_m": 90.27, "type_element": "Way", "__fid": 47918}, "geometry": {"type": "LineString", "coordinates": [[2.3336725, 48.8175571], [2.3328835, 48.8180899], [2.3327898, 48.8181146]]}}, {"type": "Feature", "properties": {"highway": "pedestrian", "footway": null, "name": null, "surface": "asphalt", "lit": "yes", "length_m": 8.1, "type_element": "Way", "__fid": 48735}, "geometry": {"type": "LineString", "coordinates": [[2.3336679, 48.8167695], [2.3336918, 48.8168406]]}}, {"type": "Feature", "properties": {"highway": "footway", "footway": "sidewalk", "name": null, "surface": "asphalt", "lit": "yes", "length_m": 8.57, "type_element": "Way", "__fid": 48747}, "geometry": {"type": "LineString", "coordinates": [[2.333754072989289, 48.81750202156684], [2.3336725, 48.8175571]]}}, {"type": "Feature", "properties": {"highway": "pedestrian", "footway": null, "name": null, "surface": "asphalt", "lit": "yes", "length_m": 64.83, "type_element": "Way", "__fid": 48756}, "geometry": {"type": "LineString", "coordinates": [[2.3336918, 48.8168406], [2.3338618, 48.8173713], [2.3339028, 48.8174016]]}}, {"type": "Feature", "properties": {"highway": "footway", "footway": "sidewalk", "name": null, "surface": "paving_stones", "lit": "yes", "length_m": 10.12, "type_element": "Way", "__fid": 48757}, "geometry": {"type": "LineString", "coordinates": [[2.3336918, 48.8168406], [2.3338286, 48.8168293]]}}, {"type": "Feature", "properties": {"highway": "footway", "footway": null, "name": "Passerelle des Arts et Métiers", "surface": "asphalt", "lit": null, "length_m": 67.96, "type_element": "Way", "__fid": 48835}, "geometry": {"type": "LineString", "coordinates": [[2.333754072989289, 48.81750202156684], [2.3344078, 48.8179347]]}}, {"type": "Feature", "properties": {"highway": "footway", "footway": "sidewalk", "name": null, "surface": "asphalt", "lit": "yes", "length_m": 15.62, "type_element": "Way", "__fid": 48836}, "geometry": {"type": "LineString", "coordinates": [[2.3339028, 48.8174016], [2.333754072989289, 48.81750202156684]]}}, {"type": "Feature", "properties": {"highway": "footway", "footway": "crossing", "name": null, "surface": "asphalt", "lit": "yes", "length_m": 14.35, "type_element": "Way", "__fid": 48872}, "geometry": {"type": "LineString", "coordinates": [[2.3338286, 48.8168293], [2.3338137, 48.8167006]]}}, {"type": "Feature", "properties": {"highway": "footway", "footway": "sidewalk", "name": null, "surface": "asphalt", "lit": "yes", "length_m": 79.36, "type_element": "Way", "__fid": 48887}, "geometry": {"type": "LineString", "coordinates": [[2.3338286, 48.8168293], [2.3342809, 48.8168074], [2.3343701, 48.8167867], [2.3348206, 48.81676539999999], [2.3348609, 48.8167836], [2.3348763, 48.8168023]]}}, {"type": "Feature", "properties": {"highway": "pedestrian", "footway": null, "name": null, "surface": "asphalt", "lit": "yes", "length_m": 6.99, "type_element": "Way", "__fid": 48972}, "geometry": {"type": "LineString", "coordinates": [[2.3339028, 48.8174016], [2.3339661, 48.81744850000002]]}}, {"type": "Feature", "properties": {"highway": "footway", "footway": "sidewalk", "name": null, "surface": "asphalt", "lit": "yes", "length_m": 98.92, "type_element": "Way", "__fid": 48973}, "geometry": {"type": "LineString", "coordinates": [[2.3348763, 48.8168023], [2.3348717, 48.8168295], [2.3348455, 48.8168542], [2.3344365, 48.8170445], [2.3339028, 48.8174016]]}}, {"type": "Feature", "properties": {"highway": "footway", "footway": null, "name": null, "surface": "asphalt", "lit": null, "length_m": 152.28, "type_element": "Way", "__fid": 49498}, "geometry": {"type": "LineString", "coordinates": [[2.3355257, 48.8181183], [2.3353833, 48.8176391], [2.3353284, 48.8175426], [2.3352964, 48.8175087], [2.33526, 48.8174888], [2.3352001, 48.8174796], [2.3350848, 48.8175007], [2.3347763, 48.8176173], [2.3345711, 48.817778], [2.3344985, 48.8179121]]}}, {"type": "Feature", "properties": {"highway": "footway", "footway": "sidewalk", "name": null, "surface": "concrete", "lit": "yes", "length_m": 140.42, "type_element": "Way", "__fid": 49781}, "geometry": {"type": "LineString", "coordinates": [[2.3348763, 48.8168023], [2.335011, 48.8167701], [2.3353913, 48.8167231], [2.336147, 48.8166577], [2.336764832436121, 48.81662348688228]]}}]}