{"type": "FeatureCollection", "features": [{"type": "Feature", "properties": {"highway": "footway", "footway": "sidewalk", "name": null, "surface": null, "lit": "yes", "length_m": 113.81, "type_element": "Way", "__fid": 46104}, "geometry": {"type": "LineString", "coordinates": [[2.3302254, 48.9000973], [2.3303015, 48.9003492], [2.3303828, 48.9004303], [2.3304209, 48.9009105], [2.3303157, 48.9010346], [2.330291, 48.9010387], [2.3302871, 48.901052700000015], [2.3302641, 48.901055]]}}, {"type": "Feature", "properties": {"highway": "footway", "footway": "sidewalk", "name": null, "surface": null, "lit": "yes", "length_m": 47.59, "type_element": "Way", "__fid": 50390}, "geometry": {"type": "LineString", "coordinates": [[2.3349025, 48.9011476], [2.334907, 48.9011847], [2.3347543, 48.9014277], [2.3346973, 48.9014665], [2.3346215, 48.9014769], [2.3346232, 48.9014995]]}}, {"type": "Feature", "properties": {"highway": "footway", "footway": "sidewalk", "name": null, "surface": null, "lit": "yes", "length_m": 5.63, "type_element": "Way", "__fid": 50571}, "geometry": {"type": "LineString", "coordinates": [[2.3348425, 48.9011182], [2.3348878, 48.9011336], [2.3349025, 48.9011476]]}}, {"type": "Feature", "properties": {"highway": "footway", "footway": "sidewalk", "name": null, "surface": null, "lit": "yes", "length_m": 2.34, "type_element": "Way", "__fid": 50623}, "geometry": {"type": "LineString", "coordinates": [[2.334926, 48.9011619], [2.3349025, 48.9011476]]}}, {"type": "Feature", "properties": {"highway": "footway", "footway": "crossing", "name": null, "surface": null, "lit": "yes", "length_m": 19.26, "type_element": "Way", "__fid": 50624}, "geometry": {"type": "LineString", "coordinates": [[2.3349025, 48.9011476], [2.3349807, 48.901051500000015], [2.3350158, 48.9009917]]}}, {"type": "Feature", "properties": {"highway": "footway", "footway": "traffic_island", "name": null, "surface": null, "lit": "yes", "length_m": 25.21, "type_element": "Way", "__fid": 50713}, "geometry": {"type": "LineString", "coordinates": [[2.3350158, 48.9009917], [2.3353583, 48.901012]]}}, {"type": "Feature", "properties": {"highway": "footway", "footway": "sidewalk", "name": null, "surface": null, "lit": "yes", "length_m": 45.25, "type_element": "Way", "__fid": 50714}, "geometry": {"type": "LineString", "coordinates": [[2.3352152, 48.9006066], [2.3350158, 48.9009917]]}}, {"type": "Feature", "properties": {"highway": "footway", "footway": "crossing", "name": null, "surface": null, "lit": "yes", "length_m": 28.81, "type_element": "Way", "__fid": 50867}, "geometry": {"type": "LineString", "coordinates": [[2.3353583, 48.901012], [2.3353109, 48.9010763], [2.3352535, 48.9011298], [2.3351894, 48.9012443]]}}, {"type": "Feature", "properties": {"highway": "footway", "footway": "traffic_island", "name": null, "surface": null, "lit": "yes", "length_m": 28.17, "type_element": "Way", "__fid": 50889}, "geometry": {"type": "LineString", "coordinates": [[2.3352152, 48.9006066], [2.335578, 48.9006901]]}}, {"type": "Feature", "properties": {"highway": "footway", "footway": "sidewalk", "name": null, "surface": null, "lit": "yes", "length_m": 18.05, "type_element": "Way", "__fid": 50890}, "geometry": {"type": "LineString", "coordinates": [[2.3352881, 48.9004516], [2.3352152, 48.9006066]]}}, {"type": "Feature", "properties": {"highway": "footway", "footway": "sidewalk", "name": null, "surface": null, "lit": "yes", "length_m": 39.46, "type_element": "Way", "__fid": 51022}, "geometry": {"type": "LineString", "coordinates": [[2.335578, 48.9006901], [2.3354202, 48.9009566], [2.3353583, 48.901012]]}}, {"type": "Feature", "properties": {"highway": "service", "footway": null, "name": null, "surface": "asphalt", "lit": "yes", "length_m": 13.29, "type_element": "Way", "__fid": 51136}, "geometry": {"type": "LineString", "coordinates": [[2.3354812, 48.900532], [2.33566, 48.9005516]]}}, {"type": "Feature", "properties": {"highway": "footway", "footway": "sidewalk", "name": null, "surface": null, "lit": "yes", "length_m": 16.53, "type_element": "Way", "__fid": 51250}, "geometry": {"type": "LineString", "coordinates": [[2.33566, 48.9005516], [2.335578, 48.9006901]]}}]}