{"type": "FeatureCollection", "features": [{"type": "Feature", "properties": {"@id": "node/4323168050", "amenity": "drinking_water", "check_date": "2021-08-23", "fountain": "drinking", "type_element": "Fontaines à boire", "__fid": 482}, "geometry": {"type": "Point", "coordinates": [2.3275655, 48.839919]}, "id": "node/4323168050"}, {"type": "Feature", "properties": {"@id": "node/5796005554", "amenity": "drinking_water", "fountain": "drinking", "type_element": "Fontaines à boire", "__fid": 566}, "geometry": {"type": "Point", "coordinates": [2.3269977, 48.8394046]}, "id": "node/5796005554"}, {"type": "Feature", "properties": {"@id": "node/8879699615", "amenity": "drinking_water", "man_made": "water_tap", "type_element": "Fontaines à boire", "__fid": 771}, "geometry": {"type": "Point", "coordinates": [2.327209, 48.8363725]}, "id": "node/8879699615"}, {"type": "Feature", "geometry": {"type": "Point", "coordinates": [2.33151, 48.836867]}, "properties": {"id": 2865, "name": "Square Yves-Klein", "categorie": "Parcs, jardins et bois", "photo_url": "https://cdn.paris.fr/eqpts-prod/2022/05/10/b852bb12edce4a32c99892986bdf9b51.jpg", "photo_credit": "Clement Dorval /Ville de Paris", "photo_alt": null, "address_street": "boulevard Raspail", "address_postcode": "75014", "address_city": "PARIS", "phone": null, "accessibility": "{\"handicaps\": [{\"name\": \"Personnes déficientes visuelles\", \"status\": \"undefined\"}, {\"name\": \"Personnes déficientes auditives\", \"status\": \"undefined\"}, {\"name\": \"Personnes déficientes mentales\", \"status\": \"undefined\"}, {\"name\": \"Personnes à mobilité réduite\", \"status\": \"undefined\"}, {\"name\": \"Accueil en langue des signes\", \"status\": \"undefined\"}]}", "latitude": 48.836867, "longitude": 2.33151, "url": "https://www.paris.fr/lieux/square-yves-klein-2865", "type_element": "Parcs, Jardins et Bois", "__fid": 1571}}, {"type": "Feature", "properties": {"highway": "footway", "footway": "sidewalk", "name": null, "surface": "asphalt", "lit": "yes", "length_m": 231.57, "type_element": "Way", "__fid": 39927}, "geometry": {"type": "LineString", "coordinates": [[2.3247966, 48.84100450000001], [2.3255813, 48.8407395], [2.3256023, 48.8407003], [2.3274518, 48.840073], [2.3275217, 48.8400917], [2.3275702, 48.8400734]]}}, {"type": "Feature", "properties": {"highway": "footway", "footway": "sidewalk", "name": null, "surface": "asphalt", "lit": null, "length_m": 148.55, "type_element": "Way", "__fid": 40077}, "geometry": {"type": "LineString", "coordinates": [[2.3249047, 48.8411524], [2.3267166, 48.8405571]]}}, {"type": "Feature", "properties": {"highway": "footway", "footway": "sidewalk", "name": null, "surface": "asphalt", "lit": "yes", "length_m": 186.43, "type_element": "Way", "__fid": 40336}, "geometry": {"type": "LineString", "coordinates": [[2.3251261, 48.8412301], [2.3252765, 48.8411899], [2.3273977, 48.84048060000002]]}}, {"type": "Feature", "properties": {"highway": "footway", "footway": "sidewalk", "name": null, "surface": "asphalt", "lit": "yes", "length_m": 146.14, "type_element": "Way", "__fid": 40350}, "geometry": {"type": "LineString", "coordinates": [[2.3270844, 48.8416085], [2.3251334, 48.8413461]]}}, {"type": "Feature", "properties": {"highway": "path", "footway": null, "name": "Avenue du Boulevard", "surface": "compacted", "lit": null, "length_m": 153.25, "type_element": "Way", "__fid": 40386}, "geometry": {"type": "LineString", "coordinates": [[2.3270886, 48.8364354], [2.3269768, 48.8364246], [2.3252148, 48.83701330000001]]}}, {"type": "Feature", "properties": {"highway": "service", "footway": null, "name": "Avenue du Boulevard", "surface": "asphalt", "lit": null, "length_m": 219.38, "type_element": "Way", "__fid": 40412}, "geometry": {"type": "LineString", "coordinates": [[2.3251981, 48.8399797], [2.3256219, 48.8405318], [2.3274508, 48.8399186]]}}, {"type": "Feature", "properties": {"highway": "service", "footway": null, "name": "Avenue du Nord", "surface": "asphalt", "lit": null, "length_m": 150.35, "type_element": "Way", "__fid": 40413}, "geometry": {"type": "LineString", "coordinates": [[2.3251981, 48.8399797], [2.3270254, 48.8393686]]}}, {"type": "Feature", "properties": {"highway": "footway", "footway": "path", "name": "Allée Circulaire", "surface": "dirt", "lit": "no", "length_m": 100.01, "type_element": "Way", "__fid": 40994}, "geometry": {"type": "LineString", "coordinates": [[2.3269297, 48.83784210000001], [2.3267137, 48.8377113], [2.3266297, 48.837673299999985], [2.3265277, 48.837637600000015], [2.3263297, 48.8375945], [2.3262256, 48.8375838], [2.326007, 48.8375857], [2.3258967, 48.837599400000016], [2.3257041, 48.8376502]]}}, {"type": "Feature", "properties": {"highway": "service", "footway": null, "name": "Boulevard Edgar Quinet", "surface": "concrete", "lit": "yes", "length_m": 164.88, "type_element": "Way", "__fid": 41019}, "geometry": {"type": "LineString", "coordinates": [[2.3256859, 48.8407942], [2.325675, 48.8407273], [2.3256858, 48.8407114], [2.3275772, 48.840082]]}}, {"type": "Feature", "properties": {"highway": "footway", "footway": "sidewalk", "name": null, "surface": "asphalt", "lit": "yes", "length_m": 115.98, "type_element": "Way", "__fid": 41089}, "geometry": {"type": "LineString", "coordinates": [[2.3266437, 48.83627790000001], [2.3266034, 48.836256], [2.3261136, 48.8357392], [2.3258309, 48.8354287], [2.3258235, 48.83539230000002]]}}, {"type": "Feature", "properties": {"highway": "footway", "footway": "sidewalk", "name": null, "surface": "asphalt", "lit": "yes", "length_m": 71.1, "type_element": "Way", "__fid": 41583}, "geometry": {"type": "LineString", "coordinates": [[2.3271112, 48.841525], [2.3261627, 48.8413948]]}}, {"type": "Feature", "properties": {"highway": "footway", "footway": "sidewalk", "name": null, "surface": "asphalt", "lit": "yes", "length_m": 118.32, "type_element": "Way", "__fid": 41699}, "geometry": {"type": "LineString", "coordinates": [[2.327129000000118, 48.836121400000074], [2.3264158, 48.8352212], [2.3263627, 48.83518810000001]]}}, {"type": "Feature", "properties": {"highway": "service", "footway": null, "name": "Avenue Transversale", "surface": "asphalt", "lit": null, "length_m": 54.45, "type_element": "Way", "__fid": 41708}, "geometry": {"type": "LineString", "coordinates": [[2.326331, 48.838145699999984], [2.3269937, 48.8379257]]}}, {"type": "Feature", "properties": {"highway": "footway", "footway": "sidewalk", "name": null, "surface": "asphalt", "lit": "yes", "length_m": 119.14, "type_element": "Way", "__fid": 41822}, "geometry": {"type": "LineString", "coordinates": [[2.3264974, 48.8351363], [2.3265002, 48.835188], [2.3272029, 48.836046], [2.3272485, 48.8360786]]}}, {"type": "Feature", "properties": {"highway": "footway", "footway": "crossing", "name": null, "surface": "paving_stones", "lit": "yes", "length_m": 12.14, "type_element": "Way", "__fid": 41844}, "geometry": {"type": "LineString", "coordinates": [[2.3264968, 48.836328], [2.3266437, 48.83627790000001]]}}, {"type": "Feature", "properties": {"highway": "footway", "footway": "sidewalk", "name": null, "surface": "asphalt", "lit": "yes", "length_m": 82.5, "type_element": "Way", "__fid": 42034}, "geometry": {"type": "LineString", "coordinates": [[2.3265957, 48.8364542], [2.3275989, 48.83611960000002]]}}, {"type": "Feature", "properties": {"highway": "service", "footway": null, "name": "Allée Principale", "surface": "asphalt", "lit": "yes", "length_m": 35.36, "type_element": "Way", "__fid": 42037}, "geometry": {"type": "LineString", "coordinates": [[2.3267837, 48.8390562], [2.3265659, 48.8387726]]}}, {"type": "Feature", "properties": {"highway": "footway", "footway": "path", "name": "Allée Lenoir", "surface": "sett", "lit": "yes", "length_m": 6.56, "type_element": "Way", "__fid": 42038}, "geometry": {"type": "LineString", "coordinates": [[2.3265659, 48.8387726], [2.3266458, 48.8387461]]}}, {"type": "Feature", "properties": {"highway": "footway", "footway": "sidewalk", "name": null, "surface": "asphalt", "lit": "yes", "length_m": 39.65, "type_element": "Way", "__fid": 42079}, "geometry": {"type": "LineString", "coordinates": [[2.3266437, 48.83627790000001], [2.327129000000118, 48.836121400000074]]}}, {"type": "Feature", "properties": {"highway": "footway", "footway": "path", "name": null, "surface": "grass", "lit": null, "length_m": 35.37, "type_element": "Way", "__fid": 42103}, "geometry": {"type": "LineString", "coordinates": [[2.3268868, 48.8390216], [2.3266458, 48.8387461]]}}, {"type": "Feature", "properties": {"highway": "footway", "footway": "path", "name": "Allée Lenoir", "surface": "sett", "lit": "yes", "length_m": 6.39, "type_element": "Way", "__fid": 42104}, "geometry": {"type": "LineString", "coordinates": [[2.3266458, 48.8387461], [2.3267236, 48.8387203]]}}, {"type": "Feature", "properties": {"highway": "service", "footway": null, "name": null, "surface": "concrete", "lit": "yes", "length_m": 10.64, "type_element": "Way", "__fid": 42126}, "geometry": {"type": "LineString", "coordinates": [[2.3266539, 48.84047080000001], [2.3267166, 48.8405571]]}}, {"type": "Feature", "properties": {"highway": "footway", "footway": "path", "name": "Allée Chauveau Lagarde", "surface": "compacted", "lit": "no", "length_m": 119.11, "type_element": "Way", "__fid": 42180}, "geometry": {"type": "LineString", "coordinates": [[2.3267236, 48.8387203], [2.3274243, 48.8384878], [2.3270459, 48.8379938]]}}, {"type": "Feature", "properties": {"highway": "service", "footway": null, "name": null, "surface": "concrete", "lit": "yes", "length_m": 10.0, "type_element": "Way", "__fid": 42208}, "geometry": {"type": "LineString", "coordinates": [[2.3267166, 48.8405571], [2.3267755, 48.84063819999998]]}}, {"type": "Feature", "properties": {"highway": "footway", "footway": "crossing", "name": null, "surface": "concrete", "lit": "yes", "length_m": 5.56, "type_element": "Way", "__fid": 42209}, "geometry": {"type": "LineString", "coordinates": [[2.3267166, 48.8405571], [2.3267844, 48.840534799999986]]}}, {"type": "Feature", "properties": {"highway": "service", "footway": null, "name": null, "surface": "concrete", "lit": "yes", "length_m": 10.69, "type_element": "Way", "__fid": 42228}, "geometry": {"type": "LineString", "coordinates": [[2.3267844, 48.840534799999986], [2.3267256, 48.8404468]]}}, {"type": "Feature", "properties": {"highway": "footway", "footway": "path", "name": null, "surface": null, "lit": null, "length_m": 28.16, "type_element": "Way", "__fid": 42287}, "geometry": {"type": "LineString", "coordinates": [[2.3269524, 48.8389996], [2.326776, 48.8387747]]}}, {"type": "Feature", "properties": {"highway": "footway", "footway": "sidewalk", "name": null, "surface": "asphalt", "lit": "yes", "length_m": 116.4, "type_element": "Way", "__fid": 42295}, "geometry": {"type": "LineString", "coordinates": [[2.327533733333437, 48.835975100000056], [2.3268274, 48.8350379]]}}, {"type": "Feature", "properties": {"highway": "service", "footway": null, "name": "Allée Principale", "surface": "asphalt", "lit": "yes", "length_m": 39.0, "type_element": "Way", "__fid": 42310}, "geometry": {"type": "LineString", "coordinates": [[2.3270254, 48.8393686], [2.3267837, 48.8390562]]}}, {"type": "Feature", "properties": {"highway": "footway", "footway": "path", "name": null, "surface": null, "lit": null, "length_m": 8.49, "type_element": "Way", "__fid": 42311}, "geometry": {"type": "LineString", "coordinates": [[2.3267837, 48.8390562], [2.3268868, 48.8390216]]}}, {"type": "Feature", "properties": {"highway": "service", "footway": null, "name": null, "surface": "concrete", "lit": "yes", "length_m": 10.09, "type_element": "Way", "__fid": 42333}, "geometry": {"type": "LineString", "coordinates": [[2.32684, 48.8406178], [2.3267844, 48.840534799999986]]}}, {"type": "Feature", "properties": {"highway": "footway", "footway": "sidewalk", "name": null, "surface": null, "lit": "yes", "length_m": 42.82, "type_element": "Way", "__fid": 42334}, "geometry": {"type": "LineString", "coordinates": [[2.3267844, 48.840534799999986], [2.3273067, 48.8403632]]}}, {"type": "Feature", "properties": {"highway": "footway", "footway": "path", "name": null, "surface": "grass", "lit": null, "length_m": 30.39, "type_element": "Way", "__fid": 42410}, "geometry": {"type": "LineString", "coordinates": [[2.3270806, 48.8392631], [2.3268868, 48.8390216]]}}, {"type": "Feature", "properties": {"highway": "footway", "footway": "path", "name": null, "surface": null, "lit": null, "length_m": 5.4, "type_element": "Way", "__fid": 42411}, "geometry": {"type": "LineString", "coordinates": [[2.3268868, 48.8390216], [2.3269524, 48.8389996]]}}, {"type": "Feature", "properties": {"highway": "footway", "footway": "sidewalk", "name": null, "surface": "asphalt", "lit": "yes", "length_m": 116.86, "type_element": "Way", "__fid": 42420}, "geometry": {"type": "LineString", "coordinates": [[2.3276632, 48.8359295], [2.3276082, 48.8358862], [2.3269437, 48.83499370000003]]}}, {"type": "Feature", "properties": {"highway": "footway", "footway": "path", "name": "Allée Chauveau Lagarde", "surface": "compacted", "lit": "no", "length_m": 10.42, "type_element": "Way", "__fid": 42443}, "geometry": {"type": "LineString", "coordinates": [[2.3269937, 48.8379257], [2.3269297, 48.83784210000001]]}}, {"type": "Feature", "properties": {"highway": "footway", "footway": "path", "name": null, "surface": null, "lit": null, "length_m": 19.86, "type_element": "Way", "__fid": 42475}, "geometry": {"type": "LineString", "coordinates": [[2.3270768, 48.8391582], [2.3269524, 48.8389996]]}}, {"type": "Feature", "properties": {"highway": "footway", "footway": "path", "name": null, "surface": null, "lit": null, "length_m": 58.41, "type_element": "Way", "__fid": 42476}, "geometry": {"type": "LineString", "coordinates": [[2.3269524, 48.8389996], [2.327662, 48.8387619]]}}, {"type": "Feature", "properties": {"highway": "footway", "footway": "path", "name": "Allée Chauveau Lagarde", "surface": "compacted", "lit": "no", "length_m": 8.49, "type_element": "Way", "__fid": 42496}, "geometry": {"type": "LineString", "coordinates": [[2.3270459, 48.8379938], [2.3269937, 48.8379257]]}}, {"type": "Feature", "properties": {"highway": "service", "footway": null, "name": "Avenue Transversale", "surface": "asphalt", "lit": null, "length_m": 73.22, "type_element": "Way", "__fid": 42497}, "geometry": {"type": "LineString", "coordinates": [[2.3269937, 48.8379257], [2.327885, 48.83763]]}}, {"type": "Feature", "properties": {"highway": "service", "footway": null, "name": "Allée Principale", "surface": "asphalt", "lit": "yes", "length_m": 38.04, "type_element": "Way", "__fid": 42526}, "geometry": {"type": "LineString", "coordinates": [[2.3272611, 48.8396733], [2.3270254, 48.8393686]]}}, {"type": "Feature", "properties": {"highway": "service", "footway": null, "name": "Avenue du Nord", "surface": "asphalt", "lit": null, "length_m": 9.08, "type_element": "Way", "__fid": 42527}, "geometry": {"type": "LineString", "coordinates": [[2.3270254, 48.8393686], [2.3271357, 48.83933170000001]]}}, {"type": "Feature", "properties": {"highway": "service", "footway": null, "name": "Avenue de l'Est", "surface": "asphalt", "lit": null, "length_m": 69.76, "type_element": "Way", "__fid": 42546}, "geometry": {"type": "LineString", "coordinates": [[2.3275209, 48.83699410000001], [2.3270886, 48.8364354]]}}, {"type": "Feature", "properties": {"highway": "service", "footway": null, "name": "Avenue du Midi", "surface": "asphalt", "lit": "no", "length_m": 52.69, "type_element": "Way", "__fid": 42547}, "geometry": {"type": "LineString", "coordinates": [[2.327723, 48.8362137], [2.3270886, 48.8364354]]}}, {"type": "Feature", "properties": {"highway": "footway", "footway": "path", "name": null, "surface": null, "lit": null, "length_m": 129.52, "type_element": "Way", "__fid": 42569}, "geometry": {"type": "LineString", "coordinates": [[2.3286246, 48.83869530000001], [2.3271079, 48.8391978], [2.3270768, 48.8391582]]}}, {"type": "Feature", "properties": {"highway": "footway", "footway": "path", "name": null, "surface": null, "lit": null, "length_m": 124.56, "type_element": "Way", "__fid": 42570}, "geometry": {"type": "LineString", "coordinates": [[2.3285912, 48.8386526], [2.3270768, 48.8391582]]}}, {"type": "Feature", "properties": {"highway": "footway", "footway": "path", "name": null, "surface": "grass", "lit": null, "length_m": 8.63, "type_element": "Way", "__fid": 42574}, "geometry": {"type": "LineString", "coordinates": [[2.3271357, 48.83933170000001], [2.3270806, 48.8392631]]}}, {"type": "Feature", "properties": {"highway": "footway", "footway": "path", "name": null, "surface": null, "lit": null, "length_m": 129.67, "type_element": "Way", "__fid": 42575}, "geometry": {"type": "LineString", "coordinates": [[2.3286574, 48.8387372], [2.3270806, 48.8392631]]}}, {"type": "Feature", "properties": {"highway": "footway", "footway": "crossing", "name": null, "surface": "asphalt", "lit": "yes", "length_m": 9.98, "type_element": "Way", "__fid": 42578}, "geometry": {"type": "LineString", "coordinates": [[2.327129000000118, 48.836121400000074], [2.3272485, 48.8360786]]}}, {"type": "Feature", "properties": {"highway": "footway", "footway": "path", "name": null, "surface": "pebblestone", "lit": null, "length_m": 12.97, "type_element": "Way", "__fid": 42591}, "geometry": {"type": "LineString", "coordinates": [[2.3271033, 48.83972570000001], [2.3272611, 48.8396733]]}}, {"type": "Feature", "properties": {"highway": "service", "footway": null, "name": "Avenue du Nord", "surface": "asphalt", "lit": null, "length_m": 134.96, "type_element": "Way", "__fid": 42613}, "geometry": {"type": "LineString", "coordinates": [[2.3271357, 48.83933170000001], [2.3287759, 48.838783200000016]]}}, {"type": "Feature", "properties": {"highway": "footway", "footway": "sidewalk", "name": null, "surface": null, "lit": "yes", "length_m": 118.46, "type_element": "Way", "__fid": 42664}, "geometry": {"type": "LineString", "coordinates": [[2.3274641, 48.84048640000001], [2.3274889, 48.8405159], [2.3271713, 48.841526]]}}, {"type": "Feature", "properties": {"highway": "footway", "footway": "sidewalk", "name": null, "surface": "asphalt", "lit": "yes", "length_m": 20.84, "type_element": "Way", "__fid": 42667}, "geometry": {"type": "LineString", "coordinates": [[2.3272485, 48.8360786], [2.3274973, 48.8359884]]}}, {"type": "Feature", "properties": {"highway": "service", "footway": null, "name": "Allée Principale", "surface": "asphalt", "lit": "yes", "length_m": 30.62, "type_element": "Way", "__fid": 42733}, "geometry": {"type": "LineString", "coordinates": [[2.3274508, 48.8399186], [2.3272611, 48.8396733]]}}, {"type": "Feature", "properties": {"highway": "footway", "footway": "path", "name": null, "surface": "pebblestone", "lit": null, "length_m": 12.94, "type_element": "Way", "__fid": 42734}, "geometry": {"type": "LineString", "coordinates": [[2.3272611, 48.8396733], [2.327419, 48.8396216]]}}, {"type": "Feature", "properties": {"highway": "footway", "footway": "crossing", "name": null, "surface": null, "lit": "yes", "length_m": 14.66, "type_element": "Way", "__fid": 42772}, "geometry": {"type": "LineString", "coordinates": [[2.3273977, 48.84048060000002], [2.3273067, 48.8403632]]}}, {"type": "Feature", "properties": {"highway": "footway", "footway": "sidewalk", "name": null, "surface": null, "lit": "yes", "length_m": 40.54, "type_element": "Way", "__fid": 42773}, "geometry": {"type": "LineString", "coordinates": [[2.3273067, 48.8403632], [2.3278012, 48.8402008]]}}, {"type": "Feature", "properties": {"highway": "footway", "footway": "sidewalk", "name": null, "surface": null, "lit": "yes", "length_m": 127.97, "type_element": "Way", "__fid": 42801}, "geometry": {"type": "LineString", "coordinates": [[2.3273207, 48.8415454], [2.3273219, 48.8415155], [2.3276639, 48.8404175]]}}, {"type": "Feature", "properties": {"highway": "footway", "footway": "sidewalk", "name": null, "surface": "concrete", "lit": "yes", "length_m": 5.12, "type_element": "Way", "__fid": 42866}, "geometry": {"type": "LineString", "coordinates": [[2.3274641, 48.84048640000001], [2.3274265, 48.8404767], [2.3273977, 48.84048060000002]]}}, {"type": "Feature", "properties": {"highway": "footway", "footway": "crossing", "name": null, "surface": "asphalt", "lit": "yes", "length_m": 16.38, "type_element": "Way", "__fid": 42939}, "geometry": {"type": "LineString", "coordinates": [[2.3274973, 48.8359884], [2.3275989, 48.83611960000002]]}}, {"type": "Feature", "properties": {"highway": "footway", "footway": "sidewalk", "name": null, "surface": "asphalt", "lit": "yes", "length_m": 3.06, "type_element": "Way", "__fid": 42940}, "geometry": {"type": "LineString", "coordinates": [[2.3274973, 48.8359884], [2.327533733333437, 48.835975100000056]]}}, {"type": "Feature", "properties": {"highway": "service", "footway": null, "name": "Allée Principale", "surface": "asphalt", "lit": "yes", "length_m": 19.32, "type_element": "Way", "__fid": 42944}, "geometry": {"type": "LineString", "coordinates": [[2.3275702, 48.8400734], [2.3274508, 48.8399186]]}}, {"type": "Feature", "properties": {"highway": "service", "footway": null, "name": "Avenue du Boulevard", "surface": "asphalt", "lit": null, "length_m": 218.53, "type_element": "Way", "__fid": 42945}, "geometry": {"type": "LineString", "coordinates": [[2.3274508, 48.8399186], [2.3292358, 48.8393265], [2.3292771, 48.83926360000001], [2.3288788, 48.8387488]]}}, {"type": "Feature", "properties": {"highway": "footway", "footway": "crossing", "name": null, "surface": "asphalt", "lit": "yes", "length_m": 16.88, "type_element": "Way", "__fid": 42970}, "geometry": {"type": "LineString", "coordinates": [[2.3276639, 48.8404175], [2.3276478, 48.84041529999999], [2.3275654, 48.8404412], [2.3274641, 48.84048640000001]]}}, {"type": "Feature", "properties": {"highway": "footway", "footway": "crossing", "name": null, "surface": "asphalt", "lit": "yes", "length_m": 10.77, "type_element": "Way", "__fid": 42986}, "geometry": {"type": "LineString", "coordinates": [[2.3276632, 48.8359295], [2.327533733333437, 48.835975100000056]]}}, {"type": "Feature", "properties": {"highway": "service", "footway": null, "name": "Avenue de l'Est", "surface": "asphalt", "lit": null, "length_m": 75.18, "type_element": "Way", "__fid": 42987}, "geometry": {"type": "LineString", "coordinates": [[2.3279868, 48.8375962], [2.3275209, 48.83699410000001]]}}, {"type": "Feature", "properties": {"highway": "footway", "footway": "path", "name": null, "surface": "compacted", "lit": null, "length_m": 47.45, "type_element": "Way", "__fid": 42988}, "geometry": {"type": "LineString", "coordinates": [[2.3280991, 48.8368033], [2.3275209, 48.83699410000001]]}}, {"type": "Feature", "properties": {"highway": "footway", "footway": "sidewalk", "name": null, "surface": "asphalt", "lit": "yes", "length_m": 3.49, "type_element": "Way", "__fid": 43058}, "geometry": {"type": "LineString", "coordinates": [[2.3275989, 48.83611960000002], [2.3276448, 48.8361115]]}}, {"type": "Feature", "properties": {"highway": "service", "footway": null, "name": "Allée Principale", "surface": "asphalt", "lit": "yes", "length_m": 1.09, "type_element": "Way", "__fid": 43086}, "geometry": {"type": "LineString", "coordinates": [[2.3275772, 48.840082], [2.3275702, 48.8400734]]}}, {"type": "Feature", "properties": {"highway": "footway", "footway": "crossing", "name": null, "surface": "sett", "lit": "yes", "length_m": 5.01, "type_element": "Way", "__fid": 43087}, "geometry": {"type": "LineString", "coordinates": [[2.3275702, 48.8400734], [2.3276317, 48.8400538]]}}, {"type": "Feature", "properties": {"highway": "pedestrian", "footway": null, "name": "Rue Émile Richard", "surface": "asphalt", "lit": "yes", "length_m": 10.62, "type_element": "Way", "__fid": 43089}, "geometry": {"type": "LineString", "coordinates": [[2.3276914, 48.836094], [2.3276277, 48.8360082]]}}, {"type": "Feature", "properties": {"highway": "service", "footway": null, "name": "Allée Principale", "surface": "asphalt", "lit": "yes", "length_m": 8.0, "type_element": "Way", "__fid": 43091}, "geometry": {"type": "LineString", "coordinates": [[2.3276268, 48.8401461], [2.3275772, 48.840082]]}}, {"type": "Feature", "properties": {"highway": "service", "footway": null, "name": "Boulevard Edgar Quinet", "surface": "concrete", "lit": "yes", "length_m": 5.86, "type_element": "Way", "__fid": 43092}, "geometry": {"type": "LineString", "coordinates": [[2.3275772, 48.840082], [2.3276484, 48.8400582]]}}, {"type": "Feature", "properties": {"highway": "footway", "footway": null, "name": null, "surface": null, "lit": null, "length_m": 9.03, "type_element": "Way", "__fid": 43104}, "geometry": {"type": "LineString", "coordinates": [[2.327662, 48.8387619], [2.3276095, 48.83868850000001]]}}, {"type": "Feature", "properties": {"highway": "footway", "footway": "sidewalk", "name": null, "surface": "dirt", "lit": "yes", "length_m": 12.73, "type_element": "Way", "__fid": 43106}, "geometry": {"type": "LineString", "coordinates": [[2.3276448, 48.8361115], [2.327723, 48.8362137]]}}, {"type": "Feature", "properties": {"highway": "footway", "footway": "crossing", "name": null, "surface": "asphalt", "lit": "yes", "length_m": 3.94, "type_element": "Way", "__fid": 43107}, "geometry": {"type": "LineString", "coordinates": [[2.3276448, 48.8361115], [2.3276914, 48.836094]]}}, {"type": "Feature", "properties": {"highway": "footway", "footway": "sidewalk", "name": null, "surface": "asphalt", "lit": "yes", "length_m": 2.16, "type_element": "Way", "__fid": 43130}, "geometry": {"type": "LineString", "coordinates": [[2.3276893, 48.8359206], [2.3276632, 48.8359295]]}}, {"type": "Feature", "properties": {"highway": "footway", "footway": "sidewalk", "name": null, "surface": "asphalt", "lit": "yes", "length_m": 1.32, "type_element": "Way", "__fid": 43143}, "geometry": {"type": "LineString", "coordinates": [[2.3276484, 48.8400582], [2.3276317, 48.8400538]]}}, {"type": "Feature", "properties": {"highway": "footway", "footway": "sidewalk", "name": null, "surface": "asphalt", "lit": "yes", "length_m": 193.72, "type_element": "Way", "__fid": 43144}, "geometry": {"type": "LineString", "coordinates": [[2.3276317, 48.8400538], [2.327626, 48.8400208], [2.3299398, 48.8392541]]}}, {"type": "Feature", "properties": {"highway": "footway", "footway": "crossing", "name": null, "surface": "asphalt", "lit": "yes", "length_m": 15.8, "type_element": "Way", "__fid": 43148}, "geometry": {"type": "LineString", "coordinates": [[2.3276893, 48.8359206], [2.3277893, 48.8360464]]}}, {"type": "Feature", "properties": {"highway": "footway", "footway": "sidewalk", "name": null, "surface": "asphalt", "lit": "yes", "length_m": 127.31, "type_element": "Way", "__fid": 43149}, "geometry": {"type": "LineString", "coordinates": [[2.329134133333498, 48.83529623333341], [2.3287871, 48.8355026], [2.3276893, 48.8359206]]}}, {"type": "Feature", "properties": {"highway": "pedestrian", "footway": null, "name": "Rue Émile Richard", "surface": "asphalt", "lit": "yes", "length_m": 12.9, "type_element": "Way", "__fid": 43152}, "geometry": {"type": "LineString", "coordinates": [[2.3277687, 48.8361982], [2.3276914, 48.836094]]}}, {"type": "Feature", "properties": {"highway": "footway", "footway": "crossing", "name": null, "surface": "asphalt", "lit": "yes", "length_m": 3.69, "type_element": "Way", "__fid": 43153}, "geometry": {"type": "LineString", "coordinates": [[2.3277352, 48.8360778], [2.3276914, 48.836094]]}}, {"type": "Feature", "properties": {"highway": "footway", "footway": "path", "name": null, "surface": null, "lit": null, "length_m": 66.17, "type_element": "Way", "__fid": 43159}, "geometry": {"type": "LineString", "coordinates": [[2.327662, 48.8387619], [2.3284659, 48.83849249999999]]}}, {"type": "Feature", "properties": {"highway": "footway", "footway": "crossing", "name": null, "surface": "asphalt", "lit": "yes", "length_m": 20.43, "type_element": "Way", "__fid": 43164}, "geometry": {"type": "LineString", "coordinates": [[2.3278012, 48.8402008], [2.3277101, 48.8400745], [2.3276484, 48.8400582]]}}, {"type": "Feature", "properties": {"highway": "service", "footway": null, "name": "Boulevard Edgar Quinet", "surface": "concrete", "lit": "yes", "length_m": 187.23, "type_element": "Way", "__fid": 43165}, "geometry": {"type": "LineString", "coordinates": [[2.3276484, 48.8400582], [2.3298197, 48.8393318], [2.3298835, 48.83939630000001]]}}, {"type": "Feature", "properties": {"highway": "footway", "footway": "sidewalk", "name": null, "surface": "asphalt", "lit": "yes", "length_m": 11.58, "type_element": "Way", "__fid": 43184}, "geometry": {"type": "LineString", "coordinates": [[2.3276639, 48.8404175], [2.3276746, 48.8403871], [2.3276994, 48.8403813], [2.3277833, 48.8403857]]}}, {"type": "Feature", "properties": {"highway": "service", "footway": null, "name": "Avenue du Midi", "surface": "asphalt", "lit": "no", "length_m": 3.77, "type_element": "Way", "__fid": 43188}, "geometry": {"type": "LineString", "coordinates": [[2.3277687, 48.8361982], [2.327723, 48.8362137]]}}, {"type": "Feature", "properties": {"highway": "footway", "footway": "sidewalk", "name": null, "surface": "concrete", "lit": "yes", "length_m": 12.99, "type_element": "Way", "__fid": 43201}, "geometry": {"type": "LineString", "coordinates": [[2.3278134, 48.8361826], [2.3277352, 48.8360778]]}}, {"type": "Feature", "properties": {"highway": "footway", "footway": "sidewalk", "name": null, "surface": "concrete", "lit": "yes", "length_m": 5.29, "type_element": "Way", "__fid": 43202}, "geometry": {"type": "LineString", "coordinates": [[2.3277352, 48.8360778], [2.3277893, 48.8360464]]}}, {"type": "Feature", "properties": {"highway": "footway", "footway": "path", "name": null, "surface": "grass", "lit": null, "length_m": 10.58, "type_element": "Way", "__fid": 43217}, "geometry": {"type": "LineString", "coordinates": [[2.3277363, 48.8369997], [2.3278005, 48.8370849]]}}, {"type": "Feature", "properties": {"highway": "pedestrian", "footway": null, "name": "Rue Émile Richard", "surface": "asphalt", "lit": "yes", "length_m": 289.9, "type_element": "Way", "__fid": 43243}, "geometry": {"type": "LineString", "coordinates": [[2.3295077, 48.8385391], [2.3277687, 48.8361982]]}}, {"type": "Feature", "properties": {"highway": "service", "footway": null, "name": "Avenue du Midi", "surface": "asphalt", "lit": "no", "length_m": 3.71, "type_element": "Way", "__fid": 43244}, "geometry": {"type": "LineString", "coordinates": [[2.3278134, 48.8361826], [2.3277687, 48.8361982]]}}, {"type": "Feature", "properties": {"highway": "footway", "footway": "sidewalk", "name": null, "surface": "concrete", "lit": "yes", "length_m": 182.18, "type_element": "Way", "__fid": 43262}, "geometry": {"type": "LineString", "coordinates": [[2.3277893, 48.8360464], [2.3299736, 48.8352685]]}}, {"type": "Feature", "properties": {"highway": "pedestrian", "footway": null, "name": "Rue Huyghens", "surface": "asphalt", "lit": "yes", "length_m": 7.46, "type_element": "Way", "__fid": 43274}, "geometry": {"type": "LineString", "coordinates": [[2.3278195, 48.8403609], [2.3277429, 48.8403168]]}}, {"type": "Feature", "properties": {"highway": "footway", "footway": "path", "name": null, "surface": "grass", "lit": null, "length_m": 37.26, "type_element": "Way", "__fid": 43285}, "geometry": {"type": "LineString", "coordinates": [[2.3278005, 48.8370849], [2.3280322, 48.837383]]}}, {"type": "Feature", "properties": {"highway": "footway", "footway": "path", "name": null, "surface": "grass", "lit": null, "length_m": 5.25, "type_element": "Way", "__fid": 43286}, "geometry": {"type": "LineString", "coordinates": [[2.3278657, 48.8370654], [2.3278005, 48.8370849]]}}, {"type": "Feature", "properties": {"highway": "service", "footway": null, "name": "Avenue Thierry", "surface": "asphalt", "lit": null, "length_m": 438.19, "type_element": "Way", "__fid": 43288}, "geometry": {"type": "LineString", "coordinates": [[2.3295077, 48.8385391], [2.3300627, 48.8383529], [2.3303035, 48.83770160000001], [2.3288164, 48.8358331], [2.3278134, 48.8361826]]}}, {"type": "Feature", "properties": {"highway": "footway", "footway": "sidewalk", "name": null, "surface": "asphalt", "lit": "yes", "length_m": 103.19, "type_element": "Way", "__fid": 43321}, "geometry": {"type": "LineString", "coordinates": [[2.3277833, 48.8403857], [2.328834, 48.8410023]]}}, {"type": "Feature", "properties": {"highway": "footway", "footway": "crossing", "name": null, "surface": "asphalt", "lit": "yes", "length_m": 4.44, "type_element": "Way", "__fid": 43322}, "geometry": {"type": "LineString", "coordinates": [[2.3277833, 48.8403857], [2.3277799, 48.8403765], [2.3278195, 48.8403609]]}}, {"type": "Feature", "properties": {"highway": "footway", "footway": "crossing", "name": null, "surface": "asphalt", "lit": "yes", "length_m": 13.95, "type_element": "Way", "__fid": 43347}, "geometry": {"type": "LineString", "coordinates": [[2.3278932, 48.8403098], [2.3278724, 48.8402948], [2.3278012, 48.8402008]]}}, {"type": "Feature", "properties": {"highway": "footway", "footway": "sidewalk", "name": null, "surface": null, "lit": "yes", "length_m": 185.03, "type_element": "Way", "__fid": 43348}, "geometry": {"type": "LineString", "coordinates": [[2.3278012, 48.8402008], [2.3300515, 48.8394507]]}}, {"type": "Feature", "properties": {"highway": "pedestrian", "footway": null, "name": "Rue Huyghens", "surface": "asphalt", "lit": "yes", "length_m": 102.88, "type_element": "Way", "__fid": 43362}, "geometry": {"type": "LineString", "coordinates": [[2.3288756, 48.8409692], [2.3278195, 48.8403609]]}}, {"type": "Feature", "properties": {"highway": "footway", "footway": "crossing", "name": null, "surface": "asphalt", "lit": "yes", "length_m": 5.34, "type_element": "Way", "__fid": 43363}, "geometry": {"type": "LineString", "coordinates": [[2.3278195, 48.8403609], [2.3278631, 48.8403385], [2.3278805, 48.8403372]]}}, {"type": "Feature", "properties": {"highway": "footway", "footway": "path", "name": null, "surface": "grass", "lit": null, "length_m": 36.97, "type_element": "Way", "__fid": 43365}, "geometry": {"type": "LineString", "coordinates": [[2.3280995, 48.83735990000001], [2.3278657, 48.8370654]]}}, {"type": "Feature", "properties": {"highway": "footway", "footway": "path", "name": null, "surface": "grass", "lit": null, "length_m": 6.16, "type_element": "Way", "__fid": 43366}, "geometry": {"type": "LineString", "coordinates": [[2.3279412, 48.8370413], [2.3278657, 48.8370654]]}}, {"type": "Feature", "properties": {"highway": "footway", "footway": "path", "name": null, "surface": null, "lit": null, "length_m": 135.48, "type_element": "Way", "__fid": 43383}, "geometry": {"type": "LineString", "coordinates": [[2.32872, 48.83871660000001], [2.327885, 48.83763]]}}, {"type": "Feature", "properties": {"highway": "service", "footway": null, "name": "Avenue Transversale", "surface": "asphalt", "lit": null, "length_m": 8.36, "type_element": "Way", "__fid": 43384}, "geometry": {"type": "LineString", "coordinates": [[2.327885, 48.83763], [2.3279868, 48.8375962]]}}, {"type": "Feature", "properties": {"highway": "footway", "footway": "sidewalk", "name": null, "surface": "asphalt", "lit": "yes", "length_m": 101.44, "type_element": "Way", "__fid": 43395}, "geometry": {"type": "LineString", "coordinates": [[2.3289185, 48.84093960000001], [2.3278805, 48.8403372]]}}, {"type": "Feature", "properties": {"highway": "footway", "footway": "sidewalk", "name": null, "surface": "asphalt", "lit": "yes", "length_m": 3.19, "type_element": "Way", "__fid": 43396}, "geometry": {"type": "LineString", "coordinates": [[2.3278805, 48.8403372], [2.3278932, 48.8403098]]}}, {"type": "Feature", "properties": {"highway": "footway", "footway": "sidewalk", "name": null, "surface": null, "lit": "yes", "length_m": 189.15, "type_element": "Way", "__fid": 43405}, "geometry": {"type": "LineString", "coordinates": [[2.3278932, 48.8403098], [2.3301946, 48.8395443]]}}, {"type": "Feature", "properties": {"highway": "footway", "footway": "path", "name": null, "surface": "grass", "lit": null, "length_m": 36.8, "type_element": "Way", "__fid": 43412}, "geometry": {"type": "LineString", "coordinates": [[2.3281684, 48.8373363], [2.3279412, 48.8370413]]}}, {"type": "Feature", "properties": {"highway": "footway", "footway": "path", "name": null, "surface": "grass", "lit": null, "length_m": 5.99, "type_element": "Way", "__fid": 43413}, "geometry": {"type": "LineString", "coordinates": [[2.3280146, 48.837017799999984], [2.3279412, 48.8370413]]}}, {"type": "Feature", "properties": {"highway": "service", "footway": null, "name": "Avenue de l'Est", "surface": "asphalt", "lit": null, "length_m": 143.92, "type_element": "Way", "__fid": 43450}, "geometry": {"type": "LineString", "coordinates": [[2.3288788, 48.8387488], [2.3279868, 48.8375962]]}}, {"type": "Feature", "properties": {"highway": "service", "footway": null, "name": "Avenue Transversale", "surface": "asphalt", "lit": null, "length_m": 13.87, "type_element": "Way", "__fid": 43451}, "geometry": {"type": "LineString", "coordinates": [[2.3279868, 48.8375962], [2.3281556, 48.837540199999985]]}}, {"type": "Feature", "properties": {"highway": "footway", "footway": "path", "name": null, "surface": "grass", "lit": null, "length_m": 36.65, "type_element": "Way", "__fid": 43469}, "geometry": {"type": "LineString", "coordinates": [[2.3282381, 48.8373125], [2.3280146, 48.837017799999984]]}}, {"type": "Feature", "properties": {"highway": "footway", "footway": "path", "name": null, "surface": "grass", "lit": null, "length_m": 5.47, "type_element": "Way", "__fid": 43470}, "geometry": {"type": "LineString", "coordinates": [[2.3280817, 48.83699630000001], [2.3280146, 48.837017799999984]]}}, {"type": "Feature", "properties": {"highway": "footway", "footway": "path", "name": null, "surface": "grass", "lit": null, "length_m": 19.69, "type_element": "Way", "__fid": 43479}, "geometry": {"type": "LineString", "coordinates": [[2.3280322, 48.837383], [2.3281556, 48.837540199999985]]}}, {"type": "Feature", "properties": {"highway": "footway", "footway": "path", "name": null, "surface": "grass", "lit": null, "length_m": 5.57, "type_element": "Way", "__fid": 43480}, "geometry": {"type": "LineString", "coordinates": [[2.3280322, 48.837383], [2.3280995, 48.83735990000001]]}}, {"type": "Feature", "properties": {"highway": "footway", "footway": null, "name": null, "surface": "asphalt", "lit": null, "length_m": 14.36, "type_element": "Way", "__fid": 43495}, "geometry": {"type": "LineString", "coordinates": [[2.3280341, 48.8413968], [2.3280755, 48.84141659999999], [2.328084, 48.8414436], [2.3280662, 48.8414686], [2.3280086, 48.8414817]]}}, {"type": "Feature", "properties": {"highway": "footway", "footway": "path", "name": null, "surface": "grass", "lit": null, "length_m": 36.5, "type_element": "Way", "__fid": 43501}, "geometry": {"type": "LineString", "coordinates": [[2.3283046, 48.8372897], [2.3280817, 48.83699630000001]]}}, {"type": "Feature", "properties": {"highway": "footway", "footway": "path", "name": null, "surface": "grass", "lit": null, "length_m": 5.19, "type_element": "Way", "__fid": 43502}, "geometry": {"type": "LineString", "coordinates": [[2.3281454, 48.836976], [2.3280817, 48.83699630000001]]}}, {"type": "Feature", "properties": {"highway": "footway", "footway": null, "name": null, "surface": null, "lit": null, "length_m": 3.63, "type_element": "Way", "__fid": 43512}, "geometry": {"type": "LineString", "coordinates": [[2.3280341, 48.8413968], [2.3280436, 48.8413648]]}}, {"type": "Feature", "properties": {"highway": "footway", "footway": "path", "name": null, "surface": "grass", "lit": null, "length_m": 5.7, "type_element": "Way", "__fid": 43530}, "geometry": {"type": "LineString", "coordinates": [[2.3280995, 48.83735990000001], [2.3281684, 48.8373363]]}}, {"type": "Feature", "properties": {"highway": "footway", "footway": "path", "name": null, "surface": "grass", "lit": null, "length_m": 36.34, "type_element": "Way", "__fid": 43565}, "geometry": {"type": "LineString", "coordinates": [[2.3283709, 48.837267], [2.3281454, 48.836976]]}}, {"type": "Feature", "properties": {"highway": "footway", "footway": "path", "name": null, "surface": "grass", "lit": null, "length_m": 4.97, "type_element": "Way", "__fid": 43566}, "geometry": {"type": "LineString", "coordinates": [[2.3282064, 48.8369565], [2.3281454, 48.836976]]}}, {"type": "Feature", "properties": {"highway": "service", "footway": null, "name": "Avenue Transversale", "surface": "asphalt", "lit": null, "length_m": 27.51, "type_element": "Way", "__fid": 43575}, "geometry": {"type": "LineString", "coordinates": [[2.3281556, 48.837540199999985], [2.3284903, 48.8374288]]}}, {"type": "Feature", "properties": {"highway": "footway", "footway": "path", "name": null, "surface": "grass", "lit": null, "length_m": 5.76, "type_element": "Way", "__fid": 43584}, "geometry": {"type": "LineString", "coordinates": [[2.3281684, 48.8373363], [2.3282381, 48.8373125]]}}, {"type": "Feature", "properties": {"highway": "footway", "footway": "path", "name": null, "surface": "grass", "lit": null, "length_m": 5.5, "type_element": "Way", "__fid": 43627}, "geometry": {"type": "LineString", "coordinates": [[2.3282381, 48.8373125], [2.3283046, 48.8372897]]}}, {"type": "Feature", "properties": {"highway": "footway", "footway": "path", "name": null, "surface": null, "lit": null, "length_m": 28.13, "type_element": "Way", "__fid": 43665}, "geometry": {"type": "LineString", "coordinates": [[2.3284659, 48.83849249999999], [2.3282895, 48.8382679]]}}, {"type": "Feature", "properties": {"highway": "footway", "footway": "path", "name": null, "surface": "grass", "lit": null, "length_m": 5.48, "type_element": "Way", "__fid": 43668}, "geometry": {"type": "LineString", "coordinates": [[2.3283046, 48.8372897], [2.3283709, 48.837267]]}}, {"type": "Feature", "properties": {"highway": "footway", "footway": "path", "name": null, "surface": "grass", "lit": null, "length_m": 3.47, "type_element": "Way", "__fid": 43726}, "geometry": {"type": "LineString", "coordinates": [[2.3283709, 48.837267], [2.3284129, 48.8372526]]}}, {"type": "Feature", "properties": {"highway": "footway", "footway": "path", "name": null, "surface": null, "lit": null, "length_m": 20.04, "type_element": "Way", "__fid": 43811}, "geometry": {"type": "LineString", "coordinates": [[2.3285912, 48.8386526], [2.3284659, 48.83849249999999]]}}, {"type": "Feature", "properties": {"highway": "footway", "footway": "path", "name": null, "surface": null, "lit": null, "length_m": 5.34, "type_element": "Way", "__fid": 43920}, "geometry": {"type": "LineString", "coordinates": [[2.3286246, 48.83869530000001], [2.3285912, 48.8386526]]}}, {"type": "Feature", "properties": {"highway": "footway", "footway": "path", "name": null, "surface": null, "lit": null, "length_m": 5.24, "type_element": "Way", "__fid": 43947}, "geometry": {"type": "LineString", "coordinates": [[2.3286574, 48.8387372], [2.3286246, 48.83869530000001]]}}, {"type": "Feature", "properties": {"highway": "footway", "footway": "path", "name": null, "surface": null, "lit": null, "length_m": 5.13, "type_element": "Way", "__fid": 43974}, "geometry": {"type": "LineString", "coordinates": [[2.32872, 48.83871660000001], [2.3286574, 48.8387372]]}}, {"type": "Feature", "properties": {"highway": "footway", "footway": "path", "name": null, "surface": null, "lit": null, "length_m": 8.47, "type_element": "Way", "__fid": 44026}, "geometry": {"type": "LineString", "coordinates": [[2.3287759, 48.838783200000016], [2.32872, 48.83871660000001]]}}, {"type": "Feature", "properties": {"highway": "service", "footway": null, "name": "Avenue du Nord", "surface": "asphalt", "lit": null, "length_m": 8.47, "type_element": "Way", "__fid": 44052}, "geometry": {"type": "LineString", "coordinates": [[2.3287759, 48.838783200000016], [2.3288788, 48.8387488]]}}, {"type": "Feature", "properties": {"highway": "footway", "footway": "sidewalk", "name": null, "surface": "asphalt", "lit": "yes", "length_m": 76.9, "type_element": "Way", "__fid": 44120}, "geometry": {"type": "LineString", "coordinates": [[2.328834, 48.8410023], [2.3296125, 48.8414652]]}}, {"type": "Feature", "properties": {"highway": "footway", "footway": "sidewalk", "name": null, "surface": "asphalt", "lit": "yes", "length_m": 4.78, "type_element": "Way", "__fid": 44121}, "geometry": {"type": "LineString", "coordinates": [[2.328834, 48.8410023], [2.3288756, 48.8409692]]}}, {"type": "Feature", "properties": {"highway": "service", "footway": null, "name": "Avenue du Nord", "surface": "asphalt", "lit": null, "length_m": 51.72, "type_element": "Way", "__fid": 44128}, "geometry": {"type": "LineString", "coordinates": [[2.3288788, 48.8387488], [2.3295077, 48.8385391]]}}, {"type": "Feature", "properties": {"highway": "pedestrian", "footway": null, "name": "Rue Huyghens", "surface": "asphalt", "lit": "yes", "length_m": 74.19, "type_element": "Way", "__fid": 44151}, "geometry": {"type": "LineString", "coordinates": [[2.329637, 48.8414081], [2.3288756, 48.8409692]]}}, {"type": "Feature", "properties": {"highway": "footway", "footway": "sidewalk", "name": null, "surface": "asphalt", "lit": "yes", "length_m": 4.55, "type_element": "Way", "__fid": 44152}, "geometry": {"type": "LineString", "coordinates": [[2.3288756, 48.8409692], [2.3289185, 48.84093960000001]]}}, {"type": "Feature", "properties": {"highway": "footway", "footway": "sidewalk", "name": null, "surface": "asphalt", "lit": "yes", "length_m": 72.17, "type_element": "Way", "__fid": 44215}, "geometry": {"type": "LineString", "coordinates": [[2.3296595, 48.8413663], [2.3289185, 48.84093960000001]]}}, {"type": "Feature", "properties": {"highway": "pedestrian", "footway": null, "name": "Rue Émile Richard", "surface": "asphalt", "lit": "yes", "length_m": 60.39, "type_element": "Way", "__fid": 44707}, "geometry": {"type": "LineString", "coordinates": [[2.329875, 48.8390251], [2.3295077, 48.8385391]]}}, {"type": "Feature", "properties": {"highway": "footway", "footway": "crossing", "name": null, "surface": "asphalt", "lit": "yes", "length_m": 6.6, "type_element": "Way", "__fid": 44829}, "geometry": {"type": "LineString", "coordinates": [[2.3296125, 48.8414652], [2.329637, 48.8414081]]}}, {"type": "Feature", "properties": {"highway": "pedestrian", "footway": null, "name": "Rue Huyghens", "surface": "asphalt", "lit": "yes", "length_m": 13.44, "type_element": "Way", "__fid": 44849}, "geometry": {"type": "LineString", "coordinates": [[2.3297751, 48.8414875], [2.329637, 48.8414081]]}}, {"type": "Feature", "properties": {"highway": "footway", "footway": "crossing", "name": null, "surface": "asphalt", "lit": "yes", "length_m": 4.93, "type_element": "Way", "__fid": 44850}, "geometry": {"type": "LineString", "coordinates": [[2.329637, 48.8414081], [2.3296595, 48.8413663]]}}, {"type": "Feature", "properties": {"highway": "footway", "footway": "sidewalk", "name": null, "surface": "asphalt", "lit": "yes", "length_m": 77.26, "type_element": "Way", "__fid": 44883}, "geometry": {"type": "LineString", "coordinates": [[2.3299166, 48.8406925], [2.3296595, 48.8413663]]}}, {"type": "Feature", "properties": {"highway": "pedestrian", "footway": null, "name": "Rue Émile Richard", "surface": "asphalt", "lit": "yes", "length_m": 26.04, "type_element": "Way", "__fid": 45053}, "geometry": {"type": "LineString", "coordinates": [[2.330036, 48.8392338], [2.329875, 48.8390251]]}}, {"type": "Feature", "properties": {"highway": "footway", "footway": "sidewalk", "name": null, "surface": "dirt", "lit": "yes", "length_m": 27.74, "type_element": "Way", "__fid": 45054}, "geometry": {"type": "LineString", "coordinates": [[2.3299398, 48.8392541], [2.3299396, 48.8391805], [2.3298456, 48.8390523], [2.329875, 48.8390251]]}}, {"type": "Feature", "properties": {"highway": "footway", "footway": "sidewalk", "name": null, "surface": "dirt", "lit": "yes", "length_m": 29.81, "type_element": "Way", "__fid": 45055}, "geometry": {"type": "LineString", "coordinates": [[2.3301026, 48.839215799999984], [2.3300258, 48.839152300000016], [2.3299261, 48.8390155], [2.329875, 48.8390251]]}}, {"type": "Feature", "properties": {"highway": "footway", "footway": "sidewalk", "name": null, "surface": "asphalt", "lit": "yes", "length_m": 113.07, "type_element": "Way", "__fid": 45083}, "geometry": {"type": "LineString", "coordinates": [[2.3302133, 48.8407419], [2.3298743, 48.841669300000014], [2.3298792, 48.841732100000016]]}}, {"type": "Feature", "properties": {"highway": "footway", "footway": "crossing", "name": null, "surface": "asphalt", "lit": "yes", "length_m": 22.46, "type_element": "Way", "__fid": 45101}, "geometry": {"type": "LineString", "coordinates": [[2.3299166, 48.8406925], [2.3302133, 48.8407419]]}}, {"type": "Feature", "properties": {"highway": "footway", "footway": "sidewalk", "name": null, "surface": "asphalt", "lit": "yes", "length_m": 128.64, "type_element": "Way", "__fid": 45102}, "geometry": {"type": "LineString", "coordinates": [[2.3303314, 48.83956850000001], [2.3299166, 48.8406925]]}}, {"type": "Feature", "properties": {"highway": "footway", "footway": "crossing", "name": null, "surface": "asphalt", "lit": "yes", "length_m": 24.44, "type_element": "Way", "__fid": 45107}, "geometry": {"type": "LineString", "coordinates": [[2.3299398, 48.8392541], [2.3299361, 48.839327300000015], [2.3299881, 48.839403], [2.3300515, 48.8394507]]}}, {"type": "Feature", "properties": {"highway": "footway", "footway": "sidewalk", "name": null, "surface": "asphalt", "lit": "yes", "length_m": 7.41, "type_element": "Way", "__fid": 45108}, "geometry": {"type": "LineString", "coordinates": [[2.3299398, 48.8392541], [2.330036, 48.8392338]]}}, {"type": "Feature", "properties": {"highway": "footway", "footway": "sidewalk", "name": null, "surface": "asphalt", "lit": "yes", "length_m": 198.14, "type_element": "Way", "__fid": 45113}, "geometry": {"type": "LineString", "coordinates": [[2.3299926, 48.83526219999999], [2.3312588, 48.8368359]]}}, {"type": "Feature", "properties": {"highway": "footway", "footway": "sidewalk", "name": null, "surface": null, "lit": "yes", "length_m": 97.03, "type_element": "Way", "__fid": 45190}, "geometry": {"type": "LineString", "coordinates": [[2.3299622, 48.84173310000002], [2.3310368, 48.8413514], [2.3311381, 48.8413451]]}}, {"type": "Feature", "properties": {"highway": "pedestrian", "footway": null, "name": "Rue Émile Richard", "surface": "asphalt", "lit": "yes", "length_m": 10.82, "type_element": "Way", "__fid": 45257}, "geometry": {"type": "LineString", "coordinates": [[2.3301114, 48.8393174], [2.330036, 48.8392338]]}}, {"type": "Feature", "properties": {"highway": "footway", "footway": "sidewalk", "name": null, "surface": "asphalt", "lit": "yes", "length_m": 5.28, "type_element": "Way", "__fid": 45258}, "geometry": {"type": "LineString", "coordinates": [[2.330036, 48.8392338], [2.3301026, 48.839215799999984]]}}, {"type": "Feature", "properties": {"highway": "footway", "footway": "crossing", "name": null, "surface": null, "lit": "yes", "length_m": 14.79, "type_element": "Way", "__fid": 45292}, "geometry": {"type": "LineString", "coordinates": [[2.3301946, 48.8395443], [2.3300515, 48.8394507]]}}, {"type": "Feature", "properties": {"highway": "footway", "footway": "sidewalk", "name": null, "surface": "asphalt", "lit": "yes", "length_m": 23.07, "type_element": "Way", "__fid": 45360}, "geometry": {"type": "LineString", "coordinates": [[2.3301026, 48.839215799999984], [2.3303989, 48.8391467]]}}, {"type": "Feature", "properties": {"highway": "footway", "footway": "sidewalk", "name": null, "surface": "asphalt", "lit": "yes", "length_m": 7.89, "type_element": "Way", "__fid": 45455}, "geometry": {"type": "LineString", "coordinates": [[2.3301946, 48.8395443], [2.3303005, 48.839532]]}}, {"type": "Feature", "properties": {"highway": "footway", "footway": "sidewalk", "name": null, "surface": "asphalt", "lit": "yes", "length_m": 5.46, "type_element": "Way", "__fid": 45480}, "geometry": {"type": "LineString", "coordinates": [[2.3302311, 48.8406942], [2.3302133, 48.8407419]]}}, {"type": "Feature", "properties": {"highway": "footway", "footway": "sidewalk", "name": null, "surface": null, "lit": "yes", "length_m": 100.07, "type_element": "Way", "__fid": 45495}, "geometry": {"type": "LineString", "coordinates": [[2.3311622, 48.8413281], [2.3309965, 48.84111040000001], [2.3303669, 48.8407455], [2.3302311, 48.8406942]]}}, {"type": "Feature", "properties": {"highway": "footway", "footway": "crossing", "name": null, "surface": "asphalt", "lit": "yes", "length_m": 12.99, "type_element": "Way", "__fid": 45496}, "geometry": {"type": "LineString", "coordinates": [[2.3302311, 48.8406942], [2.3302828, 48.84058249999999]]}}, {"type": "Feature", "properties": {"highway": "footway", "footway": "sidewalk", "name": null, "surface": null, "lit": "yes", "length_m": 109.26, "type_element": "Way", "__fid": 45535}, "geometry": {"type": "LineString", "coordinates": [[2.3312949, 48.8412843], [2.3312527, 48.8412499], [2.3311052, 48.8410517], [2.3302828, 48.84058249999999]]}}, {"type": "Feature", "properties": {"highway": "footway", "footway": "sidewalk", "name": null, "surface": "asphalt", "lit": "yes", "length_m": 114.02, "type_element": "Way", "__fid": 45536}, "geometry": {"type": "LineString", "coordinates": [[2.3302828, 48.84058249999999], [2.3306472, 48.8395857]]}}, {"type": "Feature", "properties": {"highway": "footway", "footway": "sidewalk", "name": null, "surface": "asphalt", "lit": "yes", "length_m": 4.65, "type_element": "Way", "__fid": 45540}, "geometry": {"type": "LineString", "coordinates": [[2.3303005, 48.839532], [2.3303314, 48.83956850000001]]}}, {"type": "Feature", "properties": {"highway": "footway", "footway": "traffic_island", "name": null, "surface": "asphalt", "lit": "yes", "length_m": 43.73, "type_element": "Way", "__fid": 45541}, "geometry": {"type": "LineString", "coordinates": [[2.3303005, 48.839532], [2.330383, 48.83927280000001], [2.3304087, 48.8391692], [2.3303989, 48.8391467]]}}, {"type": "Feature", "properties": {"highway": "footway", "footway": "crossing", "name": null, "surface": "asphalt", "lit": "yes", "length_m": 9.98, "type_element": "Way", "__fid": 45543}, "geometry": {"type": "LineString", "coordinates": [[2.3303548, 48.8354998], [2.3304243, 48.8355769]]}}, {"type": "Feature", "properties": {"highway": "footway", "footway": "crossing", "name": null, "surface": "asphalt", "lit": "yes", "length_m": 23.26, "type_element": "Way", "__fid": 45562}, "geometry": {"type": "LineString", "coordinates": [[2.3303314, 48.83956850000001], [2.3306472, 48.8395857]]}}, {"type": "Feature", "properties": {"highway": "footway", "footway": "sidewalk", "name": null, "surface": "asphalt", "lit": "yes", "length_m": 150.64, "type_element": "Way", "__fid": 45588}, "geometry": {"type": "LineString", "coordinates": [[2.3304243, 48.8355769], [2.3304181, 48.8356126], [2.331369, 48.8367725]]}}, {"type": "Feature", "properties": {"highway": "footway", "footway": "sidewalk", "name": null, "surface": "asphalt", "lit": "yes", "length_m": 107.45, "type_element": "Way", "__fid": 45589}, "geometry": {"type": "LineString", "coordinates": [[2.3316966, 48.835099], [2.3304243, 48.8355769]]}}, {"type": "Feature", "properties": {"highway": "footway", "footway": null, "name": "Cité Nicolas Poussin", "surface": null, "lit": null, "length_m": 16.48, "type_element": "Way", "__fid": 45592}, "geometry": {"type": "LineString", "coordinates": [[2.3306103, 48.8385677], [2.3303937, 48.83852870000001]]}}, {"type": "Feature", "properties": {"highway": "footway", "footway": "sidewalk", "name": null, "surface": null, "lit": "yes", "length_m": 17.0, "type_element": "Way", "__fid": 45607}, "geometry": {"type": "LineString", "coordinates": [[2.3303989, 48.8391467], [2.3304958, 48.8390894], [2.3305352, 48.8390276]]}}, {"type": "Feature", "properties": {"highway": "service", "footway": null, "name": null, "surface": null, "lit": null, "length_m": 28.63, "type_element": "Way", "__fid": 45704}, "geometry": {"type": "LineString", "coordinates": [[2.3309025, 48.8378002], [2.3305226, 48.8377417]]}}, {"type": "Feature", "properties": {"highway": "footway", "footway": "sidewalk", "name": null, "surface": "asphalt", "lit": "yes", "length_m": 50.75, "type_element": "Way", "__fid": 45723}, "geometry": {"type": "LineString", "coordinates": [[2.3306005, 48.83859540000001], [2.3304692, 48.838968], [2.3305352, 48.8390276]]}}, {"type": "Feature", "properties": {"highway": "steps", "footway": null, "name": null, "surface": "concrete", "lit": "yes", "length_m": 8.93, "type_element": "Way", "__fid": 45724}, "geometry": {"type": "LineString", "coordinates": [[2.3305352, 48.8390276], [2.3305727, 48.8389512]]}}, {"type": "Feature", "properties": {"highway": "footway", "footway": "crossing", "name": null, "surface": "asphalt", "lit": "yes", "length_m": 35.39, "type_element": "Way", "__fid": 45771}, "geometry": {"type": "LineString", "coordinates": [[2.331067, 48.8386758], [2.3306005, 48.83859540000001]]}}, {"type": "Feature", "properties": {"highway": "footway", "footway": "sidewalk", "name": null, "surface": "asphalt", "lit": "yes", "length_m": 3.16, "type_element": "Way", "__fid": 45772}, "geometry": {"type": "LineString", "coordinates": [[2.3306103, 48.8385677], [2.3306005, 48.83859540000001]]}}, {"type": "Feature", "properties": {"highway": "footway", "footway": "sidewalk", "name": null, "surface": "asphalt", "lit": "yes", "length_m": 87.99, "type_element": "Way", "__fid": 45779}, "geometry": {"type": "LineString", "coordinates": [[2.3309025, 48.8378002], [2.3306103, 48.8385677]]}}, {"type": "Feature", "properties": {"highway": "footway", "footway": "sidewalk", "name": null, "surface": "asphalt", "lit": "yes", "length_m": 51.93, "type_element": "Way", "__fid": 45815}, "geometry": {"type": "LineString", "coordinates": [[2.3306472, 48.8395857], [2.3308218, 48.8391331]]}}, {"type": "Feature", "properties": {"highway": "footway", "footway": null, "name": null, "surface": "compacted", "lit": null, "length_m": 37.03, "type_element": "Way", "__fid": 45913}, "geometry": {"type": "LineString", "coordinates": [[2.3308218, 48.8391331], [2.3309331, 48.83914750000001], [2.3309924, 48.839126399999984], [2.3312226, 48.8389761]]}}, {"type": "Feature", "properties": {"highway": "footway", "footway": "sidewalk", "name": null, "surface": "asphalt", "lit": "yes", "length_m": 21.33, "type_element": "Way", "__fid": 45914}, "geometry": {"type": "LineString", "coordinates": [[2.3308218, 48.8391331], [2.3308859, 48.8389675], [2.3309168, 48.8389628]]}}, {"type": "Feature", "properties": {"highway": "service", "footway": null, "name": null, "surface": null, "lit": null, "length_m": 17.51, "type_element": "Way", "__fid": 45971}, "geometry": {"type": "LineString", "coordinates": [[2.3311354, 48.8378342], [2.3309025, 48.8378002]]}}, {"type": "Feature", "properties": {"highway": "footway", "footway": "sidewalk", "name": null, "surface": "asphalt", "lit": "yes", "length_m": 13.02, "type_element": "Way", "__fid": 45972}, "geometry": {"type": "LineString", "coordinates": [[2.3309455, 48.8376866], [2.3309025, 48.8378002]]}}, {"type": "Feature", "properties": {"highway": "steps", "footway": null, "name": null, "surface": null, "lit": "yes", "length_m": 6.74, "type_element": "Way", "__fid": 45982}, "geometry": {"type": "LineString", "coordinates": [[2.330895, 48.8390217], [2.3309168, 48.8389628]]}}, {"type": "Feature", "properties": {"highway": "footway", "footway": "sidewalk", "name": null, "surface": "asphalt", "lit": "yes", "length_m": 12.68, "type_element": "Way", "__fid": 45989}, "geometry": {"type": "LineString", "coordinates": [[2.3309168, 48.8389628], [2.3309707, 48.8388545]]}}, {"type": "Feature", "properties": {"highway": "footway", "footway": "crossing", "name": null, "surface": null, "lit": "yes", "length_m": 37.17, "type_element": "Way", "__fid": 45997}, "geometry": {"type": "LineString", "coordinates": [[2.3309455, 48.8376866], [2.3312646, 48.83773930000001], [2.3314091, 48.8378073]]}}, {"type": "Feature", "properties": {"highway": "footway", "footway": "sidewalk", "name": null, "surface": "asphalt", "lit": "yes", "length_m": 86.11, "type_element": "Way", "__fid": 45998}, "geometry": {"type": "LineString", "coordinates": [[2.3312207, 48.8369338], [2.3309455, 48.8376866]]}}, {"type": "Feature", "properties": {"highway": "service", "footway": null, "name": null, "surface": null, "lit": null, "length_m": 98.0, "type_element": "Way", "__fid": 46014}, "geometry": {"type": "LineString", "coordinates": [[2.3309308, 48.84002379999998], [2.3318629, 48.8393927]]}}, {"type": "Feature", "properties": {"highway": "pedestrian", "footway": null, "name": "Passage d'Enfer", "surface": null, "lit": null, "length_m": 21.16, "type_element": "Way", "__fid": 46033}, "geometry": {"type": "LineString", "coordinates": [[2.330972, 48.838265], [2.3311868, 48.8383919]]}}, {"type": "Feature", "properties": {"highway": "footway", "footway": "sidewalk", "name": null, "surface": null, "lit": "yes", "length_m": 23.46, "type_element": "Way", "__fid": 46043}, "geometry": {"type": "LineString", "coordinates": [[2.3309707, 48.8388545], [2.3310652, 48.8388742], [2.3312226, 48.8389761]]}}, {"type": "Feature", "properties": {"highway": "footway", "footway": "crossing", "name": null, "surface": "asphalt", "lit": "yes", "length_m": 16.05, "type_element": "Way", "__fid": 46044}, "geometry": {"type": "LineString", "coordinates": [[2.3310384, 48.8387247], [2.3310151, 48.8387298], [2.3309707, 48.8388545]]}}, {"type": "Feature", "properties": {"highway": "footway", "footway": "sidewalk", "name": null, "surface": "asphalt", "lit": "yes", "length_m": 107.56, "type_element": "Way", "__fid": 46141}, "geometry": {"type": "LineString", "coordinates": [[2.3320739, 48.8394092], [2.3310384, 48.8387247]]}}, {"type": "Feature", "properties": {"highway": "footway", "footway": "sidewalk", "name": null, "surface": "asphalt", "lit": "yes", "length_m": 5.83, "type_element": "Way", "__fid": 46142}, "geometry": {"type": "LineString", "coordinates": [[2.331067, 48.8386758], [2.3310384, 48.8387247]]}}, {"type": "Feature", "properties": {"highway": "footway", "footway": "sidewalk", "name": null, "surface": "asphalt", "lit": "yes", "length_m": 32.77, "type_element": "Way", "__fid": 46172}, "geometry": {"type": "LineString", "coordinates": [[2.3311868, 48.8383919], [2.331067, 48.8386758]]}}, {"type": "Feature", "properties": {"highway": "footway", "footway": "crossing", "name": null, "surface": "asphalt", "lit": "yes", "length_m": 13.54, "type_element": "Way", "__fid": 46276}, "geometry": {"type": "LineString", "coordinates": [[2.3311381, 48.8413451], [2.3312276, 48.8414516]]}}, {"type": "Feature", "properties": {"highway": "footway", "footway": "sidewalk", "name": null, "surface": null, "lit": "yes", "length_m": 2.59, "type_element": "Way", "__fid": 46277}, "geometry": {"type": "LineString", "coordinates": [[2.3311381, 48.8413451], [2.3311622, 48.8413281]]}}, {"type": "Feature", "properties": {"highway": "pedestrian", "footway": null, "name": "Passage d'Enfer", "surface": null, "lit": null, "length_m": 157.09, "type_element": "Way", "__fid": 46286}, "geometry": {"type": "LineString", "coordinates": [[2.3311868, 48.8383919], [2.3323729, 48.83921019999999], [2.3320739, 48.8394092]]}}, {"type": "Feature", "properties": {"highway": "footway", "footway": "sidewalk", "name": null, "surface": "asphalt", "lit": "yes", "length_m": 55.2, "type_element": "Way", "__fid": 46287}, "geometry": {"type": "LineString", "coordinates": [[2.3313691, 48.8379103], [2.3311868, 48.8383919]]}}, {"type": "Feature", "properties": {"highway": "footway", "footway": "crossing", "name": null, "surface": null, "lit": "yes", "length_m": 11.06, "type_element": "Way", "__fid": 46301}, "geometry": {"type": "LineString", "coordinates": [[2.3311622, 48.8413281], [2.3312876, 48.841292199999984], [2.3312949, 48.8412843]]}}, {"type": "Feature", "properties": {"highway": "footway", "footway": "sidewalk", "name": null, "surface": "asphalt", "lit": "yes", "length_m": 11.24, "type_element": "Way", "__fid": 46302}, "geometry": {"type": "LineString", "coordinates": [[2.3312588, 48.8368359], [2.3312207, 48.8369338]]}}, {"type": "Feature", "properties": {"highway": "footway", "footway": "sidewalk", "name": null, "surface": "asphalt", "lit": "yes", "length_m": 8.46, "type_element": "Way", "__fid": 46303}, "geometry": {"type": "LineString", "coordinates": [[2.3312207, 48.8369338], [2.331330300000155, 48.8369103666668]]}}, {"type": "Feature", "properties": {"highway": "footway", "footway": "sidewalk", "name": null, "surface": null, "lit": "yes", "length_m": 65.99, "type_element": "Way", "__fid": 46324}, "geometry": {"type": "LineString", "coordinates": [[2.3312226, 48.8389761], [2.3318629, 48.8393927]]}}, {"type": "Feature", "properties": {"highway": "footway", "footway": "sidewalk", "name": null, "surface": "asphalt", "lit": "yes", "length_m": 9.8, "type_element": "Way", "__fid": 46332}, "geometry": {"type": "LineString", "coordinates": [[2.3312588, 48.8368359], [2.331330300000155, 48.8369103666668]]}}, {"type": "Feature", "properties": {"highway": "service", "footway": null, "name": "Boulevard du Montparnasse", "surface": "asphalt", "lit": "yes", "length_m": 57.92, "type_element": "Way", "__fid": 46355}, "geometry": {"type": "LineString", "coordinates": [[2.3312276, 48.8414516], [2.3319347, 48.8412204]]}}, {"type": "Feature", "properties": {"highway": "footway", "footway": "sidewalk", "name": null, "surface": null, "lit": null, "length_m": 8.23, "type_element": "Way", "__fid": 46365}, "geometry": {"type": "LineString", "coordinates": [[2.331294, 48.8378554], [2.3313691, 48.8379103]]}}, {"type": "Feature", "properties": {"highway": "footway", "footway": "crossing", "name": null, "surface": "asphalt", "lit": "yes", "length_m": 15.66, "type_element": "Way", "__fid": 46385}, "geometry": {"type": "LineString", "coordinates": [[2.331369, 48.8367725], [2.3313696, 48.8367982], [2.331330300000155, 48.8369103666668]]}}, {"type": "Feature", "properties": {"highway": "footway", "footway": "sidewalk", "name": null, "surface": null, "lit": "yes", "length_m": 18.09, "type_element": "Way", "__fid": 46398}, "geometry": {"type": "LineString", "coordinates": [[2.3315142, 48.84121], [2.3312949, 48.8412843]]}}, {"type": "Feature", "properties": {"highway": "footway", "footway": "sidewalk", "name": null, "surface": "asphalt", "lit": null, "length_m": 2.57, "type_element": "Way", "__fid": 46412}, "geometry": {"type": "LineString", "coordinates": [[2.331369, 48.8367725], [2.331386733333304, 48.83675260000005]]}}, {"type": "Feature", "properties": {"highway": "footway", "footway": "sidewalk", "name": null, "surface": null, "lit": null, "length_m": 177.34, "type_element": "Way", "__fid": 46425}, "geometry": {"type": "LineString", "coordinates": [[2.3313691, 48.8379103], [2.331521, 48.8380103], [2.3330142, 48.83907820000001]]}}, {"type": "Feature", "properties": {"highway": "footway", "footway": "crossing", "name": null, "surface": "asphalt", "lit": "yes", "length_m": 29.47, "type_element": "Way", "__fid": 46426}, "geometry": {"type": "LineString", "coordinates": [[2.331386733333304, 48.83675260000005], [2.331776, 48.8368174]]}}, {"type": "Feature", "properties": {"highway": "footway", "footway": "sidewalk", "name": null, "surface": "asphalt", "lit": null, "length_m": 183.21, "type_element": "Way", "__fid": 46427}, "geometry": {"type": "LineString", "coordinates": [[2.331386733333304, 48.83675260000005], [2.3313452, 48.836624], [2.3318914, 48.8351513]]}}, {"type": "Feature", "properties": {"highway": "footway", "footway": "sidewalk", "name": null, "surface": null, "lit": "yes", "length_m": 39.24, "type_element": "Way", "__fid": 46430}, "geometry": {"type": "LineString", "coordinates": [[2.3318116, 48.841418], [2.3317, 48.841471], [2.3314945, 48.841536200000014], [2.3313304, 48.84156340000001]]}}, {"type": "Feature", "properties": {"highway": "footway", "footway": "sidewalk", "name": null, "surface": null, "lit": null, "length_m": 183.97, "type_element": "Way", "__fid": 46452}, "geometry": {"type": "LineString", "coordinates": [[2.3314091, 48.8378073], [2.3331033, 48.8390194], [2.333097566666869, 48.83902306666673]]}}, {"type": "Feature", "properties": {"highway": "footway", "footway": "sidewalk", "name": null, "surface": null, "lit": null, "length_m": 51.95, "type_element": "Way", "__fid": 46453}, "geometry": {"type": "LineString", "coordinates": [[2.3315788, 48.8373537], [2.3314091, 48.8378073]]}}, {"type": "Feature", "properties": {"highway": "service", "footway": null, "name": null, "surface": null, "lit": null, "length_m": 20.89, "type_element": "Way", "__fid": 46468}, "geometry": {"type": "LineString", "coordinates": [[2.3315142, 48.84121], [2.331398, 48.84103850000001]]}}, {"type": "Feature", "properties": {"highway": "footway", "footway": "sidewalk", "name": null, "surface": null, "lit": null, "length_m": 13.7, "type_element": "Way", "__fid": 46480}, "geometry": {"type": "LineString", "coordinates": [[2.3314626, 48.8373932], [2.3314824, 48.8373372], [2.3315788, 48.8373537]]}}, {"type": "Feature", "properties": {"highway": "service", "footway": null, "name": null, "surface": null, "lit": null, "length_m": 6.49, "type_element": "Way", "__fid": 46558}, "geometry": {"type": "LineString", "coordinates": [[2.3315474, 48.84126409999999], [2.3315142, 48.84121]]}}, {"type": "Feature", "properties": {"highway": "footway", "footway": "sidewalk", "name": null, "surface": null, "lit": "yes", "length_m": 28.04, "type_element": "Way", "__fid": 46559}, "geometry": {"type": "LineString", "coordinates": [[2.331854, 48.8410948], [2.3315142, 48.84121]]}}, {"type": "Feature", "properties": {"highway": "footway", "footway": "sidewalk", "name": null, "surface": null, "lit": null, "length_m": 61.36, "type_element": "Way", "__fid": 46566}, "geometry": {"type": "LineString", "coordinates": [[2.331776, 48.8368174], [2.3315788, 48.8373537]]}}, {"type": "Feature", "properties": {"highway": "footway", "footway": "sidewalk", "name": null, "surface": null, "lit": null, "length_m": 187.67, "type_element": "Way", "__fid": 46756}, "geometry": {"type": "LineString", "coordinates": [[2.3323896, 48.83517890000002], [2.331776, 48.8368174]]}}, {"type": "Feature", "properties": {"highway": "footway", "footway": "sidewalk", "name": null, "surface": null, "lit": "yes", "length_m": 56.14, "type_element": "Way", "__fid": 46874}, "geometry": {"type": "LineString", "coordinates": [[2.33216050000008, 48.841867266666746], [2.3318116, 48.841418]]}}, {"type": "Feature", "properties": {"highway": "footway", "footway": "crossing", "name": null, "surface": null, "lit": "yes", "length_m": 8.51, "type_element": "Way", "__fid": 46875}, "geometry": {"type": "LineString", "coordinates": [[2.3318116, 48.841418], [2.3319202, 48.84139130000001]]}}, {"type": "Feature", "properties": {"highway": "footway", "footway": "sidewalk", "name": null, "surface": null, "lit": "yes", "length_m": 38.09, "type_element": "Way", "__fid": 46898}, "geometry": {"type": "LineString", "coordinates": [[2.3318629, 48.8393927], [2.3322289, 48.8396355]]}}, {"type": "Feature", "properties": {"highway": "service", "footway": null, "name": null, "surface": null, "lit": null, "length_m": 4.63, "type_element": "Way", "__fid": 46899}, "geometry": {"type": "LineString", "coordinates": [[2.3319086, 48.839364], [2.3318629, 48.8393927]]}}, {"type": "Feature", "properties": {"highway": "footway", "footway": "crossing", "name": null, "surface": "asphalt", "lit": "yes", "length_m": 15.17, "type_element": "Way", "__fid": 46923}, "geometry": {"type": "LineString", "coordinates": [[2.331854, 48.8410948], [2.3319347, 48.8412204]]}}, {"type": "Feature", "properties": {"highway": "footway", "footway": "sidewalk", "name": null, "surface": "asphalt", "lit": "yes", "length_m": 129.79, "type_element": "Way", "__fid": 46924}, "geometry": {"type": "LineString", "coordinates": [[2.3334394, 48.8405782], [2.3323464, 48.8409242], [2.331854, 48.8410948]]}}, {"type": "Feature", "properties": {"highway": "footway", "footway": "sidewalk", "name": null, "surface": null, "lit": "yes", "length_m": 50.77, "type_element": "Way", "__fid": 47052}, "geometry": {"type": "LineString", "coordinates": [[2.3319202, 48.84139130000001], [2.3322193, 48.84178940000001], [2.3322335, 48.84179726666667]]}}, {"type": "Feature", "properties": {"highway": "footway", "footway": "sidewalk", "name": null, "surface": null, "lit": "yes", "length_m": 8.6, "type_element": "Way", "__fid": 47053}, "geometry": {"type": "LineString", "coordinates": [[2.3320232, 48.841354400000014], [2.3319202, 48.84139130000001]]}}, {"type": "Feature", "properties": {"highway": "service", "footway": null, "name": null, "surface": null, "lit": null, "length_m": 26.88, "type_element": "Way", "__fid": 47056}, "geometry": {"type": "LineString", "coordinates": [[2.3319496, 48.8397905], [2.3321096, 48.8396883], [2.3322289, 48.8396355]]}}, {"type": "Feature", "properties": {"highway": "footway", "footway": "crossing", "name": null, "surface": "asphalt", "lit": "yes", "length_m": 16.25, "type_element": "Way", "__fid": 47060}, "geometry": {"type": "LineString", "coordinates": [[2.3320232, 48.841354400000014], [2.3319347, 48.8412204]]}}, {"type": "Feature", "properties": {"highway": "service", "footway": null, "name": "Boulevard du Montparnasse", "surface": "asphalt", "lit": "yes", "length_m": 130.49, "type_element": "Way", "__fid": 47061}, "geometry": {"type": "LineString", "coordinates": [[2.3319347, 48.8412204], [2.3331694, 48.8407978], [2.3335177, 48.8406864]]}}, {"type": "Feature", "properties": {"highway": "pedestrian", "footway": null, "name": "Passage d'Enfer", "surface": null, "lit": null, "length_m": 4.97, "type_element": "Way", "__fid": 47121}, "geometry": {"type": "LineString", "coordinates": [[2.3320739, 48.8394092], [2.3320262, 48.8394409]]}}, {"type": "Feature", "properties": {"highway": "footway", "footway": "sidewalk", "name": null, "surface": "asphalt", "lit": "yes", "length_m": 132.29, "type_element": "Way", "__fid": 47137}, "geometry": {"type": "LineString", "coordinates": [[2.3336175, 48.8408037], [2.3328359, 48.8410658], [2.3326199, 48.8411673], [2.3320232, 48.841354400000014]]}}, {"type": "Feature", "properties": {"highway": "footway", "footway": "sidewalk", "name": null, "surface": "asphalt", "lit": "yes", "length_m": 48.84, "type_element": "Way", "__fid": 47168}, "geometry": {"type": "LineString", "coordinates": [[2.3325441, 48.83972], [2.3320739, 48.8394092]]}}, {"type": "Feature", "properties": {"highway": "footway", "footway": "sidewalk", "name": null, "surface": null, "lit": "yes", "length_m": 41.71, "type_element": "Way", "__fid": 47414}, "geometry": {"type": "LineString", "coordinates": [[2.3322289, 48.8396355], [2.3326324, 48.83989970000002]]}}, {"type": "Feature", "properties": {"highway": "service", "footway": null, "name": null, "surface": null, "lit": null, "length_m": 5.31, "type_element": "Way", "__fid": 47415}, "geometry": {"type": "LineString", "coordinates": [[2.3322289, 48.8396355], [2.3322913, 48.83961140000001]]}}, {"type": "Feature", "properties": {"highway": "service", "footway": null, "name": null, "surface": null, "lit": null, "length_m": 15.44, "type_element": "Way", "__fid": 47879}, "geometry": {"type": "LineString", "coordinates": [[2.3324816, 48.83999650000002], [2.3326324, 48.83989970000002]]}}, {"type": "Feature", "properties": {"highway": "service", "footway": null, "name": "Voie Commune B/14", "surface": null, "lit": null, "length_m": 4.31, "type_element": "Way", "__fid": 47893}, "geometry": {"type": "LineString", "coordinates": [[2.3325002, 48.8397458], [2.3325441, 48.83972]]}}, {"type": "Feature", "properties": {"highway": "footway", "footway": "sidewalk", "name": null, "surface": "asphalt", "lit": "yes", "length_m": 121.16, "type_element": "Way", "__fid": 47972}, "geometry": {"type": "LineString", "coordinates": [[2.3337229, 48.840481], [2.3336681, 48.8404598], [2.3325441, 48.83972]]}}, {"type": "Feature", "properties": {"highway": "service", "footway": null, "name": "Voie Commune B/14", "surface": null, "lit": null, "length_m": 73.84, "type_element": "Way", "__fid": 47973}, "geometry": {"type": "LineString", "coordinates": [[2.3325441, 48.83972], [2.3332519, 48.8392481]]}}, {"type": "Feature", "properties": {"highway": "footway", "footway": "sidewalk", "name": null, "surface": "asphalt", "lit": "yes", "length_m": 280.1, "type_element": "Way", "__fid": 47982}, "geometry": {"type": "LineString", "coordinates": [[2.3346537, 48.8369026], [2.3336372, 48.8358579], [2.3326112, 48.8347748]]}}, {"type": "Feature", "properties": {"highway": "footway", "footway": "sidewalk", "name": null, "surface": null, "lit": "yes", "length_m": 18.24, "type_element": "Way", "__fid": 48070}, "geometry": {"type": "LineString", "coordinates": [[2.3326324, 48.83989970000002], [2.3328065, 48.8400168]]}}, {"type": "Feature", "properties": {"highway": "service", "footway": null, "name": null, "surface": null, "lit": null, "length_m": 4.95, "type_element": "Way", "__fid": 48071}, "geometry": {"type": "LineString", "coordinates": [[2.3326324, 48.83989970000002], [2.3326804, 48.8398684]]}}, {"type": "Feature", "properties": {"highway": "footway", "footway": "sidewalk", "name": null, "surface": "asphalt", "lit": "yes", "length_m": 45.1, "type_element": "Way", "__fid": 48087}, "geometry": {"type": "LineString", "coordinates": [[2.3326216, 48.8415378], [2.3330568, 48.8412514]]}}, {"type": "Feature", "properties": {"highway": "footway", "footway": "sidewalk", "name": null, "surface": "asphalt", "lit": "yes", "length_m": 36.01, "type_element": "Way", "__fid": 48192}, "geometry": {"type": "LineString", "coordinates": [[2.3330659, 48.8413743], [2.3330478, 48.841377], [2.3327125, 48.8415963]]}}, {"type": "Feature", "properties": {"highway": "service", "footway": null, "name": null, "surface": null, "lit": null, "length_m": 1.15, "type_element": "Way", "__fid": 48256}, "geometry": {"type": "LineString", "coordinates": [[2.3328065, 48.8400168], [2.3327956, 48.8400242]]}}, {"type": "Feature", "properties": {"highway": "footway", "footway": "sidewalk", "name": null, "surface": null, "lit": "yes", "length_m": 79.88, "type_element": "Way", "__fid": 48261}, "geometry": {"type": "LineString", "coordinates": [[2.3328065, 48.8400168], [2.3335225, 48.8404908], [2.3335487, 48.84053670000002]]}}, {"type": "Feature", "properties": {"highway": "service", "footway": null, "name": null, "surface": null, "lit": null, "length_m": 4.93, "type_element": "Way", "__fid": 48262}, "geometry": {"type": "LineString", "coordinates": [[2.3328535, 48.8399851], [2.3328065, 48.8400168]]}}, {"type": "Feature", "properties": {"highway": "footway", "footway": "sidewalk", "name": null, "surface": "asphalt", "lit": "yes", "length_m": 177.43, "type_element": "Way", "__fid": 48336}, "geometry": {"type": "LineString", "coordinates": [[2.3329566, 48.8346304], [2.3342255, 48.8359885]]}}, {"type": "Feature", "properties": {"highway": "footway", "footway": "sidewalk", "name": null, "surface": "asphalt", "lit": "yes", "length_m": 168.35, "type_element": "Way", "__fid": 48455}, "geometry": {"type": "LineString", "coordinates": [[2.334643, 48.8401408], [2.3346329, 48.8401205], [2.3330142, 48.83907820000001]]}}, {"type": "Feature", "properties": {"highway": "footway", "footway": "crossing", "name": null, "surface": null, "lit": "yes", "length_m": 8.66, "type_element": "Way", "__fid": 48456}, "geometry": {"type": "LineString", "coordinates": [[2.3330142, 48.83907820000001], [2.333097566666869, 48.83902306666673]]}}, {"type": "Feature", "properties": {"highway": "footway", "footway": "crossing", "name": null, "surface": "asphalt", "lit": "yes", "length_m": 9.15, "type_element": "Way", "__fid": 48514}, "geometry": {"type": "LineString", "coordinates": [[2.3330568, 48.8412514], [2.3331497, 48.8413063]]}}, {"type": "Feature", "properties": {"highway": "footway", "footway": "sidewalk", "name": null, "surface": "asphalt", "lit": "yes", "length_m": 245.07, "type_element": "Way", "__fid": 48515}, "geometry": {"type": "LineString", "coordinates": [[2.3330568, 48.8412514], [2.3333374, 48.8410649], [2.3338021, 48.84090470000001], [2.3360096, 48.8402558]]}}, {"type": "Feature", "properties": {"highway": "footway", "footway": "sidewalk", "name": null, "surface": "asphalt", "lit": "yes", "length_m": 163.78, "type_element": "Way", "__fid": 48526}, "geometry": {"type": "LineString", "coordinates": [[2.334764666666818, 48.84232696666671], [2.334002, 48.8419432], [2.3330659, 48.8413743]]}}, {"type": "Feature", "properties": {"highway": "footway", "footway": "crossing", "name": null, "surface": "asphalt", "lit": "yes", "length_m": 9.01, "type_element": "Way", "__fid": 48527}, "geometry": {"type": "LineString", "coordinates": [[2.3330659, 48.8413743], [2.3330625, 48.8413637], [2.3331483, 48.8413222]]}}, {"type": "Feature", "properties": {"highway": "footway", "footway": "sidewalk", "name": null, "surface": "asphalt", "lit": "yes", "length_m": 174.96, "type_element": "Way", "__fid": 48528}, "geometry": {"type": "LineString", "coordinates": [[2.333097566666869, 48.83902306666673], [2.3347613, 48.8400838], [2.3348227, 48.8401068]]}}, {"type": "Feature", "properties": {"highway": "service", "footway": null, "name": "Avenue Denfert-Rochereau", "surface": "concrete", "lit": "yes", "length_m": 129.01, "type_element": "Way", "__fid": 48574}, "geometry": {"type": "LineString", "coordinates": [[2.3332154, 48.8350367], [2.3341428, 48.8360223]]}}, {"type": "Feature", "properties": {"highway": "footway", "footway": "sidewalk", "name": null, "surface": "asphalt", "lit": "yes", "length_m": 160.83, "type_element": "Way", "__fid": 48579}, "geometry": {"type": "LineString", "coordinates": [[2.3331483, 48.8413222], [2.334116, 48.841913200000015], [2.3348097, 48.8422629]]}}, {"type": "Feature", "properties": {"highway": "footway", "footway": "sidewalk", "name": null, "surface": "asphalt", "lit": "yes", "length_m": 1.77, "type_element": "Way", "__fid": 48580}, "geometry": {"type": "LineString", "coordinates": [[2.3331483, 48.8413222], [2.3331497, 48.8413063]]}}, {"type": "Feature", "properties": {"highway": "footway", "footway": "sidewalk", "name": null, "surface": "asphalt", "lit": "yes", "length_m": 99.57, "type_element": "Way", "__fid": 48583}, "geometry": {"type": "LineString", "coordinates": [[2.3331497, 48.8413063], [2.3334675, 48.8411073], [2.3340382, 48.8409255], [2.3342994, 48.8408504]]}}, {"type": "Feature", "properties": {"highway": "footway", "footway": "crossing", "name": null, "surface": "asphalt", "lit": "yes", "length_m": 13.33, "type_element": "Way", "__fid": 48824}, "geometry": {"type": "LineString", "coordinates": [[2.3334394, 48.8405782], [2.3335177, 48.8406864]]}}, {"type": "Feature", "properties": {"highway": "footway", "footway": "sidewalk", "name": null, "surface": null, "lit": "yes", "length_m": 9.25, "type_element": "Way", "__fid": 48825}, "geometry": {"type": "LineString", "coordinates": [[2.3335487, 48.84053670000002], [2.3334394, 48.8405782]]}}, {"type": "Feature", "properties": {"highway": "footway", "footway": "crossing", "name": null, "surface": "asphalt", "lit": "yes", "length_m": 14.96, "type_element": "Way", "__fid": 48880}, "geometry": {"type": "LineString", "coordinates": [[2.3335177, 48.8406864], [2.3336175, 48.8408037]]}}, {"type": "Feature", "properties": {"highway": "service", "footway": null, "name": "Boulevard du Montparnasse", "surface": "asphalt", "lit": "yes", "length_m": 32.77, "type_element": "Way", "__fid": 48881}, "geometry": {"type": "LineString", "coordinates": [[2.3335177, 48.8406864], [2.3339164, 48.8405538]]}}, {"type": "Feature", "properties": {"highway": "footway", "footway": "crossing", "name": null, "surface": "asphalt", "lit": "yes", "length_m": 14.3, "type_element": "Way", "__fid": 48912}, "geometry": {"type": "LineString", "coordinates": [[2.3335487, 48.84053670000002], [2.3336979, 48.8404952], [2.3337229, 48.840481]]}}, {"type": "Feature", "properties": {"highway": "footway", "footway": "sidewalk", "name": null, "surface": "asphalt", "lit": "yes", "length_m": 29.52, "type_element": "Way", "__fid": 48983}, "geometry": {"type": "LineString", "coordinates": [[2.3339778, 48.8406858], [2.3336175, 48.8408037]]}}, {"type": "Feature", "properties": {"highway": "footway", "footway": "sidewalk", "name": null, "surface": "asphalt", "lit": "yes", "length_m": 9.06, "type_element": "Way", "__fid": 49060}, "geometry": {"type": "LineString", "coordinates": [[2.3337229, 48.840481], [2.3338343, 48.8404458]]}}, {"type": "Feature", "properties": {"highway": "footway", "footway": "crossing", "name": null, "surface": "asphalt", "lit": "yes", "length_m": 13.51, "type_element": "Way", "__fid": 49161}, "geometry": {"type": "LineString", "coordinates": [[2.3338343, 48.8404458], [2.3338656, 48.8404741], [2.3339164, 48.8405538]]}}, {"type": "Feature", "properties": {"highway": "footway", "footway": "sidewalk", "name": null, "surface": "asphalt", "lit": "yes", "length_m": 65.36, "type_element": "Way", "__fid": 49162}, "geometry": {"type": "LineString", "coordinates": [[2.3338343, 48.8404458], [2.3346269, 48.8401779]]}}, {"type": "Feature", "properties": {"highway": "footway", "footway": "crossing", "name": null, "surface": "asphalt", "lit": "yes", "length_m": 15.43, "type_element": "Way", "__fid": 49245}, "geometry": {"type": "LineString", "coordinates": [[2.3339164, 48.8405538], [2.3339516, 48.8406505], [2.3339778, 48.8406858]]}}, {"type": "Feature", "properties": {"highway": "service", "footway": null, "name": "Boulevard du Montparnasse", "surface": "asphalt", "lit": "yes", "length_m": 67.21, "type_element": "Way", "__fid": 49246}, "geometry": {"type": "LineString", "coordinates": [[2.3339164, 48.8405538], [2.3347367, 48.84028509999999]]}}, {"type": "Feature", "properties": {"highway": "service", "footway": null, "name": null, "surface": "asphalt", "lit": null, "length_m": 9.57, "type_element": "Way", "__fid": 49308}, "geometry": {"type": "LineString", "coordinates": [[2.3341428, 48.8360223], [2.334032, 48.8360677]]}}, {"type": "Feature", "properties": {"highway": "footway", "footway": "sidewalk", "name": null, "surface": "asphalt", "lit": "yes", "length_m": 69.09, "type_element": "Way", "__fid": 49312}, "geometry": {"type": "LineString", "coordinates": [[2.3348152, 48.840402], [2.3339778, 48.8406858]]}}, {"type": "Feature", "properties": {"highway": "service", "footway": null, "name": "Avenue Denfert-Rochereau", "surface": "concrete", "lit": "yes", "length_m": 32.04, "type_element": "Way", "__fid": 49386}, "geometry": {"type": "LineString", "coordinates": [[2.3341428, 48.8360223], [2.3343806, 48.83626390000001]]}}, {"type": "Feature", "properties": {"highway": "service", "footway": null, "name": null, "surface": "asphalt", "lit": null, "length_m": 7.14, "type_element": "Way", "__fid": 49387}, "geometry": {"type": "LineString", "coordinates": [[2.3342255, 48.8359885], [2.3341428, 48.8360223]]}}, {"type": "Feature", "properties": {"highway": "footway", "footway": "sidewalk", "name": null, "surface": "asphalt", "lit": "yes", "length_m": 100.65, "type_element": "Way", "__fid": 49466}, "geometry": {"type": "LineString", "coordinates": [[2.3342255, 48.8359885], [2.3349743, 48.836746799999986]]}}, {"type": "Feature", "properties": {"highway": "service", "footway": null, "name": null, "surface": null, "lit": null, "length_m": 80.89, "type_element": "Way", "__fid": 49467}, "geometry": {"type": "LineString", "coordinates": [[2.3351483, 48.8355908], [2.3342255, 48.8359885]]}}, {"type": "Feature", "properties": {"highway": "service", "footway": null, "name": "Avenue Denfert-Rochereau", "surface": "asphalt", "lit": "yes", "length_m": 9.92, "type_element": "Way", "__fid": 49501}, "geometry": {"type": "LineString", "coordinates": [[2.3343806, 48.83626390000001], [2.3342675, 48.83631270000002]]}}, {"type": "Feature", "properties": {"highway": "service", "footway": null, "name": null, "surface": null, "lit": "yes", "length_m": 5.84, "type_element": "Way", "__fid": 49539}, "geometry": {"type": "LineString", "coordinates": [[2.3342352, 48.8408194], [2.3342994, 48.8408504]]}}, {"type": "Feature", "properties": {"highway": "service", "footway": null, "name": null, "surface": null, "lit": "yes", "length_m": 84.39, "type_element": "Way", "__fid": 49597}, "geometry": {"type": "LineString", "coordinates": [[2.3342994, 48.8408504], [2.3345762, 48.840994800000026], [2.3347162, 48.8408828], [2.3351608, 48.8411256]]}}, {"type": "Feature", "properties": {"highway": "footway", "footway": "sidewalk", "name": null, "surface": "asphalt", "lit": "yes", "length_m": 143.62, "type_element": "Way", "__fid": 49598}, "geometry": {"type": "LineString", "coordinates": [[2.3342994, 48.8408504], [2.3360545, 48.8403345], [2.3360859, 48.8403455]]}}, {"type": "Feature", "properties": {"highway": "service", "footway": null, "name": "Avenue Denfert-Rochereau", "surface": "asphalt", "lit": "yes", "length_m": 69.0, "type_element": "Way", "__fid": 49606}, "geometry": {"type": "LineString", "coordinates": [[2.3343806, 48.83626390000001], [2.3348928, 48.83678419999998]]}}, {"type": "Feature", "properties": {"highway": "footway", "footway": "sidewalk", "name": null, "surface": "asphalt", "lit": "yes", "length_m": 99.15, "type_element": "Way", "__fid": 49806}, "geometry": {"type": "LineString", "coordinates": [[2.3353907, 48.8376499], [2.3346537, 48.8369026]]}}, {"type": "Feature", "properties": {"highway": "footway", "footway": "crossing", "name": null, "surface": "asphalt", "lit": "yes", "length_m": 21.94, "type_element": "Way", "__fid": 49807}, "geometry": {"type": "LineString", "coordinates": [[2.3346537, 48.8369026], [2.3348928, 48.83678419999998]]}}, {"type": "Feature", "properties": {"highway": "footway", "footway": "crossing", "name": null, "surface": "asphalt", "lit": "yes", "length_m": 15.06, "type_element": "Way", "__fid": 49816}, "geometry": {"type": "LineString", "coordinates": [[2.3346269, 48.8401779], [2.3346791, 48.8401968], [2.3347367, 48.84028509999999]]}}, {"type": "Feature", "properties": {"highway": "footway", "footway": "sidewalk", "name": null, "surface": "asphalt", "lit": "yes", "length_m": 4.29, "type_element": "Way", "__fid": 49817}, "geometry": {"type": "LineString", "coordinates": [[2.3346269, 48.8401779], [2.334643, 48.8401408]]}}, {"type": "Feature", "properties": {"highway": "footway", "footway": "crossing", "name": null, "surface": null, "lit": "yes", "length_m": 15.43, "type_element": "Way", "__fid": 49826}, "geometry": {"type": "LineString", "coordinates": [[2.334643, 48.8401408], [2.3346913, 48.8401585], [2.3347994, 48.840124], [2.3348227, 48.8401068]]}}, {"type": "Feature", "properties": {"highway": "footway", "footway": "crossing", "name": null, "surface": "asphalt", "lit": "yes", "length_m": 14.22, "type_element": "Way", "__fid": 49892}, "geometry": {"type": "LineString", "coordinates": [[2.3347367, 48.84028509999999], [2.3348152, 48.840402]]}}, {"type": "Feature", "properties": {"highway": "service", "footway": null, "name": "Boulevard du Montparnasse", "surface": "asphalt", "lit": "yes", "length_m": 17.02, "type_element": "Way", "__fid": 49893}, "geometry": {"type": "LineString", "coordinates": [[2.3347367, 48.84028509999999], [2.3349445, 48.8402171]]}}, {"type": "Feature", "properties": {"highway": "footway", "footway": "sidewalk", "name": null, "surface": "asphalt", "lit": "yes", "length_m": 17.06, "type_element": "Way", "__fid": 49949}, "geometry": {"type": "LineString", "coordinates": [[2.3350219, 48.84033190000001], [2.3348152, 48.840402]]}}, {"type": "Feature", "properties": {"highway": "footway", "footway": "sidewalk", "name": null, "surface": "asphalt", "lit": "yes", "length_m": 4.44, "type_element": "Way", "__fid": 49953}, "geometry": {"type": "LineString", "coordinates": [[2.3348227, 48.8401068], [2.3348831, 48.8401042]]}}, {"type": "Feature", "properties": {"highway": "service", "footway": null, "name": "Avenue Denfert-Rochereau", "surface": "asphalt", "lit": "yes", "length_m": 82.03, "type_element": "Way", "__fid": 49980}, "geometry": {"type": "LineString", "coordinates": [[2.3348928, 48.83678419999998], [2.3355016, 48.837402800000014]]}}, {"type": "Feature", "properties": {"highway": "footway", "footway": "sidewalk", "name": null, "surface": "asphalt", "lit": "yes", "length_m": 7.29, "type_element": "Way", "__fid": 49981}, "geometry": {"type": "LineString", "coordinates": [[2.3349743, 48.836746799999986], [2.3348928, 48.83678419999998]]}}, {"type": "Feature", "properties": {"highway": "footway", "footway": "crossing", "name": null, "surface": null, "lit": "yes", "length_m": 13.42, "type_element": "Way", "__fid": 50007}, "geometry": {"type": "LineString", "coordinates": [[2.3348831, 48.8401042], [2.3348904, 48.8401345], [2.3349445, 48.8402171]]}}, {"type": "Feature", "properties": {"highway": "footway", "footway": "sidewalk", "name": null, "surface": "asphalt", "lit": "yes", "length_m": 65.11, "type_element": "Way", "__fid": 50008}, "geometry": {"type": "LineString", "coordinates": [[2.3348831, 48.8401042], [2.3356785, 48.839845]]}}, {"type": "Feature", "properties": {"highway": "service", "footway": null, "name": null, "surface": null, "lit": null, "length_m": 59.57, "type_element": "Way", "__fid": 50043}, "geometry": {"type": "LineString", "coordinates": [[2.3351483, 48.8355908], [2.3353097, 48.83575920000001], [2.3353209, 48.8357865], [2.3353129, 48.8358224], [2.3352804, 48.8358647], [2.3352112, 48.83590669999999], [2.3349802, 48.83596270000001]]}}, {"type": "Feature", "properties": {"highway": "footway", "footway": "sidewalk", "name": null, "surface": null, "lit": "yes", "length_m": 108.64, "type_element": "Way", "__fid": 50046}, "geometry": {"type": "LineString", "coordinates": [[2.3349743, 48.836746799999986], [2.3357273, 48.837511700000015], [2.335650466666691, 48.837552066666696]]}}, {"type": "Feature", "properties": {"highway": "footway", "footway": "crossing", "name": null, "surface": null, "lit": "yes", "length_m": 13.97, "type_element": "Way", "__fid": 50054}, "geometry": {"type": "LineString", "coordinates": [[2.3349445, 48.8402171], [2.3350219, 48.84033190000001]]}}, {"type": "Feature", "properties": {"highway": "service", "footway": null, "name": "Boulevard du Montparnasse", "surface": "asphalt", "lit": "yes", "length_m": 103.93, "type_element": "Way", "__fid": 50055}, "geometry": {"type": "LineString", "coordinates": [[2.3349445, 48.8402171], [2.3362116, 48.8397998]]}}, {"type": "Feature", "properties": {"highway": "footway", "footway": "sidewalk", "name": null, "surface": "asphalt", "lit": "yes", "length_m": 104.16, "type_element": "Way", "__fid": 50124}, "geometry": {"type": "LineString", "coordinates": [[2.3362859, 48.839906], [2.3350219, 48.84033190000001]]}}, {"type": "Feature", "properties": {"highway": "service", "footway": null, "name": null, "surface": null, "lit": null, "length_m": 43.45, "type_element": "Way", "__fid": 50175}, "geometry": {"type": "LineString", "coordinates": [[2.3356391, 48.83537230000002], [2.3351483, 48.8355908]]}}, {"type": "Feature", "properties": {"highway": "footway", "footway": "sidewalk", "name": null, "surface": "asphalt", "lit": "yes", "length_m": 102.68, "type_element": "Way", "__fid": 50291}, "geometry": {"type": "LineString", "coordinates": [[2.3359989, 48.8410579], [2.3355328, 48.8415288], [2.3352478, 48.8418368]]}}, {"type": "Feature", "properties": {"highway": "service", "footway": null, "name": null, "surface": "asphalt", "lit": "yes", "length_m": 9.75, "type_element": "Way", "__fid": 50352}, "geometry": {"type": "LineString", "coordinates": [[2.3355016, 48.837402800000014], [2.3353905, 48.8374509]]}}, {"type": "Feature", "properties": {"highway": "footway", "footway": "sidewalk", "name": null, "surface": "asphalt", "lit": "yes", "length_m": 18.55, "type_element": "Way", "__fid": 50353}, "geometry": {"type": "LineString", "coordinates": [[2.3355295, 48.8377893], [2.3353907, 48.8376499]]}}, {"type": "Feature", "properties": {"highway": "footway", "footway": "crossing", "name": null, "surface": "asphalt", "lit": "yes", "length_m": 22.33, "type_element": "Way", "__fid": 50354}, "geometry": {"type": "LineString", "coordinates": [[2.3353907, 48.8376499], [2.33558, 48.83756070000001], [2.335650466666691, 48.837552066666696]]}}, {"type": "Feature", "properties": {"highway": "footway", "footway": "sidewalk", "name": null, "surface": "asphalt", "lit": "yes", "length_m": 98.65, "type_element": "Way", "__fid": 50380}, "geometry": {"type": "LineString", "coordinates": [[2.3361095, 48.8411453], [2.3360545, 48.8411762], [2.3353759, 48.8418862]]}}, {"type": "Feature", "properties": {"highway": "service", "footway": null, "name": "Avenue Denfert-Rochereau", "surface": "concrete", "lit": null, "length_m": 8.77, "type_element": "Way", "__fid": 50434}, "geometry": {"type": "LineString", "coordinates": [[2.3355016, 48.837402800000014], [2.3355667, 48.8374689]]}}, {"type": "Feature", "properties": {"highway": "footway", "footway": "sidewalk", "name": null, "surface": "asphalt", "lit": "yes", "length_m": 88.98, "type_element": "Way", "__fid": 50459}, "geometry": {"type": "LineString", "coordinates": [[2.3361873, 48.8384615], [2.3355295, 48.8377893]]}}, {"type": "Feature", "properties": {"highway": "footway", "footway": "crossing", "name": null, "surface": "asphalt", "lit": "yes", "length_m": 23.06, "type_element": "Way", "__fid": 50460}, "geometry": {"type": "LineString", "coordinates": [[2.3355295, 48.8377893], [2.3357933, 48.8376767]]}}]}