{"type": "FeatureCollection", "features": [{"type": "Feature", "properties": {"highway": "service", "footway": null, "name": null, "surface": "asphalt", "lit": "yes", "length_m": 13.29, "type_element": "Way", "__fid": 51136}, "geometry": {"type": "LineString", "coordinates": [[2.3354812, 48.900532], [2.33566, 48.9005516]]}}, {"type": "Feature", "properties": {"highway": "footway", "footway": "sidewalk", "name": null, "surface": null, "lit": "yes", "length_m": 16.53, "type_element": "Way", "__fid": 51250}, "geometry": {"type": "LineString", "coordinates": [[2.33566, 48.9005516], [2.335578, 48.9006901]]}}, {"type": "Feature", "properties": {"highway": "service", "footway": null, "name": null, "surface": "asphalt", "lit": "yes", "length_m": 70.9, "type_element": "Way", "__fid": 51336}, "geometry": {"type": "LineString", "coordinates": [[2.33566, 48.9005516], [2.3366265, 48.9005752]]}}, {"type": "Feature", "properties": {"highway": "footway", "footway": "sidewalk", "name": null, "surface": null, "lit": "yes", "length_m": 10.66, "type_element": "Way", "__fid": 51337}, "geometry": {"type": "LineString", "coordinates": [[2.3357129, 48.90046229999999], [2.33566, 48.9005516]]}}, {"type": "Feature", "properties": {"highway": "footway", "footway": "sidewalk", "name": null, "surface": null, "lit": "yes", "length_m": 69.52, "type_element": "Way", "__fid": 58817}, "geometry": {"type": "LineString", "coordinates": [[2.3437793, 48.9006594], [2.3436603, 48.90069660000001], [2.3433984, 48.9006991], [2.3432556, 48.90071180000002], [2.3428452, 48.90070389999999]]}}, {"type": "Feature", "properties": {"highway": "footway", "footway": "sidewalk", "name": null, "surface": null, "lit": "yes", "length_m": 66.6, "type_element": "Way", "__fid": 58974}, "geometry": {"type": "LineString", "coordinates": [[2.34335733333352, 48.901304100000075], [2.3429764, 48.901824200000014], [2.3429913, 48.9018432]]}}, {"type": "Feature", "properties": {"highway": "footway", "footway": "sidewalk", "name": null, "surface": null, "lit": "yes", "length_m": 10.62, "type_element": "Way", "__fid": 59085}, "geometry": {"type": "LineString", "coordinates": [[2.3432251, 48.9013002], [2.3430806, 48.90129370000001]]}}, {"type": "Feature", "properties": {"highway": "footway", "footway": "sidewalk", "name": null, "surface": null, "lit": "yes", "length_m": 8.48, "type_element": "Way", "__fid": 59179}, "geometry": {"type": "LineString", "coordinates": [[2.3431865, 48.9013683], [2.3432316, 48.901305599999986], [2.3432251, 48.9013002]]}}, {"type": "Feature", "properties": {"highway": "footway", "footway": "crossing", "name": null, "surface": null, "lit": "yes", "length_m": 9.7, "type_element": "Way", "__fid": 59217}, "geometry": {"type": "LineString", "coordinates": [[2.3432251, 48.9013002], [2.34335733333352, 48.901304100000075]]}}, {"type": "Feature", "properties": {"highway": "footway", "footway": "sidewalk", "name": null, "surface": null, "lit": "yes", "length_m": 37.92, "type_element": "Way", "__fid": 59361}, "geometry": {"type": "LineString", "coordinates": [[2.3438708, 48.9012942], [2.3433742, 48.9012963], [2.34335733333352, 48.901304100000075]]}}, {"type": "Feature", "properties": {"highway": "footway", "footway": "sidewalk", "name": null, "surface": null, "lit": "yes", "length_m": 71.48, "type_element": "Way", "__fid": 59785}, "geometry": {"type": "LineString", "coordinates": [[2.3437793, 48.9006594], [2.3438374, 48.90080440000001], [2.3438307, 48.90112890000001], [2.3438599, 48.9011956], [2.3438708, 48.9012942]]}}, {"type": "Feature", "properties": {"highway": "footway", "footway": "sidewalk", "name": null, "surface": null, "lit": "yes", "length_m": 22.3, "type_element": "Way", "__fid": 59786}, "geometry": {"type": "LineString", "coordinates": [[2.3438515, 48.9004737], [2.3438349, 48.9006201], [2.3437793, 48.9006594]]}}, {"type": "Feature", "properties": {"highway": "footway", "footway": "sidewalk", "name": null, "surface": null, "lit": "yes", "length_m": 12.23, "type_element": "Way", "__fid": 59907}, "geometry": {"type": "LineString", "coordinates": [[2.3439331, 48.901372299999984], [2.3439339, 48.90131049999999], [2.3439181, 48.9012972], [2.3438708, 48.9012942]]}}, {"type": "Feature", "properties": {"highway": "service", "footway": null, "name": null, "surface": "asphalt", "lit": "yes", "length_m": 33.61, "type_element": "Way", "__fid": 59953}, "geometry": {"type": "LineString", "coordinates": [[2.3441233, 48.90067220000001], [2.3439691, 48.90065970000001], [2.3439089, 48.9006119], [2.3439106, 48.9004742]]}}, {"type": "Feature", "properties": {"highway": "footway", "footway": "sidewalk", "name": null, "surface": null, "lit": "yes", "length_m": 28.22, "type_element": "Way", "__fid": 60413}, "geometry": {"type": "LineString", "coordinates": [[2.3442688, 48.9015353], [2.344267, 48.9013978], [2.344384, 48.9013108]]}}, {"type": "Feature", "properties": {"highway": "footway", "footway": "sidewalk", "name": null, "surface": null, "lit": "yes", "length_m": 24.04, "type_element": "Way", "__fid": 60426}, "geometry": {"type": "LineString", "coordinates": [[2.3444868, 48.9005763], [2.3443023, 48.9005717], [2.3443058, 48.9004773]]}}, {"type": "Feature", "properties": {"highway": "footway", "footway": "sidewalk", "name": null, "surface": null, "lit": "yes", "length_m": 57.22, "type_element": "Way", "__fid": 60544}, "geometry": {"type": "LineString", "coordinates": [[2.344384, 48.9013108], [2.3447463, 48.901311], [2.3448748, 48.9013253], [2.3449311, 48.9013608], [2.34504, 48.9014792]]}}, {"type": "Feature", "properties": {"highway": "footway", "footway": "sidewalk", "name": null, "surface": null, "lit": "yes", "length_m": 82.66, "type_element": "Way", "__fid": 60545}, "geometry": {"type": "LineString", "coordinates": [[2.344384, 48.9013108], [2.3444249, 48.9007678], [2.344458, 48.900732], [2.3444762, 48.9006946], [2.3444868, 48.9005763]]}}, {"type": "Feature", "properties": {"highway": "footway", "footway": "sidewalk", "name": null, "surface": null, "lit": "yes", "length_m": 4.13, "type_element": "Way", "__fid": 60640}, "geometry": {"type": "LineString", "coordinates": [[2.344490466666689, 48.90053926666667], [2.3444868, 48.9005763]]}}, {"type": "Feature", "properties": {"highway": "footway", "footway": "sidewalk", "name": null, "surface": null, "lit": "yes", "length_m": 141.15, "type_element": "Way", "__fid": 60647}, "geometry": {"type": "LineString", "coordinates": [[2.3455857, 48.8999744], [2.3455636, 48.900518800000015], [2.3455247, 48.900552300000015], [2.3454523, 48.90055840000002], [2.344490466666689, 48.90053926666667]]}}, {"type": "Feature", "properties": {"highway": "footway", "footway": "sidewalk", "name": null, "surface": null, "lit": "yes", "length_m": 10.35, "type_element": "Way", "__fid": 60648}, "geometry": {"type": "LineString", "coordinates": [[2.3445256, 48.90044910000001], [2.344490466666689, 48.90053926666667]]}}]}