{"type": "FeatureCollection", "features": [{"type": "Feature", "properties": {"highway": "footway", "footway": "sidewalk", "name": null, "surface": "concrete", "lit": "yes", "length_m": 140.42, "type_element": "Way", "__fid": 49781}, "geometry": {"type": "LineString", "coordinates": [[2.3348763, 48.8168023], [2.335011, 48.8167701], [2.3353913, 48.8167231], [2.336147, 48.8166577], [2.336764832436121, 48.81662348688228]]}}, {"type": "Feature", "properties": {"highway": "service", "footway": null, "name": null, "surface": "asphalt", "lit": "yes", "length_m": 186.27, "type_element": "Way", "__fid": 50781}, "geometry": {"type": "LineString", "coordinates": [[2.3361494, 48.81807170000002], [2.3361362, 48.8178591], [2.3359156, 48.81757180000001], [2.3357363, 48.81722580000001], [2.3359991, 48.8171093], [2.3365017, 48.8169906], [2.3365453, 48.8169988], [2.3365781, 48.8170212], [2.3366561, 48.8171642]]}}, {"type": "Feature", "properties": {"highway": "footway", "footway": null, "name": null, "surface": "concrete", "lit": "no", "length_m": 12.4, "type_element": "Way", "__fid": 51007}, "geometry": {"type": "LineString", "coordinates": [[2.336462, 48.81763109999997], [2.3364088, 48.8175253]]}}, {"type": "Feature", "properties": {"highway": "footway", "footway": null, "name": null, "surface": "concrete", "lit": "no", "length_m": 24.91, "type_element": "Way", "__fid": 51060}, "geometry": {"type": "LineString", "coordinates": [[2.3365698, 48.8178435], [2.336462, 48.81763109999997]]}}, {"type": "Feature", "properties": {"highway": "footway", "footway": null, "name": null, "surface": "concrete", "lit": "no", "length_m": 30.33, "type_element": "Way", "__fid": 51061}, "geometry": {"type": "LineString", "coordinates": [[2.336855, 48.817547199999986], [2.336462, 48.81763109999997]]}}, {"type": "Feature", "properties": {"highway": "footway", "footway": null, "name": null, "surface": "concrete", "lit": "no", "length_m": 45.02, "type_element": "Way", "__fid": 51261}, "geometry": {"type": "LineString", "coordinates": [[2.3366561, 48.8171642], [2.336855, 48.817547199999986]]}}, {"type": "Feature", "properties": {"highway": "steps", "footway": null, "name": null, "surface": "concrete", "lit": "yes", "length_m": 13.27, "type_element": "Way", "__fid": 51262}, "geometry": {"type": "LineString", "coordinates": [[2.3368247, 48.81712130000001], [2.3366561, 48.8171642]]}}, {"type": "Feature", "properties": {"highway": "service", "footway": null, "name": null, "surface": "asphalt", "lit": "yes", "length_m": 21.82, "type_element": "Way", "__fid": 51292}, "geometry": {"type": "LineString", "coordinates": [[2.3366791, 48.81781960000002], [2.3369601, 48.8177559]]}}, {"type": "Feature", "properties": {"highway": "footway", "footway": null, "name": "Passerelle du Cambodge", "surface": "tartan", "lit": "yes", "length_m": 12.84, "type_element": "Way", "__fid": 51309}, "geometry": {"type": "LineString", "coordinates": [[2.336764832436121, 48.81662348688228], [2.3367086, 48.8165141]]}}, {"type": "Feature", "properties": {"highway": "footway", "footway": null, "name": "Passerelle du Cambodge", "surface": "tartan", "lit": "yes", "length_m": 44.34, "type_element": "Way", "__fid": 51372}, "geometry": {"type": "LineString", "coordinates": [[2.3369571, 48.81700150000001], [2.336764832436121, 48.81662348688228]]}}, {"type": "Feature", "properties": {"highway": "footway", "footway": "sidewalk", "name": null, "surface": "concrete", "lit": "yes", "length_m": 59.51, "type_element": "Way", "__fid": 51373}, "geometry": {"type": "LineString", "coordinates": [[2.336764832436121, 48.81662348688228], [2.337572386610295, 48.81657876284202]]}}, {"type": "Feature", "properties": {"highway": "footway", "footway": null, "name": null, "surface": "compacted", "lit": "yes", "length_m": 17.23, "type_element": "Way", "__fid": 51435}, "geometry": {"type": "LineString", "coordinates": [[2.3368247, 48.81712130000001], [2.3368567, 48.8171457], [2.3369053, 48.8171565], [2.3369613, 48.8171603], [2.337038, 48.8171503]]}}, {"type": "Feature", "properties": {"highway": "footway", "footway": null, "name": null, "surface": "compacted", "lit": "yes", "length_m": 17.94, "type_element": "Way", "__fid": 51436}, "geometry": {"type": "LineString", "coordinates": [[2.3369571, 48.81700150000001], [2.3368819, 48.8170305], [2.3368425, 48.8170572], [2.3368253, 48.8170825], [2.3368247, 48.81712130000001]]}}, {"type": "Feature", "properties": {"highway": "footway", "footway": null, "name": null, "surface": "concrete", "lit": "yes", "length_m": 24.46, "type_element": "Way", "__fid": 51461}, "geometry": {"type": "LineString", "coordinates": [[2.336855, 48.817547199999986], [2.3369601, 48.8177559]]}}, {"type": "Feature", "properties": {"highway": "footway", "footway": null, "name": null, "surface": "compacted", "lit": "yes", "length_m": 14.23, "type_element": "Way", "__fid": 51540}, "geometry": {"type": "LineString", "coordinates": [[2.3371487, 48.8170132], [2.3370444, 48.8169991], [2.3369571, 48.81700150000001]]}}, {"type": "Feature", "properties": {"highway": "service", "footway": null, "name": null, "surface": "asphalt", "lit": "yes", "length_m": 26.41, "type_element": "Way", "__fid": 51554}, "geometry": {"type": "LineString", "coordinates": [[2.3369601, 48.8177559], [2.3373003, 48.8176787]]}}, {"type": "Feature", "properties": {"highway": "footway", "footway": null, "name": null, "surface": "woodchips", "lit": "no", "length_m": 61.83, "type_element": "Way", "__fid": 51641}, "geometry": {"type": "LineString", "coordinates": [[2.337038, 48.8171503], [2.3373003, 48.8176787]]}}, {"type": "Feature", "properties": {"highway": "footway", "footway": null, "name": null, "surface": "compacted", "lit": "yes", "length_m": 15.29, "type_element": "Way", "__fid": 51642}, "geometry": {"type": "LineString", "coordinates": [[2.337038, 48.8171503], [2.3370934, 48.8171364], [2.3371398, 48.817111], [2.3371889, 48.817062200000024]]}}, {"type": "Feature", "properties": {"highway": "footway", "footway": null, "name": null, "surface": "compacted", "lit": "yes", "length_m": 6.6, "type_element": "Way", "__fid": 51732}, "geometry": {"type": "LineString", "coordinates": [[2.3371889, 48.817062200000024], [2.3371847, 48.8170357], [2.3371487, 48.8170132]]}}, {"type": "Feature", "properties": {"highway": "service", "footway": null, "name": null, "surface": "asphalt", "lit": "yes", "length_m": 44.94, "type_element": "Way", "__fid": 51733}, "geometry": {"type": "LineString", "coordinates": [[2.3377359, 48.8169354], [2.3375901, 48.81693109999998], [2.3374432, 48.81693420000001], [2.3373862, 48.81694169999999], [2.3371487, 48.8170132]]}}, {"type": "Feature", "properties": {"highway": "footway", "footway": null, "name": null, "surface": "dirt", "lit": "yes", "length_m": 80.53, "type_element": "Way", "__fid": 51786}, "geometry": {"type": "LineString", "coordinates": [[2.3378709, 48.8175536], [2.3375231, 48.8174717], [2.3373608, 48.817156899999986], [2.3371889, 48.817062200000024]]}}, {"type": "Feature", "properties": {"highway": "service", "footway": null, "name": null, "surface": "asphalt", "lit": "yes", "length_m": 44.15, "type_element": "Way", "__fid": 51897}, "geometry": {"type": "LineString", "coordinates": [[2.3373003, 48.8176787], [2.3378709, 48.8175536]]}}, {"type": "Feature", "properties": {"highway": "service", "footway": null, "name": null, "surface": null, "lit": "24/7", "length_m": 24.19, "type_element": "Way", "__fid": 51941}, "geometry": {"type": "LineString", "coordinates": [[2.337364, 48.8164112], [2.3374821, 48.81652], [2.337572386610295, 48.81657876284202]]}}, {"type": "Feature", "properties": {"highway": "service", "footway": null, "name": null, "surface": null, "lit": "yes", "length_m": 358.34, "type_element": "Way", "__fid": 52112}, "geometry": {"type": "LineString", "coordinates": [[2.337572386610295, 48.81657876284202], [2.3377423, 48.816661300000014], [2.3378912, 48.81669930000001], [2.3380615, 48.81671870000001], [2.3382626, 48.81672050000002], [2.3411312, 48.8165756], [2.3422321, 48.8165311], [2.3423582, 48.8164709]]}}, {"type": "Feature", "properties": {"highway": "footway", "footway": "sidewalk", "name": null, "surface": "concrete", "lit": "yes", "length_m": 212.24, "type_element": "Way", "__fid": 52113}, "geometry": {"type": "LineString", "coordinates": [[2.337572386610295, 48.81657876284202], [2.3404527, 48.816419199999984]]}}, {"type": "Feature", "properties": {"highway": "footway", "footway": null, "name": null, "surface": "asphalt", "lit": "yes", "length_m": 17.02, "type_element": "Way", "__fid": 52229}, "geometry": {"type": "LineString", "coordinates": [[2.3379409, 48.817123], [2.3378695, 48.8171353], [2.337715, 48.8171133]]}}, {"type": "Feature", "properties": {"highway": "footway", "footway": null, "name": null, "surface": "concrete", "lit": "yes", "length_m": 30.88, "type_element": "Way", "__fid": 52230}, "geometry": {"type": "LineString", "coordinates": [[2.3377994, 48.8173814], [2.3377034, 48.8171646], [2.337715, 48.8171133]]}}, {"type": "Feature", "properties": {"highway": "footway", "footway": null, "name": null, "surface": "concrete", "lit": "yes", "length_m": 19.87, "type_element": "Way", "__fid": 52231}, "geometry": {"type": "LineString", "coordinates": [[2.337715, 48.8171133], [2.3377302, 48.81704589999999], [2.3377359, 48.8169354]]}}, {"type": "Feature", "properties": {"highway": "service", "footway": null, "name": null, "surface": "asphalt", "lit": "yes", "length_m": 46.99, "type_element": "Way", "__fid": 52245}, "geometry": {"type": "LineString", "coordinates": [[2.338045, 48.8172035], [2.3380105, 48.8169951], [2.3379924, 48.8169584], [2.3379522, 48.81694169999999], [2.3377359, 48.8169354]]}}, {"type": "Feature", "properties": {"highway": "footway", "footway": null, "name": null, "surface": "concrete", "lit": "yes", "length_m": 4.64, "type_element": "Way", "__fid": 52329}, "geometry": {"type": "LineString", "coordinates": [[2.337814, 48.817422], [2.3377994, 48.8173814]]}}, {"type": "Feature", "properties": {"highway": "footway", "footway": null, "name": null, "surface": "asphalt", "lit": "yes", "length_m": 24.31, "type_element": "Way", "__fid": 52330}, "geometry": {"type": "LineString", "coordinates": [[2.3377994, 48.8173814], [2.3379615, 48.8171908]]}}, {"type": "Feature", "properties": {"highway": "service", "footway": null, "name": null, "surface": "asphalt", "lit": "yes", "length_m": 15.22, "type_element": "Way", "__fid": 52357}, "geometry": {"type": "LineString", "coordinates": [[2.3378709, 48.8175536], [2.337814, 48.817422]]}}, {"type": "Feature", "properties": {"highway": "service", "footway": null, "name": null, "surface": "asphalt", "lit": "yes", "length_m": 29.63, "type_element": "Way", "__fid": 52358}, "geometry": {"type": "LineString", "coordinates": [[2.337814, 48.817422], [2.338045, 48.8172035]]}}, {"type": "Feature", "properties": {"highway": "footway", "footway": null, "name": null, "surface": "compacted", "lit": "yes", "length_m": 5.34, "type_element": "Way", "__fid": 52421}, "geometry": {"type": "LineString", "coordinates": [[2.3378709, 48.8175536], [2.3378887, 48.81760019999999]]}}, {"type": "Feature", "properties": {"highway": "service", "footway": null, "name": null, "surface": "asphalt", "lit": "yes", "length_m": 48.2, "type_element": "Way", "__fid": 52422}, "geometry": {"type": "LineString", "coordinates": [[2.3378709, 48.8175536], [2.3380947, 48.8175097], [2.3385156, 48.81753759999999]]}}, {"type": "Feature", "properties": {"highway": "footway", "footway": null, "name": null, "surface": "woodchips", "lit": "no", "length_m": 45.45, "type_element": "Way", "__fid": 52432}, "geometry": {"type": "LineString", "coordinates": [[2.3378887, 48.81760019999999], [2.3380613, 48.8176062], [2.3385039, 48.8176432]]}}, {"type": "Feature", "properties": {"highway": "footway", "footway": null, "name": null, "surface": "compacted", "lit": "yes", "length_m": 114.01, "type_element": "Way", "__fid": 52433}, "geometry": {"type": "LineString", "coordinates": [[2.3378887, 48.81760019999999], [2.3383836, 48.8185721]]}}, {"type": "Feature", "properties": {"highway": "service", "footway": null, "name": null, "surface": "asphalt", "lit": "yes", "length_m": 14.13, "type_element": "Way", "__fid": 52610}, "geometry": {"type": "LineString", "coordinates": [[2.338045, 48.8172035], [2.3381091, 48.817147], [2.3381906, 48.81712980000001]]}}, {"type": "Feature", "properties": {"highway": "footway", "footway": null, "name": null, "surface": "dirt", "lit": "no", "length_m": 58.98, "type_element": "Way", "__fid": 52820}, "geometry": {"type": "LineString", "coordinates": [[2.3382387, 48.8170221], [2.3390393, 48.8169798]]}}, {"type": "Feature", "properties": {"highway": "footway", "footway": null, "name": null, "surface": "compacted", "lit": "no", "length_m": 104.26, "type_element": "Way", "__fid": 53017}, "geometry": {"type": "LineString", "coordinates": [[2.3383836, 48.8185721], [2.3384477, 48.8184142], [2.3384739, 48.8183214], [2.3384789, 48.81821170000002], [2.3384626, 48.8179193], [2.3385039, 48.8176432]]}}, {"type": "Feature", "properties": {"highway": "footway", "footway": null, "name": null, "surface": "woodchips", "lit": "no", "length_m": 73.23, "type_element": "Way", "__fid": 53136}, "geometry": {"type": "LineString", "coordinates": [[2.3385039, 48.8176432], [2.3389545, 48.817661], [2.3394908, 48.8177283]]}}, {"type": "Feature", "properties": {"highway": "footway", "footway": null, "name": null, "surface": "compacted", "lit": "no", "length_m": 11.77, "type_element": "Way", "__fid": 53137}, "geometry": {"type": "LineString", "coordinates": [[2.3385039, 48.8176432], [2.3385156, 48.81753759999999]]}}, {"type": "Feature", "properties": {"highway": "service", "footway": null, "name": null, "surface": "asphalt", "lit": "yes", "length_m": 33.84, "type_element": "Way", "__fid": 53142}, "geometry": {"type": "LineString", "coordinates": [[2.3385156, 48.81753759999999], [2.3389717, 48.8175811]]}}, {"type": "Feature", "properties": {"highway": "footway", "footway": null, "name": null, "surface": "compacted", "lit": "no", "length_m": 19.16, "type_element": "Way", "__fid": 53143}, "geometry": {"type": "LineString", "coordinates": [[2.3385156, 48.81753759999999], [2.3385289, 48.8174291], [2.3385241, 48.8173657]]}}, {"type": "Feature", "properties": {"highway": "service", "footway": null, "name": null, "surface": "asphalt", "lit": "yes", "length_m": 47.52, "type_element": "Way", "__fid": 53628}, "geometry": {"type": "LineString", "coordinates": [[2.3389717, 48.8175811], [2.3396124, 48.8176411]]}}, {"type": "Feature", "properties": {"highway": "footway", "footway": null, "name": null, "surface": "asphalt", "lit": "no", "length_m": 67.04, "type_element": "Way", "__fid": 53629}, "geometry": {"type": "LineString", "coordinates": [[2.3389717, 48.8175811], [2.3390393, 48.8169798]]}}, {"type": "Feature", "properties": {"highway": "footway", "footway": null, "name": null, "surface": "dirt", "lit": "no", "length_m": 61.24, "type_element": "Way", "__fid": 53702}, "geometry": {"type": "LineString", "coordinates": [[2.3390393, 48.8169798], [2.3398706, 48.8169359]]}}, {"type": "Feature", "properties": {"highway": "footway", "footway": null, "name": null, "surface": "compacted", "lit": "yes", "length_m": 26.19, "type_element": "Way", "__fid": 53952}, "geometry": {"type": "LineString", "coordinates": [[2.3392716, 48.81791410000001], [2.3394908, 48.8177283]]}}, {"type": "Feature", "properties": {"highway": "footway", "footway": null, "name": null, "surface": "compacted", "lit": "yes", "length_m": 13.18, "type_element": "Way", "__fid": 54220}, "geometry": {"type": "LineString", "coordinates": [[2.3394908, 48.8177283], [2.3396124, 48.8176411]]}}, {"type": "Feature", "properties": {"highway": "footway", "footway": null, "name": null, "surface": "asphalt", "lit": "yes", "length_m": 5.12, "type_element": "Way", "__fid": 54307}, "geometry": {"type": "LineString", "coordinates": [[2.3395688, 48.81746730000001], [2.3395574, 48.817421900000014]]}}, {"type": "Feature", "properties": {"highway": "footway", "footway": null, "name": null, "surface": "concrete", "lit": null, "length_m": 31.42, "type_element": "Way", "__fid": 54308}, "geometry": {"type": "LineString", "coordinates": [[2.3395574, 48.817421900000014], [2.3395455, 48.8173749], [2.3397096, 48.81736], [2.3397085, 48.81737540000002], [2.3395574, 48.817421900000014]]}}, {"type": "Feature", "properties": {"highway": "footway", "footway": null, "name": null, "surface": "asphalt", "lit": "yes", "length_m": 19.59, "type_element": "Way", "__fid": 54322}, "geometry": {"type": "LineString", "coordinates": [[2.3396124, 48.8176411], [2.3395688, 48.81746730000001]]}}, {"type": "Feature", "properties": {"highway": "footway", "footway": null, "name": null, "surface": "compacted", "lit": "yes", "length_m": 113.24, "type_element": "Way", "__fid": 54371}, "geometry": {"type": "LineString", "coordinates": [[2.3396124, 48.8176411], [2.3397902, 48.81765249999999], [2.3411383, 48.8177879]]}}, {"type": "Feature", "properties": {"highway": "service", "footway": null, "name": null, "surface": "asphalt", "lit": "yes", "length_m": 72.89, "type_element": "Way", "__fid": 54372}, "geometry": {"type": "LineString", "coordinates": [[2.3396124, 48.8176411], [2.3399221, 48.8179255], [2.3401802, 48.81817870000001]]}}, {"type": "Feature", "properties": {"highway": "service", "footway": null, "name": null, "surface": "asphalt", "lit": "yes", "length_m": 23.82, "type_element": "Way", "__fid": 54373}, "geometry": {"type": "LineString", "coordinates": [[2.3396124, 48.8176411], [2.3396856, 48.8175591], [2.3397315, 48.81752250000002], [2.3397651, 48.81750510000001], [2.3398275, 48.8174917]]}}, {"type": "Feature", "properties": {"highway": "service", "footway": null, "name": null, "surface": "asphalt", "lit": "yes", "length_m": 48.0, "type_element": "Way", "__fid": 54513}, "geometry": {"type": "LineString", "coordinates": [[2.3398275, 48.8174917], [2.3397768, 48.81706130000001]]}}, {"type": "Feature", "properties": {"highway": "service", "footway": null, "name": null, "surface": "asphalt", "lit": "yes", "length_m": 55.94, "type_element": "Way", "__fid": 54572}, "geometry": {"type": "LineString", "coordinates": [[2.3398275, 48.8174917], [2.3405523, 48.8173367]]}}, {"type": "Feature", "properties": {"highway": "footway", "footway": null, "name": null, "surface": "sett", "lit": "yes", "length_m": 25.85, "type_element": "Way", "__fid": 55173}, "geometry": {"type": "LineString", "coordinates": [[2.340437, 48.817117], [2.3405523, 48.8173367]]}}, {"type": "Feature", "properties": {"highway": "footway", "footway": null, "name": null, "surface": "asphalt", "lit": "yes", "length_m": 2.27, "type_element": "Way", "__fid": 55180}, "geometry": {"type": "LineString", "coordinates": [[2.3404537, 48.8163988], [2.3404527, 48.816419199999984]]}}, {"type": "Feature", "properties": {"highway": "footway", "footway": "sidewalk", "name": null, "surface": "concrete", "lit": "yes", "length_m": 250.36, "type_element": "Way", "__fid": 55181}, "geometry": {"type": "LineString", "coordinates": [[2.3404527, 48.816419199999984], [2.341423, 48.816377], [2.3416987, 48.8163594], [2.3419427, 48.8163254], [2.3424067, 48.8162427], [2.3431128, 48.8161047], [2.343525, 48.8159534], [2.343672, 48.8159269], [2.3437412, 48.8159327]]}}, {"type": "Feature", "properties": {"highway": "service", "footway": null, "name": null, "surface": "asphalt", "lit": "yes", "length_m": 24.06, "type_element": "Way", "__fid": 55293}, "geometry": {"type": "LineString", "coordinates": [[2.3405523, 48.8173367], [2.3408628, 48.8172677]]}}, {"type": "Feature", "properties": {"highway": "footway", "footway": null, "name": null, "surface": "compacted", "lit": "yes", "length_m": 61.28, "type_element": "Way", "__fid": 55593}, "geometry": {"type": "LineString", "coordinates": [[2.3411383, 48.8177879], [2.3408628, 48.8172677]]}}, {"type": "Feature", "properties": {"highway": "service", "footway": null, "name": null, "surface": "asphalt", "lit": "yes", "length_m": 212.93, "type_element": "Way", "__fid": 55594}, "geometry": {"type": "LineString", "coordinates": [[2.3408628, 48.8172677], [2.3425016, 48.8169035], [2.3425505, 48.8168997], [2.3426021, 48.81691540000001], [2.3426725, 48.81696709999998], [2.3430792, 48.81742160000001], [2.3431492, 48.8175166]]}}, {"type": "Feature", "properties": {"highway": "footway", "footway": null, "name": null, "surface": "compacted", "lit": "yes", "length_m": 43.55, "type_element": "Way", "__fid": 56424}, "geometry": {"type": "LineString", "coordinates": [[2.3420826, 48.8178338], [2.3420478, 48.8177628], [2.3415931, 48.817864600000014]]}}, {"type": "Feature", "properties": {"highway": "service", "footway": null, "name": null, "surface": "asphalt", "lit": "yes", "length_m": 64.42, "type_element": "Way", "__fid": 57317}, "geometry": {"type": "LineString", "coordinates": [[2.3431492, 48.8175166], [2.3428908, 48.8175695], [2.3427556, 48.8176072], [2.3426657, 48.8176499], [2.3426089, 48.8176872], [2.3424958, 48.8177925], [2.3424439, 48.8178271]]}}, {"type": "Feature", "properties": {"highway": "service", "footway": null, "name": null, "surface": "asphalt", "lit": "yes", "length_m": 73.65, "type_element": "Way", "__fid": 58075}, "geometry": {"type": "LineString", "coordinates": [[2.3431232, 48.8181783], [2.3431885, 48.818097], [2.3432195, 48.8180389], [2.3432703, 48.8178812], [2.343279, 48.81780349999999], [2.3432587, 48.8176906], [2.3431697, 48.8175462]]}}, {"type": "Feature", "properties": {"highway": "service", "footway": null, "name": null, "surface": "asphalt", "lit": "yes", "length_m": 3.62, "type_element": "Way", "__fid": 58090}, "geometry": {"type": "LineString", "coordinates": [[2.3431697, 48.8175462], [2.3431492, 48.8175166]]}}, {"type": "Feature", "properties": {"highway": "footway", "footway": null, "name": null, "surface": "asphalt", "lit": "yes", "length_m": 12.31, "type_element": "Way", "__fid": 58119}, "geometry": {"type": "LineString", "coordinates": [[2.3431697, 48.8175462], [2.3433307, 48.8175152]]}}, {"type": "Feature", "properties": {"highway": "steps", "footway": null, "name": null, "surface": null, "lit": null, "length_m": 11.8, "type_element": "Way", "__fid": 58225}, "geometry": {"type": "LineString", "coordinates": [[2.3433139, 48.8174749], [2.3432692, 48.817373]]}}, {"type": "Feature", "properties": {"highway": "footway", "footway": null, "name": null, "surface": "asphalt", "lit": "yes", "length_m": 4.65, "type_element": "Way", "__fid": 58265}, "geometry": {"type": "LineString", "coordinates": [[2.3433307, 48.8175152], [2.3433139, 48.8174749]]}}, {"type": "Feature", "properties": {"highway": "footway", "footway": null, "name": null, "surface": "asphalt", "lit": "yes", "length_m": 1.63, "type_element": "Way", "__fid": 58266}, "geometry": {"type": "LineString", "coordinates": [[2.3433139, 48.8174749], [2.3433346, 48.8174696]]}}, {"type": "Feature", "properties": {"highway": "footway", "footway": null, "name": null, "surface": "asphalt", "lit": "yes", "length_m": 35.17, "type_element": "Way", "__fid": 58287}, "geometry": {"type": "LineString", "coordinates": [[2.3433307, 48.8175152], [2.3437857, 48.81741640000002]]}}, {"type": "Feature", "properties": {"highway": "footway", "footway": null, "name": null, "surface": "concrete", "lit": "yes", "length_m": 32.72, "type_element": "Way", "__fid": 58653}, "geometry": {"type": "LineString", "coordinates": [[2.343679, 48.8176925], [2.3437002, 48.8176658], [2.3437092, 48.8175223], [2.3437749, 48.8174621], [2.3437857, 48.81741640000002]]}}, {"type": "Feature", "properties": {"highway": "footway", "footway": "sidewalk", "name": null, "surface": "asphalt", "lit": "yes", "length_m": 159.64, "type_element": "Way", "__fid": 58683}, "geometry": {"type": "LineString", "coordinates": [[2.3437412, 48.8159327], [2.3437699, 48.81595440000001], [2.343775, 48.8160201], [2.343755899999893, 48.816046200000024], [2.3437858, 48.8161002], [2.3437868, 48.8161215], [2.3437795, 48.81616240000001], [2.3437437, 48.8162423], [2.3437813, 48.8162771], [2.3438027, 48.8163213], [2.3438329, 48.8166432], [2.3438296, 48.8167205], [2.3438955, 48.8167507], [2.3439013, 48.8167655], [2.3438222, 48.8168247], [2.3438329, 48.8170105], [2.3437756, 48.8171458], [2.3438463, 48.81728430000001]]}}, {"type": "Feature", "properties": {"highway": "footway", "footway": "sidewalk", "name": null, "surface": "asphalt", "lit": "yes", "length_m": 63.98, "type_element": "Way", "__fid": 58684}, "geometry": {"type": "LineString", "coordinates": [[2.3444578, 48.8157491], [2.344205, 48.8156957], [2.3438189, 48.815837], [2.3437412, 48.8159327]]}}, {"type": "Feature", "properties": {"highway": "footway", "footway": null, "name": null, "surface": "asphalt", "lit": "yes", "length_m": 5.34, "type_element": "Way", "__fid": 58724}, "geometry": {"type": "LineString", "coordinates": [[2.3437857, 48.81741640000002], [2.3438551, 48.817402]]}}, {"type": "Feature", "properties": {"highway": "footway", "footway": "sidewalk", "name": null, "surface": "asphalt", "lit": "yes", "length_m": 13.1, "type_element": "Way", "__fid": 58768}, "geometry": {"type": "LineString", "coordinates": [[2.3438463, 48.81728430000001], [2.3438551, 48.817402]]}}, {"type": "Feature", "properties": {"highway": "footway", "footway": "traffic_island", "name": null, "surface": "asphalt", "lit": "yes", "length_m": 38.95, "type_element": "Way", "__fid": 58769}, "geometry": {"type": "LineString", "coordinates": [[2.3442627, 48.81726660000001], [2.3440784, 48.8172686], [2.3440749, 48.8172289], [2.343941, 48.8172316], [2.3439421, 48.8172661], [2.3438463, 48.81728430000001]]}}, {"type": "Feature", "properties": {"highway": "footway", "footway": "sidewalk", "name": null, "surface": "asphalt", "lit": "yes", "length_m": 119.86, "type_element": "Way", "__fid": 58774}, "geometry": {"type": "LineString", "coordinates": [[2.3438551, 48.817402], [2.3438678, 48.81747350000002], [2.3441494, 48.8184621]]}}, {"type": "Feature", "properties": {"highway": "service", "footway": null, "name": null, "surface": "asphalt", "lit": "yes", "length_m": 14.41, "type_element": "Way", "__fid": 59003}, "geometry": {"type": "LineString", "coordinates": [[2.3440798, 48.81735], [2.344276, 48.8173479]]}}, {"type": "Feature", "properties": {"highway": "footway", "footway": "sidewalk", "name": null, "surface": "asphalt", "lit": "yes", "length_m": 9.09, "type_element": "Way", "__fid": 59193}, "geometry": {"type": "LineString", "coordinates": [[2.3442627, 48.81726660000001], [2.344276, 48.8173479]]}}, {"type": "Feature", "properties": {"highway": "footway", "footway": "sidewalk", "name": null, "surface": "asphalt", "lit": "yes", "length_m": 137.79, "type_element": "Way", "__fid": 59194}, "geometry": {"type": "LineString", "coordinates": [[2.344452, 48.816089], [2.3442379, 48.8162374], [2.3442111, 48.8162776], [2.3442386, 48.8167535], [2.3442599, 48.8168574], [2.3442627, 48.81726660000001]]}}, {"type": "Feature", "properties": {"highway": "footway", "footway": "sidewalk", "name": null, "surface": "asphalt", "lit": "yes", "length_m": 60.82, "type_element": "Way", "__fid": 59211}, "geometry": {"type": "LineString", "coordinates": [[2.344276, 48.8173479], [2.3443157, 48.817845], [2.3443305, 48.8178932]]}}, {"type": "Feature", "properties": {"highway": "footway", "footway": "sidewalk", "name": null, "surface": "asphalt", "lit": "yes", "length_m": 274.95, "type_element": "Way", "__fid": 59386}, "geometry": {"type": "LineString", "coordinates": [[2.3444578, 48.8157491], [2.3444693, 48.8156051], [2.344521399999769, 48.815570850000036], [2.3452927, 48.8152985], [2.3458714, 48.8159904], [2.3454798, 48.8160281], [2.3447583, 48.81599719999997], [2.3445066, 48.8159487]]}}, {"type": "Feature", "properties": {"highway": "footway", "footway": null, "name": null, "surface": null, "lit": null, "length_m": 226.11, "type_element": "Way", "__fid": 59403}, "geometry": {"type": "LineString", "coordinates": [[2.3470872, 48.817537], [2.3468123, 48.8174914], [2.346672, 48.8174821], [2.346529, 48.8174809], [2.3463529, 48.8174962], [2.346188, 48.8175243], [2.3460729, 48.8175525], [2.3459649, 48.817589800000015], [2.3458203, 48.817663400000015], [2.3455953, 48.8178707], [2.3454123, 48.8180081], [2.3453849, 48.818085599999975], [2.3452515, 48.8181226], [2.3444437, 48.8181049]]}}, {"type": "Feature", "properties": {"highway": "footway", "footway": "sidewalk", "name": null, "surface": "asphalt", "lit": "yes", "length_m": 3.42, "type_element": "Way", "__fid": 59441}, "geometry": {"type": "LineString", "coordinates": [[2.3445066, 48.8159487], [2.3444943, 48.8159784]]}}]}