{"type": "FeatureCollection", "features": [{"type": "Feature", "properties": {"highway": "footway", "footway": "sidewalk", "name": null, "surface": "asphalt", "lit": "yes", "length_m": 274.95, "type_element": "Way", "__fid": 59386}, "geometry": {"type": "LineString", "coordinates": [[2.3444578, 48.8157491], [2.3444693, 48.8156051], [2.344521399999769, 48.815570850000036], [2.3452927, 48.8152985], [2.3458714, 48.8159904], [2.3454798, 48.8160281], [2.3447583, 48.81599719999997], [2.3445066, 48.8159487]]}}, {"type": "Feature", "properties": {"highway": "footway", "footway": null, "name": null, "surface": null, "lit": null, "length_m": 226.11, "type_element": "Way", "__fid": 59403}, "geometry": {"type": "LineString", "coordinates": [[2.3470872, 48.817537], [2.3468123, 48.8174914], [2.346672, 48.8174821], [2.346529, 48.8174809], [2.3463529, 48.8174962], [2.346188, 48.8175243], [2.3460729, 48.8175525], [2.3459649, 48.817589800000015], [2.3458203, 48.817663400000015], [2.3455953, 48.8178707], [2.3454123, 48.8180081], [2.3453849, 48.818085599999975], [2.3452515, 48.8181226], [2.3444437, 48.8181049]]}}, {"type": "Feature", "properties": {"highway": "service", "footway": null, "name": null, "surface": null, "lit": null, "length_m": 82.82, "type_element": "Way", "__fid": 62828}, "geometry": {"type": "LineString", "coordinates": [[2.3470872, 48.817537], [2.3472588, 48.8168008]]}}, {"type": "Feature", "properties": {"highway": "service", "footway": null, "name": null, "surface": null, "lit": null, "length_m": 20.36, "type_element": "Way", "__fid": 62829}, "geometry": {"type": "LineString", "coordinates": [[2.3472943, 48.8174152], [2.3470872, 48.817537]]}}, {"type": "Feature", "properties": {"highway": "pedestrian", "footway": null, "name": "Rue Francis de Miomandre", "surface": "sett", "lit": "yes", "length_m": 112.2, "type_element": "Way", "__fid": 63054}, "geometry": {"type": "LineString", "coordinates": [[2.3472943, 48.8174152], [2.3479735, 48.81831909999998]]}}, {"type": "Feature", "properties": {"highway": "pedestrian", "footway": null, "name": "Rue Francis de Miomandre", "surface": "sett", "lit": "yes", "length_m": 38.97, "type_element": "Way", "__fid": 63055}, "geometry": {"type": "LineString", "coordinates": [[2.3472943, 48.8174152], [2.3477093, 48.8171967]]}}, {"type": "Feature", "properties": {"highway": "service", "footway": null, "name": "Allée de l'Ouest", "surface": "asphalt", "lit": "no", "length_m": 46.47, "type_element": "Way", "__fid": 63339}, "geometry": {"type": "LineString", "coordinates": [[2.3475126, 48.81755130000001], [2.3477979, 48.8179244]]}}, {"type": "Feature", "properties": {"highway": "service", "footway": null, "name": "Allée Louis Pergaud", "surface": "asphalt", "lit": "no", "length_m": 32.49, "type_element": "Way", "__fid": 63340}, "geometry": {"type": "LineString", "coordinates": [[2.3475126, 48.81755130000001], [2.3474221, 48.8174359], [2.3476178, 48.8173378]]}}, {"type": "Feature", "properties": {"highway": "service", "footway": null, "name": "Allée Nouvelle", "surface": "asphalt", "lit": "no", "length_m": 17.46, "type_element": "Way", "__fid": 63341}, "geometry": {"type": "LineString", "coordinates": [[2.3475126, 48.81755130000001], [2.3477249, 48.81748060000001]]}}, {"type": "Feature", "properties": {"highway": "service", "footway": null, "name": "Allée de l'Ouest", "surface": "asphalt", "lit": "no", "length_m": 17.72, "type_element": "Way", "__fid": 63468}, "geometry": {"type": "LineString", "coordinates": [[2.3477249, 48.81748060000001], [2.3476178, 48.8173378]]}}, {"type": "Feature", "properties": {"highway": "service", "footway": null, "name": "Allée Louis Pergaud", "surface": "asphalt", "lit": "no", "length_m": 27.77, "type_element": "Way", "__fid": 63469}, "geometry": {"type": "LineString", "coordinates": [[2.3476178, 48.8173378], [2.3478033, 48.8172693], [2.3478548, 48.8172617], [2.3478893, 48.8172668], [2.3479571, 48.8172419]]}}, {"type": "Feature", "properties": {"highway": "footway", "footway": "sidewalk", "name": null, "surface": "asphalt", "lit": "yes", "length_m": 92.84, "type_element": "Way", "__fid": 63580}, "geometry": {"type": "LineString", "coordinates": [[2.3484034, 48.8167514], [2.3484007, 48.8167734], [2.3483575, 48.8168241], [2.3479622, 48.8170163], [2.347934, 48.81702110000001], [2.3478294, 48.81698630000001], [2.3477872, 48.81698140000002], [2.3477362, 48.8169836], [2.3476893, 48.8169986], [2.347645, 48.817024199999985], [2.3476148, 48.8170865], [2.3476182, 48.81712], [2.347639, 48.81715360000001], [2.3477093, 48.8171967]]}}, {"type": "Feature", "properties": {"highway": "pedestrian", "footway": null, "name": "Rue Francis de Miomandre", "surface": "sett", "lit": "yes", "length_m": 15.52, "type_element": "Way", "__fid": 63581}, "geometry": {"type": "LineString", "coordinates": [[2.3477093, 48.8171967], [2.3478316, 48.8171289], [2.347862, 48.8171565]]}}, {"type": "Feature", "properties": {"highway": "service", "footway": null, "name": "Allée de l'Ouest", "surface": "asphalt", "lit": "no", "length_m": 46.3, "type_element": "Way", "__fid": 63595}, "geometry": {"type": "LineString", "coordinates": [[2.3480052, 48.8178536], [2.3477249, 48.81748060000001]]}}, {"type": "Feature", "properties": {"highway": "service", "footway": null, "name": "Allée Nouvelle", "surface": "asphalt", "lit": "no", "length_m": 25.42, "type_element": "Way", "__fid": 63596}, "geometry": {"type": "LineString", "coordinates": [[2.3477249, 48.81748060000001], [2.348034, 48.8173776]]}}, {"type": "Feature", "properties": {"highway": "service", "footway": null, "name": null, "surface": "sett", "lit": "yes", "length_m": 11.79, "type_element": "Way", "__fid": 63756}, "geometry": {"type": "LineString", "coordinates": [[2.347862, 48.8171565], [2.3479571, 48.8172419]]}}, {"type": "Feature", "properties": {"highway": "footway", "footway": "sidewalk", "name": null, "surface": "asphalt", "lit": "yes", "length_m": 63.44, "type_element": "Way", "__fid": 63757}, "geometry": {"type": "LineString", "coordinates": [[2.347862, 48.8171565], [2.3484827, 48.816879], [2.3485865, 48.8168472]]}}, {"type": "Feature", "properties": {"highway": "service", "footway": null, "name": "Allée de la Glacière", "surface": "asphalt", "lit": "no", "length_m": 16.11, "type_element": "Way", "__fid": 63866}, "geometry": {"type": "LineString", "coordinates": [[2.3479571, 48.8172419], [2.348034, 48.8173776]]}}, {"type": "Feature", "properties": {"highway": "service", "footway": null, "name": "Allée du Rond-Point", "surface": "asphalt", "lit": "no", "length_m": 20.37, "type_element": "Way", "__fid": 63944}, "geometry": {"type": "LineString", "coordinates": [[2.3480052, 48.8178536], [2.3482517, 48.8177695]]}}, {"type": "Feature", "properties": {"highway": "service", "footway": null, "name": "Allée de la Glacière", "surface": "asphalt", "lit": "no", "length_m": 46.42, "type_element": "Way", "__fid": 63969}, "geometry": {"type": "LineString", "coordinates": [[2.348034, 48.8173776], [2.3482517, 48.8177695]]}}, {"type": "Feature", "properties": {"highway": "service", "footway": null, "name": "Allée Nouvelle", "surface": "asphalt", "lit": "no", "length_m": 28.75, "type_element": "Way", "__fid": 63970}, "geometry": {"type": "LineString", "coordinates": [[2.348034, 48.8173776], [2.3480667, 48.8173592], [2.3483784, 48.8172562]]}}, {"type": "Feature", "properties": {"highway": "service", "footway": null, "name": "Allée de la Glacière", "surface": "asphalt", "lit": "no", "length_m": 47.05, "type_element": "Way", "__fid": 64244}, "geometry": {"type": "LineString", "coordinates": [[2.3482517, 48.8177695], [2.3485371, 48.8181484]]}}, {"type": "Feature", "properties": {"highway": "service", "footway": null, "name": "Allée du Rond-Point", "surface": "asphalt", "lit": "no", "length_m": 20.21, "type_element": "Way", "__fid": 64245}, "geometry": {"type": "LineString", "coordinates": [[2.3482517, 48.8177695], [2.3484973, 48.8176874]]}}, {"type": "Feature", "properties": {"highway": "service", "footway": null, "name": "Allée du Rond-Point", "surface": null, "lit": "no", "length_m": 36.74, "type_element": "Way", "__fid": 64270}, "geometry": {"type": "LineString", "coordinates": [[2.3484973, 48.8176874], [2.3482745, 48.8173915]]}}, {"type": "Feature", "properties": {"highway": "footway", "footway": "crossing", "name": null, "surface": "asphalt", "lit": "yes", "length_m": 17.59, "type_element": "Way", "__fid": 64408}, "geometry": {"type": "LineString", "coordinates": [[2.3484034, 48.8167514], [2.348577, 48.8168276], [2.3485865, 48.8168472]]}}, {"type": "Feature", "properties": {"highway": "footway", "footway": "crossing", "name": null, "surface": "asphalt", "lit": "yes", "length_m": 14.16, "type_element": "Way", "__fid": 64409}, "geometry": {"type": "LineString", "coordinates": [[2.3485395, 48.8166752], [2.348398, 48.8167359], [2.3484034, 48.8167514]]}}, {"type": "Feature", "properties": {"highway": "service", "footway": null, "name": "Allée de l'Est", "surface": "asphalt", "lit": "no", "length_m": 39.31, "type_element": "Way", "__fid": 64492}, "geometry": {"type": "LineString", "coordinates": [[2.3484781, 48.8172975], [2.3487167, 48.817614]]}}, {"type": "Feature", "properties": {"highway": "service", "footway": null, "name": "Allée du Rond-Point", "surface": null, "lit": "no", "length_m": 23.75, "type_element": "Way", "__fid": 64530}, "geometry": {"type": "LineString", "coordinates": [[2.3486413, 48.8178787], [2.3484973, 48.8176874]]}}, {"type": "Feature", "properties": {"highway": "service", "footway": null, "name": "Allée du Rond-Point", "surface": "asphalt", "lit": "no", "length_m": 18.06, "type_element": "Way", "__fid": 64531}, "geometry": {"type": "LineString", "coordinates": [[2.3484973, 48.8176874], [2.3487167, 48.817614]]}}, {"type": "Feature", "properties": {"highway": "footway", "footway": "sidewalk", "name": null, "surface": "asphalt", "lit": "yes", "length_m": 11.63, "type_element": "Way", "__fid": 64580}, "geometry": {"type": "LineString", "coordinates": [[2.3486689, 48.8166924], [2.348614, 48.8167138], [2.3485395, 48.8166752]]}}, {"type": "Feature", "properties": {"highway": "footway", "footway": "sidewalk", "name": null, "surface": "asphalt", "lit": "yes", "length_m": 445.94, "type_element": "Way", "__fid": 64581}, "geometry": {"type": "LineString", "coordinates": [[2.3485395, 48.8166752], [2.3471991, 48.8160184], [2.3470271, 48.8159391], [2.3469087, 48.8159032], [2.3468404, 48.8158731], [2.3467994, 48.8158303], [2.3468253, 48.81576780000001], [2.3468866, 48.8157186], [2.3477964, 48.8150747], [2.347812, 48.8150663], [2.3478279, 48.8150676], [2.34834, 48.8153007], [2.3484229, 48.8153141], [2.3486891, 48.8154678], [2.3496805, 48.8160023]]}}, {"type": "Feature", "properties": {"highway": "footway", "footway": "crossing", "name": null, "surface": "asphalt", "lit": "yes", "length_m": 16.94, "type_element": "Way", "__fid": 64639}, "geometry": {"type": "LineString", "coordinates": [[2.3485865, 48.8168472], [2.3486469, 48.8168516], [2.34879, 48.81679110000001]]}}, {"type": "Feature", "properties": {"highway": "service", "footway": null, "name": "Allée de l'Est", "surface": "asphalt", "lit": "no", "length_m": 47.42, "type_element": "Way", "__fid": 64780}, "geometry": {"type": "LineString", "coordinates": [[2.3487167, 48.817614], [2.3490028, 48.8179963]]}}, {"type": "Feature", "properties": {"highway": "footway", "footway": "sidewalk", "name": null, "surface": "asphalt", "lit": "yes", "length_m": 5.84, "type_element": "Way", "__fid": 64805}, "geometry": {"type": "LineString", "coordinates": [[2.34879, 48.81679110000001], [2.3487876, 48.8167602], [2.3487605, 48.81674810000001]]}}, {"type": "Feature", "properties": {"highway": "footway", "footway": "sidewalk", "name": null, "surface": null, "lit": "yes", "length_m": 348.52, "type_element": "Way", "__fid": 64839}, "geometry": {"type": "LineString", "coordinates": [[2.3495993, 48.8168611], [2.3497817, 48.8169275], [2.3498649, 48.8169238], [2.3503909, 48.8170905], [2.3510259, 48.817271], [2.3510957, 48.81725179999999], [2.3511453, 48.8172916], [2.3511594, 48.8173229], [2.3511711, 48.8175302], [2.351151, 48.8175463], [2.3511252, 48.81754549999999], [2.3507567, 48.8174565], [2.3501187, 48.8172757], [2.349832, 48.8171843], [2.3495403, 48.8170801], [2.34879, 48.81679110000001]]}}, {"type": "Feature", "properties": {"highway": "service", "footway": null, "name": "Allée des Saules", "surface": "asphalt", "lit": "no", "length_m": 57.54, "type_element": "Way", "__fid": 64902}, "geometry": {"type": "LineString", "coordinates": [[2.3494644, 48.8177042], [2.3489108, 48.817504], [2.3488235, 48.8175865]]}}, {"type": "Feature", "properties": {"highway": "service", "footway": null, "name": null, "surface": "asphalt", "lit": "no", "length_m": 22.78, "type_element": "Way", "__fid": 65045}, "geometry": {"type": "LineString", "coordinates": [[2.349208, 48.8178777], [2.3489574, 48.817757]]}}, {"type": "Feature", "properties": {"highway": "service", "footway": null, "name": "Allée des Marronniers", "surface": "asphalt", "lit": "no", "length_m": 28.17, "type_element": "Way", "__fid": 65301}, "geometry": {"type": "LineString", "coordinates": [[2.349208, 48.8178777], [2.3493815, 48.8177191], [2.349412, 48.8177083], [2.3494644, 48.8177042]]}}, {"type": "Feature", "properties": {"highway": "service", "footway": null, "name": "Allée des Saules", "surface": "asphalt", "lit": "no", "length_m": 37.01, "type_element": "Way", "__fid": 65532}, "geometry": {"type": "LineString", "coordinates": [[2.3494644, 48.8177042], [2.3495596, 48.8177247], [2.3499223, 48.817842]]}}, {"type": "Feature", "properties": {"highway": "footway", "footway": "sidewalk", "name": null, "surface": "asphalt", "lit": "yes", "length_m": 51.42, "type_element": "Way", "__fid": 69271}, "geometry": {"type": "LineString", "coordinates": [[2.3532328, 48.818207], [2.3532415, 48.8179934], [2.3532353, 48.8177447]]}}, {"type": "Feature", "properties": {"highway": "footway", "footway": "sidewalk", "name": null, "surface": null, "lit": null, "length_m": 58.53, "type_element": "Way", "__fid": 69530}, "geometry": {"type": "LineString", "coordinates": [[2.3535123, 48.81824990000001], [2.3534953, 48.8177236]]}}]}