{"type": "FeatureCollection", "features": [{"type": "Feature", "properties": {"highway": "footway", "footway": "sidewalk", "name": null, "surface": null, "lit": "yes", "length_m": 57.22, "type_element": "Way", "__fid": 60544}, "geometry": {"type": "LineString", "coordinates": [[2.344384, 48.9013108], [2.3447463, 48.901311], [2.3448748, 48.9013253], [2.3449311, 48.9013608], [2.34504, 48.9014792]]}}, {"type": "Feature", "properties": {"highway": "footway", "footway": "sidewalk", "name": null, "surface": null, "lit": "yes", "length_m": 141.15, "type_element": "Way", "__fid": 60647}, "geometry": {"type": "LineString", "coordinates": [[2.3455857, 48.8999744], [2.3455636, 48.900518800000015], [2.3455247, 48.900552300000015], [2.3454523, 48.90055840000002], [2.344490466666689, 48.90053926666667]]}}, {"type": "Feature", "properties": {"highway": "footway", "footway": "sidewalk", "name": null, "surface": null, "lit": "yes", "length_m": 506.69, "type_element": "Way", "__fid": 61397}, "geometry": {"type": "LineString", "coordinates": [[2.3450804, 48.90133450000002], [2.3450809, 48.90127480000001], [2.351898433333485, 48.901418566666685]]}}, {"type": "Feature", "properties": {"highway": "service", "footway": null, "name": null, "surface": "asphalt", "lit": "yes", "length_m": 130.17, "type_element": "Way", "__fid": 62721}, "geometry": {"type": "LineString", "coordinates": [[2.3460105, 48.8995464], [2.3459445, 48.9007162]]}}, {"type": "Feature", "properties": {"highway": "footway", "footway": null, "name": null, "surface": null, "lit": null, "length_m": 241.11, "type_element": "Way", "__fid": 64744}, "geometry": {"type": "LineString", "coordinates": [[2.3476409, 48.9007902], [2.3509283, 48.900853]]}}, {"type": "Feature", "properties": {"highway": "footway", "footway": "sidewalk", "name": null, "surface": null, "lit": "yes", "length_m": 275.3, "type_element": "Way", "__fid": 65265}, "geometry": {"type": "LineString", "coordinates": [[2.3481315, 48.90143150000002], [2.3481502, 48.9014322], [2.3481671, 48.9014084], [2.3518621, 48.901482]]}}, {"type": "Feature", "properties": {"highway": "footway", "footway": null, "name": null, "surface": null, "lit": null, "length_m": 9.51, "type_element": "Way", "__fid": 67990}, "geometry": {"type": "LineString", "coordinates": [[2.3509283, 48.900853], [2.351058, 48.9008555]]}}, {"type": "Feature", "properties": {"highway": "footway", "footway": null, "name": null, "surface": null, "lit": "yes", "length_m": 79.71, "type_element": "Way", "__fid": 67991}, "geometry": {"type": "LineString", "coordinates": [[2.3509283, 48.900853], [2.3511509, 48.9009312], [2.3519855, 48.9009481]]}}, {"type": "Feature", "properties": {"highway": "footway", "footway": "sidewalk", "name": null, "surface": null, "lit": "yes", "length_m": 16.59, "type_element": "Way", "__fid": 68914}, "geometry": {"type": "LineString", "coordinates": [[2.3518621, 48.901482], [2.3518299, 48.9015992], [2.3518754, 48.9016018]]}}, {"type": "Feature", "properties": {"highway": "footway", "footway": "crossing", "name": null, "surface": null, "lit": "yes", "length_m": 7.54, "type_element": "Way", "__fid": 68915}, "geometry": {"type": "LineString", "coordinates": [[2.351898433333485, 48.901418566666685], [2.3518621, 48.901482]]}}, {"type": "Feature", "properties": {"highway": "footway", "footway": "sidewalk", "name": null, "surface": "asphalt", "lit": "yes", "length_m": 52.94, "type_element": "Way", "__fid": 68960}, "geometry": {"type": "LineString", "coordinates": [[2.3519855, 48.9009481], [2.351926, 48.9013774], [2.351898433333485, 48.901418566666685]]}}, {"type": "Feature", "properties": {"highway": "footway", "footway": null, "name": null, "surface": null, "lit": "yes", "length_m": 3.29, "type_element": "Way", "__fid": 69075}, "geometry": {"type": "LineString", "coordinates": [[2.3519855, 48.9009481], [2.3520287, 48.900956]]}}, {"type": "Feature", "properties": {"highway": "footway", "footway": "sidewalk", "name": null, "surface": "asphalt", "lit": "yes", "length_m": 139.94, "type_element": "Way", "__fid": 69076}, "geometry": {"type": "LineString", "coordinates": [[2.3521948, 48.89971], [2.3521529, 48.8997271], [2.3519855, 48.9009481]]}}, {"type": "Feature", "properties": {"highway": "footway", "footway": "sidewalk", "name": null, "surface": "asphalt", "lit": "yes", "length_m": 199.28, "type_element": "Way", "__fid": 69196}, "geometry": {"type": "LineString", "coordinates": [[2.3524499, 48.89972550000002], [2.3520943, 48.90150219999999]]}}]}