{"type": "FeatureCollection", "features": [{"type": "Feature", "properties": {"highway": "service", "footway": null, "name": null, "surface": null, "lit": null, "length_m": 952.39, "type_element": "Way", "__fid": 73390}, "geometry": {"type": "LineString", "coordinates": [[2.3578035, 48.9003812], [2.3576523, 48.9005681], [2.3576201, 48.9006228], [2.3574861, 48.9013448], [2.3574096, 48.9018218], [2.3573365, 48.9020115], [2.3572721, 48.90209810000001], [2.3568497, 48.9024353], [2.3567753, 48.9025098], [2.3566747, 48.90263809999998], [2.3566237, 48.9027738], [2.3563582, 48.9043148], [2.3563233, 48.9044435], [2.3562643, 48.9045863], [2.3560511, 48.9049468], [2.3559877, 48.9050855], [2.3559371, 48.90528359999998], [2.3558177, 48.9059791], [2.3556662, 48.9064753], [2.3553926, 48.9072837], [2.3553416, 48.9075059], [2.3553202, 48.90766270000001], [2.3553228, 48.9083811], [2.3553336, 48.9084755], [2.3554368, 48.9086553]]}}]}