{"type": "FeatureCollection", "features": [{"type": "Feature", "properties": {"highway": "service", "footway": null, "name": null, "surface": null, "lit": null, "length_m": 84.58, "type_element": "Way", "__fid": 72720}, "geometry": {"type": "LineString", "coordinates": [[2.3555717, 48.901881], [2.3552679, 48.90187820000001], [2.3551311, 48.9018464], [2.3550533, 48.9017847], [2.3549929, 48.9016825], [2.3549849, 48.9015784], [2.3550265, 48.9014101]]}}, {"type": "Feature", "properties": {"highway": "service", "footway": null, "name": null, "surface": null, "lit": null, "length_m": 76.95, "type_element": "Way", "__fid": 72937}, "geometry": {"type": "LineString", "coordinates": [[2.3555717, 48.901881], [2.3555374, 48.90190639999999], [2.3551699, 48.90251820000002]]}}, {"type": "Feature", "properties": {"highway": "service", "footway": null, "name": null, "surface": null, "lit": null, "length_m": 952.39, "type_element": "Way", "__fid": 73390}, "geometry": {"type": "LineString", "coordinates": [[2.3578035, 48.9003812], [2.3576523, 48.9005681], [2.3576201, 48.9006228], [2.3574861, 48.9013448], [2.3574096, 48.9018218], [2.3573365, 48.9020115], [2.3572721, 48.90209810000001], [2.3568497, 48.9024353], [2.3567753, 48.9025098], [2.3566747, 48.90263809999998], [2.3566237, 48.9027738], [2.3563582, 48.9043148], [2.3563233, 48.9044435], [2.3562643, 48.9045863], [2.3560511, 48.9049468], [2.3559877, 48.9050855], [2.3559371, 48.90528359999998], [2.3558177, 48.9059791], [2.3556662, 48.9064753], [2.3553926, 48.9072837], [2.3553416, 48.9075059], [2.3553202, 48.90766270000001], [2.3553228, 48.9083811], [2.3553336, 48.9084755], [2.3554368, 48.9086553]]}}, {"type": "Feature", "properties": {"highway": "service", "footway": null, "name": null, "surface": null, "lit": null, "length_m": 254.45, "type_element": "Way", "__fid": 73454}, "geometry": {"type": "LineString", "coordinates": [[2.3578035, 48.9003812], [2.3576456, 48.90034069999998], [2.3575839, 48.9003566], [2.3575518, 48.9003759], [2.3563749, 48.9015379], [2.3562294, 48.90147970000001], [2.3560658, 48.90154670000001], [2.3558995, 48.90163840000001], [2.3555717, 48.901881]]}}, {"type": "Feature", "properties": {"highway": "footway", "footway": "crossing", "name": null, "surface": null, "lit": "yes", "length_m": 16.52, "type_element": "Way", "__fid": 78347}, "geometry": {"type": "LineString", "coordinates": [[2.3586675, 48.9011186], [2.3586196, 48.9011063], [2.3584458, 48.9011017]]}}, {"type": "Feature", "properties": {"highway": "footway", "footway": "sidewalk", "name": null, "surface": null, "lit": "yes", "length_m": 70.91, "type_element": "Way", "__fid": 78348}, "geometry": {"type": "LineString", "coordinates": [[2.3586285, 48.9016049], [2.3583981, 48.9015852], [2.3584458, 48.9011017]]}}, {"type": "Feature", "properties": {"highway": "footway", "footway": "sidewalk", "name": null, "surface": null, "lit": "yes", "length_m": 94.32, "type_element": "Way", "__fid": 78349}, "geometry": {"type": "LineString", "coordinates": [[2.3584458, 48.9011017], [2.3585134, 48.9002547]]}}, {"type": "Feature", "properties": {"highway": "service", "footway": null, "name": null, "surface": null, "lit": "yes", "length_m": 7.88, "type_element": "Way", "__fid": 78498}, "geometry": {"type": "LineString", "coordinates": [[2.3586416, 48.9013816], [2.3585382, 48.90136239999999]]}}, {"type": "Feature", "properties": {"highway": "service", "footway": null, "name": null, "surface": null, "lit": "yes", "length_m": 8.43, "type_element": "Way", "__fid": 78506}, "geometry": {"type": "LineString", "coordinates": [[2.3586588, 48.9013197], [2.3585489, 48.9012975]]}}, {"type": "Feature", "properties": {"highway": "footway", "footway": "sidewalk", "name": null, "surface": null, "lit": "yes", "length_m": 44.09, "type_element": "Way", "__fid": 78650}, "geometry": {"type": "LineString", "coordinates": [[2.3592249, 48.9016559], [2.3586285, 48.9016049]]}}, {"type": "Feature", "properties": {"highway": "footway", "footway": "crossing", "name": null, "surface": null, "lit": "yes", "length_m": 16.95, "type_element": "Way", "__fid": 78651}, "geometry": {"type": "LineString", "coordinates": [[2.3586424, 48.9014532], [2.358643, 48.901541], [2.3586285, 48.9016049]]}}, {"type": "Feature", "properties": {"highway": "service", "footway": null, "name": null, "surface": null, "lit": "yes", "length_m": 50.43, "type_element": "Way", "__fid": 78666}, "geometry": {"type": "LineString", "coordinates": [[2.3593022, 48.9015081], [2.3586416, 48.9013816]]}}, {"type": "Feature", "properties": {"highway": "footway", "footway": "traffic_island", "name": null, "surface": null, "lit": "yes", "length_m": 7.96, "type_element": "Way", "__fid": 78667}, "geometry": {"type": "LineString", "coordinates": [[2.3586416, 48.9013816], [2.3586424, 48.9014532]]}}, {"type": "Feature", "properties": {"highway": "footway", "footway": "crossing", "name": null, "surface": null, "lit": "yes", "length_m": 3.47, "type_element": "Way", "__fid": 78668}, "geometry": {"type": "LineString", "coordinates": [[2.3586416, 48.9013816], [2.3586501, 48.9013509]]}}, {"type": "Feature", "properties": {"highway": "footway", "footway": "traffic_island", "name": null, "surface": null, "lit": "yes", "length_m": 48.15, "type_element": "Way", "__fid": 78676}, "geometry": {"type": "LineString", "coordinates": [[2.3592866, 48.9015378], [2.3586424, 48.9014532]]}}, {"type": "Feature", "properties": {"highway": "footway", "footway": "traffic_island", "name": null, "surface": null, "lit": "yes", "length_m": 50.94, "type_element": "Way", "__fid": 78689}, "geometry": {"type": "LineString", "coordinates": [[2.3586501, 48.9013509], [2.359316, 48.9014817]]}}, {"type": "Feature", "properties": {"highway": "footway", "footway": "crossing", "name": null, "surface": null, "lit": "yes", "length_m": 3.53, "type_element": "Way", "__fid": 78690}, "geometry": {"type": "LineString", "coordinates": [[2.3586501, 48.9013509], [2.3586588, 48.9013197]]}}, {"type": "Feature", "properties": {"highway": "service", "footway": null, "name": null, "surface": null, "lit": "yes", "length_m": 51.45, "type_element": "Way", "__fid": 78707}, "geometry": {"type": "LineString", "coordinates": [[2.3593299, 48.901455099999986], [2.3586588, 48.9013197]]}}, {"type": "Feature", "properties": {"highway": "footway", "footway": "sidewalk", "name": null, "surface": null, "lit": "yes", "length_m": 23.38, "type_element": "Way", "__fid": 78708}, "geometry": {"type": "LineString", "coordinates": [[2.3586588, 48.9013197], [2.3586756, 48.9012447], [2.3586445, 48.901219], [2.3586675, 48.9011186]]}}, {"type": "Feature", "properties": {"highway": "footway", "footway": "sidewalk", "name": null, "surface": null, "lit": "yes", "length_m": 57.68, "type_element": "Way", "__fid": 78716}, "geometry": {"type": "LineString", "coordinates": [[2.3594005, 48.9013072], [2.3586675, 48.9011186]]}}, {"type": "Feature", "properties": {"highway": "footway", "footway": "sidewalk", "name": null, "surface": null, "lit": "yes", "length_m": 9.36, "type_element": "Way", "__fid": 79567}, "geometry": {"type": "LineString", "coordinates": [[2.3592249, 48.9016559], [2.3593507, 48.9016705]]}}, {"type": "Feature", "properties": {"highway": "footway", "footway": "crossing", "name": null, "surface": null, "lit": "yes", "length_m": 13.89, "type_element": "Way", "__fid": 79568}, "geometry": {"type": "LineString", "coordinates": [[2.3592866, 48.9015378], [2.3592249, 48.9016559]]}}, {"type": "Feature", "properties": {"highway": "footway", "footway": "crossing", "name": null, "surface": null, "lit": "yes", "length_m": 3.5, "type_element": "Way", "__fid": 79648}, "geometry": {"type": "LineString", "coordinates": [[2.3593022, 48.9015081], [2.3592866, 48.9015378]]}}, {"type": "Feature", "properties": {"highway": "footway", "footway": "crossing", "name": null, "surface": null, "lit": "yes", "length_m": 3.11, "type_element": "Way", "__fid": 79674}, "geometry": {"type": "LineString", "coordinates": [[2.359316, 48.9014817], [2.3593022, 48.9015081]]}}, {"type": "Feature", "properties": {"highway": "service", "footway": null, "name": null, "surface": null, "lit": "yes", "length_m": 34.85, "type_element": "Way", "__fid": 79675}, "geometry": {"type": "LineString", "coordinates": [[2.3593022, 48.9015081], [2.3595464, 48.90145169999999], [2.3593299, 48.901455099999986]]}}, {"type": "Feature", "properties": {"highway": "footway", "footway": "crossing", "name": null, "surface": null, "lit": "yes", "length_m": 3.13, "type_element": "Way", "__fid": 79697}, "geometry": {"type": "LineString", "coordinates": [[2.3593299, 48.901455099999986], [2.359316, 48.9014817]]}}, {"type": "Feature", "properties": {"highway": "footway", "footway": "sidewalk", "name": null, "surface": null, "lit": "yes", "length_m": 17.24, "type_element": "Way", "__fid": 79714}, "geometry": {"type": "LineString", "coordinates": [[2.3593299, 48.901455099999986], [2.3594005, 48.9013072]]}}, {"type": "Feature", "properties": {"highway": "footway", "footway": "sidewalk", "name": null, "surface": null, "lit": "yes", "length_m": 21.47, "type_element": "Way", "__fid": 79808}, "geometry": {"type": "LineString", "coordinates": [[2.3594005, 48.9013072], [2.3596162, 48.901331599999985], [2.3596869, 48.9013173]]}}, {"type": "Feature", "properties": {"highway": "footway", "footway": "crossing", "name": null, "surface": null, "lit": "yes", "length_m": 58.41, "type_element": "Way", "__fid": 79902}, "geometry": {"type": "LineString", "coordinates": [[2.3596869, 48.9013173], [2.3597488, 48.9014506], [2.359736, 48.9016305], [2.3595137, 48.90166649999998], [2.3594988, 48.9016927], [2.3594592, 48.9016862]]}}, {"type": "Feature", "properties": {"highway": "footway", "footway": "sidewalk", "name": null, "surface": null, "lit": "yes", "length_m": 197.11, "type_element": "Way", "__fid": 79938}, "geometry": {"type": "LineString", "coordinates": [[2.3595119, 48.8995711], [2.3595529, 48.8997636], [2.3595253, 48.89995420000001], [2.3595399, 48.9000453], [2.359573, 48.9001725], [2.3597194, 48.90050069999999], [2.3597536, 48.9006526], [2.3597083, 48.9010604], [2.3596627, 48.9012653], [2.3596869, 48.9013173]]}}, {"type": "Feature", "properties": {"highway": "footway", "footway": null, "name": null, "surface": "ground", "lit": "yes", "length_m": 593.16, "type_element": "Way", "__fid": 82487}, "geometry": {"type": "LineString", "coordinates": [[2.3621062, 48.901451500000015], [2.3622838, 48.9014004], [2.3639508, 48.901131], [2.3642144, 48.901100599999985], [2.3647964, 48.901083], [2.3672379, 48.90106890000001], [2.3682739, 48.9010764], [2.3697263, 48.9010759], [2.3699013, 48.9010433], [2.3700093, 48.9010332], [2.3701134, 48.901056]]}}]}