{"type": "FeatureCollection", "features": [{"type": "Feature", "properties": {"@id": "node/13926918969", "amenity": "drinking_water", "source": "survey", "type_element": "Fontaines à boire", "__fid": 1074}, "geometry": {"type": "Point", "coordinates": [2.3588137, 48.8177236]}, "id": "node/13926918969"}, {"type": "Feature", "properties": {"@id": "node/13954835877", "amenity": "drinking_water", "source": "survey", "type_element": "Fontaines à boire", "__fid": 1079}, "geometry": {"type": "Point", "coordinates": [2.358341, 48.8176344]}, "id": "node/13954835877"}, {"type": "Feature", "geometry": {"type": "Point", "coordinates": [2.357295, 48.817545]}, "properties": {"id": 19576, "name": "Jardin Laure Albin Guillot", "categorie": "Parcs, jardins et bois", "photo_url": "https://cdn.paris.fr/eqpts-prod/2022/05/10/7e7bd3bd3156e7e41c16cd1d8d5bce8b.jpg", "photo_credit": "Sonia Yassa/Ville de Paris", "photo_alt": null, "address_street": "21 rue Paul Bourget", "address_postcode": "75013", "address_city": "Paris", "phone": null, "accessibility": "{\"handicaps\": [{\"name\": \"Personnes déficientes visuelles\", \"status\": \"undefined\"}, {\"name\": \"Personnes déficientes auditives\", \"status\": \"undefined\"}, {\"name\": \"Personnes déficientes mentales\", \"status\": \"undefined\"}, {\"name\": \"Personnes à mobilité réduite\", \"status\": \"undefined\"}, {\"name\": \"Accueil en langue des signes\", \"status\": \"undefined\"}]}", "latitude": 48.817545, "longitude": 2.357295, "url": "https://www.paris.fr/lieux/jardin-laure-albin-guillot-19576", "type_element": "Parcs, Jardins et Bois", "__fid": 1609}}, {"type": "Feature", "properties": {"highway": "footway", "footway": null, "name": null, "surface": "asphalt", "lit": "no", "length_m": 30.69, "type_element": "Way", "__fid": 70820}, "geometry": {"type": "LineString", "coordinates": [[2.3546302, 48.8178203], [2.3546932, 48.8177938], [2.354825, 48.81771410000001], [2.3549215, 48.8176261]]}}, {"type": "Feature", "properties": {"highway": "footway", "footway": null, "name": null, "surface": "asphalt", "lit": "no", "length_m": 37.96, "type_element": "Way", "__fid": 71162}, "geometry": {"type": "LineString", "coordinates": [[2.3549215, 48.8176261], [2.3554259, 48.8177008]]}}, {"type": "Feature", "properties": {"highway": "footway", "footway": null, "name": null, "surface": "compacted", "lit": "yes", "length_m": 45.0, "type_element": "Way", "__fid": 71163}, "geometry": {"type": "LineString", "coordinates": [[2.3549215, 48.8176261], [2.3551038, 48.81747880000002], [2.3553486, 48.8173378]]}}, {"type": "Feature", "properties": {"highway": "footway", "footway": null, "name": null, "surface": "asphalt", "lit": "no", "length_m": 22.42, "type_element": "Way", "__fid": 71682}, "geometry": {"type": "LineString", "coordinates": [[2.3554259, 48.8177008], [2.3553303, 48.8178923]]}}, {"type": "Feature", "properties": {"highway": "footway", "footway": null, "name": null, "surface": "concrete:plates", "lit": "no", "length_m": 43.55, "type_element": "Way", "__fid": 71700}, "geometry": {"type": "LineString", "coordinates": [[2.3554259, 48.8177008], [2.35546, 48.817615], [2.3554338, 48.8175945], [2.3554191, 48.8175373], [2.3554479, 48.8174984], [2.3554432, 48.8174695], [2.3553486, 48.8173378]]}}, {"type": "Feature", "properties": {"highway": "footway", "footway": null, "name": null, "surface": "compacted", "lit": "yes", "length_m": 7.66, "type_element": "Way", "__fid": 71701}, "geometry": {"type": "LineString", "coordinates": [[2.3553486, 48.8173378], [2.3554257, 48.81729139999999]]}}, {"type": "Feature", "properties": {"highway": "footway", "footway": null, "name": null, "surface": "concrete:plates", "lit": "no", "length_m": 64.87, "type_element": "Way", "__fid": 71787}, "geometry": {"type": "LineString", "coordinates": [[2.3554257, 48.81729139999999], [2.3557594, 48.8171743], [2.3559246, 48.8171335], [2.3560787, 48.8171349], [2.356251, 48.81715530000001]]}}, {"type": "Feature", "properties": {"highway": "footway", "footway": null, "name": null, "surface": "concrete:plates", "lit": "no", "length_m": 31.32, "type_element": "Way", "__fid": 71802}, "geometry": {"type": "LineString", "coordinates": [[2.3558423, 48.8177618], [2.3554259, 48.8177008]]}}, {"type": "Feature", "properties": {"highway": "footway", "footway": null, "name": null, "surface": "compacted", "lit": "yes", "length_m": 18.84, "type_element": "Way", "__fid": 72371}, "geometry": {"type": "LineString", "coordinates": [[2.3558423, 48.8177618], [2.355771, 48.8179246]]}}, {"type": "Feature", "properties": {"highway": "footway", "footway": null, "name": null, "surface": "compacted", "lit": "yes", "length_m": 47.16, "type_element": "Way", "__fid": 72472}, "geometry": {"type": "LineString", "coordinates": [[2.3561654, 48.8173952], [2.3558423, 48.8177618]]}}, {"type": "Feature", "properties": {"highway": "steps", "footway": null, "name": null, "surface": "concrete", "lit": "no", "length_m": 50.61, "type_element": "Way", "__fid": 72873}, "geometry": {"type": "LineString", "coordinates": [[2.3561604, 48.817839699999986], [2.3562167, 48.81764240000001], [2.3561858, 48.8176062], [2.356181, 48.8175873], [2.3561915, 48.81752389999998], [2.3561654, 48.8173952]]}}, {"type": "Feature", "properties": {"highway": "footway", "footway": null, "name": null, "surface": "compacted", "lit": "yes", "length_m": 27.41, "type_element": "Way", "__fid": 72874}, "geometry": {"type": "LineString", "coordinates": [[2.356251, 48.81715530000001], [2.3561654, 48.8173952]]}}, {"type": "Feature", "properties": {"highway": "footway", "footway": null, "name": null, "surface": "compacted", "lit": "yes", "length_m": 68.47, "type_element": "Way", "__fid": 72931}, "geometry": {"type": "LineString", "coordinates": [[2.3562144, 48.8178474], [2.356263, 48.8177126], [2.3563923, 48.8172431]]}}, {"type": "Feature", "properties": {"highway": "steps", "footway": null, "name": null, "surface": "concrete", "lit": "no", "length_m": 36.85, "type_element": "Way", "__fid": 72969}, "geometry": {"type": "LineString", "coordinates": [[2.3563923, 48.8172431], [2.3563223, 48.8172388], [2.3563619, 48.8170925], [2.3563181, 48.8170881], [2.356298, 48.8171622], [2.356251, 48.81715530000001]]}}, {"type": "Feature", "properties": {"highway": "footway", "footway": null, "name": null, "surface": "compacted", "lit": "no", "length_m": 43.86, "type_element": "Way", "__fid": 73160}, "geometry": {"type": "LineString", "coordinates": [[2.3563923, 48.8172431], [2.3564733, 48.8169256], [2.3565567, 48.816878500000016]]}}, {"type": "Feature", "properties": {"highway": "steps", "footway": null, "name": null, "surface": "concrete", "lit": "no", "length_m": 30.99, "type_element": "Way", "__fid": 73161}, "geometry": {"type": "LineString", "coordinates": [[2.3566815, 48.8172636], [2.3566692, 48.817190300000014], [2.3566382, 48.817174100000024], [2.3565921, 48.817181], [2.3564906, 48.81722530000001], [2.3563923, 48.8172431]]}}, {"type": "Feature", "properties": {"highway": "footway", "footway": null, "name": null, "surface": "concrete:plates", "lit": "yes", "length_m": 77.4, "type_element": "Way", "__fid": 73442}, "geometry": {"type": "LineString", "coordinates": [[2.3566014, 48.817949900000016], [2.3566217, 48.8178411], [2.3565888, 48.8175337], [2.356593, 48.8174871], [2.3566143, 48.8174015], [2.3566815, 48.8172636]]}}, {"type": "Feature", "properties": {"highway": "footway", "footway": null, "name": null, "surface": "concrete:plates", "lit": "yes", "length_m": 45.85, "type_element": "Way", "__fid": 73443}, "geometry": {"type": "LineString", "coordinates": [[2.3570989, 48.8177348], [2.3569687, 48.8177587], [2.3568728, 48.817762], [2.3566014, 48.817949900000016]]}}, {"type": "Feature", "properties": {"highway": "footway", "footway": null, "name": null, "surface": "concrete:plates", "lit": "yes", "length_m": 27.89, "type_element": "Way", "__fid": 73534}, "geometry": {"type": "LineString", "coordinates": [[2.3570461, 48.817333900000015], [2.3566815, 48.8172636]]}}, {"type": "Feature", "properties": {"highway": "footway", "footway": "sidewalk", "name": null, "surface": null, "lit": null, "length_m": 52.07, "type_element": "Way", "__fid": 73855}, "geometry": {"type": "LineString", "coordinates": [[2.3570461, 48.817333900000015], [2.3569696, 48.8168683]]}}, {"type": "Feature", "properties": {"highway": "footway", "footway": "link", "name": null, "surface": "concrete:plates", "lit": "yes", "length_m": 18.77, "type_element": "Way", "__fid": 73932}, "geometry": {"type": "LineString", "coordinates": [[2.3572907, 48.817383], [2.3570461, 48.817333900000015]]}}, {"type": "Feature", "properties": {"highway": "footway", "footway": "sidewalk", "name": null, "surface": null, "lit": null, "length_m": 44.74, "type_element": "Way", "__fid": 73933}, "geometry": {"type": "LineString", "coordinates": [[2.3570989, 48.8177348], [2.3570461, 48.817333900000015]]}}, {"type": "Feature", "properties": {"highway": "footway", "footway": "sidewalk", "name": null, "surface": null, "lit": null, "length_m": 94.86, "type_element": "Way", "__fid": 73995}, "geometry": {"type": "LineString", "coordinates": [[2.3582406, 48.81804540000001], [2.3572011, 48.8178455], [2.35714, 48.8178212], [2.3571152, 48.81778410000001], [2.3570989, 48.8177348]]}}, {"type": "Feature", "properties": {"highway": "footway", "footway": null, "name": null, "surface": "concrete", "lit": null, "length_m": 43.79, "type_element": "Way", "__fid": 74221}, "geometry": {"type": "LineString", "coordinates": [[2.3572907, 48.817383], [2.357863, 48.8174936]]}}, {"type": "Feature", "properties": {"highway": "footway", "footway": null, "name": null, "surface": "concrete", "lit": null, "length_m": 58.33, "type_element": "Way", "__fid": 74222}, "geometry": {"type": "LineString", "coordinates": [[2.3579479, 48.8173142], [2.357891, 48.8173424], [2.3578393, 48.817356900000014], [2.3577961, 48.817345], [2.3577419, 48.8172912], [2.3576957, 48.81728], [2.3576138, 48.81729510000002], [2.3574958, 48.8172782], [2.3574585, 48.817286], [2.357316, 48.817350200000014], [2.3572907, 48.817383]]}}, {"type": "Feature", "properties": {"highway": "footway", "footway": null, "name": null, "surface": "concrete", "lit": null, "length_m": 37.78, "type_element": "Way", "__fid": 74862}, "geometry": {"type": "LineString", "coordinates": [[2.3577205, 48.8178201], [2.357863, 48.8174936]]}}, {"type": "Feature", "properties": {"highway": "footway", "footway": null, "name": null, "surface": "concrete", "lit": null, "length_m": 44.43, "type_element": "Way", "__fid": 75060}, "geometry": {"type": "LineString", "coordinates": [[2.357863, 48.8174936], [2.3584451, 48.8176028]]}}, {"type": "Feature", "properties": {"highway": "footway", "footway": null, "name": null, "surface": "concrete", "lit": null, "length_m": 20.9, "type_element": "Way", "__fid": 75061}, "geometry": {"type": "LineString", "coordinates": [[2.357863, 48.8174936], [2.3579479, 48.8173142]]}}, {"type": "Feature", "properties": {"highway": "footway", "footway": null, "name": null, "surface": "concrete", "lit": null, "length_m": 49.15, "type_element": "Way", "__fid": 75212}, "geometry": {"type": "LineString", "coordinates": [[2.3579479, 48.8173142], [2.3581521, 48.8172373], [2.3582274, 48.81723559999999], [2.358326, 48.8172515], [2.3583918, 48.817276], [2.3583079, 48.81738259999999]]}}, {"type": "Feature", "properties": {"highway": "footway", "footway": null, "name": null, "surface": null, "lit": null, "length_m": 51.45, "type_element": "Way", "__fid": 75801}, "geometry": {"type": "LineString", "coordinates": [[2.3582406, 48.81804540000001], [2.3584451, 48.8176028]]}}, {"type": "Feature", "properties": {"highway": "footway", "footway": null, "name": null, "surface": "concrete", "lit": null, "length_m": 3.72, "type_element": "Way", "__fid": 76288}, "geometry": {"type": "LineString", "coordinates": [[2.3584451, 48.8176028], [2.3584938, 48.8176119]]}}, {"type": "Feature", "properties": {"highway": "footway", "footway": null, "name": null, "surface": null, "lit": null, "length_m": 28.27, "type_element": "Way", "__fid": 76289}, "geometry": {"type": "LineString", "coordinates": [[2.3584451, 48.8176028], [2.3585513, 48.8173584]]}}, {"type": "Feature", "properties": {"highway": "footway", "footway": null, "name": null, "surface": "concrete", "lit": null, "length_m": 15.33, "type_element": "Way", "__fid": 76421}, "geometry": {"type": "LineString", "coordinates": [[2.3584938, 48.8176119], [2.3586945, 48.81765]]}}, {"type": "Feature", "properties": {"highway": "footway", "footway": null, "name": null, "surface": "grass_paver", "lit": null, "length_m": 63.79, "type_element": "Way", "__fid": 76422}, "geometry": {"type": "LineString", "coordinates": [[2.3591409, 48.8177337], [2.3591117, 48.8177981], [2.3584668, 48.8176714], [2.3584938, 48.8176119]]}}, {"type": "Feature", "properties": {"highway": "footway", "footway": null, "name": null, "surface": "concrete", "lit": null, "length_m": 34.07, "type_element": "Way", "__fid": 76845}, "geometry": {"type": "LineString", "coordinates": [[2.3586945, 48.81765], [2.3591409, 48.8177337]]}}, {"type": "Feature", "properties": {"highway": "footway", "footway": null, "name": null, "surface": null, "lit": null, "length_m": 8.57, "type_element": "Way", "__fid": 76846}, "geometry": {"type": "LineString", "coordinates": [[2.3586945, 48.81765], [2.3587238, 48.81757540000001]]}}, {"type": "Feature", "properties": {"highway": "footway", "footway": null, "name": null, "surface": null, "lit": null, "length_m": 41.83, "type_element": "Way", "__fid": 76902}, "geometry": {"type": "LineString", "coordinates": [[2.3587238, 48.81757540000001], [2.359153, 48.8176565], [2.3591631, 48.8176918], [2.3591593, 48.8177372]]}}, {"type": "Feature", "properties": {"highway": "footway", "footway": null, "name": null, "surface": null, "lit": null, "length_m": 13.61, "type_element": "Way", "__fid": 76903}, "geometry": {"type": "LineString", "coordinates": [[2.3587238, 48.81757540000001], [2.3587701, 48.8174569]]}}, {"type": "Feature", "properties": {"highway": "footway", "footway": null, "name": null, "surface": null, "lit": null, "length_m": 79.21, "type_element": "Way", "__fid": 77475}, "geometry": {"type": "LineString", "coordinates": [[2.3589966, 48.816792100000015], [2.359014, 48.8167582], [2.3593012, 48.8165153], [2.3594109, 48.8164941], [2.3597747, 48.8164626], [2.3598514, 48.8164625]]}}, {"type": "Feature", "properties": {"highway": "footway", "footway": null, "name": null, "surface": "concrete", "lit": null, "length_m": 1.41, "type_element": "Way", "__fid": 77797}, "geometry": {"type": "LineString", "coordinates": [[2.3591409, 48.8177337], [2.3591593, 48.8177372]]}}, {"type": "Feature", "properties": {"highway": "footway", "footway": null, "name": null, "surface": "concrete", "lit": null, "length_m": 21.98, "type_element": "Way", "__fid": 77841}, "geometry": {"type": "LineString", "coordinates": [[2.3591593, 48.8177372], [2.3592342, 48.8177512], [2.3593433, 48.81787850000001]]}}, {"type": "Feature", "properties": {"highway": "footway", "footway": "sidewalk", "name": null, "surface": "asphalt", "lit": null, "length_m": 33.9, "type_element": "Way", "__fid": 78161}, "geometry": {"type": "LineString", "coordinates": [[2.3593433, 48.81787850000001], [2.3595494, 48.8177276], [2.3596124, 48.8177249], [2.3597003, 48.8177399]]}}, {"type": "Feature", "properties": {"highway": "footway", "footway": "sidewalk", "name": null, "surface": "asphalt", "lit": null, "length_m": 51.85, "type_element": "Way", "__fid": 78483}, "geometry": {"type": "LineString", "coordinates": [[2.3595493, 48.8181925], [2.3595721, 48.8181016], [2.3596171, 48.8180475], [2.3597003, 48.8177399]]}}, {"type": "Feature", "properties": {"highway": "service", "footway": null, "name": null, "surface": "asphalt", "lit": null, "length_m": 10.35, "type_element": "Way", "__fid": 78713}, "geometry": {"type": "LineString", "coordinates": [[2.3598386, 48.8168005], [2.3597021, 48.8167773]]}}, {"type": "Feature", "properties": {"highway": "footway", "footway": "crossing", "name": null, "surface": "asphalt", "lit": "yes", "length_m": 31.16, "type_element": "Way", "__fid": 78726}, "geometry": {"type": "LineString", "coordinates": [[2.3601124, 48.8178066], [2.3597003, 48.8177399]]}}, {"type": "Feature", "properties": {"highway": "footway", "footway": "sidewalk", "name": null, "surface": "asphalt", "lit": null, "length_m": 106.09, "type_element": "Way", "__fid": 78727}, "geometry": {"type": "LineString", "coordinates": [[2.3598386, 48.8168005], [2.3597067, 48.817293], [2.359668, 48.8175134], [2.35971, 48.8175912], [2.3597014, 48.817611], [2.3597003, 48.8177399]]}}, {"type": "Feature", "properties": {"highway": "service", "footway": null, "name": null, "surface": "asphalt", "lit": null, "length_m": 26.36, "type_element": "Way", "__fid": 78929}, "geometry": {"type": "LineString", "coordinates": [[2.3601767, 48.816866900000015], [2.3600431, 48.816818], [2.3598386, 48.8168005]]}}, {"type": "Feature", "properties": {"highway": "footway", "footway": "sidewalk", "name": null, "surface": "asphalt", "lit": null, "length_m": 37.58, "type_element": "Way", "__fid": 78930}, "geometry": {"type": "LineString", "coordinates": [[2.3599296, 48.8164679], [2.3598386, 48.8168005]]}}, {"type": "Feature", "properties": {"highway": "footway", "footway": "sidewalk", "name": null, "surface": "asphalt", "lit": null, "length_m": 5.77, "type_element": "Way", "__fid": 78949}, "geometry": {"type": "LineString", "coordinates": [[2.3598514, 48.8164625], [2.3599296, 48.8164679]]}}, {"type": "Feature", "properties": {"highway": "footway", "footway": "sidewalk", "name": null, "surface": "paving_stones", "lit": "yes", "length_m": 56.08, "type_element": "Way", "__fid": 78950}, "geometry": {"type": "LineString", "coordinates": [[2.3599925, 48.8159684], [2.3599564, 48.816035], [2.3598541, 48.8164085], [2.3598514, 48.8164625]]}}, {"type": "Feature", "properties": {"highway": "footway", "footway": "sidewalk", "name": null, "surface": null, "lit": null, "length_m": 95.86, "type_element": "Way", "__fid": 79094}, "geometry": {"type": "LineString", "coordinates": [[2.3599296, 48.8164679], [2.360064, 48.8165433], [2.3601066, 48.816588], [2.3604392, 48.81663790000002], [2.3602935, 48.8170955]]}}, {"type": "Feature", "properties": {"highway": "service", "footway": null, "name": null, "surface": "asphalt", "lit": "yes", "length_m": 10.36, "type_element": "Way", "__fid": 79367}, "geometry": {"type": "LineString", "coordinates": [[2.3602464, 48.81711210000001], [2.3601077, 48.8170948]]}}, {"type": "Feature", "properties": {"highway": "service", "footway": null, "name": "Avenue de la Porte d'Italie", "surface": null, "lit": null, "length_m": 11.7, "type_element": "Way", "__fid": 79389}, "geometry": {"type": "LineString", "coordinates": [[2.3601475, 48.817704], [2.3601124, 48.8178066]]}}, {"type": "Feature", "properties": {"highway": "footway", "footway": "crossing", "name": null, "surface": "asphalt", "lit": "yes", "length_m": 11.51, "type_element": "Way", "__fid": 79462}, "geometry": {"type": "LineString", "coordinates": [[2.36028, 48.817742], [2.360236650000201, 48.817756150000136], [2.3601807, 48.8178175]]}}, {"type": "Feature", "properties": {"highway": "service", "footway": null, "name": null, "surface": "asphalt", "lit": null, "length_m": 3.13, "type_element": "Way", "__fid": 79541}, "geometry": {"type": "LineString", "coordinates": [[2.3602464, 48.81711210000001], [2.3602885, 48.8171166]]}}, {"type": "Feature", "properties": {"highway": "service", "footway": null, "name": null, "surface": "concrete", "lit": "yes", "length_m": 3.92, "type_element": "Way", "__fid": 79542}, "geometry": {"type": "LineString", "coordinates": [[2.3602935, 48.8170955], [2.3602464, 48.81711210000001]]}}, {"type": "Feature", "properties": {"highway": "footway", "footway": "sidewalk", "name": null, "surface": "asphalt", "lit": "yes", "length_m": 22.72, "type_element": "Way", "__fid": 79598}, "geometry": {"type": "LineString", "coordinates": [[2.3604016, 48.81792990000002], [2.36028, 48.817742]]}}, {"type": "Feature", "properties": {"highway": "footway", "footway": "sidewalk", "name": null, "surface": "asphalt", "lit": "yes", "length_m": 67.32, "type_element": "Way", "__fid": 79599}, "geometry": {"type": "LineString", "coordinates": [[2.36028, 48.817742], [2.3601752, 48.8175799], [2.3603026, 48.817159]]}}, {"type": "Feature", "properties": {"highway": "service", "footway": null, "name": null, "surface": "asphalt", "lit": null, "length_m": 5.69, "type_element": "Way", "__fid": 79600}, "geometry": {"type": "LineString", "coordinates": [[2.3602885, 48.8171166], [2.360365, 48.8171248]]}}, {"type": "Feature", "properties": {"highway": "footway", "footway": "sidewalk", "name": null, "surface": null, "lit": null, "length_m": 4.83, "type_element": "Way", "__fid": 79601}, "geometry": {"type": "LineString", "coordinates": [[2.3602885, 48.8171166], [2.3603026, 48.817159]]}}, {"type": "Feature", "properties": {"highway": "footway", "footway": "sidewalk", "name": null, "surface": null, "lit": null, "length_m": 2.37, "type_element": "Way", "__fid": 79602}, "geometry": {"type": "LineString", "coordinates": [[2.3602935, 48.8170955], [2.3602885, 48.8171166]]}}, {"type": "Feature", "properties": {"highway": "service", "footway": null, "name": null, "surface": "concrete", "lit": "yes", "length_m": 6.75, "type_element": "Way", "__fid": 79607}, "geometry": {"type": "LineString", "coordinates": [[2.3603707, 48.81706250000002], [2.3602935, 48.8170955]]}}, {"type": "Feature", "properties": {"highway": "footway", "footway": "sidewalk", "name": null, "surface": "asphalt", "lit": "yes", "length_m": 5.95, "type_element": "Way", "__fid": 79632}, "geometry": {"type": "LineString", "coordinates": [[2.3603026, 48.817159], [2.360365, 48.8171248]]}}, {"type": "Feature", "properties": {"highway": "service", "footway": null, "name": null, "surface": "asphalt", "lit": null, "length_m": 109.62, "type_element": "Way", "__fid": 79712}, "geometry": {"type": "LineString", "coordinates": [[2.360365, 48.8171248], [2.3605223, 48.8171455], [2.3606584, 48.81717410000001], [2.3604159, 48.8179432]]}}, {"type": "Feature", "properties": {"highway": "footway", "footway": "sidewalk", "name": null, "surface": "asphalt", "lit": "yes", "length_m": 137.01, "type_element": "Way", "__fid": 79713}, "geometry": {"type": "LineString", "coordinates": [[2.360365, 48.8171248], [2.3604891, 48.8170566], [2.3605865, 48.8168615], [2.3607346, 48.8163961], [2.3607601, 48.8162414], [2.3608492, 48.8159585]]}}, {"type": "Feature", "properties": {"highway": "service", "footway": null, "name": null, "surface": "concrete", "lit": "yes", "length_m": 53.15, "type_element": "Way", "__fid": 79722}, "geometry": {"type": "LineString", "coordinates": [[2.3605259, 48.81661610000001], [2.3605493, 48.8166825], [2.3604453, 48.817021], [2.3603707, 48.81706250000002]]}}, {"type": "Feature", "properties": {"highway": "service", "footway": null, "name": null, "surface": "asphalt", "lit": "yes", "length_m": 26.49, "type_element": "Way", "__fid": 79898}, "geometry": {"type": "LineString", "coordinates": [[2.3605024, 48.8163893], [2.3605598, 48.8164575], [2.3605259, 48.81661610000001]]}}]}