{"type": "FeatureCollection", "features": [{"type": "Feature", "properties": {"highway": "footway", "footway": null, "name": null, "surface": "ground", "lit": "yes", "length_m": 593.16, "type_element": "Way", "__fid": 82487}, "geometry": {"type": "LineString", "coordinates": [[2.3621062, 48.901451500000015], [2.3622838, 48.9014004], [2.3639508, 48.901131], [2.3642144, 48.901100599999985], [2.3647964, 48.901083], [2.3672379, 48.90106890000001], [2.3682739, 48.9010764], [2.3697263, 48.9010759], [2.3699013, 48.9010433], [2.3700093, 48.9010332], [2.3701134, 48.901056]]}}, {"type": "Feature", "properties": {"highway": "service", "footway": null, "name": null, "surface": null, "lit": null, "length_m": 305.94, "type_element": "Way", "__fid": 86033}, "geometry": {"type": "LineString", "coordinates": [[2.370073, 48.9014071], [2.369614, 48.9013876], [2.36905, 48.9012838], [2.3686958, 48.9012031], [2.3676991, 48.9012087], [2.3674899, 48.9011478], [2.3672728, 48.9011263], [2.3659652, 48.9011447]]}}, {"type": "Feature", "properties": {"highway": "service", "footway": null, "name": null, "surface": null, "lit": null, "length_m": 238.99, "type_element": "Way", "__fid": 86833}, "geometry": {"type": "LineString", "coordinates": [[2.3668182, 48.9018754], [2.3680615, 48.90176869999998], [2.3689713, 48.901752], [2.3698989, 48.901776], [2.3700637, 48.9017554]]}}, {"type": "Feature", "properties": {"highway": "footway", "footway": "sidewalk", "name": null, "surface": null, "lit": "yes", "length_m": 85.05, "type_element": "Way", "__fid": 89287}, "geometry": {"type": "LineString", "coordinates": [[2.3706626, 48.9023956], [2.3701255, 48.901925900000016], [2.3700838, 48.90185610000001], [2.3700637, 48.9017554]]}}, {"type": "Feature", "properties": {"highway": "footway", "footway": "sidewalk", "name": null, "surface": null, "lit": "yes", "length_m": 38.74, "type_element": "Way", "__fid": 89288}, "geometry": {"type": "LineString", "coordinates": [[2.3700637, 48.9017554], [2.370073, 48.9014071]]}}, {"type": "Feature", "properties": {"highway": "service", "footway": null, "name": null, "surface": null, "lit": null, "length_m": 11.09, "type_element": "Way", "__fid": 89289}, "geometry": {"type": "LineString", "coordinates": [[2.3700637, 48.9017554], [2.3702123, 48.9017368]]}}, {"type": "Feature", "properties": {"highway": "service", "footway": null, "name": null, "surface": null, "lit": null, "length_m": 11.05, "type_element": "Way", "__fid": 89295}, "geometry": {"type": "LineString", "coordinates": [[2.3702235, 48.9014125], [2.370073, 48.9014071]]}}, {"type": "Feature", "properties": {"highway": "footway", "footway": "sidewalk", "name": null, "surface": null, "lit": "yes", "length_m": 39.15, "type_element": "Way", "__fid": 89296}, "geometry": {"type": "LineString", "coordinates": [[2.370073, 48.9014071], [2.3701134, 48.901056]]}}, {"type": "Feature", "properties": {"highway": "footway", "footway": "crossing", "name": null, "surface": null, "lit": "yes", "length_m": 19.34, "type_element": "Way", "__fid": 89324}, "geometry": {"type": "LineString", "coordinates": [[2.3703479, 48.90113130000001], [2.3703333, 48.9011186], [2.3702868, 48.9011036], [2.3701134, 48.901056]]}}, {"type": "Feature", "properties": {"highway": "footway", "footway": "sidewalk", "name": null, "surface": null, "lit": "yes", "length_m": 64.94, "type_element": "Way", "__fid": 89325}, "geometry": {"type": "LineString", "coordinates": [[2.3701134, 48.901056], [2.370142, 48.9008939], [2.3701326, 48.9004731]]}}, {"type": "Feature", "properties": {"highway": "footway", "footway": "sidewalk", "name": null, "surface": null, "lit": null, "length_m": 29.63, "type_element": "Way", "__fid": 89511}, "geometry": {"type": "LineString", "coordinates": [[2.3704753, 48.9012418], [2.3703216, 48.90128620000002], [2.3703479, 48.90113130000001]]}}, {"type": "Feature", "properties": {"highway": "footway", "footway": "crossing", "name": null, "surface": null, "lit": null, "length_m": 25.19, "type_element": "Way", "__fid": 89512}, "geometry": {"type": "LineString", "coordinates": [[2.3705313, 48.9009397], [2.3703479, 48.90113130000001]]}}, {"type": "Feature", "properties": {"highway": "footway", "footway": "crossing", "name": null, "surface": null, "lit": null, "length_m": 15.52, "type_element": "Way", "__fid": 89624}, "geometry": {"type": "LineString", "coordinates": [[2.370588, 48.90135990000001], [2.3704753, 48.9012418]]}}, {"type": "Feature", "properties": {"highway": "footway", "footway": "sidewalk", "name": null, "surface": null, "lit": null, "length_m": 49.87, "type_element": "Way", "__fid": 89643}, "geometry": {"type": "LineString", "coordinates": [[2.370516, 48.9005018], [2.3704771, 48.900591], [2.3704607, 48.9006747], [2.3704623, 48.900759], [2.3704821, 48.9008423], [2.3705313, 48.9009397]]}}, {"type": "Feature", "properties": {"highway": "footway", "footway": "sidewalk", "name": null, "surface": null, "lit": null, "length_m": 82.39, "type_element": "Way", "__fid": 89658}, "geometry": {"type": "LineString", "coordinates": [[2.3705313, 48.9009397], [2.3705737, 48.9009993], [2.3706777, 48.9010669], [2.3708083, 48.9011104], [2.3709528, 48.9011261], [2.3710977, 48.9011124], [2.3712297, 48.90107069999998], [2.3713364, 48.9010047], [2.3714079, 48.90092070000002]]}}, {"type": "Feature", "properties": {"highway": "footway", "footway": "sidewalk", "name": null, "surface": null, "lit": null, "length_m": 152.32, "type_element": "Way", "__fid": 89718}, "geometry": {"type": "LineString", "coordinates": [[2.3712686, 48.902364], [2.3711642, 48.902375699999986], [2.3711172, 48.9023701], [2.3710561, 48.90234], [2.3708693, 48.902208500000015], [2.3704688, 48.9018412], [2.3703897, 48.9017495], [2.3703372, 48.9016701], [2.370313, 48.901573], [2.3703469, 48.9014869], [2.3704161, 48.9014321], [2.37049, 48.9013939], [2.370588, 48.90135990000001]]}}, {"type": "Feature", "properties": {"highway": "footway", "footway": "sidewalk", "name": null, "surface": null, "lit": null, "length_m": 46.14, "type_element": "Way", "__fid": 89719}, "geometry": {"type": "LineString", "coordinates": [[2.371208, 48.90129379999998], [2.3709882, 48.9013215], [2.3706835, 48.9013419], [2.370588, 48.90135990000001]]}}, {"type": "Feature", "properties": {"highway": "footway", "footway": null, "name": null, "surface": null, "lit": null, "length_m": 12.54, "type_element": "Way", "__fid": 90211}, "geometry": {"type": "LineString", "coordinates": [[2.3711666, 48.9011844], [2.371208, 48.90129379999998]]}}, {"type": "Feature", "properties": {"highway": "footway", "footway": null, "name": null, "surface": null, "lit": null, "length_m": 62.47, "type_element": "Way", "__fid": 90242}, "geometry": {"type": "LineString", "coordinates": [[2.371208, 48.90129379999998], [2.3711814, 48.901855300000015]]}}, {"type": "Feature", "properties": {"highway": "footway", "footway": "sidewalk", "name": null, "surface": null, "lit": null, "length_m": 33.84, "type_element": "Way", "__fid": 90259}, "geometry": {"type": "LineString", "coordinates": [[2.3716407, 48.9012355], [2.3715763, 48.901217], [2.3714801, 48.9012194], [2.3712953, 48.9012759], [2.371208, 48.90129379999998]]}}, {"type": "Feature", "properties": {"highway": "footway", "footway": "sidewalk", "name": null, "surface": "asphalt", "lit": null, "length_m": 104.45, "type_element": "Way", "__fid": 90270}, "geometry": {"type": "LineString", "coordinates": [[2.3717793, 48.9009256], [2.3717568, 48.9005343], [2.3717221, 48.9004057], [2.3717021, 48.9003682], [2.371683, 48.90034019999999], [2.3715954, 48.9003211], [2.371252, 48.9001466]]}}, {"type": "Feature", "properties": {"highway": "footway", "footway": "sidewalk", "name": null, "surface": null, "lit": null, "length_m": 54.14, "type_element": "Way", "__fid": 90360}, "geometry": {"type": "LineString", "coordinates": [[2.371356, 48.9004486], [2.3714113, 48.90053120000001], [2.3714411, 48.9006018], [2.3714606, 48.900713900000014], [2.3714379, 48.9008535], [2.3714079, 48.90092070000002]]}}, {"type": "Feature", "properties": {"highway": "footway", "footway": null, "name": "Rue de la Gare", "surface": "asphalt", "lit": null, "length_m": 27.62, "type_element": "Way", "__fid": 90403}, "geometry": {"type": "LineString", "coordinates": [[2.3714079, 48.90092070000002], [2.3715953, 48.900941900000014], [2.3717278, 48.90093580000001], [2.3717793, 48.9009256]]}}]}