{"type": "FeatureCollection", "features": [{"type": "Feature", "properties": {"highway": "service", "footway": null, "name": null, "surface": null, "lit": null, "length_m": 119.92, "type_element": "Way", "__fid": 83931}, "geometry": {"type": "LineString", "coordinates": [[2.3645604, 48.8177086], [2.3649359, 48.8177068], [2.366069, 48.8180671]]}}, {"type": "Feature", "properties": {"highway": "footway", "footway": "sidewalk", "name": null, "surface": null, "lit": "yes", "length_m": 174.6, "type_element": "Way", "__fid": 84030}, "geometry": {"type": "LineString", "coordinates": [[2.3647087, 48.8163848], [2.3646987, 48.8164238], [2.3657216, 48.81687869999998], [2.3666638, 48.8172335]]}}, {"type": "Feature", "properties": {"highway": "service", "footway": null, "name": null, "surface": null, "lit": null, "length_m": 101.53, "type_element": "Way", "__fid": 84353}, "geometry": {"type": "LineString", "coordinates": [[2.3662639, 48.8178181], [2.3660155, 48.8177166], [2.3650324, 48.8174049]]}}, {"type": "Feature", "properties": {"highway": "footway", "footway": "sidewalk", "name": null, "surface": "asphalt", "lit": "yes", "length_m": 136.95, "type_element": "Way", "__fid": 85096}, "geometry": {"type": "LineString", "coordinates": [[2.3667917, 48.8177705], [2.3666602, 48.81788910000002], [2.3662257, 48.81846260000002], [2.3659117, 48.8188545]]}}, {"type": "Feature", "properties": {"highway": "footway", "footway": "sidewalk", "name": null, "surface": null, "lit": "yes", "length_m": 23.52, "type_element": "Way", "__fid": 85379}, "geometry": {"type": "LineString", "coordinates": [[2.3663655, 48.8176221], [2.3663601, 48.8176953], [2.3662639, 48.8178181]]}}, {"type": "Feature", "properties": {"highway": "footway", "footway": "crossing", "name": null, "surface": null, "lit": "yes", "length_m": 35.38, "type_element": "Way", "__fid": 85468}, "geometry": {"type": "LineString", "coordinates": [[2.3663655, 48.8176221], [2.3667917, 48.8177705]]}}, {"type": "Feature", "properties": {"highway": "footway", "footway": "sidewalk", "name": null, "surface": null, "lit": "yes", "length_m": 48.44, "type_element": "Way", "__fid": 85469}, "geometry": {"type": "LineString", "coordinates": [[2.3666638, 48.8172335], [2.3663655, 48.8176221]]}}, {"type": "Feature", "properties": {"highway": "footway", "footway": "crossing", "name": null, "surface": null, "lit": "yes", "length_m": 15.46, "type_element": "Way", "__fid": 85731}, "geometry": {"type": "LineString", "coordinates": [[2.3666638, 48.8172335], [2.3667716, 48.8171141]]}}, {"type": "Feature", "properties": {"highway": "footway", "footway": "sidewalk", "name": null, "surface": "asphalt", "lit": "yes", "length_m": 240.37, "type_element": "Way", "__fid": 85862}, "geometry": {"type": "LineString", "coordinates": [[2.3684056, 48.8158968], [2.3683293, 48.8159766], [2.3672931, 48.8172676], [2.3671803, 48.8173597], [2.3671144, 48.8173948], [2.3667917, 48.8177705]]}}]}