{"type": "FeatureCollection", "features": [{"type": "Feature", "geometry": {"type": "Point", "coordinates": [2.382453, 48.828045]}, "properties": {"id": 2855, "name": "Jardin Biopark", "categorie": "Parcs, jardins et bois", "photo_url": "https://cdn.paris.fr/eqpts-prod/2022/05/10/1dddbfffb347881a7f0135c9802757c9.jpg", "photo_credit": "Christophe Noël /Ville de Paris", "photo_alt": null, "address_street": "11 rue Watt", "address_postcode": "75013", "address_city": "PARIS", "phone": null, "accessibility": "{\"handicaps\": [{\"name\": \"Personnes à mobilité réduite\", \"status\": \"accessible\"}, {\"name\": \"Personnes déficientes visuelles\", \"status\": \"undefined\"}, {\"name\": \"Personnes déficientes auditives\", \"status\": \"undefined\"}, {\"name\": \"Personnes déficientes mentales\", \"status\": \"undefined\"}, {\"name\": \"Accueil en langue des signes\", \"status\": \"undefined\"}]}", "latitude": 48.828045, "longitude": 2.382453, "url": "https://www.paris.fr/lieux/jardin-biopark-2855", "type_element": "Parcs, Jardins et Bois", "__fid": 1415}}, {"type": "Feature", "properties": {"highway": "footway", "footway": "sidewalk", "name": null, "surface": "concrete", "lit": "yes", "length_m": 73.68, "type_element": "Way", "__fid": 98490}, "geometry": {"type": "LineString", "coordinates": [[2.380579100000132, 48.82803206666668], [2.3797239, 48.8276853]]}}, {"type": "Feature", "properties": {"highway": "service", "footway": null, "name": "Avenue de France", "surface": "asphalt", "lit": "yes", "length_m": 83.68, "type_element": "Way", "__fid": 98701}, "geometry": {"type": "LineString", "coordinates": [[2.379987365976253, 48.82692807666853], [2.3805941, 48.826291]]}}, {"type": "Feature", "properties": {"highway": "footway", "footway": "sidewalk", "name": null, "surface": "asphalt", "lit": "yes", "length_m": 75.01, "type_element": "Way", "__fid": 98797}, "geometry": {"type": "LineString", "coordinates": [[2.3801142, 48.8272689], [2.3809675, 48.82763989999997]]}}, {"type": "Feature", "properties": {"highway": "footway", "footway": "sidewalk", "name": null, "surface": "asphalt", "lit": "yes", "length_m": 75.09, "type_element": "Way", "__fid": 98838}, "geometry": {"type": "LineString", "coordinates": [[2.3801878, 48.8271946], [2.3810429, 48.8275652]]}}, {"type": "Feature", "properties": {"highway": "footway", "footway": "sidewalk", "name": null, "surface": null, "lit": null, "length_m": 43.3, "type_element": "Way", "__fid": 98875}, "geometry": {"type": "LineString", "coordinates": [[2.3807088, 48.8273802], [2.380220908139842, 48.827161316703574]]}}, {"type": "Feature", "properties": {"highway": "footway", "footway": null, "name": null, "surface": "compacted", "lit": "no", "length_m": 71.48, "type_element": "Way", "__fid": 98880}, "geometry": {"type": "LineString", "coordinates": [[2.3802027, 48.8290409], [2.3801816, 48.8289304], [2.3802057, 48.8288483], [2.3804301, 48.8285763], [2.3805838, 48.82860560000001], [2.3806144, 48.8285802]]}}, {"type": "Feature", "properties": {"highway": "footway", "footway": null, "name": null, "surface": "wood", "lit": "no", "length_m": 116.14, "type_element": "Way", "__fid": 98881}, "geometry": {"type": "LineString", "coordinates": [[2.3802027, 48.8290409], [2.3802422, 48.829004], [2.3803324, 48.8289573], [2.380378, 48.8289059], [2.3804101, 48.8288412], [2.3804327, 48.8288195], [2.3804978, 48.8287846], [2.3805732, 48.8287037], [2.3807712, 48.8287381], [2.3807494, 48.8287721], [2.3807017, 48.8288157], [2.3805564, 48.8288853], [2.3804934, 48.8289271], [2.3804496, 48.8289775], [2.3804082, 48.82906770000001], [2.380352131216908, 48.82911939616573]]}}, {"type": "Feature", "properties": {"highway": "footway", "footway": "crossing", "name": null, "surface": null, "lit": "yes", "length_m": 27.57, "type_element": "Way", "__fid": 98951}, "geometry": {"type": "LineString", "coordinates": [[2.380311, 48.8254103], [2.3804397, 48.8254506], [2.3806625, 48.8254958]]}}, {"type": "Feature", "properties": {"highway": "footway", "footway": "sidewalk", "name": null, "surface": "asphalt", "lit": "yes", "length_m": 33.21, "type_element": "Way", "__fid": 99003}, "geometry": {"type": "LineString", "coordinates": [[2.3803232, 48.8283269], [2.3805595, 48.8280722]]}}, {"type": "Feature", "properties": {"highway": "footway", "footway": null, "name": null, "surface": "paving_stones", "lit": "yes", "length_m": 59.04, "type_element": "Way", "__fid": 99030}, "geometry": {"type": "LineString", "coordinates": [[2.3803667, 48.8269583], [2.3808515, 48.82714760000001], [2.3810382, 48.8271368], [2.3810844, 48.82715469999999]]}}, {"type": "Feature", "properties": {"highway": "footway", "footway": "sidewalk", "name": null, "surface": "asphalt", "lit": "yes", "length_m": 70.42, "type_element": "Way", "__fid": 99031}, "geometry": {"type": "LineString", "coordinates": [[2.3808786, 48.8264227], [2.3803667, 48.8269583]]}}, {"type": "Feature", "properties": {"highway": "footway", "footway": "sidewalk", "name": null, "surface": "paving_stones", "lit": "yes", "length_m": 68.66, "type_element": "Way", "__fid": 99039}, "geometry": {"type": "LineString", "coordinates": [[2.380372188594693, 48.82711217450927], [2.381142141393793, 48.827462731875094]]}}, {"type": "Feature", "properties": {"highway": "footway", "footway": "sidewalk", "name": null, "surface": "asphalt", "lit": "yes", "length_m": 29.43, "type_element": "Way", "__fid": 99040}, "geometry": {"type": "LineString", "coordinates": [[2.3807301, 48.82718650000001], [2.3804991, 48.827093300000016], [2.380372188594693, 48.82711217450927]]}}, {"type": "Feature", "properties": {"highway": "footway", "footway": "sidewalk", "name": null, "surface": "asphalt", "lit": "yes", "length_m": 18.49, "type_element": "Way", "__fid": 99090}, "geometry": {"type": "LineString", "coordinates": [[2.3804023, 48.828490500000015], [2.3806144, 48.8285802]]}}, {"type": "Feature", "properties": {"highway": "footway", "footway": "sidewalk", "name": null, "surface": null, "lit": "yes", "length_m": 114.55, "type_element": "Way", "__fid": 99114}, "geometry": {"type": "LineString", "coordinates": [[2.3804909, 48.8250923], [2.3816204, 48.8254727], [2.3818885, 48.825549500000015]]}}, {"type": "Feature", "properties": {"highway": "footway", "footway": "traffic_island", "name": null, "surface": "asphalt", "lit": "yes", "length_m": 26.4, "type_element": "Way", "__fid": 99115}, "geometry": {"type": "LineString", "coordinates": [[2.3804909, 48.8250923], [2.380585, 48.8253215]]}}, {"type": "Feature", "properties": {"highway": "footway", "footway": "sidewalk", "name": null, "surface": "asphalt", "lit": "yes", "length_m": 40.93, "type_element": "Way", "__fid": 99148}, "geometry": {"type": "LineString", "coordinates": [[2.3809533, 48.82859610000001], [2.3804848, 48.8283966]]}}, {"type": "Feature", "properties": {"highway": "footway", "footway": "sidewalk", "name": null, "surface": "asphalt", "lit": "yes", "length_m": 33.5, "type_element": "Way", "__fid": 99149}, "geometry": {"type": "LineString", "coordinates": [[2.3804848, 48.8283966], [2.3807242, 48.828140099999985]]}}, {"type": "Feature", "properties": {"highway": "pedestrian", "footway": null, "name": "Esplanade Pierre Vidal-Naquet", "surface": "paving_stones", "lit": "yes", "length_m": 156.97, "type_element": "Way", "__fid": 99176}, "geometry": {"type": "LineString", "coordinates": [[2.3823195, 48.8299992], [2.3805902, 48.829257], [2.3805165, 48.8292456]]}}, {"type": "Feature", "properties": {"highway": "footway", "footway": "sidewalk", "name": null, "surface": "asphalt", "lit": "yes", "length_m": 63.52, "type_element": "Way", "__fid": 99177}, "geometry": {"type": "LineString", "coordinates": [[2.3809024, 48.82873720000002], [2.3806731, 48.8289822], [2.3805611, 48.8291535], [2.3805165, 48.8292456]]}}, {"type": "Feature", "properties": {"highway": "footway", "footway": null, "name": null, "surface": "paving_stones", "lit": "yes", "length_m": 24.88, "type_element": "Way", "__fid": 99192}, "geometry": {"type": "LineString", "coordinates": [[2.3808894, 48.8254199], [2.380585, 48.8253215]]}}, {"type": "Feature", "properties": {"highway": "footway", "footway": "crossing", "name": null, "surface": null, "lit": "yes", "length_m": 14.32, "type_element": "Way", "__fid": 99193}, "geometry": {"type": "LineString", "coordinates": [[2.380585, 48.8253215], [2.3806399, 48.82544510000002]]}}, {"type": "Feature", "properties": {"highway": "footway", "footway": "crossing", "name": null, "surface": "asphalt", "lit": "yes", "length_m": 14.25, "type_element": "Way", "__fid": 99203}, "geometry": {"type": "LineString", "coordinates": [[2.3805595, 48.8280722], [2.3807242, 48.828140099999985]]}}, {"type": "Feature", "properties": {"highway": "footway", "footway": "sidewalk", "name": null, "surface": "asphalt", "lit": "yes", "length_m": 4.69, "type_element": "Way", "__fid": 99204}, "geometry": {"type": "LineString", "coordinates": [[2.3805595, 48.8280722], [2.380579100000132, 48.82803206666668]]}}, {"type": "Feature", "properties": {"highway": "footway", "footway": "traffic_island", "name": null, "surface": null, "lit": "yes", "length_m": 25.61, "type_element": "Way", "__fid": 99212}, "geometry": {"type": "LineString", "coordinates": [[2.3805941, 48.826291], [2.3806483, 48.8263127], [2.380745, 48.8263698], [2.3808786, 48.8264227]]}}, {"type": "Feature", "properties": {"highway": "footway", "footway": "sidewalk", "name": null, "surface": null, "lit": "yes", "length_m": 49.48, "type_element": "Way", "__fid": 99213}, "geometry": {"type": "LineString", "coordinates": [[2.380985666666502, 48.826097366666694], [2.3806509, 48.8261572], [2.3805656, 48.82618969999998], [2.3804983, 48.8262526], [2.3805941, 48.826291]]}}, {"type": "Feature", "properties": {"highway": "service", "footway": null, "name": "Avenue de France", "surface": "asphalt", "lit": "yes", "length_m": 22.81, "type_element": "Way", "__fid": 99214}, "geometry": {"type": "LineString", "coordinates": [[2.3805941, 48.826291], [2.3806519, 48.826232800000014], [2.3807014, 48.8262086], [2.3808371, 48.8262399]]}}, {"type": "Feature", "properties": {"highway": "footway", "footway": "crossing", "name": null, "surface": "asphalt", "lit": "yes", "length_m": 11.51, "type_element": "Way", "__fid": 99215}, "geometry": {"type": "LineString", "coordinates": [[2.380579100000132, 48.82803206666668], [2.3806287, 48.82798050000001], [2.380674, 48.8279504]]}}, {"type": "Feature", "properties": {"highway": "footway", "footway": null, "name": null, "surface": "paving_stones", "lit": "yes", "length_m": 15.23, "type_element": "Way", "__fid": 99246}, "geometry": {"type": "LineString", "coordinates": [[2.3808255, 48.8255062], [2.3806399, 48.82544510000002]]}}, {"type": "Feature", "properties": {"highway": "footway", "footway": null, "name": null, "surface": null, "lit": "yes", "length_m": 5.88, "type_element": "Way", "__fid": 99247}, "geometry": {"type": "LineString", "coordinates": [[2.3806399, 48.82544510000002], [2.3806625, 48.8254958]]}}, {"type": "Feature", "properties": {"highway": "footway", "footway": "sidewalk", "name": null, "surface": "asphalt", "lit": "yes", "length_m": 21.66, "type_element": "Way", "__fid": 99257}, "geometry": {"type": "LineString", "coordinates": [[2.3806144, 48.8285802], [2.3808614, 48.8286868]]}}, {"type": "Feature", "properties": {"highway": "footway", "footway": null, "name": null, "surface": "compacted", "lit": "yes", "length_m": 5.28, "type_element": "Way", "__fid": 99258}, "geometry": {"type": "LineString", "coordinates": [[2.3806144, 48.8285802], [2.3806589, 48.8285429]]}}, {"type": "Feature", "properties": {"highway": "footway", "footway": null, "name": null, "surface": null, "lit": "yes", "length_m": 5.23, "type_element": "Way", "__fid": 99269}, "geometry": {"type": "LineString", "coordinates": [[2.3806625, 48.8254958], [2.3806825, 48.8255409]]}}, {"type": "Feature", "properties": {"highway": "footway", "footway": "crossing", "name": null, "surface": "asphalt", "lit": "yes", "length_m": 14.18, "type_element": "Way", "__fid": 99295}, "geometry": {"type": "LineString", "coordinates": [[2.3808456, 48.828009], [2.380674, 48.8279504]]}}, {"type": "Feature", "properties": {"highway": "footway", "footway": "sidewalk", "name": null, "surface": "asphalt", "lit": "yes", "length_m": 37.38, "type_element": "Way", "__fid": 99296}, "geometry": {"type": "LineString", "coordinates": [[2.3809423, 48.8276647], [2.380674, 48.8279504]]}}, {"type": "Feature", "properties": {"highway": "service", "footway": null, "name": null, "surface": "asphalt", "lit": "yes", "length_m": 1.49, "type_element": "Way", "__fid": 99314}, "geometry": {"type": "LineString", "coordinates": [[2.3807088, 48.8273802], [2.3806976, 48.8273914]]}}, {"type": "Feature", "properties": {"highway": "footway", "footway": "sidewalk", "name": null, "surface": null, "lit": null, "length_m": 31.81, "type_element": "Way", "__fid": 99324}, "geometry": {"type": "LineString", "coordinates": [[2.381069949269985, 48.82753819880564], [2.3807088, 48.8273802]]}}, {"type": "Feature", "properties": {"highway": "service", "footway": null, "name": null, "surface": "asphalt", "lit": "yes", "length_m": 4.81, "type_element": "Way", "__fid": 99325}, "geometry": {"type": "LineString", "coordinates": [[2.380745, 48.8273441], [2.3807088, 48.8273802]]}}, {"type": "Feature", "properties": {"highway": "footway", "footway": "sidewalk", "name": null, "surface": "asphalt", "lit": "yes", "length_m": 41.94, "type_element": "Way", "__fid": 99341}, "geometry": {"type": "LineString", "coordinates": [[2.3807301, 48.82718650000001], [2.3812163, 48.8273845]]}}, {"type": "Feature", "properties": {"highway": "steps", "footway": null, "name": null, "surface": "paving_stones", "lit": "no", "length_m": 46.24, "type_element": "Way", "__fid": 99342}, "geometry": {"type": "LineString", "coordinates": [[2.3807301, 48.82718650000001], [2.3807715, 48.8272327], [2.3811152, 48.8273783], [2.381095, 48.8273984], [2.3810079, 48.827361300000014]]}}, {"type": "Feature", "properties": {"highway": "footway", "footway": "crossing", "name": null, "surface": "asphalt", "lit": "yes", "length_m": 17.09, "type_element": "Way", "__fid": 99347}, "geometry": {"type": "LineString", "coordinates": [[2.3807242, 48.828140099999985], [2.3808456, 48.828009]]}}, {"type": "Feature", "properties": {"highway": "footway", "footway": "sidewalk", "name": null, "surface": "asphalt", "lit": "yes", "length_m": 35.8, "type_element": "Way", "__fid": 99424}, "geometry": {"type": "LineString", "coordinates": [[2.3811069, 48.8277372], [2.3808456, 48.828009]]}}, {"type": "Feature", "properties": {"highway": "footway", "footway": "sidewalk", "name": null, "surface": null, "lit": "yes", "length_m": 9.62, "type_element": "Way", "__fid": 99432}, "geometry": {"type": "LineString", "coordinates": [[2.3809807, 48.8263835], [2.3809541, 48.8263811], [2.3809111, 48.8263901], [2.3808786, 48.8264227]]}}, {"type": "Feature", "properties": {"highway": "footway", "footway": "sidewalk", "name": null, "surface": "asphalt", "lit": "yes", "length_m": 7.58, "type_element": "Way", "__fid": 99434}, "geometry": {"type": "LineString", "coordinates": [[2.3808614, 48.8286868], [2.3809078, 48.8287086], [2.3809125, 48.8287249], [2.3809024, 48.82873720000002]]}}, {"type": "Feature", "properties": {"highway": "footway", "footway": "crossing", "name": null, "surface": "asphalt", "lit": "yes", "length_m": 12.13, "type_element": "Way", "__fid": 99435}, "geometry": {"type": "LineString", "coordinates": [[2.3809533, 48.82859610000001], [2.3808614, 48.8286868]]}}, {"type": "Feature", "properties": {"highway": "footway", "footway": "sidewalk", "name": null, "surface": "asphalt", "lit": "yes", "length_m": 11.69, "type_element": "Way", "__fid": 99455}, "geometry": {"type": "LineString", "coordinates": [[2.3809024, 48.82873720000002], [2.3809867, 48.8287746], [2.3810178, 48.8287605], [2.3810377, 48.8287616]]}}, {"type": "Feature", "properties": {"highway": "footway", "footway": "crossing", "name": null, "surface": "asphalt", "lit": "yes", "length_m": 14.53, "type_element": "Way", "__fid": 99472}, "geometry": {"type": "LineString", "coordinates": [[2.3809423, 48.8276647], [2.3811069, 48.8277372]]}}, {"type": "Feature", "properties": {"highway": "footway", "footway": "sidewalk", "name": null, "surface": "asphalt", "lit": "yes", "length_m": 3.32, "type_element": "Way", "__fid": 99473}, "geometry": {"type": "LineString", "coordinates": [[2.3809675, 48.82763989999997], [2.3809423, 48.8276647]]}}, {"type": "Feature", "properties": {"highway": "footway", "footway": "sidewalk", "name": null, "surface": "asphalt", "lit": "yes", "length_m": 15.51, "type_element": "Way", "__fid": 99481}, "geometry": {"type": "LineString", "coordinates": [[2.3811315, 48.8286711], [2.3809533, 48.82859610000001]]}}, {"type": "Feature", "properties": {"highway": "footway", "footway": "sidewalk", "name": null, "surface": "asphalt", "lit": "yes", "length_m": 72.31, "type_element": "Way", "__fid": 99484}, "geometry": {"type": "LineString", "coordinates": [[2.3809807, 48.8263835], [2.3818132, 48.826731]]}}, {"type": "Feature", "properties": {"highway": "footway", "footway": "crossing", "name": null, "surface": "asphalt", "lit": "yes", "length_m": 10.17, "type_element": "Way", "__fid": 99485}, "geometry": {"type": "LineString", "coordinates": [[2.3809807, 48.8263835], [2.3810978, 48.8263347]]}}, {"type": "Feature", "properties": {"highway": "footway", "footway": "crossing", "name": null, "surface": null, "lit": "yes", "length_m": 23.77, "type_element": "Way", "__fid": 99486}, "geometry": {"type": "LineString", "coordinates": [[2.380985666666502, 48.826097366666694], [2.3810401, 48.8261963], [2.3811428, 48.826281]]}}, {"type": "Feature", "properties": {"highway": "footway", "footway": "sidewalk", "name": null, "surface": null, "lit": "yes", "length_m": 55.4, "type_element": "Way", "__fid": 99487}, "geometry": {"type": "LineString", "coordinates": [[2.3815702, 48.825789399999984], [2.3810384, 48.8260701], [2.3809824, 48.8260921], [2.380985666666502, 48.826097366666694]]}}, {"type": "Feature", "properties": {"highway": "footway", "footway": "crossing", "name": null, "surface": "asphalt", "lit": "yes", "length_m": 9.98, "type_element": "Way", "__fid": 99488}, "geometry": {"type": "LineString", "coordinates": [[2.3809675, 48.82763989999997], [2.3810429, 48.8275652]]}}, {"type": "Feature", "properties": {"highway": "footway", "footway": "sidewalk", "name": null, "surface": "asphalt", "lit": "yes", "length_m": 3.14, "type_element": "Way", "__fid": 99540}, "geometry": {"type": "LineString", "coordinates": [[2.3810429, 48.8275652], [2.3810666, 48.82754170000002]]}}, {"type": "Feature", "properties": {"highway": "footway", "footway": "sidewalk", "name": null, "surface": "asphalt", "lit": "yes", "length_m": 51.4, "type_element": "Way", "__fid": 99547}, "geometry": {"type": "LineString", "coordinates": [[2.3816266, 48.82901169999999], [2.3810377, 48.8287616]]}}, {"type": "Feature", "properties": {"highway": "footway", "footway": "crossing", "name": null, "surface": "asphalt", "lit": "yes", "length_m": 12.19, "type_element": "Way", "__fid": 99548}, "geometry": {"type": "LineString", "coordinates": [[2.3810377, 48.8287616], [2.3811315, 48.8286711]]}}, {"type": "Feature", "properties": {"highway": "footway", "footway": "crossing", "name": null, "surface": "asphalt", "lit": "yes", "length_m": 14.36, "type_element": "Way", "__fid": 99566}, "geometry": {"type": "LineString", "coordinates": [[2.3810666, 48.82754170000002], [2.3812315, 48.8276112]]}}, {"type": "Feature", "properties": {"highway": "footway", "footway": "sidewalk", "name": null, "surface": "asphalt", "lit": "yes", "length_m": 0.46, "type_element": "Way", "__fid": 99567}, "geometry": {"type": "LineString", "coordinates": [[2.3810666, 48.82754170000002], [2.381069949269985, 48.82753819880564]]}}, {"type": "Feature", "properties": {"highway": "footway", "footway": "sidewalk", "name": null, "surface": null, "lit": null, "length_m": 14.37, "type_element": "Way", "__fid": 99568}, "geometry": {"type": "LineString", "coordinates": [[2.381233595769813, 48.82760904988421], [2.381069949269985, 48.82753819880564]]}}, {"type": "Feature", "properties": {"highway": "footway", "footway": "sidewalk", "name": null, "surface": "asphalt", "lit": "yes", "length_m": 9.92, "type_element": "Way", "__fid": 99569}, "geometry": {"type": "LineString", "coordinates": [[2.381069949269985, 48.82753819880564], [2.381142141393793, 48.827462731875094]]}}, {"type": "Feature", "properties": {"highway": "footway", "footway": "sidewalk", "name": null, "surface": null, "lit": "yes", "length_m": 68.24, "type_element": "Way", "__fid": 99577}, "geometry": {"type": "LineString", "coordinates": [[2.3810978, 48.8263347], [2.3818844, 48.82666159999999]]}}, {"type": "Feature", "properties": {"highway": "footway", "footway": "sidewalk", "name": null, "surface": null, "lit": "yes", "length_m": 7.54, "type_element": "Way", "__fid": 99578}, "geometry": {"type": "LineString", "coordinates": [[2.3811428, 48.826281], [2.3810987, 48.8263039], [2.3810978, 48.8263347]]}}, {"type": "Feature", "properties": {"highway": "footway", "footway": "sidewalk", "name": null, "surface": "asphalt", "lit": "yes", "length_m": 3.03, "type_element": "Way", "__fid": 99595}, "geometry": {"type": "LineString", "coordinates": [[2.38113, 48.827714600000014], [2.3811069, 48.8277372]]}}, {"type": "Feature", "properties": {"highway": "footway", "footway": "sidewalk", "name": null, "surface": "paving_stones", "lit": "yes", "length_m": 48.21, "type_element": "Way", "__fid": 99610}, "geometry": {"type": "LineString", "coordinates": [[2.3816587, 48.8260128], [2.3811428, 48.826281]]}}, {"type": "Feature", "properties": {"highway": "footway", "footway": "sidewalk", "name": null, "surface": "asphalt", "lit": "yes", "length_m": 103.78, "type_element": "Way", "__fid": 99615}, "geometry": {"type": "LineString", "coordinates": [[2.3823114, 48.82822650000002], [2.3811736, 48.827728], [2.38113, 48.827714600000014]]}}, {"type": "Feature", "properties": {"highway": "footway", "footway": "crossing", "name": null, "surface": "asphalt", "lit": "yes", "length_m": 13.7, "type_element": "Way", "__fid": 99616}, "geometry": {"type": "LineString", "coordinates": [[2.3812315, 48.8276112], [2.38113, 48.827714600000014]]}}, {"type": "Feature", "properties": {"highway": "footway", "footway": "sidewalk", "name": null, "surface": "asphalt", "lit": "24/7", "length_m": 14.46, "type_element": "Way", "__fid": 99623}, "geometry": {"type": "LineString", "coordinates": [[2.381304911270056, 48.82753588495261], [2.381142141393793, 48.827462731875094]]}}, {"type": "Feature", "properties": {"highway": "footway", "footway": "sidewalk", "name": null, "surface": "asphalt", "lit": "yes", "length_m": 10.26, "type_element": "Way", "__fid": 99624}, "geometry": {"type": "LineString", "coordinates": [[2.381142141393793, 48.827462731875094], [2.3812163, 48.8273845]]}}, {"type": "Feature", "properties": {"highway": "footway", "footway": "sidewalk", "name": null, "surface": "asphalt", "lit": "yes", "length_m": 50.54, "type_element": "Way", "__fid": 99627}, "geometry": {"type": "LineString", "coordinates": [[2.3817148, 48.82891250000002], [2.3811315, 48.8286711]]}}, {"type": "Feature", "properties": {"highway": "footway", "footway": "sidewalk", "name": null, "surface": "asphalt", "lit": "yes", "length_m": 78.74, "type_element": "Way", "__fid": 99681}, "geometry": {"type": "LineString", "coordinates": [[2.3812163, 48.8273845], [2.3817841, 48.8267837]]}}, {"type": "Feature", "properties": {"highway": "footway", "footway": "sidewalk", "name": null, "surface": "asphalt", "lit": "yes", "length_m": 0.28, "type_element": "Way", "__fid": 99683}, "geometry": {"type": "LineString", "coordinates": [[2.381233595769813, 48.82760904988421], [2.3812315, 48.8276112]]}}, {"type": "Feature", "properties": {"highway": "footway", "footway": "sidewalk", "name": null, "surface": null, "lit": null, "length_m": 103.46, "type_element": "Way", "__fid": 99684}, "geometry": {"type": "LineString", "coordinates": [[2.3824106, 48.8281208], [2.381233595769813, 48.82760904988421]]}}, {"type": "Feature", "properties": {"highway": "footway", "footway": "sidewalk", "name": null, "surface": "asphalt", "lit": "yes", "length_m": 9.67, "type_element": "Way", "__fid": 99685}, "geometry": {"type": "LineString", "coordinates": [[2.381304911270056, 48.82753588495261], [2.381233595769813, 48.82760904988421]]}}, {"type": "Feature", "properties": {"highway": "footway", "footway": "sidewalk", "name": null, "surface": "asphalt", "lit": "24/7", "length_m": 5.04, "type_element": "Way", "__fid": 99710}, "geometry": {"type": "LineString", "coordinates": [[2.3813669, 48.82752930000002], [2.3813388, 48.8275416], [2.381304911270056, 48.82753588495261]]}}, {"type": "Feature", "properties": {"highway": "footway", "footway": "sidewalk", "name": null, "surface": "asphalt", "lit": "yes", "length_m": 92.53, "type_element": "Way", "__fid": 99711}, "geometry": {"type": "LineString", "coordinates": [[2.3819696, 48.8268288], [2.381304911270056, 48.82753588495261]]}}, {"type": "Feature", "properties": {"highway": "footway", "footway": null, "name": null, "surface": "paving_stones", "lit": "yes", "length_m": 12.4, "type_element": "Way", "__fid": 99736}, "geometry": {"type": "LineString", "coordinates": [[2.381374, 48.8256874], [2.3815253, 48.82573690000001]]}}, {"type": "Feature", "properties": {"highway": "footway", "footway": "crossing", "name": null, "surface": "asphalt", "lit": "yes", "length_m": 10.87, "type_element": "Way", "__fid": 99747}, "geometry": {"type": "LineString", "coordinates": [[2.381494, 48.8275772], [2.3814611, 48.827572], [2.3813669, 48.82752930000002]]}}, {"type": "Feature", "properties": {"highway": "footway", "footway": "sidewalk", "name": null, "surface": "asphalt", "lit": "yes", "length_m": 75.35, "type_element": "Way", "__fid": 99748}, "geometry": {"type": "LineString", "coordinates": [[2.3813669, 48.82752930000002], [2.3819138, 48.8269559]]}}, {"type": "Feature", "properties": {"highway": "footway", "footway": null, "name": null, "surface": "paving_stones", "lit": "yes", "length_m": 17.61, "type_element": "Way", "__fid": 99779}, "geometry": {"type": "LineString", "coordinates": [[2.3814433, 48.8255993], [2.3816573, 48.8256709]]}}, {"type": "Feature", "properties": {"highway": "footway", "footway": "sidewalk", "name": null, "surface": "asphalt", "lit": "yes", "length_m": 91.99, "type_element": "Way", "__fid": 99828}, "geometry": {"type": "LineString", "coordinates": [[2.382458, 48.828070099999984], [2.3815189, 48.82765890000001], [2.381494, 48.8275772]]}}, {"type": "Feature", "properties": {"highway": "footway", "footway": "sidewalk", "name": null, "surface": "asphalt", "lit": "yes", "length_m": 98.42, "type_element": "Way", "__fid": 99829}, "geometry": {"type": "LineString", "coordinates": [[2.3823513, 48.8270143], [2.3822829, 48.826995], [2.3820185, 48.8270215], [2.3815001, 48.82753550000001], [2.381494, 48.8275772]]}}, {"type": "Feature", "properties": {"highway": "footway", "footway": "sidewalk", "name": null, "surface": null, "lit": "yes", "length_m": 6.7, "type_element": "Way", "__fid": 99839}, "geometry": {"type": "LineString", "coordinates": [[2.3815253, 48.82573690000001], [2.3815702, 48.825789399999984]]}}, {"type": "Feature", "properties": {"highway": "footway", "footway": null, "name": null, "surface": "paving_stones", "lit": "yes", "length_m": 12.16, "type_element": "Way", "__fid": 99840}, "geometry": {"type": "LineString", "coordinates": [[2.3816573, 48.8256709], [2.3815253, 48.82573690000001]]}}, {"type": "Feature", "properties": {"highway": "footway", "footway": "traffic_island", "name": null, "surface": "asphalt", "lit": "yes", "length_m": 22.64, "type_element": "Way", "__fid": 99887}, "geometry": {"type": "LineString", "coordinates": [[2.3815702, 48.825789399999984], [2.3818412, 48.8258865]]}}, {"type": "Feature", "properties": {"highway": "footway", "footway": "traffic_island", "name": null, "surface": "paving_stones", "lit": "yes", "length_m": 21.69, "type_element": "Way", "__fid": 99944}, "geometry": {"type": "LineString", "coordinates": [[2.3818885, 48.825549500000015], [2.3816573, 48.8256709]]}}, {"type": "Feature", "properties": {"highway": "footway", "footway": null, "name": null, "surface": null, "lit": null, "length_m": 13.17, "type_element": "Way", "__fid": 99947}, "geometry": {"type": "LineString", "coordinates": [[2.3817875, 48.8260953], [2.3816587, 48.8260128]]}}, {"type": "Feature", "properties": {"highway": "footway", "footway": "sidewalk", "name": null, "surface": "paving_stones", "lit": "yes", "length_m": 19.86, "type_element": "Way", "__fid": 99948}, "geometry": {"type": "LineString", "coordinates": [[2.3818412, 48.8258865], [2.3816864, 48.8259697], [2.3816587, 48.8260128]]}}, {"type": "Feature", "properties": {"highway": "footway", "footway": "sidewalk", "name": null, "surface": "asphalt", "lit": "yes", "length_m": 44.09, "type_element": "Way", "__fid": 99950}, "geometry": {"type": "LineString", "coordinates": [[2.3821314, 48.8292265], [2.3816266, 48.82901169999999]]}}, {"type": "Feature", "properties": {"highway": "footway", "footway": "crossing", "name": null, "surface": "asphalt", "lit": "yes", "length_m": 12.79, "type_element": "Way", "__fid": 99951}, "geometry": {"type": "LineString", "coordinates": [[2.3816266, 48.82901169999999], [2.3817148, 48.82891250000002]]}}, {"type": "Feature", "properties": {"highway": "footway", "footway": null, "name": null, "surface": null, "lit": null, "length_m": 7.67, "type_element": "Way", "__fid": 99993}, "geometry": {"type": "LineString", "coordinates": [[2.381695, 48.8267476], [2.3817841, 48.8267837]]}}, {"type": "Feature", "properties": {"highway": "footway", "footway": "sidewalk", "name": null, "surface": "asphalt", "lit": "yes", "length_m": 45.17, "type_element": "Way", "__fid": 100031}, "geometry": {"type": "LineString", "coordinates": [[2.3822321, 48.8291278], [2.3818952, 48.828987099999985], [2.3818657, 48.828964499999984], [2.3817741, 48.8289257], [2.3817148, 48.82891250000002]]}}, {"type": "Feature", "properties": {"highway": "footway", "footway": null, "name": null, "surface": null, "lit": null, "length_m": 41.72, "type_element": "Way", "__fid": 100071}, "geometry": {"type": "LineString", "coordinates": [[2.3822811, 48.8262556], [2.3821433, 48.8262051], [2.3820692, 48.826208], [2.3818777, 48.826157], [2.3817875, 48.8260953]]}}, {"type": "Feature", "properties": {"highway": "footway", "footway": null, "name": null, "surface": null, "lit": null, "length_m": 51.67, "type_element": "Way", "__fid": 100072}, "geometry": {"type": "LineString", "coordinates": [[2.3820395, 48.8265087], [2.3819141, 48.8263999], [2.3819392, 48.82631509999999], [2.3817875, 48.8260953]]}}, {"type": "Feature", "properties": {"highway": "footway", "footway": "sidewalk", "name": null, "surface": "asphalt", "lit": "yes", "length_m": 2.83, "type_element": "Way", "__fid": 100076}, "geometry": {"type": "LineString", "coordinates": [[2.3817841, 48.8267837], [2.3818046, 48.82676210000001]]}}, {"type": "Feature", "properties": {"highway": "footway", "footway": "crossing", "name": null, "surface": "asphalt", "lit": "yes", "length_m": 14.2, "type_element": "Way", "__fid": 100101}, "geometry": {"type": "LineString", "coordinates": [[2.3819696, 48.8268288], [2.3818046, 48.82676210000001]]}}, {"type": "Feature", "properties": {"highway": "footway", "footway": "sidewalk", "name": null, "surface": "asphalt", "lit": "yes", "length_m": 3.52, "type_element": "Way", "__fid": 100102}, "geometry": {"type": "LineString", "coordinates": [[2.3818046, 48.82676210000001], [2.3818132, 48.826731]]}}, {"type": "Feature", "properties": {"highway": "footway", "footway": "crossing", "name": null, "surface": "asphalt", "lit": "yes", "length_m": 9.32, "type_element": "Way", "__fid": 100109}, "geometry": {"type": "LineString", "coordinates": [[2.3818132, 48.826731], [2.3818844, 48.82666159999999]]}}, {"type": "Feature", "properties": {"highway": "footway", "footway": "sidewalk", "name": null, "surface": "asphalt", "lit": "yes", "length_m": 49.57, "type_element": "Way", "__fid": 100131}, "geometry": {"type": "LineString", "coordinates": [[2.382448, 48.826080699999984], [2.3819095, 48.8259007], [2.3818412, 48.8258865]]}}, {"type": "Feature", "properties": {"highway": "footway", "footway": null, "name": "Promenade Germaine Sablon", "surface": null, "lit": null, "length_m": 148.53, "type_element": "Way", "__fid": 100169}, "geometry": {"type": "LineString", "coordinates": [[2.3818885, 48.825549500000015], [2.3819002, 48.8255262], [2.3818908, 48.8255063], [2.3817784, 48.8254675], [2.3817603, 48.8254505], [2.3817641, 48.8254255], [2.3817925, 48.8253807], [2.3824554, 48.824935], [2.3830724, 48.8252027]]}}, {"type": "Feature", "properties": {"highway": "service", "footway": null, "name": null, "surface": "asphalt", "lit": "yes", "length_m": 3.13, "type_element": "Way", "__fid": 100173}, "geometry": {"type": "LineString", "coordinates": [[2.3819138, 48.8269559], [2.3818793, 48.8269394]]}}, {"type": "Feature", "properties": {"highway": "footway", "footway": "sidewalk", "name": null, "surface": "asphalt", "lit": "yes", "length_m": 4.42, "type_element": "Way", "__fid": 100175}, "geometry": {"type": "LineString", "coordinates": [[2.3818844, 48.82666159999999], [2.3819228, 48.826631]]}}, {"type": "Feature", "properties": {"highway": "service", "footway": null, "name": null, "surface": "asphalt", "lit": "yes", "length_m": 5.05, "type_element": "Way", "__fid": 100209}, "geometry": {"type": "LineString", "coordinates": [[2.3819703, 48.82698180000001], [2.3819138, 48.8269559]]}}, {"type": "Feature", "properties": {"highway": "footway", "footway": "sidewalk", "name": null, "surface": "asphalt", "lit": "yes", "length_m": 13.36, "type_element": "Way", "__fid": 100210}, "geometry": {"type": "LineString", "coordinates": [[2.3819138, 48.8269559], [2.3819467, 48.8269215], [2.3820655, 48.8269087]]}}, {"type": "Feature", "properties": {"highway": "footway", "footway": "crossing", "name": null, "surface": "asphalt", "lit": "yes", "length_m": 14.74, "type_element": "Way", "__fid": 100216}, "geometry": {"type": "LineString", "coordinates": [[2.3819228, 48.826631], [2.3820907, 48.8267037]]}}, {"type": "Feature", "properties": {"highway": "footway", "footway": "sidewalk", "name": null, "surface": null, "lit": "yes", "length_m": 16.07, "type_element": "Way", "__fid": 100217}, "geometry": {"type": "LineString", "coordinates": [[2.3819228, 48.826631], [2.3820395, 48.8265087]]}}, {"type": "Feature", "properties": {"highway": "footway", "footway": "sidewalk", "name": null, "surface": "asphalt", "lit": "yes", "length_m": 7.03, "type_element": "Way", "__fid": 100259}, "geometry": {"type": "LineString", "coordinates": [[2.3819696, 48.8268288], [2.3820184, 48.8267744]]}}, {"type": "Feature", "properties": {"highway": "footway", "footway": "sidewalk", "name": null, "surface": "asphalt", "lit": "yes", "length_m": 10.43, "type_element": "Way", "__fid": 100292}, "geometry": {"type": "LineString", "coordinates": [[2.3820184, 48.8267744], [2.3820709, 48.8267963], [2.3820291, 48.826841300000034]]}}, {"type": "Feature", "properties": {"highway": "footway", "footway": "sidewalk", "name": null, "surface": "asphalt", "lit": "yes", "length_m": 9.49, "type_element": "Way", "__fid": 100293}, "geometry": {"type": "LineString", "coordinates": [[2.3820184, 48.8267744], [2.3820907, 48.8267037]]}}, {"type": "Feature", "properties": {"highway": "footway", "footway": "sidewalk", "name": null, "surface": "asphalt", "lit": "yes", "length_m": 33.27, "type_element": "Way", "__fid": 100307}, "geometry": {"type": "LineString", "coordinates": [[2.3820395, 48.8265087], [2.3822811, 48.8262556]]}}, {"type": "Feature", "properties": {"highway": "steps", "footway": null, "name": null, "surface": "paving_stones", "lit": "yes", "length_m": 47.89, "type_element": "Way", "__fid": 100336}, "geometry": {"type": "LineString", "coordinates": [[2.3820907, 48.8267037], [2.3823256, 48.8268109], [2.3823053, 48.8268295], [2.3820525, 48.8268599], [2.3820655, 48.8269087]]}}, {"type": "Feature", "properties": {"highway": "footway", "footway": "sidewalk", "name": null, "surface": "asphalt", "lit": "yes", "length_m": 29.53, "type_element": "Way", "__fid": 100337}, "geometry": {"type": "LineString", "coordinates": [[2.3824514, 48.8269184], [2.3823713, 48.826888299999986], [2.3823184, 48.82688169999999], [2.3820655, 48.8269087]]}}, {"type": "Feature", "properties": {"highway": "footway", "footway": "sidewalk", "name": null, "surface": "asphalt", "lit": "yes", "length_m": 2.61, "type_element": "Way", "__fid": 100358}, "geometry": {"type": "LineString", "coordinates": [[2.3820907, 48.8267037], [2.3821098, 48.826683899999985]]}}, {"type": "Feature", "properties": {"highway": "footway", "footway": null, "name": null, "surface": "concrete", "lit": "no", "length_m": 70.26, "type_element": "Way", "__fid": 100359}, "geometry": {"type": "LineString", "coordinates": [[2.3820841, 48.827413], [2.3828765, 48.8277674]]}}, {"type": "Feature", "properties": {"highway": "footway", "footway": null, "name": null, "surface": "concrete", "lit": "24/7", "length_m": 104.29, "type_element": "Way", "__fid": 100368}, "geometry": {"type": "LineString", "coordinates": [[2.3832901, 48.8272058], [2.3821098, 48.826683899999985]]}}, {"type": "Feature", "properties": {"highway": "footway", "footway": "sidewalk", "name": null, "surface": "asphalt", "lit": "yes", "length_m": 70.77, "type_element": "Way", "__fid": 100369}, "geometry": {"type": "LineString", "coordinates": [[2.3821098, 48.826683899999985], [2.3826266, 48.8261466]]}}, {"type": "Feature", "properties": {"highway": "footway", "footway": "sidewalk", "name": null, "surface": null, "lit": "yes", "length_m": 207.29, "type_element": "Way", "__fid": 100394}, "geometry": {"type": "LineString", "coordinates": [[2.382174, 48.825578600000014], [2.3822814, 48.8256178], [2.3828511, 48.82537470000001], [2.3835598, 48.8250366], [2.3839393, 48.8248167], [2.3844362, 48.82454710000001]]}}, {"type": "Feature", "properties": {"highway": "footway", "footway": "sidewalk", "name": null, "surface": "asphalt", "lit": "yes", "length_m": 66.05, "type_element": "Way", "__fid": 100396}, "geometry": {"type": "LineString", "coordinates": [[2.3828876, 48.8295483], [2.3821314, 48.8292265]]}}, {"type": "Feature", "properties": {"highway": "footway", "footway": "crossing", "name": null, "surface": "asphalt", "lit": "yes", "length_m": 13.23, "type_element": "Way", "__fid": 100397}, "geometry": {"type": "LineString", "coordinates": [[2.3821314, 48.8292265], [2.3822321, 48.8291278]]}}, {"type": "Feature", "properties": {"highway": "footway", "footway": "sidewalk", "name": null, "surface": "asphalt", "lit": "yes", "length_m": 67.37, "type_element": "Way", "__fid": 100484}, "geometry": {"type": "LineString", "coordinates": [[2.3830078, 48.8294515], [2.3822321, 48.8291278]]}}, {"type": "Feature", "properties": {"highway": "footway", "footway": "sidewalk", "name": null, "surface": "asphalt", "lit": "yes", "length_m": 22.99, "type_element": "Way", "__fid": 100498}, "geometry": {"type": "LineString", "coordinates": [[2.3822811, 48.8262556], [2.382448, 48.826080699999984]]}}, {"type": "Feature", "properties": {"highway": "footway", "footway": "sidewalk", "name": null, "surface": "asphalt", "lit": "yes", "length_m": 33.71, "type_element": "Way", "__fid": 100535}, "geometry": {"type": "LineString", "coordinates": [[2.3823114, 48.82822650000002], [2.382488, 48.8283088], [2.3825216, 48.8282977], [2.3826305, 48.8281827]]}}, {"type": "Feature", "properties": {"highway": "footway", "footway": "crossing", "name": null, "surface": "asphalt", "lit": "yes", "length_m": 13.83, "type_element": "Way", "__fid": 100536}, "geometry": {"type": "LineString", "coordinates": [[2.3823114, 48.82822650000002], [2.3824106, 48.8281208]]}}, {"type": "Feature", "properties": {"highway": "footway", "footway": "sidewalk", "name": null, "surface": "asphalt", "lit": "yes", "length_m": 78.23, "type_element": "Way", "__fid": 100560}, "geometry": {"type": "LineString", "coordinates": [[2.3823513, 48.8270143], [2.3832316, 48.82741079999999]]}}, {"type": "Feature", "properties": {"highway": "footway", "footway": "crossing", "name": null, "surface": "asphalt", "lit": "yes", "length_m": 12.95, "type_element": "Way", "__fid": 100561}, "geometry": {"type": "LineString", "coordinates": [[2.3823513, 48.8270143], [2.3824514, 48.8269184]]}}, {"type": "Feature", "properties": {"highway": "footway", "footway": "crossing", "name": null, "surface": "asphalt", "lit": "yes", "length_m": 6.62, "type_element": "Way", "__fid": 100606}, "geometry": {"type": "LineString", "coordinates": [[2.3824106, 48.8281208], [2.382458, 48.828070099999984]]}}, {"type": "Feature", "properties": {"highway": "footway", "footway": "crossing", "name": null, "surface": "asphalt", "lit": "yes", "length_m": 15.16, "type_element": "Way", "__fid": 100620}, "geometry": {"type": "LineString", "coordinates": [[2.3826266, 48.8261466], [2.3824819, 48.8261021], [2.382448, 48.826080699999984]]}}, {"type": "Feature", "properties": {"highway": "footway", "footway": "sidewalk", "name": null, "surface": "asphalt", "lit": "yes", "length_m": 78.0, "type_element": "Way", "__fid": 100628}, "geometry": {"type": "LineString", "coordinates": [[2.3824514, 48.8269184], [2.3833252, 48.8273174]]}}, {"type": "Feature", "properties": {"highway": "footway", "footway": "sidewalk", "name": null, "surface": "asphalt", "lit": "yes", "length_m": 6.59, "type_element": "Way", "__fid": 100647}, "geometry": {"type": "LineString", "coordinates": [[2.382458, 48.828070099999984], [2.3825326, 48.828103]]}}, {"type": "Feature", "properties": {"highway": "footway", "footway": "sidewalk", "name": null, "surface": "paving_stones", "lit": "yes", "length_m": 46.09, "type_element": "Way", "__fid": 100679}, "geometry": {"type": "LineString", "coordinates": [[2.3828876, 48.8295483], [2.3824861, 48.829867]]}}, {"type": "Feature", "properties": {"highway": "footway", "footway": "sidewalk", "name": null, "surface": "asphalt", "lit": "yes", "length_m": 14.21, "type_element": "Way", "__fid": 100691}, "geometry": {"type": "LineString", "coordinates": [[2.3825326, 48.828103], [2.3826551, 48.8281566], [2.3826305, 48.8281827]]}}, {"type": "Feature", "properties": {"highway": "footway", "footway": null, "name": "Allée Rita Thalmann", "surface": "concrete", "lit": "yes", "length_m": 45.05, "type_element": "Way", "__fid": 100692}, "geometry": {"type": "LineString", "coordinates": [[2.3825326, 48.828103], [2.3828765, 48.8277674]]}}, {"type": "Feature", "properties": {"highway": "service", "footway": null, "name": "Rue Watt", "surface": "paving_stones", "lit": "yes", "length_m": 8.37, "type_element": "Way", "__fid": 100699}, "geometry": {"type": "LineString", "coordinates": [[2.3825351, 48.8281415], [2.3826305, 48.8281827]]}}, {"type": "Feature", "properties": {"highway": "footway", "footway": "sidewalk", "name": null, "surface": "asphalt", "lit": "yes", "length_m": 12.01, "type_element": "Way", "__fid": 100754}, "geometry": {"type": "LineString", "coordinates": [[2.3827754, 48.8261914], [2.3826266, 48.8261466]]}}, {"type": "Feature", "properties": {"highway": "service", "footway": null, "name": "Rue Watt", "surface": "paving_stones", "lit": "yes", "length_m": 70.76, "type_element": "Way", "__fid": 100776}, "geometry": {"type": "LineString", "coordinates": [[2.3826305, 48.8281827], [2.38344, 48.8285282]]}}, {"type": "Feature", "properties": {"highway": "footway", "footway": "sidewalk", "name": null, "surface": null, "lit": "yes", "length_m": 70.5, "type_element": "Way", "__fid": 100865}, "geometry": {"type": "LineString", "coordinates": [[2.3827266, 48.830000099999985], [2.3833411, 48.8295129]]}}, {"type": "Feature", "properties": {"highway": "footway", "footway": "sidewalk", "name": null, "surface": "asphalt", "lit": "yes", "length_m": 80.14, "type_element": "Way", "__fid": 100868}, "geometry": {"type": "LineString", "coordinates": [[2.3837409, 48.8265276], [2.3827754, 48.8261914]]}}, {"type": "Feature", "properties": {"highway": "footway", "footway": "crossing", "name": null, "surface": "asphalt", "lit": "yes", "length_m": 33.84, "type_element": "Way", "__fid": 100869}, "geometry": {"type": "LineString", "coordinates": [[2.3827754, 48.8261914], [2.3829861, 48.8259207]]}}, {"type": "Feature", "properties": {"highway": "footway", "footway": "sidewalk", "name": null, "surface": "asphalt", "lit": "yes", "length_m": 17.17, "type_element": "Way", "__fid": 100874}, "geometry": {"type": "LineString", "coordinates": [[2.3829861, 48.8259207], [2.3827905, 48.82583609999999]]}}, {"type": "Feature", "properties": {"highway": "footway", "footway": null, "name": null, "surface": "concrete", "lit": "no", "length_m": 58.86, "type_element": "Way", "__fid": 100935}, "geometry": {"type": "LineString", "coordinates": [[2.3828765, 48.8277674], [2.383137, 48.82787270000002], [2.3835486, 48.8280558]]}}, {"type": "Feature", "properties": {"highway": "footway", "footway": null, "name": "Allée Rita Thalmann", "surface": "concrete", "lit": "yes", "length_m": 47.45, "type_element": "Way", "__fid": 100936}, "geometry": {"type": "LineString", "coordinates": [[2.3828765, 48.8277674], [2.3832316, 48.82741079999999]]}}, {"type": "Feature", "properties": {"highway": "service", "footway": null, "name": null, "surface": "concrete", "lit": null, "length_m": 69.87, "type_element": "Way", "__fid": 100948}, "geometry": {"type": "LineString", "coordinates": [[2.3833411, 48.8295129], [2.3833211, 48.829566200000016], [2.3832636, 48.8296412], [2.3828505, 48.82997909999998], [2.3828631, 48.8300336]]}}, {"type": "Feature", "properties": {"highway": "service", "footway": null, "name": "Port de Tolbiac", "surface": "asphalt", "lit": null, "length_m": 265.85, "type_element": "Way", "__fid": 100955}, "geometry": {"type": "LineString", "coordinates": [[2.3828708, 48.8300935], [2.383377, 48.8296863], [2.384198, 48.8290497], [2.3850777, 48.8282015]]}}, {"type": "Feature", "properties": {"highway": "footway", "footway": "crossing", "name": null, "surface": "concrete", "lit": "yes", "length_m": 13.92, "type_element": "Way", "__fid": 100960}, "geometry": {"type": "LineString", "coordinates": [[2.3830078, 48.8294515], [2.3828876, 48.8295483]]}}, {"type": "Feature", "properties": {"highway": "footway", "footway": "sidewalk", "name": null, "surface": "asphalt", "lit": "yes", "length_m": 112.41, "type_element": "Way", "__fid": 100991}, "geometry": {"type": "LineString", "coordinates": [[2.384336816872662, 48.826396350633274], [2.383419, 48.8260632], [2.3829861, 48.8259207]]}}, {"type": "Feature", "properties": {"highway": "footway", "footway": "sidewalk", "name": null, "surface": "paving_stones", "lit": "yes", "length_m": 79.49, "type_element": "Way", "__fid": 101056}, "geometry": {"type": "LineString", "coordinates": [[2.3837002, 48.8289019], [2.3830078, 48.8294515]]}}, {"type": "Feature", "properties": {"highway": "footway", "footway": "sidewalk", "name": null, "surface": "asphalt", "lit": "yes", "length_m": 22.98, "type_element": "Way", "__fid": 101240}, "geometry": {"type": "LineString", "coordinates": [[2.3832316, 48.82741079999999], [2.3834902, 48.8275273]]}}, {"type": "Feature", "properties": {"highway": "living_street", "footway": null, "name": "Allée Paris-Ivry", "surface": "asphalt", "lit": "yes", "length_m": 12.45, "type_element": "Way", "__fid": 101241}, "geometry": {"type": "LineString", "coordinates": [[2.3832316, 48.82741079999999], [2.3833252, 48.8273174]]}}, {"type": "Feature", "properties": {"highway": "footway", "footway": "sidewalk", "name": null, "surface": "asphalt", "lit": "yes", "length_m": 43.78, "type_element": "Way", "__fid": 101300}, "geometry": {"type": "LineString", "coordinates": [[2.3833252, 48.8273174], [2.3838157, 48.8275414]]}}, {"type": "Feature", "properties": {"highway": "living_street", "footway": null, "name": "Allée Paris-Ivry", "surface": "asphalt", "lit": "yes", "length_m": 85.14, "type_element": "Way", "__fid": 101301}, "geometry": {"type": "LineString", "coordinates": [[2.3833252, 48.8273174], [2.3839776, 48.8266844]]}}, {"type": "Feature", "properties": {"highway": "service", "footway": null, "name": null, "surface": "asphalt", "lit": null, "length_m": 20.12, "type_element": "Way", "__fid": 101340}, "geometry": {"type": "LineString", "coordinates": [[2.3834071, 48.8293373], [2.3833411, 48.8295129]]}}, {"type": "Feature", "properties": {"highway": "footway", "footway": "sidewalk", "name": null, "surface": null, "lit": "yes", "length_m": 69.5, "type_element": "Way", "__fid": 101341}, "geometry": {"type": "LineString", "coordinates": [[2.3833411, 48.8295129], [2.3839451, 48.8290316]]}}, {"type": "Feature", "properties": {"highway": "service", "footway": null, "name": "Rue Watt", "surface": "paving_stones", "lit": "yes", "length_m": 3.28, "type_element": "Way", "__fid": 101395}, "geometry": {"type": "LineString", "coordinates": [[2.38344, 48.8285282], [2.3834769, 48.82854479999999]]}}, {"type": "Feature", "properties": {"highway": "service", "footway": null, "name": null, "surface": null, "lit": "yes", "length_m": 21.56, "type_element": "Way", "__fid": 101396}, "geometry": {"type": "LineString", "coordinates": [[2.38344, 48.8285282], [2.3836001, 48.8283657]]}}, {"type": "Feature", "properties": {"highway": "service", "footway": null, "name": null, "surface": "asphalt", "lit": "yes", "length_m": 1.87, "type_element": "Way", "__fid": 101417}, "geometry": {"type": "LineString", "coordinates": [[2.3834762, 48.827541299999986], [2.3834902, 48.8275273]]}}, {"type": "Feature", "properties": {"highway": "footway", "footway": null, "name": "Rue Watt", "surface": "paving_stones", "lit": "yes", "length_m": 36.97, "type_element": "Way", "__fid": 101428}, "geometry": {"type": "LineString", "coordinates": [[2.3834769, 48.82854479999999], [2.3838951, 48.82873]]}}, {"type": "Feature", "properties": {"highway": "steps", "footway": null, "name": null, "surface": null, "lit": "yes", "length_m": 9.71, "type_element": "Way", "__fid": 101429}, "geometry": {"type": "LineString", "coordinates": [[2.3834769, 48.82854479999999], [2.3834518, 48.8285696], [2.3835242, 48.8286016]]}}, {"type": "Feature", "properties": {"highway": "footway", "footway": "sidewalk", "name": null, "surface": "asphalt", "lit": "yes", "length_m": 99.85, "type_element": "Way", "__fid": 101433}, "geometry": {"type": "LineString", "coordinates": [[2.3834902, 48.8275273], [2.3846135, 48.8280336]]}}, {"type": "Feature", "properties": {"highway": "service", "footway": null, "name": null, "surface": "asphalt", "lit": "yes", "length_m": 5.83, "type_element": "Way", "__fid": 101434}, "geometry": {"type": "LineString", "coordinates": [[2.3834902, 48.8275273], [2.3835334, 48.82748330000001]]}}, {"type": "Feature", "properties": {"highway": "footway", "footway": "sidewalk", "name": null, "surface": null, "lit": "yes", "length_m": 111.41, "type_element": "Way", "__fid": 101503}, "geometry": {"type": "LineString", "coordinates": [[2.3835934, 48.8257562], [2.3836714, 48.8256188], [2.384903, 48.82588360000002]]}}, {"type": "Feature", "properties": {"highway": "footway", "footway": "crossing", "name": null, "surface": "asphalt", "lit": "yes", "length_m": 23.05, "type_element": "Way", "__fid": 101605}, "geometry": {"type": "LineString", "coordinates": [[2.3839451, 48.8290316], [2.3837002, 48.8289019]]}}, {"type": "Feature", "properties": {"highway": "footway", "footway": "crossing", "name": null, "surface": "asphalt", "lit": "yes", "length_m": 23.88, "type_element": "Way", "__fid": 101606}, "geometry": {"type": "LineString", "coordinates": [[2.3838951, 48.82873], [2.3837002, 48.8289019]]}}, {"type": "Feature", "properties": {"highway": "footway", "footway": "sidewalk", "name": null, "surface": "asphalt", "lit": "yes", "length_m": 25.68, "type_element": "Way", "__fid": 101613}, "geometry": {"type": "LineString", "coordinates": [[2.384052278984601, 48.826624516660374], [2.3839186, 48.8265682], [2.383832, 48.8265604], [2.3837409, 48.8265276]]}}, {"type": "Feature", "properties": {"highway": "steps", "footway": null, "name": null, "surface": "concrete", "lit": "yes", "length_m": 29.59, "type_element": "Way", "__fid": 101614}, "geometry": {"type": "LineString", "coordinates": [[2.3839776, 48.8266844], [2.3837022, 48.8265751], [2.3837409, 48.8265276]]}}, {"type": "Feature", "properties": {"highway": "service", "footway": null, "name": null, "surface": "asphalt", "lit": null, "length_m": 6.36, "type_element": "Way", "__fid": 101644}, "geometry": {"type": "LineString", "coordinates": [[2.3837676, 48.827589], [2.3838157, 48.8275414]]}}, {"type": "Feature", "properties": {"highway": "footway", "footway": "sidewalk", "name": null, "surface": null, "lit": "yes", "length_m": 45.61, "type_element": "Way", "__fid": 101680}, "geometry": {"type": "LineString", "coordinates": [[2.3838347, 48.82472580000002], [2.3842903, 48.8244469]]}}, {"type": "Feature", "properties": {"highway": "footway", "footway": "sidewalk", "name": null, "surface": "asphalt", "lit": "yes", "length_m": 79.42, "type_element": "Way", "__fid": 101694}, "geometry": {"type": "LineString", "coordinates": [[2.3838157, 48.8275414], [2.3847055, 48.8279477]]}}, {"type": "Feature", "properties": {"highway": "service", "footway": null, "name": null, "surface": "asphalt", "lit": null, "length_m": 69.21, "type_element": "Way", "__fid": 101695}, "geometry": {"type": "LineString", "coordinates": [[2.3838157, 48.8275414], [2.3843554, 48.8270311]]}}, {"type": "Feature", "properties": {"highway": "footway", "footway": null, "name": "Rue Watt", "surface": "paving_stones", "lit": "yes", "length_m": 5.41, "type_element": "Way", "__fid": 101743}, "geometry": {"type": "LineString", "coordinates": [[2.3838951, 48.82873], [2.3839563, 48.8287571]]}}, {"type": "Feature", "properties": {"highway": "footway", "footway": "sidewalk", "name": null, "surface": "paving_stones", "lit": "yes", "length_m": 5.85, "type_element": "Way", "__fid": 101744}, "geometry": {"type": "LineString", "coordinates": [[2.38394, 48.8286865], [2.3838951, 48.82873]]}}, {"type": "Feature", "properties": {"highway": "footway", "footway": "crossing", "name": null, "surface": "asphalt", "lit": "yes", "length_m": 24.81, "type_element": "Way", "__fid": 101774}, "geometry": {"type": "LineString", "coordinates": [[2.3842134, 48.828817700000016], [2.38394, 48.8286865]]}}, {"type": "Feature", "properties": {"highway": "footway", "footway": "sidewalk", "name": null, "surface": "paving_stones", "lit": "yes", "length_m": 87.84, "type_element": "Way", "__fid": 101775}, "geometry": {"type": "LineString", "coordinates": [[2.3846135, 48.8280336], [2.38394, 48.8286865]]}}, {"type": "Feature", "properties": {"highway": "footway", "footway": "sidewalk", "name": null, "surface": "paving_stones", "lit": "yes", "length_m": 30.88, "type_element": "Way", "__fid": 101786}, "geometry": {"type": "LineString", "coordinates": [[2.3839451, 48.8290316], [2.3842134, 48.828817700000016]]}}, {"type": "Feature", "properties": {"highway": "living_street", "footway": null, "name": "Allée Paris-Ivry", "surface": "asphalt", "lit": "24/7", "length_m": 8.63, "type_element": "Way", "__fid": 101792}, "geometry": {"type": "LineString", "coordinates": [[2.3839776, 48.8266844], [2.384052278984601, 48.826624516660374]]}}, {"type": "Feature", "properties": {"highway": "footway", "footway": "sidewalk", "name": null, "surface": "asphalt", "lit": "yes", "length_m": 111.41, "type_element": "Way", "__fid": 101822}, "geometry": {"type": "LineString", "coordinates": [[2.3852609, 48.82722230000002], [2.3851749, 48.82718060000001], [2.3851428, 48.8271396], [2.3844207, 48.8267918], [2.384052278984601, 48.826624516660374]]}}, {"type": "Feature", "properties": {"highway": "living_street", "footway": null, "name": "Allée Paris-Ivry", "surface": "asphalt", "lit": "24/7", "length_m": 32.86, "type_element": "Way", "__fid": 101823}, "geometry": {"type": "LineString", "coordinates": [[2.384052278984601, 48.826624516660374], [2.384336816872662, 48.826396350633274]]}}, {"type": "Feature", "properties": {"highway": "footway", "footway": "sidewalk", "name": null, "surface": "asphalt", "lit": "yes", "length_m": 79.58, "type_element": "Way", "__fid": 101942}, "geometry": {"type": "LineString", "coordinates": [[2.3842134, 48.828817700000016], [2.3848631, 48.828244799999986]]}}, {"type": "Feature", "properties": {"highway": "footway", "footway": "crossing", "name": null, "surface": null, "lit": "yes", "length_m": 15.46, "type_element": "Way", "__fid": 101956}, "geometry": {"type": "LineString", "coordinates": [[2.3842903, 48.8244469], [2.3844362, 48.82454710000001]]}}, {"type": "Feature", "properties": {"highway": "footway", "footway": "sidewalk", "name": null, "surface": null, "lit": "yes", "length_m": 34.58, "type_element": "Way", "__fid": 101957}, "geometry": {"type": "LineString", "coordinates": [[2.3842903, 48.8244469], [2.3843886, 48.8243867], [2.3846794, 48.8242744]]}}, {"type": "Feature", "properties": {"highway": "footway", "footway": "sidewalk", "name": null, "surface": "asphalt", "lit": "yes", "length_m": 10.24, "type_element": "Way", "__fid": 102005}, "geometry": {"type": "LineString", "coordinates": [[2.384459, 48.8264407], [2.384336816872662, 48.826396350633274]]}}, {"type": "Feature", "properties": {"highway": "living_street", "footway": null, "name": "Allée Paris-Ivry", "surface": "asphalt", "lit": "yes", "length_m": 42.9, "type_element": "Way", "__fid": 102006}, "geometry": {"type": "LineString", "coordinates": [[2.384336816872662, 48.826396350633274], [2.3847335, 48.82611309999998]]}}, {"type": "Feature", "properties": {"highway": "footway", "footway": "sidewalk", "name": null, "surface": null, "lit": "yes", "length_m": 184.06, "type_element": "Way", "__fid": 102063}, "geometry": {"type": "LineString", "coordinates": [[2.3844362, 48.82454710000001], [2.3844811, 48.82452270000001], [2.3845924, 48.8245384], [2.3848137, 48.82440930000001], [2.3849485, 48.8243788], [2.3850008, 48.8243249], [2.3851021, 48.8242918], [2.3853984, 48.8242499], [2.3860086, 48.824294], [2.3864646, 48.8243859], [2.386725, 48.8244755]]}}, {"type": "Feature", "properties": {"highway": "footway", "footway": "sidewalk", "name": null, "surface": "asphalt", "lit": "yes", "length_m": 83.55, "type_element": "Way", "__fid": 102103}, "geometry": {"type": "LineString", "coordinates": [[2.3854233, 48.8268398], [2.384459, 48.8264407]]}}, {"type": "Feature", "properties": {"highway": "steps", "footway": null, "name": null, "surface": "concrete", "lit": "yes", "length_m": 40.39, "type_element": "Way", "__fid": 102104}, "geometry": {"type": "LineString", "coordinates": [[2.384459, 48.8264407], [2.3848352, 48.8261757]]}}, {"type": "Feature", "properties": {"highway": "footway", "footway": "crossing", "name": null, "surface": "asphalt", "lit": "yes", "length_m": 11.7, "type_element": "Way", "__fid": 102257}, "geometry": {"type": "LineString", "coordinates": [[2.3847055, 48.8279477], [2.3846135, 48.8280336]]}}, {"type": "Feature", "properties": {"highway": "service", "footway": null, "name": null, "surface": null, "lit": null, "length_m": 7.17, "type_element": "Way", "__fid": 102268}, "geometry": {"type": "LineString", "coordinates": [[2.384691, 48.8243384], [2.3846794, 48.8242744]]}}, {"type": "Feature", "properties": {"highway": "service", "footway": null, "name": null, "surface": null, "lit": null, "length_m": 258.89, "type_element": "Way", "__fid": 102269}, "geometry": {"type": "LineString", "coordinates": [[2.3846794, 48.8242744], [2.3846739, 48.8242304], [2.3860454, 48.82279719999999], [2.3861884, 48.8226118], [2.3864926, 48.8222883]]}}, {"type": "Feature", "properties": {"highway": "footway", "footway": "traffic_island", "name": null, "surface": null, "lit": "yes", "length_m": 19.92, "type_element": "Way", "__fid": 102270}, "geometry": {"type": "LineString", "coordinates": [[2.3846794, 48.8242744], [2.3849253, 48.8241987]]}}, {"type": "Feature", "properties": {"highway": "footway", "footway": "crossing", "name": null, "surface": "asphalt", "lit": "yes", "length_m": 17.65, "type_element": "Way", "__fid": 102307}, "geometry": {"type": "LineString", "coordinates": [[2.3846667, 48.8281532], [2.3848631, 48.828244799999986]]}}, {"type": "Feature", "properties": {"highway": "footway", "footway": "sidewalk", "name": null, "surface": "asphalt", "lit": "yes", "length_m": 5.54, "type_element": "Way", "__fid": 102328}, "geometry": {"type": "LineString", "coordinates": [[2.3847502, 48.8279076], [2.3847055, 48.8279477]]}}, {"type": "Feature", "properties": {"highway": "footway", "footway": null, "name": null, "surface": "concrete", "lit": "yes", "length_m": 10.21, "type_element": "Way", "__fid": 102333}, "geometry": {"type": "LineString", "coordinates": [[2.3848352, 48.8261757], [2.3847335, 48.82611309999998]]}}, {"type": "Feature", "properties": {"highway": "living_street", "footway": null, "name": "Allée Paris-Ivry", "surface": "asphalt", "lit": "yes", "length_m": 24.43, "type_element": "Way", "__fid": 102334}, "geometry": {"type": "LineString", "coordinates": [[2.3847335, 48.82611309999998], [2.3849622, 48.82595350000001]]}}, {"type": "Feature", "properties": {"highway": "footway", "footway": "crossing", "name": null, "surface": null, "lit": "yes", "length_m": 18.27, "type_element": "Way", "__fid": 102339}, "geometry": {"type": "LineString", "coordinates": [[2.3847407, 48.8260082], [2.384903, 48.82588360000002]]}}, {"type": "Feature", "properties": {"highway": "footway", "footway": "sidewalk", "name": null, "surface": "asphalt", "lit": "yes", "length_m": 29.11, "type_element": "Way", "__fid": 102356}, "geometry": {"type": "LineString", "coordinates": [[2.3850654, 48.8280664], [2.3847502, 48.8279076]]}}, {"type": "Feature", "properties": {"highway": "footway", "footway": "sidewalk", "name": null, "surface": "asphalt", "lit": "yes", "length_m": 84.11, "type_element": "Way", "__fid": 102357}, "geometry": {"type": "LineString", "coordinates": [[2.3847502, 48.8279076], [2.3852724, 48.8274407], [2.385444164759971, 48.827306090544816]]}}, {"type": "Feature", "properties": {"highway": "footway", "footway": "sidewalk", "name": null, "surface": null, "lit": "yes", "length_m": 34.88, "type_element": "Way", "__fid": 102400}, "geometry": {"type": "LineString", "coordinates": [[2.3848352, 48.8261757], [2.38503, 48.8260485], [2.3851347, 48.8259641], [2.3851496, 48.82594249999999]]}}, {"type": "Feature", "properties": {"highway": "footway", "footway": "sidewalk", "name": null, "surface": "asphalt", "lit": "yes", "length_m": 13.07, "type_element": "Way", "__fid": 102441}, "geometry": {"type": "LineString", "coordinates": [[2.3848631, 48.828244799999986], [2.3849698, 48.8281507]]}}, {"type": "Feature", "properties": {"highway": "service", "footway": null, "name": null, "surface": "paving_stones", "lit": null, "length_m": 8.61, "type_element": "Way", "__fid": 102452}, "geometry": {"type": "LineString", "coordinates": [[2.3848743, 48.8281057], [2.3849698, 48.8281507]]}}, {"type": "Feature", "properties": {"highway": "footway", "footway": "sidewalk", "name": null, "surface": null, "lit": "yes", "length_m": 19.25, "type_element": "Way", "__fid": 102453}, "geometry": {"type": "LineString", "coordinates": [[2.384903, 48.82588360000002], [2.3851496, 48.82594249999999]]}}, {"type": "Feature", "properties": {"highway": "service", "footway": null, "name": null, "surface": null, "lit": null, "length_m": 8.07, "type_element": "Way", "__fid": 102457}, "geometry": {"type": "LineString", "coordinates": [[2.3849253, 48.8241987], [2.3849361, 48.8242709]]}}, {"type": "Feature", "properties": {"highway": "service", "footway": null, "name": null, "surface": null, "lit": null, "length_m": 205.74, "type_element": "Way", "__fid": 102458}, "geometry": {"type": "LineString", "coordinates": [[2.3863825, 48.822630199999985], [2.3863128, 48.8226767], [2.3861656, 48.822813], [2.3852968, 48.8237224], [2.3849224, 48.8241533], [2.3849253, 48.8241987]]}}, {"type": "Feature", "properties": {"highway": "footway", "footway": "sidewalk", "name": null, "surface": "asphalt", "lit": "yes", "length_m": 158.83, "type_element": "Way", "__fid": 102459}, "geometry": {"type": "LineString", "coordinates": [[2.3849253, 48.8241987], [2.3853099, 48.8241104], [2.3857672, 48.824113], [2.38625, 48.8241828], [2.3864499, 48.8242243], [2.3868348, 48.8243338], [2.3869528, 48.82435319999998], [2.3870051, 48.8243435]]}}, {"type": "Feature", "properties": {"highway": "service", "footway": null, "name": null, "surface": "paving_stones", "lit": null, "length_m": 9.73, "type_element": "Way", "__fid": 102525}, "geometry": {"type": "LineString", "coordinates": [[2.3849698, 48.8281507], [2.3850777, 48.8282015]]}}, {"type": "Feature", "properties": {"highway": "footway", "footway": "sidewalk", "name": null, "surface": "asphalt", "lit": "yes", "length_m": 11.71, "type_element": "Way", "__fid": 102526}, "geometry": {"type": "LineString", "coordinates": [[2.3849698, 48.8281507], [2.3850654, 48.8280664]]}}, {"type": "Feature", "properties": {"highway": "footway", "footway": "sidewalk", "name": null, "surface": null, "lit": "yes", "length_m": 84.7, "type_element": "Way", "__fid": 102593}, "geometry": {"type": "LineString", "coordinates": [[2.385770149478924, 48.82746383271691], [2.3855759, 48.827611900000015], [2.3850654, 48.8280664]]}}, {"type": "Feature", "properties": {"highway": "service", "footway": null, "name": "Port de Tolbiac", "surface": "asphalt", "lit": null, "length_m": 99.22, "type_element": "Way", "__fid": 102605}, "geometry": {"type": "LineString", "coordinates": [[2.3850777, 48.8282015], [2.385527, 48.8278266], [2.3858147, 48.8277402], [2.386005043659619, 48.82757749553357]]}}, {"type": "Feature", "properties": {"highway": "footway", "footway": "sidewalk", "name": null, "surface": null, "lit": "yes", "length_m": 22.38, "type_element": "Way", "__fid": 102641}, "geometry": {"type": "LineString", "coordinates": [[2.38544, 48.8260037], [2.3851496, 48.82594249999999]]}}, {"type": "Feature", "properties": {"highway": "footway", "footway": "sidewalk", "name": null, "surface": "asphalt", "lit": "yes", "length_m": 16.37, "type_element": "Way", "__fid": 102720}, "geometry": {"type": "LineString", "coordinates": [[2.385444164759971, 48.827306090544816], [2.3852609, 48.82722230000002]]}}, {"type": "Feature", "properties": {"highway": "footway", "footway": "crossing", "name": "Boulevard du Général d'Armée Jean Simon", "surface": "asphalt", "lit": "yes", "length_m": 29.5, "type_element": "Way", "__fid": 102721}, "geometry": {"type": "LineString", "coordinates": [[2.3852609, 48.82722230000002], [2.3855011, 48.8270096]]}}, {"type": "Feature", "properties": {"highway": "footway", "footway": "crossing", "name": null, "surface": null, "lit": "yes", "length_m": 16.55, "type_element": "Way", "__fid": 102788}, "geometry": {"type": "LineString", "coordinates": [[2.3853632, 48.8261436], [2.38544, 48.8260037]]}}, {"type": "Feature", "properties": {"highway": "steps", "footway": null, "name": null, "surface": "asphalt", "lit": "yes", "length_m": 35.5, "type_element": "Way", "__fid": 102837}, "geometry": {"type": "LineString", "coordinates": [[2.3858055, 48.8270278], [2.3857598, 48.8269799], [2.3854233, 48.8268398]]}}, {"type": "Feature", "properties": {"highway": "footway", "footway": null, "name": null, "surface": "asphalt", "lit": "yes", "length_m": 25.46, "type_element": "Way", "__fid": 102838}, "geometry": {"type": "LineString", "coordinates": [[2.3855011, 48.8270096], [2.3855011, 48.8269961], [2.3853504, 48.8269009], [2.3854233, 48.8268398]]}}, {"type": "Feature", "properties": {"highway": "footway", "footway": "sidewalk", "name": null, "surface": null, "lit": "yes", "length_m": 104.8, "type_element": "Way", "__fid": 102843}, "geometry": {"type": "LineString", "coordinates": [[2.3867998, 48.826290499999985], [2.38544, 48.8260037]]}}, {"type": "Feature", "properties": {"highway": "footway", "footway": "sidewalk", "name": "Pont National", "surface": "wood", "lit": "yes", "length_m": 29.67, "type_element": "Way", "__fid": 102861}, "geometry": {"type": "LineString", "coordinates": [[2.385770149478924, 48.82746383271691], [2.385444164759971, 48.827306090544816]]}}, {"type": "Feature", "properties": {"highway": "footway", "footway": "sidewalk", "name": null, "surface": "asphalt", "lit": "yes", "length_m": 26.77, "type_element": "Way", "__fid": 102862}, "geometry": {"type": "LineString", "coordinates": [[2.385444164759971, 48.827306090544816], [2.385679086913613, 48.82712198404045]]}}, {"type": "Feature", "properties": {"highway": "footway", "footway": "sidewalk", "name": null, "surface": "concrete", "lit": "yes", "length_m": 18.32, "type_element": "Way", "__fid": 102917}, "geometry": {"type": "LineString", "coordinates": [[2.3855011, 48.8270096], [2.3855913, 48.8270484], [2.385679086913613, 48.82712198404045]]}}, {"type": "Feature", "properties": {"highway": "footway", "footway": "sidewalk", "name": null, "surface": "asphalt", "lit": "yes", "length_m": 30.12, "type_element": "Way", "__fid": 103091}, "geometry": {"type": "LineString", "coordinates": [[2.385679086913613, 48.82712198404045], [2.3857294, 48.8271641], [2.385994003252229, 48.82729319800764]]}}, {"type": "Feature", "properties": {"highway": "footway", "footway": "sidewalk", "name": null, "surface": "asphalt", "lit": "yes", "length_m": 9.55, "type_element": "Way", "__fid": 103092}, "geometry": {"type": "LineString", "coordinates": [[2.385679086913613, 48.82712198404045], [2.3857629, 48.8270563]]}}, {"type": "Feature", "properties": {"highway": "service", "footway": null, "name": "Port de Bercy", "surface": null, "lit": null, "length_m": 206.68, "type_element": "Way", "__fid": 103102}, "geometry": {"type": "LineString", "coordinates": [[2.3856507, 48.8304978], [2.3860088, 48.8302174], [2.3866625, 48.8296792], [2.3868885, 48.8294452], [2.3870634, 48.8292362], [2.3873532, 48.8290239]]}}, {"type": "Feature", "properties": {"highway": "footway", "footway": "sidewalk", "name": null, "surface": "asphalt", "lit": "yes", "length_m": 30.43, "type_element": "Way", "__fid": 103160}, "geometry": {"type": "LineString", "coordinates": [[2.3861143, 48.8272015], [2.3857629, 48.8270563]]}}, {"type": "Feature", "properties": {"highway": "footway", "footway": "sidewalk", "name": null, "surface": "asphalt", "lit": "yes", "length_m": 4.45, "type_element": "Way", "__fid": 103161}, "geometry": {"type": "LineString", "coordinates": [[2.3857629, 48.8270563], [2.3858055, 48.8270278]]}}, {"type": "Feature", "properties": {"highway": "footway", "footway": "sidewalk", "name": "Pont National", "surface": "wood", "lit": "yes", "length_m": 21.38, "type_element": "Way", "__fid": 103170}, "geometry": {"type": "LineString", "coordinates": [[2.386005043659619, 48.82757749553357], [2.385770149478924, 48.82746383271691]]}}, {"type": "Feature", "properties": {"highway": "footway", "footway": "sidewalk", "name": null, "surface": null, "lit": "yes", "length_m": 25.1, "type_element": "Way", "__fid": 103171}, "geometry": {"type": "LineString", "coordinates": [[2.385994003252229, 48.82729319800764], [2.385770149478924, 48.82746383271691]]}}, {"type": "Feature", "properties": {"highway": "footway", "footway": "sidewalk", "name": null, "surface": "asphalt", "lit": "yes", "length_m": 86.13, "type_element": "Way", "__fid": 103193}, "geometry": {"type": "LineString", "coordinates": [[2.3865979, 48.8264566], [2.3858055, 48.8270278]]}}, {"type": "Feature", "properties": {"highway": "service", "footway": null, "name": null, "surface": null, "lit": null, "length_m": 53.61, "type_element": "Way", "__fid": 103232}, "geometry": {"type": "LineString", "coordinates": [[2.3865639, 48.82469840000001], [2.3858947, 48.8245055]]}}, {"type": "Feature", "properties": {"highway": "footway", "footway": "sidewalk", "name": null, "surface": "asphalt", "lit": "yes", "length_m": 19.97, "type_element": "Way", "__fid": 103309}, "geometry": {"type": "LineString", "coordinates": [[2.385994003252229, 48.82729319800764], [2.386212769372286, 48.82739993147481]]}}, {"type": "Feature", "properties": {"highway": "footway", "footway": "sidewalk", "name": null, "surface": null, "lit": "yes", "length_m": 13.49, "type_element": "Way", "__fid": 103310}, "geometry": {"type": "LineString", "coordinates": [[2.3861143, 48.8272015], [2.385994003252229, 48.82729319800764]]}}, {"type": "Feature", "properties": {"highway": "footway", "footway": "sidewalk", "name": "Pont National", "surface": "wood", "lit": "yes", "length_m": 236.08, "type_element": "Way", "__fid": 103320}, "geometry": {"type": "LineString", "coordinates": [[2.3886038, 48.828828], [2.3882195, 48.828649], [2.386005043659619, 48.82757749553357]]}}, {"type": "Feature", "properties": {"highway": "service", "footway": null, "name": null, "surface": null, "lit": null, "length_m": 24.95, "type_element": "Way", "__fid": 103321}, "geometry": {"type": "LineString", "coordinates": [[2.386212769372286, 48.82739993147481], [2.386005043659619, 48.82757749553357]]}}, {"type": "Feature", "properties": {"highway": "service", "footway": null, "name": null, "surface": null, "lit": null, "length_m": 10.83, "type_element": "Way", "__fid": 103374}, "geometry": {"type": "LineString", "coordinates": [[2.3860894, 48.8271033], [2.3862163, 48.827153]]}}, {"type": "Feature", "properties": {"highway": "footway", "footway": "sidewalk", "name": null, "surface": null, "lit": "yes", "length_m": 9.23, "type_element": "Way", "__fid": 103390}, "geometry": {"type": "LineString", "coordinates": [[2.3862163, 48.827153], [2.3861143, 48.8272015]]}}, {"type": "Feature", "properties": {"highway": "footway", "footway": "sidewalk", "name": null, "surface": "asphalt", "lit": "yes", "length_m": 249.22, "type_element": "Way", "__fid": 103476}, "geometry": {"type": "LineString", "coordinates": [[2.386212769372286, 48.82739993147481], [2.3877092, 48.82813], [2.3887798, 48.8286408], [2.3889268, 48.8286996], [2.3889681, 48.8286979]]}}, {"type": "Feature", "properties": {"highway": "service", "footway": null, "name": null, "surface": null, "lit": null, "length_m": 27.18, "type_element": "Way", "__fid": 103477}, "geometry": {"type": "LineString", "coordinates": [[2.3863687, 48.8271794], [2.3862472, 48.8273705], [2.386212769372286, 48.82739993147481]]}}, {"type": "Feature", "properties": {"highway": "service", "footway": null, "name": null, "surface": null, "lit": null, "length_m": 11.87, "type_element": "Way", "__fid": 103478}, "geometry": {"type": "LineString", "coordinates": [[2.3862163, 48.827153], [2.3862715, 48.8271746], [2.3863687, 48.8271794]]}}, {"type": "Feature", "properties": {"highway": "footway", "footway": "sidewalk", "name": null, "surface": null, "lit": "yes", "length_m": 138.04, "type_element": "Way", "__fid": 103479}, "geometry": {"type": "LineString", "coordinates": [[2.3873636, 48.826229599999984], [2.3873977, 48.8263078], [2.3873883, 48.8263485], [2.3865971, 48.8269029], [2.3865535, 48.8269149], [2.3862163, 48.827153]]}}, {"type": "Feature", "properties": {"highway": "service", "footway": null, "name": null, "surface": null, "lit": null, "length_m": 144.63, "type_element": "Way", "__fid": 103622}, "geometry": {"type": "LineString", "coordinates": [[2.3863687, 48.8271794], [2.3864432, 48.8271565], [2.3867402, 48.8269], [2.3875069, 48.8263701], [2.3875174, 48.826308], [2.3873636, 48.826229599999984]]}}, {"type": "Feature", "properties": {"highway": "service", "footway": null, "name": null, "surface": null, "lit": null, "length_m": 20.81, "type_element": "Way", "__fid": 103739}, "geometry": {"type": "LineString", "coordinates": [[2.3868173, 48.8247823], [2.3865639, 48.82469840000001]]}}, {"type": "Feature", "properties": {"highway": "service", "footway": null, "name": null, "surface": null, "lit": null, "length_m": 27.46, "type_element": "Way", "__fid": 103740}, "geometry": {"type": "LineString", "coordinates": [[2.386725, 48.8244755], [2.3865639, 48.82469840000001]]}}, {"type": "Feature", "properties": {"highway": "footway", "footway": "crossing", "name": null, "surface": null, "lit": "yes", "length_m": 24.89, "type_element": "Way", "__fid": 103782}, "geometry": {"type": "LineString", "coordinates": [[2.3865979, 48.8264566], [2.386696, 48.8264808], [2.3868754, 48.8265803]]}}, {"type": "Feature", "properties": {"highway": "footway", "footway": "crossing", "name": null, "surface": "asphalt", "lit": "yes", "length_m": 23.7, "type_element": "Way", "__fid": 103783}, "geometry": {"type": "LineString", "coordinates": [[2.3867998, 48.826290499999985], [2.3867174, 48.8263511], [2.3865979, 48.8264566]]}}, {"type": "Feature", "properties": {"highway": "footway", "footway": "sidewalk", "name": null, "surface": null, "lit": "yes", "length_m": 11.9, "type_element": "Way", "__fid": 103850}, "geometry": {"type": "LineString", "coordinates": [[2.386725, 48.8244755], [2.3868666, 48.8245276]]}}, {"type": "Feature", "properties": {"highway": "service", "footway": null, "name": null, "surface": null, "lit": null, "length_m": 10.08, "type_element": "Way", "__fid": 103851}, "geometry": {"type": "LineString", "coordinates": [[2.3867848, 48.82439390000001], [2.386725, 48.8244755]]}}, {"type": "Feature", "properties": {"highway": "footway", "footway": "sidewalk", "name": null, "surface": "asphalt", "lit": "yes", "length_m": 108.62, "type_element": "Way", "__fid": 103905}, "geometry": {"type": "LineString", "coordinates": [[2.3878177, 48.8255827], [2.387057, 48.826124], [2.3869375, 48.8261893], [2.3867998, 48.826290499999985]]}}, {"type": "Feature", "properties": {"highway": "footway", "footway": "sidewalk", "name": null, "surface": null, "lit": "yes", "length_m": 130.76, "type_element": "Way", "__fid": 103938}, "geometry": {"type": "LineString", "coordinates": [[2.3868666, 48.8245276], [2.3884371, 48.8250822]]}}, {"type": "Feature", "properties": {"highway": "footway", "footway": "crossing", "name": null, "surface": null, "lit": "yes", "length_m": 22.86, "type_element": "Way", "__fid": 103939}, "geometry": {"type": "LineString", "coordinates": [[2.3868666, 48.8245276], [2.3870051, 48.8243435]]}}, {"type": "Feature", "properties": {"highway": "footway", "footway": "sidewalk", "name": null, "surface": "asphalt", "lit": "yes", "length_m": 398.34, "type_element": "Way", "__fid": 104059}, "geometry": {"type": "LineString", "coordinates": [[2.3870051, 48.8243435], [2.3879427, 48.823478500000014], [2.390118, 48.8214095]]}}, {"type": "Feature", "properties": {"highway": "footway", "footway": "sidewalk", "name": null, "surface": "concrete", "lit": "yes", "length_m": 197.9, "type_element": "Way", "__fid": 104211}, "geometry": {"type": "LineString", "coordinates": [[2.3871844, 48.83002679999998], [2.387275, 48.8299663], [2.3872499, 48.829949], [2.3871896, 48.829988100000016], [2.3871636, 48.829969800000015], [2.3872537, 48.8299117], [2.3871532, 48.829849299999985], [2.3873754, 48.8295878], [2.3876604, 48.8293956], [2.3879065, 48.82929019999999], [2.3882756, 48.8290485], [2.3884752, 48.82893009999998], [2.3886038, 48.828828]]}}, {"type": "Feature", "properties": {"highway": "service", "footway": null, "name": null, "surface": null, "lit": null, "length_m": 6.14, "type_element": "Way", "__fid": 104262}, "geometry": {"type": "LineString", "coordinates": [[2.3873636, 48.826229599999984], [2.3872974, 48.8261959]]}}, {"type": "Feature", "properties": {"highway": "footway", "footway": "sidewalk", "name": null, "surface": null, "lit": "yes", "length_m": 75.81, "type_element": "Way", "__fid": 104300}, "geometry": {"type": "LineString", "coordinates": [[2.3880624, 48.8257277], [2.3873636, 48.826229599999984]]}}, {"type": "Feature", "properties": {"highway": "footway", "footway": "crossing", "name": null, "surface": null, "lit": "yes", "length_m": 24.14, "type_element": "Way", "__fid": 104587}, "geometry": {"type": "LineString", "coordinates": [[2.3880624, 48.8257277], [2.3878177, 48.8255827]]}}, {"type": "Feature", "properties": {"highway": "footway", "footway": "sidewalk", "name": null, "surface": "asphalt", "lit": "yes", "length_m": 78.02, "type_element": "Way", "__fid": 104588}, "geometry": {"type": "LineString", "coordinates": [[2.3884371, 48.8250822], [2.388497, 48.8251043], [2.3884137, 48.8251772], [2.3878177, 48.8255827]]}}, {"type": "Feature", "properties": {"highway": "footway", "footway": "sidewalk", "name": null, "surface": null, "lit": "yes", "length_m": 924.1, "type_element": "Way", "__fid": 104776}, "geometry": {"type": "LineString", "coordinates": [[2.3970872, 48.81997830000002], [2.3967636, 48.8201008], [2.3964505, 48.820235], [2.395649, 48.8206748], [2.3947164, 48.8212548], [2.3941804, 48.8214818], [2.3938742, 48.8216699], [2.3932908, 48.8220628], [2.3929769, 48.8223228], [2.3925676, 48.8226162], [2.3924667, 48.8226693], [2.3922703, 48.8227965], [2.3907445, 48.8238518], [2.3880624, 48.8257277]]}}, {"type": "Feature", "properties": {"highway": "service", "footway": null, "name": null, "surface": "asphalt", "lit": "yes", "length_m": 5.54, "type_element": "Way", "__fid": 104799}, "geometry": {"type": "LineString", "coordinates": [[2.3881144, 48.8248543], [2.3881517, 48.824811]]}}, {"type": "Feature", "properties": {"highway": "footway", "footway": "sidewalk", "name": null, "surface": "asphalt", "lit": "yes", "length_m": 33.61, "type_element": "Way", "__fid": 104823}, "geometry": {"type": "LineString", "coordinates": [[2.3885653, 48.8249406], [2.3881517, 48.824811]]}}, {"type": "Feature", "properties": {"highway": "footway", "footway": "sidewalk", "name": null, "surface": "asphalt", "lit": "yes", "length_m": 344.14, "type_element": "Way", "__fid": 104824}, "geometry": {"type": "LineString", "coordinates": [[2.3881517, 48.824811], [2.3872525, 48.8244728], [2.3872517, 48.8244559], [2.387628, 48.8240481], [2.3884372, 48.8232584], [2.3886392, 48.82310790000001], [2.3893721, 48.8225184]]}}, {"type": "Feature", "properties": {"highway": "service", "footway": null, "name": null, "surface": "asphalt", "lit": "yes", "length_m": 9.71, "type_element": "Way", "__fid": 104825}, "geometry": {"type": "LineString", "coordinates": [[2.3881517, 48.824811], [2.3882131, 48.82473370000001]]}}, {"type": "Feature", "properties": {"highway": "footway", "footway": "sidewalk", "name": null, "surface": null, "lit": "yes", "length_m": 18.34, "type_element": "Way", "__fid": 105016}, "geometry": {"type": "LineString", "coordinates": [[2.3885653, 48.8249406], [2.3884371, 48.8250822]]}}, {"type": "Feature", "properties": {"highway": "service", "footway": null, "name": null, "surface": null, "lit": null, "length_m": 24.66, "type_element": "Way", "__fid": 105121}, "geometry": {"type": "LineString", "coordinates": [[2.3885116, 48.8292314], [2.3888404, 48.8292766]]}}, {"type": "Feature", "properties": {"highway": "service", "footway": null, "name": null, "surface": null, "lit": null, "length_m": 356.29, "type_element": "Way", "__fid": 105122}, "geometry": {"type": "LineString", "coordinates": [[2.3912817, 48.831692099999984], [2.3913217, 48.8316473], [2.3913417, 48.8315523], [2.3912747, 48.831180300000014], [2.391088, 48.8309433], [2.3909291, 48.8308112], [2.3905565, 48.8305531], [2.3885116, 48.8292314]]}}, {"type": "Feature", "properties": {"highway": "service", "footway": null, "name": null, "surface": null, "lit": null, "length_m": 420.88, "type_element": "Way", "__fid": 105123}, "geometry": {"type": "LineString", "coordinates": [[2.3885116, 48.8292314], [2.3883109, 48.82910169999998], [2.3878178, 48.8294263], [2.3876622, 48.829457799999986], [2.387428, 48.82962170000002], [2.390408522324414, 48.83162384083757]]}}, {"type": "Feature", "properties": {"highway": "footway", "footway": "sidewalk", "name": null, "surface": "asphalt", "lit": "yes", "length_m": 15.2, "type_element": "Way", "__fid": 105125}, "geometry": {"type": "LineString", "coordinates": [[2.3887513, 48.8250007], [2.3885653, 48.8249406]]}}, {"type": "Feature", "properties": {"highway": "footway", "footway": "sidewalk", "name": null, "surface": "asphalt", "lit": "yes", "length_m": 107.43, "type_element": "Way", "__fid": 105193}, "geometry": {"type": "LineString", "coordinates": [[2.3886038, 48.828828], [2.3898422, 48.8293427]]}}, {"type": "Feature", "properties": {"highway": "footway", "footway": "sidewalk", "name": null, "surface": "asphalt", "lit": "yes", "length_m": 2.58, "type_element": "Way", "__fid": 105194}, "geometry": {"type": "LineString", "coordinates": [[2.3886235, 48.8288088], [2.3886038, 48.828828]]}}, {"type": "Feature", "properties": {"highway": "steps", "footway": null, "name": null, "surface": null, "lit": null, "length_m": 32.39, "type_element": "Way", "__fid": 105222}, "geometry": {"type": "LineString", "coordinates": [[2.3889681, 48.8286979], [2.3889323, 48.828655599999976], [2.3886341, 48.8285134]]}}, {"type": "Feature", "properties": {"highway": "service", "footway": null, "name": null, "surface": "cobblestone", "lit": "yes", "length_m": 43.37, "type_element": "Way", "__fid": 105223}, "geometry": {"type": "LineString", "coordinates": [[2.3886341, 48.8285134], [2.3889343, 48.8282751], [2.3889866, 48.8282177], [2.3889774, 48.82820610000001]]}}, {"type": "Feature", "properties": {"highway": "service", "footway": null, "name": "Rue Robert-Etlin", "surface": null, "lit": null, "length_m": 8.99, "type_element": "Way", "__fid": 105351}, "geometry": {"type": "LineString", "coordinates": [[2.3889547, 48.8281773], [2.3888359, 48.8281968]]}}, {"type": "Feature", "properties": {"highway": "service", "footway": null, "name": null, "surface": "cobblestone", "lit": "yes", "length_m": 3.61, "type_element": "Way", "__fid": 105449}, "geometry": {"type": "LineString", "coordinates": [[2.3889774, 48.82820610000001], [2.3889547, 48.8281773]]}}, {"type": "Feature", "properties": {"highway": "service", "footway": null, "name": null, "surface": null, "lit": null, "length_m": 239.95, "type_element": "Way", "__fid": 105450}, "geometry": {"type": "LineString", "coordinates": [[2.3919233, 48.8283197], [2.3917081, 48.8283652], [2.3914976, 48.8283964], [2.3912853, 48.8284102], [2.3909623, 48.8283953], [2.3908158, 48.8283703], [2.3902906, 48.8282032], [2.3901435, 48.8281507], [2.3898228, 48.82797390000001], [2.3897042, 48.82794770000001], [2.3895748, 48.8279469], [2.389428, 48.8279772], [2.3889547, 48.8281773]]}}, {"type": "Feature", "properties": {"highway": "footway", "footway": "sidewalk", "name": null, "surface": "asphalt", "lit": "yes", "length_m": 70.5, "type_element": "Way", "__fid": 105467}, "geometry": {"type": "LineString", "coordinates": [[2.3889681, 48.8286979], [2.3897832, 48.8290332]]}}, {"type": "Feature", "properties": {"highway": "footway", "footway": "sidewalk", "name": null, "surface": "asphalt", "lit": "yes", "length_m": 209.68, "type_element": "Way", "__fid": 105472}, "geometry": {"type": "LineString", "coordinates": [[2.3889774, 48.82820610000001], [2.3893862, 48.8280327], [2.3895375, 48.8279888], [2.389607, 48.827981], [2.3897888, 48.8279963], [2.3898834, 48.828030699999985], [2.3899498, 48.8280691], [2.3902636, 48.8283163], [2.390336, 48.8283944], [2.3903937, 48.8284933], [2.3904299, 48.8286024], [2.3904205, 48.8287803], [2.390338, 48.82897180000001], [2.390283, 48.8290389], [2.3902039, 48.8290906]]}}, {"type": "Feature", "properties": {"highway": "steps", "footway": null, "name": null, "surface": null, "lit": null, "length_m": 60.85, "type_element": "Way", "__fid": 105612}, "geometry": {"type": "LineString", "coordinates": [[2.3891576, 48.8286388], [2.3898333, 48.82895579999999]]}}, {"type": "Feature", "properties": {"highway": "footway", "footway": null, "name": null, "surface": null, "lit": null, "length_m": 129.76, "type_element": "Way", "__fid": 105646}, "geometry": {"type": "LineString", "coordinates": [[2.3898333, 48.82895579999999], [2.3899941, 48.8287074], [2.389977, 48.828640100000015], [2.3899327, 48.8285646], [2.3896497, 48.8283302], [2.3895632, 48.8282843], [2.3895197, 48.8282861], [2.3894767, 48.8283007], [2.3894459, 48.8283338], [2.3894439, 48.8283762], [2.3891921, 48.8285389]]}}]}