{"type": "FeatureCollection", "features": [{"type": "Feature", "properties": {"highway": "service", "footway": null, "name": null, "surface": null, "lit": null, "length_m": 258.89, "type_element": "Way", "__fid": 102269}, "geometry": {"type": "LineString", "coordinates": [[2.3846794, 48.8242744], [2.3846739, 48.8242304], [2.3860454, 48.82279719999999], [2.3861884, 48.8226118], [2.3864926, 48.8222883]]}}, {"type": "Feature", "properties": {"highway": "service", "footway": null, "name": null, "surface": null, "lit": null, "length_m": 205.74, "type_element": "Way", "__fid": 102458}, "geometry": {"type": "LineString", "coordinates": [[2.3863825, 48.822630199999985], [2.3863128, 48.8226767], [2.3861656, 48.822813], [2.3852968, 48.8237224], [2.3849224, 48.8241533], [2.3849253, 48.8241987]]}}, {"type": "Feature", "properties": {"highway": "footway", "footway": "sidewalk", "name": null, "surface": "asphalt", "lit": "yes", "length_m": 398.34, "type_element": "Way", "__fid": 104059}, "geometry": {"type": "LineString", "coordinates": [[2.3870051, 48.8243435], [2.3879427, 48.823478500000014], [2.390118, 48.8214095]]}}, {"type": "Feature", "properties": {"highway": "footway", "footway": "sidewalk", "name": null, "surface": null, "lit": "yes", "length_m": 924.1, "type_element": "Way", "__fid": 104776}, "geometry": {"type": "LineString", "coordinates": [[2.3970872, 48.81997830000002], [2.3967636, 48.8201008], [2.3964505, 48.820235], [2.395649, 48.8206748], [2.3947164, 48.8212548], [2.3941804, 48.8214818], [2.3938742, 48.8216699], [2.3932908, 48.8220628], [2.3929769, 48.8223228], [2.3925676, 48.8226162], [2.3924667, 48.8226693], [2.3922703, 48.8227965], [2.3907445, 48.8238518], [2.3880624, 48.8257277]]}}, {"type": "Feature", "properties": {"highway": "footway", "footway": "sidewalk", "name": null, "surface": "asphalt", "lit": "yes", "length_m": 344.14, "type_element": "Way", "__fid": 104824}, "geometry": {"type": "LineString", "coordinates": [[2.3881517, 48.824811], [2.3872525, 48.8244728], [2.3872517, 48.8244559], [2.387628, 48.8240481], [2.3884372, 48.8232584], [2.3886392, 48.82310790000001], [2.3893721, 48.8225184]]}}]}