{"type": "FeatureCollection", "features": [{"type": "Feature", "geometry": {"type": "Point", "coordinates": [2.380536, 48.900943]}, "properties": {"id": 19516, "name": "Forêt linéaire nord", "categorie": "Parcs, jardins et bois", "photo_url": "https://cdn.paris.fr/eqpts-prod/2022/05/10/1d12e65064423481c1b6c13ddd1d8cf1.jpg", "photo_credit": "Clement Dorval / Ville de Paris", "photo_alt": null, "address_street": "25 Quai du Lot", "address_postcode": "75019", "address_city": "Paris", "phone": null, "accessibility": "{\"handicaps\": [{\"name\": \"Personnes à mobilité réduite\", \"status\": \"accessible\"}, {\"name\": \"Personnes déficientes visuelles\", \"status\": \"undefined\"}, {\"name\": \"Personnes déficientes auditives\", \"status\": \"undefined\"}, {\"name\": \"Personnes déficientes mentales\", \"status\": \"undefined\"}, {\"name\": \"Accueil en langue des signes\", \"status\": \"non_accessible\"}], \"additional_info\": \"<p>Espace vert dont l’accessibilité est limitée à certaines zones pour les personnes à mobilité réduite.</p>\"}", "latitude": 48.900943, "longitude": 2.380536, "url": "https://www.paris.fr/lieux/foret-lineaire-nord-19516", "type_element": "Parcs, Jardins et Bois", "__fid": 1184}}, {"type": "Feature", "properties": {"highway": "path", "footway": null, "name": "Quai de l'Allier", "surface": "concrete:plates", "lit": null, "length_m": 178.27, "type_element": "Way", "__fid": 99676}, "geometry": {"type": "LineString", "coordinates": [[2.3803162, 48.90208160000002], [2.3812243, 48.90059440000001]]}}, {"type": "Feature", "properties": {"highway": "path", "footway": null, "name": "Quai du Lot", "surface": "concrete:plates", "lit": null, "length_m": 128.95, "type_element": "Way", "__fid": 99744}, "geometry": {"type": "LineString", "coordinates": [[2.3804873, 48.90095290000002], [2.3807763, 48.9004683], [2.3811616, 48.8998821]]}}, {"type": "Feature", "properties": {"highway": "path", "footway": null, "name": "Quai de l'Allier", "surface": "concrete:plates", "lit": null, "length_m": 175.6, "type_element": "Way", "__fid": 100363}, "geometry": {"type": "LineString", "coordinates": [[2.3812243, 48.90059440000001], [2.3821284, 48.8991321]]}}, {"type": "Feature", "properties": {"highway": "path", "footway": null, "name": "Quai de l'Allier", "surface": "concrete", "lit": null, "length_m": 202.03, "type_element": "Way", "__fid": 100364}, "geometry": {"type": "LineString", "coordinates": [[2.3825776, 48.8990785], [2.3824956, 48.8991271], [2.3823669, 48.8991756], [2.382267, 48.8992827], [2.3818687, 48.8999479], [2.3814301, 48.9005408], [2.3812243, 48.90059440000001]]}}, {"type": "Feature", "properties": {"highway": "footway", "footway": "sidewalk", "name": null, "surface": null, "lit": null, "length_m": 73.01, "type_element": "Way", "__fid": 102956}, "geometry": {"type": "LineString", "coordinates": [[2.3846498, 48.9022453], [2.3852562, 48.9017245]]}}, {"type": "Feature", "properties": {"highway": "service", "footway": null, "name": null, "surface": null, "lit": null, "length_m": 129.02, "type_element": "Way", "__fid": 103006}, "geometry": {"type": "LineString", "coordinates": [[2.3847168, 48.9012338], [2.3848955, 48.9013373], [2.3844877, 48.9016574], [2.3842994, 48.9015651], [2.3847168, 48.9012338]]}}, {"type": "Feature", "properties": {"highway": "service", "footway": null, "name": null, "surface": null, "lit": null, "length_m": 11.37, "type_element": "Way", "__fid": 103007}, "geometry": {"type": "LineString", "coordinates": [[2.3847168, 48.9012338], [2.384836, 48.9011684]]}}, {"type": "Feature", "properties": {"highway": "footway", "footway": "sidewalk", "name": null, "surface": null, "lit": null, "length_m": 62.77, "type_element": "Way", "__fid": 103115}, "geometry": {"type": "LineString", "coordinates": [[2.3853259, 48.9016254], [2.3853235, 48.9015952], [2.384836, 48.9011684]]}}, {"type": "Feature", "properties": {"highway": "service", "footway": null, "name": null, "surface": null, "lit": null, "length_m": 5.55, "type_element": "Way", "__fid": 103116}, "geometry": {"type": "LineString", "coordinates": [[2.384896, 48.9011379], [2.384836, 48.9011684]]}}, {"type": "Feature", "properties": {"highway": "footway", "footway": "sidewalk", "name": null, "surface": null, "lit": null, "length_m": 58.38, "type_element": "Way", "__fid": 103203}, "geometry": {"type": "LineString", "coordinates": [[2.3854539, 48.9019356], [2.3853551, 48.9019581], [2.3849343, 48.9023201]]}}, {"type": "Feature", "properties": {"highway": "footway", "footway": "crossing", "name": null, "surface": null, "lit": null, "length_m": 29.3, "type_element": "Way", "__fid": 103414}, "geometry": {"type": "LineString", "coordinates": [[2.3854539, 48.9019356], [2.3854259, 48.9018803], [2.3854135, 48.90181], [2.3852562, 48.9017245]]}}, {"type": "Feature", "properties": {"highway": "footway", "footway": "sidewalk", "name": null, "surface": null, "lit": null, "length_m": 12.72, "type_element": "Way", "__fid": 103415}, "geometry": {"type": "LineString", "coordinates": [[2.3852562, 48.9017245], [2.3853248, 48.9016654], [2.3853259, 48.9016254]]}}, {"type": "Feature", "properties": {"highway": "footway", "footway": "sidewalk", "name": null, "surface": null, "lit": null, "length_m": 22.91, "type_element": "Way", "__fid": 103469}, "geometry": {"type": "LineString", "coordinates": [[2.3853259, 48.9016254], [2.385445, 48.9015721], [2.3855466, 48.90148339999999]]}}, {"type": "Feature", "properties": {"highway": "footway", "footway": "crossing", "name": null, "surface": null, "lit": null, "length_m": 16.17, "type_element": "Way", "__fid": 103594}, "geometry": {"type": "LineString", "coordinates": [[2.3856587, 48.9018993], [2.3856538, 48.90191], [2.3854539, 48.9019356]]}}, {"type": "Feature", "properties": {"highway": "footway", "footway": "crossing", "name": null, "surface": null, "lit": null, "length_m": 19.95, "type_element": "Way", "__fid": 103656}, "geometry": {"type": "LineString", "coordinates": [[2.3855466, 48.90148339999999], [2.3857747, 48.9015813]]}}, {"type": "Feature", "properties": {"highway": "footway", "footway": "sidewalk", "name": null, "surface": null, "lit": null, "length_m": 110.76, "type_element": "Way", "__fid": 103657}, "geometry": {"type": "LineString", "coordinates": [[2.3855466, 48.90148339999999], [2.3861083, 48.9010241], [2.3862438, 48.90093760000001], [2.3866202, 48.9008042]]}}, {"type": "Feature", "properties": {"highway": "footway", "footway": "crossing", "name": null, "surface": null, "lit": null, "length_m": 9.4, "type_element": "Way", "__fid": 103717}, "geometry": {"type": "LineString", "coordinates": [[2.3856587, 48.9018993], [2.3856274, 48.90181729999998]]}}, {"type": "Feature", "properties": {"highway": "footway", "footway": "crossing", "name": null, "surface": null, "lit": null, "length_m": 11.67, "type_element": "Way", "__fid": 103718}, "geometry": {"type": "LineString", "coordinates": [[2.3856274, 48.90181729999998], [2.3856174, 48.9017911], [2.3856494, 48.90171609999999]]}}, {"type": "Feature", "properties": {"highway": "footway", "footway": "sidewalk", "name": null, "surface": null, "lit": null, "length_m": 59.41, "type_element": "Way", "__fid": 103719}, "geometry": {"type": "LineString", "coordinates": [[2.3864055, 48.9016679], [2.3856274, 48.90181729999998]]}}, {"type": "Feature", "properties": {"highway": "footway", "footway": "sidewalk", "name": null, "surface": null, "lit": null, "length_m": 55.02, "type_element": "Way", "__fid": 103731}, "geometry": {"type": "LineString", "coordinates": [[2.3856494, 48.90171609999999], [2.3856751, 48.901722], [2.3863697, 48.9015891]]}}, {"type": "Feature", "properties": {"highway": "footway", "footway": "sidewalk", "name": null, "surface": null, "lit": null, "length_m": 18.33, "type_element": "Way", "__fid": 103732}, "geometry": {"type": "LineString", "coordinates": [[2.3857747, 48.9015813], [2.3856486, 48.9016814], [2.3856494, 48.90171609999999]]}}, {"type": "Feature", "properties": {"highway": "footway", "footway": "sidewalk", "name": null, "surface": null, "lit": null, "length_m": 59.83, "type_element": "Way", "__fid": 103744}, "geometry": {"type": "LineString", "coordinates": [[2.3864402, 48.9017444], [2.3856587, 48.9018993]]}}, {"type": "Feature", "properties": {"highway": "footway", "footway": "sidewalk", "name": null, "surface": null, "lit": null, "length_m": 97.46, "type_element": "Way", "__fid": 103815}, "geometry": {"type": "LineString", "coordinates": [[2.386776, 48.9010328], [2.3866663, 48.9010459], [2.3861661, 48.90127059999999], [2.3857747, 48.9015813]]}}, {"type": "Feature", "properties": {"highway": "footway", "footway": "crossing", "name": null, "surface": null, "lit": null, "length_m": 9.15, "type_element": "Way", "__fid": 104224}, "geometry": {"type": "LineString", "coordinates": [[2.3863697, 48.9015891], [2.3864055, 48.9016679]]}}, {"type": "Feature", "properties": {"highway": "footway", "footway": "sidewalk", "name": null, "surface": null, "lit": null, "length_m": 50.32, "type_element": "Way", "__fid": 104225}, "geometry": {"type": "LineString", "coordinates": [[2.3863697, 48.9015891], [2.3870289, 48.901463]]}}, {"type": "Feature", "properties": {"highway": "footway", "footway": "crossing", "name": null, "surface": null, "lit": null, "length_m": 8.88, "type_element": "Way", "__fid": 104256}, "geometry": {"type": "LineString", "coordinates": [[2.3864055, 48.9016679], [2.3864402, 48.9017444]]}}, {"type": "Feature", "properties": {"highway": "footway", "footway": "sidewalk", "name": null, "surface": null, "lit": null, "length_m": 50.04, "type_element": "Way", "__fid": 104257}, "geometry": {"type": "LineString", "coordinates": [[2.387061, 48.90154230000001], [2.3864055, 48.9016679]]}}, {"type": "Feature", "properties": {"highway": "footway", "footway": "sidewalk", "name": null, "surface": null, "lit": null, "length_m": 49.79, "type_element": "Way", "__fid": 104285}, "geometry": {"type": "LineString", "coordinates": [[2.3870919, 48.9016185], [2.3864402, 48.9017444]]}}, {"type": "Feature", "properties": {"highway": "footway", "footway": "crossing", "name": null, "surface": null, "lit": null, "length_m": 28.54, "type_element": "Way", "__fid": 104396}, "geometry": {"type": "LineString", "coordinates": [[2.3866202, 48.9008042], [2.3867391, 48.9009114], [2.386776, 48.9010328]]}}, {"type": "Feature", "properties": {"highway": "footway", "footway": "crossing", "name": null, "surface": null, "lit": null, "length_m": 153.58, "type_element": "Way", "__fid": 104397}, "geometry": {"type": "LineString", "coordinates": [[2.3875258, 48.89975690000002], [2.3875288, 48.8998047], [2.3874964, 48.89985069999998], [2.38741, 48.899906], [2.3870337, 48.9000808], [2.3869683, 48.90009509999999], [2.3868556, 48.9000912], [2.3867029, 48.9002623], [2.3867577, 48.900339], [2.3867617, 48.9004104], [2.3867278, 48.900723], [2.386686, 48.9007767], [2.3866202, 48.9008042]]}}, {"type": "Feature", "properties": {"highway": "footway", "footway": "sidewalk", "name": null, "surface": null, "lit": null, "length_m": 98.65, "type_element": "Way", "__fid": 104501}, "geometry": {"type": "LineString", "coordinates": [[2.3880381, 48.90126880000002], [2.388029, 48.9012497], [2.3879971, 48.9012314], [2.3877289, 48.9012111], [2.3874777, 48.9011731], [2.3872455, 48.9011115], [2.387064, 48.9010531], [2.3869584, 48.9010335], [2.3868557, 48.9010269], [2.386776, 48.9010328]]}}, {"type": "Feature", "properties": {"highway": "footway", "footway": "crossing", "name": null, "surface": null, "lit": null, "length_m": 9.13, "type_element": "Way", "__fid": 104647}, "geometry": {"type": "LineString", "coordinates": [[2.387061, 48.90154230000001], [2.3870289, 48.901463]]}}, {"type": "Feature", "properties": {"highway": "footway", "footway": "sidewalk", "name": null, "surface": null, "lit": null, "length_m": 19.05, "type_element": "Way", "__fid": 104648}, "geometry": {"type": "LineString", "coordinates": [[2.3870289, 48.901463], [2.3872785, 48.9014153]]}}, {"type": "Feature", "properties": {"highway": "footway", "footway": "crossing", "name": null, "surface": null, "lit": null, "length_m": 8.77, "type_element": "Way", "__fid": 104684}, "geometry": {"type": "LineString", "coordinates": [[2.3870919, 48.9016185], [2.387061, 48.90154230000001]]}}, {"type": "Feature", "properties": {"highway": "footway", "footway": "sidewalk", "name": null, "surface": null, "lit": null, "length_m": 19.64, "type_element": "Way", "__fid": 104718}, "geometry": {"type": "LineString", "coordinates": [[2.387349, 48.9015688], [2.3870919, 48.9016185]]}}, {"type": "Feature", "properties": {"highway": "service", "footway": null, "name": "Rue Émile Reynaud", "surface": null, "lit": null, "length_m": 9.93, "type_element": "Way", "__fid": 104795}, "geometry": {"type": "LineString", "coordinates": [[2.387335, 48.9015384], [2.3872048, 48.9015629]]}}, {"type": "Feature", "properties": {"highway": "footway", "footway": "crossing", "name": null, "surface": null, "lit": null, "length_m": 10.27, "type_element": "Way", "__fid": 104846}, "geometry": {"type": "LineString", "coordinates": [[2.3872785, 48.9014153], [2.3873191, 48.9015037]]}}, {"type": "Feature", "properties": {"highway": "footway", "footway": "sidewalk", "name": null, "surface": null, "lit": null, "length_m": 58.02, "type_element": "Way", "__fid": 104847}, "geometry": {"type": "LineString", "coordinates": [[2.3872785, 48.9014153], [2.3880381, 48.90126880000002]]}}, {"type": "Feature", "properties": {"highway": "footway", "footway": "crossing", "name": null, "surface": null, "lit": null, "length_m": 4.03, "type_element": "Way", "__fid": 104874}, "geometry": {"type": "LineString", "coordinates": [[2.3873191, 48.9015037], [2.387335, 48.9015384]]}}, {"type": "Feature", "properties": {"highway": "footway", "footway": "sidewalk", "name": null, "surface": null, "lit": null, "length_m": 57.54, "type_element": "Way", "__fid": 104875}, "geometry": {"type": "LineString", "coordinates": [[2.3880725, 48.9013586], [2.3873191, 48.9015037]]}}, {"type": "Feature", "properties": {"highway": "footway", "footway": "crossing", "name": null, "surface": null, "lit": null, "length_m": 3.53, "type_element": "Way", "__fid": 104885}, "geometry": {"type": "LineString", "coordinates": [[2.387335, 48.9015384], [2.387349, 48.9015688]]}}, {"type": "Feature", "properties": {"highway": "service", "footway": null, "name": "Rue Émile Reynaud", "surface": null, "lit": null, "length_m": 57.47, "type_element": "Way", "__fid": 104886}, "geometry": {"type": "LineString", "coordinates": [[2.3880889, 48.9013966], [2.387335, 48.9015384]]}}, {"type": "Feature", "properties": {"highway": "footway", "footway": "sidewalk", "name": null, "surface": null, "lit": null, "length_m": 57.4, "type_element": "Way", "__fid": 104904}, "geometry": {"type": "LineString", "coordinates": [[2.3881017, 48.901426800000024], [2.387349, 48.9015688]]}}, {"type": "Feature", "properties": {"highway": "footway", "footway": "crossing", "name": null, "surface": null, "lit": null, "length_m": 10.3, "type_element": "Way", "__fid": 105400}, "geometry": {"type": "LineString", "coordinates": [[2.3880725, 48.9013586], [2.3880381, 48.90126880000002]]}}, {"type": "Feature", "properties": {"highway": "footway", "footway": "sidewalk", "name": null, "surface": null, "lit": null, "length_m": 4.39, "type_element": "Way", "__fid": 105423}, "geometry": {"type": "LineString", "coordinates": [[2.3880889, 48.9013966], [2.3880725, 48.9013586]]}}, {"type": "Feature", "properties": {"highway": "footway", "footway": "crossing", "name": null, "surface": null, "lit": null, "length_m": 3.49, "type_element": "Way", "__fid": 105443}, "geometry": {"type": "LineString", "coordinates": [[2.3881017, 48.901426800000024], [2.3880889, 48.9013966]]}}, {"type": "Feature", "properties": {"highway": "service", "footway": null, "name": "Rue Émile Reynaud", "surface": null, "lit": null, "length_m": 17.05, "type_element": "Way", "__fid": 105444}, "geometry": {"type": "LineString", "coordinates": [[2.388312, 48.9013532], [2.3880889, 48.9013966]]}}, {"type": "Feature", "properties": {"highway": "footway", "footway": "sidewalk", "name": null, "surface": null, "lit": null, "length_m": 2.61, "type_element": "Way", "__fid": 105457}, "geometry": {"type": "LineString", "coordinates": [[2.3881221, 48.90144179999998], [2.3881169, 48.901429], [2.3881017, 48.901426800000024]]}}, {"type": "Feature", "properties": {"highway": "footway", "footway": "sidewalk", "name": null, "surface": null, "lit": null, "length_m": 124.37, "type_element": "Way", "__fid": 105477}, "geometry": {"type": "LineString", "coordinates": [[2.3881221, 48.90144179999998], [2.3885003, 48.9025321]]}}, {"type": "Feature", "properties": {"highway": "footway", "footway": "crossing", "name": null, "surface": null, "lit": null, "length_m": 12.77, "type_element": "Way", "__fid": 105478}, "geometry": {"type": "LineString", "coordinates": [[2.3882918, 48.901416], [2.3881221, 48.90144179999998]]}}, {"type": "Feature", "properties": {"highway": "footway", "footway": "sidewalk", "name": null, "surface": null, "lit": null, "length_m": 136.93, "type_element": "Way", "__fid": 105571}, "geometry": {"type": "LineString", "coordinates": [[2.3882758, 48.8998004], [2.388259, 48.89982779999998], [2.3882671, 48.899873600000014], [2.3884173, 48.9000094], [2.3885219, 48.900057], [2.3886614, 48.90009579999999], [2.3887919, 48.90027410000001], [2.3888303, 48.9003437], [2.3889347, 48.90067890000001], [2.3890059, 48.9007398], [2.3891347, 48.900814300000015]]}}, {"type": "Feature", "properties": {"highway": "footway", "footway": "sidewalk", "name": null, "surface": null, "lit": null, "length_m": 42.57, "type_element": "Way", "__fid": 105591}, "geometry": {"type": "LineString", "coordinates": [[2.3882872, 48.9012057], [2.3883044, 48.9012131], [2.3884028, 48.9012106], [2.3888122, 48.90113509999998], [2.388834, 48.9011158]]}}, {"type": "Feature", "properties": {"highway": "footway", "footway": "crossing", "name": null, "surface": null, "lit": null, "length_m": 13.09, "type_element": "Way", "__fid": 105592}, "geometry": {"type": "LineString", "coordinates": [[2.3882872, 48.9012057], [2.3882765, 48.9012287], [2.3883089, 48.90131990000001]]}}, {"type": "Feature", "properties": {"highway": "footway", "footway": "sidewalk", "name": null, "surface": null, "lit": null, "length_m": 50.95, "type_element": "Way", "__fid": 105593}, "geometry": {"type": "LineString", "coordinates": [[2.3887881, 48.9010651], [2.3886913, 48.9010397], [2.3885741, 48.9010343], [2.3884832, 48.9010407], [2.3883757, 48.9010649], [2.3883044, 48.9011039], [2.3882593, 48.9011583], [2.3882713, 48.9011988], [2.3882872, 48.9012057]]}}, {"type": "Feature", "properties": {"highway": "footway", "footway": "sidewalk", "name": null, "surface": null, "lit": null, "length_m": 52.54, "type_element": "Way", "__fid": 105600}, "geometry": {"type": "LineString", "coordinates": [[2.3884386, 48.9018785], [2.3882918, 48.901416]]}}, {"type": "Feature", "properties": {"highway": "footway", "footway": "sidewalk", "name": null, "surface": null, "lit": null, "length_m": 2.75, "type_element": "Way", "__fid": 105601}, "geometry": {"type": "LineString", "coordinates": [[2.3883055, 48.901393], [2.3882918, 48.901416]]}}, {"type": "Feature", "properties": {"highway": "footway", "footway": "crossing", "name": null, "surface": null, "lit": null, "length_m": 4.45, "type_element": "Way", "__fid": 105615}, "geometry": {"type": "LineString", "coordinates": [[2.388312, 48.9013532], [2.3883055, 48.901393]]}}, {"type": "Feature", "properties": {"highway": "footway", "footway": "sidewalk", "name": null, "surface": null, "lit": null, "length_m": 61.02, "type_element": "Way", "__fid": 105616}, "geometry": {"type": "LineString", "coordinates": [[2.3883055, 48.901393], [2.3891058, 48.9012421]]}}, {"type": "Feature", "properties": {"highway": "footway", "footway": "crossing", "name": null, "surface": null, "lit": null, "length_m": 3.71, "type_element": "Way", "__fid": 105619}, "geometry": {"type": "LineString", "coordinates": [[2.3883089, 48.90131990000001], [2.388312, 48.9013532]]}}, {"type": "Feature", "properties": {"highway": "footway", "footway": "sidewalk", "name": null, "surface": null, "lit": null, "length_m": 52.06, "type_element": "Way", "__fid": 105620}, "geometry": {"type": "LineString", "coordinates": [[2.3889914, 48.9011905], [2.3883089, 48.90131990000001]]}}, {"type": "Feature", "properties": {"highway": "service", "footway": null, "name": "Rue Émile Reynaud", "surface": null, "lit": null, "length_m": 56.41, "type_element": "Way", "__fid": 105627}, "geometry": {"type": "LineString", "coordinates": [[2.3890549, 48.9012212], [2.388312, 48.9013532]]}}, {"type": "Feature", "properties": {"highway": "footway", "footway": "sidewalk", "name": null, "surface": null, "lit": null, "length_m": 6.57, "type_element": "Way", "__fid": 105981}, "geometry": {"type": "LineString", "coordinates": [[2.388834, 48.9011158], [2.3887881, 48.9010651]]}}, {"type": "Feature", "properties": {"highway": "footway", "footway": "traffic_island", "name": null, "surface": null, "lit": null, "length_m": 37.92, "type_element": "Way", "__fid": 105982}, "geometry": {"type": "LineString", "coordinates": [[2.3891347, 48.900814300000015], [2.3890915, 48.9008312], [2.388955, 48.900929200000014], [2.3887881, 48.9010651]]}}, {"type": "Feature", "properties": {"highway": "footway", "footway": "crossing", "name": null, "surface": null, "lit": null, "length_m": 14.22, "type_element": "Way", "__fid": 106026}, "geometry": {"type": "LineString", "coordinates": [[2.388834, 48.9011158], [2.3889914, 48.9011905]]}}, {"type": "Feature", "properties": {"highway": "footway", "footway": "sidewalk", "name": null, "surface": null, "lit": null, "length_m": 5.77, "type_element": "Way", "__fid": 106193}, "geometry": {"type": "LineString", "coordinates": [[2.3889914, 48.9011905], [2.3890549, 48.9012212]]}}, {"type": "Feature", "properties": {"highway": "footway", "footway": "sidewalk", "name": null, "surface": null, "lit": null, "length_m": 4.4, "type_element": "Way", "__fid": 106266}, "geometry": {"type": "LineString", "coordinates": [[2.3890549, 48.9012212], [2.3891058, 48.9012421]]}}, {"type": "Feature", "properties": {"highway": "service", "footway": null, "name": "Rue Émile Reynaud", "surface": null, "lit": null, "length_m": 16.92, "type_element": "Way", "__fid": 106267}, "geometry": {"type": "LineString", "coordinates": [[2.3892756, 48.9011766], [2.3890549, 48.9012212]]}}, {"type": "Feature", "properties": {"highway": "footway", "footway": "sidewalk", "name": null, "surface": null, "lit": null, "length_m": 13.42, "type_element": "Way", "__fid": 106314}, "geometry": {"type": "LineString", "coordinates": [[2.3891058, 48.9012421], [2.3891684, 48.90123350000001], [2.3892089, 48.9012378], [2.3892591, 48.90127720000002]]}}, {"type": "Feature", "properties": {"highway": "footway", "footway": "sidewalk", "name": null, "surface": null, "lit": null, "length_m": 35.94, "type_element": "Way", "__fid": 106331}, "geometry": {"type": "LineString", "coordinates": [[2.3891347, 48.900814300000015], [2.3891649, 48.900833], [2.3892916, 48.9008583], [2.3892956, 48.900878], [2.3894564, 48.9010183], [2.3894757, 48.901020400000014]]}}, {"type": "Feature", "properties": {"highway": "footway", "footway": "sidewalk", "name": null, "surface": null, "lit": null, "length_m": 6.69, "type_element": "Way", "__fid": 106677}, "geometry": {"type": "LineString", "coordinates": [[2.389567, 48.9010209], [2.3894757, 48.901020400000014]]}}, {"type": "Feature", "properties": {"highway": "footway", "footway": "crossing", "name": null, "surface": null, "lit": null, "length_m": 21.1, "type_element": "Way", "__fid": 106678}, "geometry": {"type": "LineString", "coordinates": [[2.3894757, 48.901020400000014], [2.3894778, 48.90103580000002], [2.3896371, 48.9011749]]}}, {"type": "Feature", "properties": {"highway": "service", "footway": null, "name": null, "surface": "asphalt", "lit": null, "length_m": 172.76, "type_element": "Way", "__fid": 106771}, "geometry": {"type": "LineString", "coordinates": [[2.389567, 48.9010209], [2.3894574, 48.900928], [2.3894225, 48.9008928], [2.3894037, 48.9008566], [2.3893984, 48.9008205], [2.3894118, 48.9007922], [2.389444, 48.9007693], [2.3895479, 48.9007374], [2.390791, 48.9005778], [2.3908473, 48.9005734], [2.3908957, 48.9005831], [2.390925, 48.900597], [2.3909453, 48.9006201], [2.3909652, 48.9008464]]}}]}