{"type": "FeatureCollection", "features": [{"type": "Feature", "properties": {"highway": "footway", "footway": "sidewalk", "name": null, "surface": "asphalt", "lit": "yes", "length_m": 398.34, "type_element": "Way", "__fid": 104059}, "geometry": {"type": "LineString", "coordinates": [[2.3870051, 48.8243435], [2.3879427, 48.823478500000014], [2.390118, 48.8214095]]}}, {"type": "Feature", "properties": {"highway": "footway", "footway": "sidewalk", "name": null, "surface": null, "lit": "yes", "length_m": 924.1, "type_element": "Way", "__fid": 104776}, "geometry": {"type": "LineString", "coordinates": [[2.3970872, 48.81997830000002], [2.3967636, 48.8201008], [2.3964505, 48.820235], [2.395649, 48.8206748], [2.3947164, 48.8212548], [2.3941804, 48.8214818], [2.3938742, 48.8216699], [2.3932908, 48.8220628], [2.3929769, 48.8223228], [2.3925676, 48.8226162], [2.3924667, 48.8226693], [2.3922703, 48.8227965], [2.3907445, 48.8238518], [2.3880624, 48.8257277]]}}, {"type": "Feature", "properties": {"highway": "service", "footway": null, "name": null, "surface": null, "lit": null, "length_m": 356.29, "type_element": "Way", "__fid": 105122}, "geometry": {"type": "LineString", "coordinates": [[2.3912817, 48.831692099999984], [2.3913217, 48.8316473], [2.3913417, 48.8315523], [2.3912747, 48.831180300000014], [2.391088, 48.8309433], [2.3909291, 48.8308112], [2.3905565, 48.8305531], [2.3885116, 48.8292314]]}}, {"type": "Feature", "properties": {"highway": "service", "footway": null, "name": null, "surface": null, "lit": null, "length_m": 420.88, "type_element": "Way", "__fid": 105123}, "geometry": {"type": "LineString", "coordinates": [[2.3885116, 48.8292314], [2.3883109, 48.82910169999998], [2.3878178, 48.8294263], [2.3876622, 48.829457799999986], [2.387428, 48.82962170000002], [2.390408522324414, 48.83162384083757]]}}, {"type": "Feature", "properties": {"highway": "footway", "footway": "sidewalk", "name": null, "surface": "asphalt", "lit": "yes", "length_m": 107.43, "type_element": "Way", "__fid": 105193}, "geometry": {"type": "LineString", "coordinates": [[2.3886038, 48.828828], [2.3898422, 48.8293427]]}}, {"type": "Feature", "properties": {"highway": "service", "footway": null, "name": null, "surface": null, "lit": null, "length_m": 239.95, "type_element": "Way", "__fid": 105450}, "geometry": {"type": "LineString", "coordinates": [[2.3919233, 48.8283197], [2.3917081, 48.8283652], [2.3914976, 48.8283964], [2.3912853, 48.8284102], [2.3909623, 48.8283953], [2.3908158, 48.8283703], [2.3902906, 48.8282032], [2.3901435, 48.8281507], [2.3898228, 48.82797390000001], [2.3897042, 48.82794770000001], [2.3895748, 48.8279469], [2.389428, 48.8279772], [2.3889547, 48.8281773]]}}, {"type": "Feature", "properties": {"highway": "footway", "footway": "sidewalk", "name": null, "surface": "asphalt", "lit": "yes", "length_m": 70.5, "type_element": "Way", "__fid": 105467}, "geometry": {"type": "LineString", "coordinates": [[2.3889681, 48.8286979], [2.3897832, 48.8290332]]}}, {"type": "Feature", "properties": {"highway": "footway", "footway": "sidewalk", "name": null, "surface": "asphalt", "lit": "yes", "length_m": 209.68, "type_element": "Way", "__fid": 105472}, "geometry": {"type": "LineString", "coordinates": [[2.3889774, 48.82820610000001], [2.3893862, 48.8280327], [2.3895375, 48.8279888], [2.389607, 48.827981], [2.3897888, 48.8279963], [2.3898834, 48.828030699999985], [2.3899498, 48.8280691], [2.3902636, 48.8283163], [2.390336, 48.8283944], [2.3903937, 48.8284933], [2.3904299, 48.8286024], [2.3904205, 48.8287803], [2.390338, 48.82897180000001], [2.390283, 48.8290389], [2.3902039, 48.8290906]]}}, {"type": "Feature", "properties": {"highway": "steps", "footway": null, "name": null, "surface": null, "lit": null, "length_m": 60.85, "type_element": "Way", "__fid": 105612}, "geometry": {"type": "LineString", "coordinates": [[2.3891576, 48.8286388], [2.3898333, 48.82895579999999]]}}, {"type": "Feature", "properties": {"highway": "footway", "footway": null, "name": null, "surface": null, "lit": null, "length_m": 129.76, "type_element": "Way", "__fid": 105646}, "geometry": {"type": "LineString", "coordinates": [[2.3898333, 48.82895579999999], [2.3899941, 48.8287074], [2.389977, 48.828640100000015], [2.3899327, 48.8285646], [2.3896497, 48.8283302], [2.3895632, 48.8282843], [2.3895197, 48.8282861], [2.3894767, 48.8283007], [2.3894459, 48.8283338], [2.3894439, 48.8283762], [2.3891921, 48.8285389]]}}, {"type": "Feature", "properties": {"highway": "service", "footway": null, "name": null, "surface": null, "lit": null, "length_m": 6.14, "type_element": "Way", "__fid": 106097}, "geometry": {"type": "LineString", "coordinates": [[2.3897503, 48.829084], [2.3897832, 48.8290332]]}}, {"type": "Feature", "properties": {"highway": "footway", "footway": "sidewalk", "name": null, "surface": "asphalt", "lit": "yes", "length_m": 20.97, "type_element": "Way", "__fid": 106128}, "geometry": {"type": "LineString", "coordinates": [[2.3897832, 48.8290332], [2.3899146, 48.82907150000001], [2.3900513, 48.8290969]]}}, {"type": "Feature", "properties": {"highway": "service", "footway": null, "name": null, "surface": null, "lit": null, "length_m": 9.36, "type_element": "Way", "__fid": 106129}, "geometry": {"type": "LineString", "coordinates": [[2.3897832, 48.8290332], [2.3898333, 48.82895579999999]]}}, {"type": "Feature", "properties": {"highway": "footway", "footway": "sidewalk", "name": null, "surface": "asphalt", "lit": "yes", "length_m": 214.56, "type_element": "Way", "__fid": 106197}, "geometry": {"type": "LineString", "coordinates": [[2.3898422, 48.8293427], [2.391276, 48.8299342], [2.3917373, 48.8300887], [2.3923985, 48.83026789999999]]}}, {"type": "Feature", "properties": {"highway": "footway", "footway": "crossing", "name": null, "surface": "asphalt", "lit": "yes", "length_m": 31.4, "type_element": "Way", "__fid": 106198}, "geometry": {"type": "LineString", "coordinates": [[2.3898422, 48.8293427], [2.3900236, 48.8291423], [2.3900513, 48.8290969]]}}, {"type": "Feature", "properties": {"highway": "footway", "footway": "sidewalk", "name": null, "surface": "asphalt", "lit": "yes", "length_m": 11.22, "type_element": "Way", "__fid": 106411}, "geometry": {"type": "LineString", "coordinates": [[2.3902039, 48.8290906], [2.3900513, 48.8290969]]}}, {"type": "Feature", "properties": {"highway": "footway", "footway": "traffic_island", "name": null, "surface": "asphalt", "lit": "yes", "length_m": 48.78, "type_element": "Way", "__fid": 106577}, "geometry": {"type": "LineString", "coordinates": [[2.3902039, 48.8290906], [2.3907723, 48.8293179]]}}, {"type": "Feature", "properties": {"highway": "footway", "footway": "sidewalk", "name": null, "surface": "asphalt", "lit": "yes", "length_m": 58.0, "type_element": "Way", "__fid": 107042}, "geometry": {"type": "LineString", "coordinates": [[2.3907723, 48.8293179], [2.3909113, 48.82937350000001], [2.3909537, 48.8294204], [2.3910457, 48.8294947], [2.3912555, 48.8295987], [2.391372, 48.8296465]]}}, {"type": "Feature", "properties": {"highway": "footway", "footway": "sidewalk", "name": null, "surface": "concrete", "lit": "yes", "length_m": 281.49, "type_element": "Way", "__fid": 107043}, "geometry": {"type": "LineString", "coordinates": [[2.3907723, 48.8293179], [2.3907656, 48.8292699], [2.3907762, 48.829214499999985], [2.3908174, 48.829151], [2.3909348, 48.8290247], [2.3910821, 48.828885], [2.3916475, 48.8285342], [2.3923294, 48.8281383], [2.3925503, 48.8279998], [2.3927309, 48.8278746], [2.392936, 48.827638], [2.3931734, 48.8274041]]}}, {"type": "Feature", "properties": {"highway": "service", "footway": null, "name": null, "surface": null, "lit": null, "length_m": 7.01, "type_element": "Way", "__fid": 107353}, "geometry": {"type": "LineString", "coordinates": [[2.3914325, 48.8295977], [2.391372, 48.8296465]]}}, {"type": "Feature", "properties": {"highway": "service", "footway": null, "name": null, "surface": null, "lit": null, "length_m": 78.13, "type_element": "Way", "__fid": 107384}, "geometry": {"type": "LineString", "coordinates": [[2.392346082201629, 48.82977861061025], [2.3922566, 48.8298356], [2.3921654, 48.8298566], [2.3920512, 48.829851], [2.3918955, 48.8297985], [2.3914325, 48.8295977]]}}, {"type": "Feature", "properties": {"highway": "service", "footway": null, "name": null, "surface": null, "lit": null, "length_m": 26.09, "type_element": "Way", "__fid": 107385}, "geometry": {"type": "LineString", "coordinates": [[2.3916387, 48.8294066], [2.3914325, 48.8295977]]}}, {"type": "Feature", "properties": {"highway": "service", "footway": null, "name": null, "surface": null, "lit": null, "length_m": 242.76, "type_element": "Way", "__fid": 107494}, "geometry": {"type": "LineString", "coordinates": [[2.3939842, 48.8281541], [2.3936154, 48.8280844], [2.3934732, 48.8280747], [2.3933163, 48.828097600000014], [2.3929462, 48.8282565], [2.3916387, 48.8294066]]}}, {"type": "Feature", "properties": {"highway": "service", "footway": null, "name": null, "surface": null, "lit": null, "length_m": 76.39, "type_element": "Way", "__fid": 107495}, "geometry": {"type": "LineString", "coordinates": [[2.392346082201629, 48.82977861061025], [2.392279, 48.8297309], [2.3921643, 48.8295246], [2.3921234, 48.82947750000001], [2.3920195, 48.8294263], [2.3918579, 48.8293844], [2.3917714, 48.82938390000001], [2.3916387, 48.8294066]]}}, {"type": "Feature", "properties": {"highway": "service", "footway": null, "name": null, "surface": null, "lit": null, "length_m": 356.65, "type_element": "Way", "__fid": 107902}, "geometry": {"type": "LineString", "coordinates": [[2.3948345, 48.828249499999984], [2.3949578, 48.828306], [2.3950437, 48.82838189999999], [2.3950544, 48.828449], [2.3950168, 48.8285726], [2.3947138, 48.8289752], [2.3940244, 48.8300787], [2.3938903, 48.8301388], [2.3937669, 48.83014759999999], [2.3936623, 48.83014230000001], [2.3925331, 48.8298702], [2.392376232350604, 48.82980005414068]]}}, {"type": "Feature", "properties": {"highway": "footway", "footway": "crossing", "name": null, "surface": "asphalt", "lit": "yes", "length_m": 9.15, "type_element": "Way", "__fid": 108432}, "geometry": {"type": "LineString", "coordinates": [[2.3930648, 48.8273637], [2.3931734, 48.8274041]]}}, {"type": "Feature", "properties": {"highway": "footway", "footway": "sidewalk", "name": null, "surface": null, "lit": "yes", "length_m": 26.75, "type_element": "Way", "__fid": 108433}, "geometry": {"type": "LineString", "coordinates": [[2.3930648, 48.8273637], [2.3932089, 48.8271711], [2.3931769, 48.8271563]]}}, {"type": "Feature", "properties": {"highway": "footway", "footway": "sidewalk", "name": null, "surface": "concrete", "lit": "yes", "length_m": 17.65, "type_element": "Way", "__fid": 108519}, "geometry": {"type": "LineString", "coordinates": [[2.3931734, 48.8274041], [2.3932752, 48.8273022], [2.393319, 48.8272797]]}}, {"type": "Feature", "properties": {"highway": "footway", "footway": "crossing", "name": null, "surface": "asphalt", "lit": "yes", "length_m": 14.59, "type_element": "Way", "__fid": 108521}, "geometry": {"type": "LineString", "coordinates": [[2.3931769, 48.8271563], [2.3932241, 48.8271097], [2.3933003, 48.8270539]]}}, {"type": "Feature", "properties": {"highway": "service", "footway": null, "name": null, "surface": null, "lit": null, "length_m": 79.25, "type_element": "Way", "__fid": 108744}, "geometry": {"type": "LineString", "coordinates": [[2.3941313, 48.8282685], [2.3934504, 48.8288216]]}}, {"type": "Feature", "properties": {"highway": "service", "footway": null, "name": null, "surface": null, "lit": null, "length_m": 93.21, "type_element": "Way", "__fid": 109001}, "geometry": {"type": "LineString", "coordinates": [[2.3938179, 48.8290123], [2.3942015, 48.8286291], [2.3942417, 48.82853020000001], [2.3942283, 48.8284243], [2.3941854, 48.8283236], [2.3941313, 48.8282685]]}}, {"type": "Feature", "properties": {"highway": "service", "footway": null, "name": null, "surface": null, "lit": null, "length_m": 63.32, "type_element": "Way", "__fid": 109110}, "geometry": {"type": "LineString", "coordinates": [[2.3939842, 48.8281541], [2.3948345, 48.828249499999984]]}}, {"type": "Feature", "properties": {"highway": "service", "footway": null, "name": null, "surface": null, "lit": null, "length_m": 16.81, "type_element": "Way", "__fid": 109111}, "geometry": {"type": "LineString", "coordinates": [[2.3941313, 48.8282685], [2.3940727, 48.8282088], [2.3939842, 48.8281541]]}}, {"type": "Feature", "properties": {"highway": "service", "footway": null, "name": null, "surface": null, "lit": null, "length_m": 185.75, "type_element": "Way", "__fid": 109736}, "geometry": {"type": "LineString", "coordinates": [[2.3948345, 48.828249499999984], [2.39499, 48.827853], [2.3953669, 48.8275493], [2.3953669, 48.8274928], [2.3952918, 48.8274275], [2.3953213, 48.8273666], [2.3959596, 48.826851]]}}, {"type": "Feature", "properties": {"highway": "footway", "footway": null, "name": null, "surface": null, "lit": null, "length_m": 149.61, "type_element": "Way", "__fid": 109933}, "geometry": {"type": "LineString", "coordinates": [[2.3950607, 48.8304728], [2.3950303, 48.83046010000002], [2.3951691, 48.8303315], [2.3948438, 48.8301966], [2.3946745, 48.8301467], [2.3947567, 48.83000390000002], [2.3950219, 48.8296075], [2.3950913, 48.8294111]]}}, {"type": "Feature", "properties": {"highway": "footway", "footway": null, "name": null, "surface": null, "lit": null, "length_m": 82.03, "type_element": "Way", "__fid": 109947}, "geometry": {"type": "LineString", "coordinates": [[2.3958869, 48.8298015], [2.3957625, 48.8297042], [2.3956599, 48.8296411], [2.3957011, 48.8295848], [2.3955908, 48.8295526], [2.3955845, 48.8295248], [2.3954366, 48.8294714], [2.3953615, 48.829451899999974], [2.3950913, 48.8294111]]}}, {"type": "Feature", "properties": {"highway": "footway", "footway": null, "name": null, "surface": null, "lit": null, "length_m": 74.34, "type_element": "Way", "__fid": 109948}, "geometry": {"type": "LineString", "coordinates": [[2.3950913, 48.8294111], [2.3951272, 48.8292954], [2.3952053, 48.82895239999998], [2.3952921, 48.8289591], [2.3953216, 48.828814499999986]]}}, {"type": "Feature", "properties": {"highway": "footway", "footway": null, "name": null, "surface": null, "lit": null, "length_m": 23.79, "type_element": "Way", "__fid": 110503}, "geometry": {"type": "LineString", "coordinates": [[2.3958943, 48.8291844], [2.3960119, 48.8292272], [2.3961088, 48.82911950000001]]}}, {"type": "Feature", "properties": {"highway": "footway", "footway": null, "name": null, "surface": null, "lit": null, "length_m": 128.07, "type_element": "Way", "__fid": 110535}, "geometry": {"type": "LineString", "coordinates": [[2.3967193, 48.82948240000001], [2.396773, 48.829515], [2.3964652, 48.829826699999984], [2.3961997, 48.830167], [2.3959281, 48.83046610000001]]}}, {"type": "Feature", "properties": {"highway": "service", "footway": null, "name": null, "surface": null, "lit": null, "length_m": 255.92, "type_element": "Way", "__fid": 110610}, "geometry": {"type": "LineString", "coordinates": [[2.3967193, 48.82948240000001], [2.3970553, 48.8292184], [2.3971291, 48.8292127], [2.3972384, 48.8292559], [2.3970855, 48.82949429999998], [2.3964841, 48.8302827], [2.396006411064225, 48.830887344947506]]}}, {"type": "Feature", "properties": {"highway": "footway", "footway": null, "name": null, "surface": null, "lit": null, "length_m": 6.35, "type_element": "Way", "__fid": 110675}, "geometry": {"type": "LineString", "coordinates": [[2.3961088, 48.82911950000001], [2.3961796, 48.82915230000002]]}}, {"type": "Feature", "properties": {"highway": "footway", "footway": null, "name": null, "surface": null, "lit": null, "length_m": 208.4, "type_element": "Way", "__fid": 110676}, "geometry": {"type": "LineString", "coordinates": [[2.3961088, 48.82911950000001], [2.3962775, 48.8289288], [2.3964733, 48.82874560000001], [2.3977084, 48.8276438], [2.3977801, 48.8276781]]}}, {"type": "Feature", "properties": {"highway": "footway", "footway": null, "name": null, "surface": null, "lit": null, "length_m": 3.91, "type_element": "Way", "__fid": 110728}, "geometry": {"type": "LineString", "coordinates": [[2.3961796, 48.82915230000002], [2.3962231, 48.8291726]]}}, {"type": "Feature", "properties": {"highway": "footway", "footway": null, "name": null, "surface": null, "lit": null, "length_m": 201.8, "type_element": "Way", "__fid": 110729}, "geometry": {"type": "LineString", "coordinates": [[2.3961796, 48.82915230000002], [2.396366, 48.8289452], [2.3964994, 48.8288207], [2.3977801, 48.8276781]]}}, {"type": "Feature", "properties": {"highway": "footway", "footway": null, "name": null, "surface": null, "lit": null, "length_m": 4.89, "type_element": "Way", "__fid": 110755}, "geometry": {"type": "LineString", "coordinates": [[2.3962231, 48.8291726], [2.3962755, 48.82919969999998]]}}, {"type": "Feature", "properties": {"highway": "footway", "footway": null, "name": null, "surface": null, "lit": null, "length_m": 201.64, "type_element": "Way", "__fid": 110756}, "geometry": {"type": "LineString", "coordinates": [[2.3978469, 48.8277101], [2.3966222, 48.8288039], [2.3962231, 48.8291726]]}}, {"type": "Feature", "properties": {"highway": "service", "footway": null, "name": null, "surface": null, "lit": null, "length_m": 38.67, "type_element": "Way", "__fid": 110758}, "geometry": {"type": "LineString", "coordinates": [[2.3962179, 48.829640199999986], [2.3962788, 48.8295707], [2.3964644, 48.8294913], [2.3965826, 48.8294303], [2.3966029, 48.8294123]]}}, {"type": "Feature", "properties": {"highway": "footway", "footway": null, "name": null, "surface": null, "lit": null, "length_m": 4.71, "type_element": "Way", "__fid": 110809}, "geometry": {"type": "LineString", "coordinates": [[2.3962755, 48.82919969999998], [2.3963246, 48.8292269]]}}, {"type": "Feature", "properties": {"highway": "footway", "footway": null, "name": null, "surface": null, "lit": null, "length_m": 201.8, "type_element": "Way", "__fid": 110810}, "geometry": {"type": "LineString", "coordinates": [[2.3979119, 48.8277414], [2.3962755, 48.82919969999998]]}}, {"type": "Feature", "properties": {"highway": "footway", "footway": null, "name": null, "surface": null, "lit": null, "length_m": 6.09, "type_element": "Way", "__fid": 110838}, "geometry": {"type": "LineString", "coordinates": [[2.3963246, 48.8292269], [2.3963868, 48.8292631]]}}, {"type": "Feature", "properties": {"highway": "footway", "footway": null, "name": null, "surface": null, "lit": null, "length_m": 202.18, "type_element": "Way", "__fid": 110839}, "geometry": {"type": "LineString", "coordinates": [[2.3979789, 48.8277735], [2.3965739, 48.82902510000001], [2.3963246, 48.8292269]]}}, {"type": "Feature", "properties": {"highway": "service", "footway": null, "name": null, "surface": null, "lit": null, "length_m": 44.69, "type_element": "Way", "__fid": 110842}, "geometry": {"type": "LineString", "coordinates": [[2.3963244, 48.8297883], [2.3967193, 48.82948240000001]]}}, {"type": "Feature", "properties": {"highway": "footway", "footway": null, "name": null, "surface": null, "lit": null, "length_m": 4.72, "type_element": "Way", "__fid": 110882}, "geometry": {"type": "LineString", "coordinates": [[2.3963868, 48.8292631], [2.3964345, 48.82929159999998]]}}, {"type": "Feature", "properties": {"highway": "footway", "footway": null, "name": null, "surface": null, "lit": null, "length_m": 202.83, "type_element": "Way", "__fid": 110883}, "geometry": {"type": "LineString", "coordinates": [[2.3980503, 48.8278077], [2.3966503, 48.8290568], [2.3965222, 48.8291685], [2.3963868, 48.8292631]]}}, {"type": "Feature", "properties": {"highway": "footway", "footway": null, "name": null, "surface": null, "lit": null, "length_m": 3.81, "type_element": "Way", "__fid": 110922}, "geometry": {"type": "LineString", "coordinates": [[2.3964345, 48.82929159999998], [2.3964699, 48.8293166]]}}, {"type": "Feature", "properties": {"highway": "footway", "footway": null, "name": null, "surface": null, "lit": null, "length_m": 203.47, "type_element": "Way", "__fid": 110923}, "geometry": {"type": "LineString", "coordinates": [[2.3981202, 48.8278412], [2.3972987, 48.8285642], [2.3967549, 48.8290573], [2.396543, 48.8292233], [2.3964345, 48.82929159999998]]}}, {"type": "Feature", "properties": {"highway": "footway", "footway": null, "name": null, "surface": null, "lit": null, "length_m": 9.84, "type_element": "Way", "__fid": 110967}, "geometry": {"type": "LineString", "coordinates": [[2.3964699, 48.8293166], [2.3965524, 48.8293864]]}}, {"type": "Feature", "properties": {"highway": "footway", "footway": null, "name": null, "surface": null, "lit": null, "length_m": 204.57, "type_element": "Way", "__fid": 110968}, "geometry": {"type": "LineString", "coordinates": [[2.3981814, 48.8278706], [2.3977386, 48.828271100000016], [2.3972035, 48.82873330000001], [2.3968045, 48.8291019], [2.3965826, 48.8292603], [2.3964699, 48.8293166]]}}, {"type": "Feature", "properties": {"highway": "footway", "footway": "crossing", "name": null, "surface": null, "lit": null, "length_m": 4.69, "type_element": "Way", "__fid": 111028}, "geometry": {"type": "LineString", "coordinates": [[2.3965524, 48.8293864], [2.3966029, 48.8294123]]}}, {"type": "Feature", "properties": {"highway": "footway", "footway": null, "name": null, "surface": null, "lit": null, "length_m": 167.38, "type_element": "Way", "__fid": 111029}, "geometry": {"type": "LineString", "coordinates": [[2.3965524, 48.8293864], [2.3966429, 48.8293455], [2.3967034, 48.82929869999999], [2.3967234, 48.8292515], [2.3968595, 48.8291588], [2.3979029, 48.8282393], [2.397969, 48.8282469]]}}, {"type": "Feature", "properties": {"highway": "footway", "footway": null, "name": null, "surface": null, "lit": null, "length_m": 11.57, "type_element": "Way", "__fid": 111066}, "geometry": {"type": "LineString", "coordinates": [[2.3966029, 48.8294123], [2.3967193, 48.82948240000001]]}}, {"type": "Feature", "properties": {"highway": "service", "footway": null, "name": null, "surface": null, "lit": null, "length_m": 163.88, "type_element": "Way", "__fid": 111067}, "geometry": {"type": "LineString", "coordinates": [[2.3966029, 48.8294123], [2.3969628, 48.82911030000001], [2.3973454, 48.8287666], [2.397969, 48.8282469]]}}, {"type": "Feature", "properties": {"highway": "footway", "footway": null, "name": null, "surface": null, "lit": null, "length_m": 6.06, "type_element": "Way", "__fid": 111749}, "geometry": {"type": "LineString", "coordinates": [[2.3977801, 48.8276781], [2.3978469, 48.8277101]]}}, {"type": "Feature", "properties": {"highway": "footway", "footway": null, "name": null, "surface": null, "lit": null, "length_m": 5.91, "type_element": "Way", "__fid": 111799}, "geometry": {"type": "LineString", "coordinates": [[2.3978469, 48.8277101], [2.3979119, 48.8277414]]}}, {"type": "Feature", "properties": {"highway": "footway", "footway": null, "name": null, "surface": null, "lit": null, "length_m": 6.08, "type_element": "Way", "__fid": 111847}, "geometry": {"type": "LineString", "coordinates": [[2.3979119, 48.8277414], [2.3979789, 48.8277735]]}}, {"type": "Feature", "properties": {"highway": "footway", "footway": null, "name": null, "surface": null, "lit": null, "length_m": 251.94, "type_element": "Way", "__fid": 111892}, "geometry": {"type": "LineString", "coordinates": [[2.397969, 48.8282469], [2.3980082, 48.8282645], [2.3982053, 48.8281755], [2.3982657, 48.82815789999999], [2.3986633, 48.8279418], [2.3986777, 48.8279288], [2.3986516, 48.82790930000002], [2.3987235, 48.8278717], [2.3992262, 48.8274112], [2.399536, 48.8271419], [2.3997134, 48.8270757], [2.3998596, 48.8269476], [2.3999333, 48.8268761], [2.4000916, 48.8266541], [2.4001171, 48.82659870000001]]}}, {"type": "Feature", "properties": {"highway": "service", "footway": null, "name": null, "surface": null, "lit": null, "length_m": 632.06, "type_element": "Way", "__fid": 111893}, "geometry": {"type": "LineString", "coordinates": [[2.397969, 48.8282469], [2.398326, 48.82794], [2.3985251, 48.8277811], [2.3989134, 48.8274204], [2.3999602, 48.8264978], [2.4000148, 48.8264424], [2.400178, 48.826221], [2.4003147, 48.8260603], [2.4004697, 48.82595950000001], [2.4005489, 48.8258797], [2.4008426, 48.8254432], [2.4009177, 48.8253588], [2.4010907, 48.8252198], [2.4019316, 48.8247048], [2.4019889, 48.8246863], [2.4021851, 48.8246494], [2.4023091, 48.8246119], [2.4025887, 48.8244839], [2.4036576, 48.8242132]]}}, {"type": "Feature", "properties": {"highway": "footway", "footway": null, "name": null, "surface": null, "lit": null, "length_m": 6.48, "type_element": "Way", "__fid": 111898}, "geometry": {"type": "LineString", "coordinates": [[2.3979789, 48.8277735], [2.3980503, 48.8278077]]}}, {"type": "Feature", "properties": {"highway": "footway", "footway": null, "name": null, "surface": null, "lit": null, "length_m": 6.34, "type_element": "Way", "__fid": 111950}, "geometry": {"type": "LineString", "coordinates": [[2.3980503, 48.8278077], [2.3981202, 48.8278412]]}}, {"type": "Feature", "properties": {"highway": "footway", "footway": null, "name": null, "surface": null, "lit": null, "length_m": 5.56, "type_element": "Way", "__fid": 112003}, "geometry": {"type": "LineString", "coordinates": [[2.3981202, 48.8278412], [2.3981814, 48.8278706]]}}, {"type": "Feature", "properties": {"highway": "footway", "footway": null, "name": null, "surface": null, "lit": null, "length_m": 8.94, "type_element": "Way", "__fid": 112044}, "geometry": {"type": "LineString", "coordinates": [[2.3981814, 48.8278706], [2.3982798, 48.8279179]]}}]}