{"type": "FeatureCollection", "features": [{"type": "Feature", "properties": {"highway": "footway", "footway": "sidewalk", "name": null, "surface": "asphalt", "lit": "yes", "length_m": 398.34, "type_element": "Way", "__fid": 104059}, "geometry": {"type": "LineString", "coordinates": [[2.3870051, 48.8243435], [2.3879427, 48.823478500000014], [2.390118, 48.8214095]]}}, {"type": "Feature", "properties": {"highway": "footway", "footway": "sidewalk", "name": null, "surface": null, "lit": "yes", "length_m": 924.1, "type_element": "Way", "__fid": 104776}, "geometry": {"type": "LineString", "coordinates": [[2.3970872, 48.81997830000002], [2.3967636, 48.8201008], [2.3964505, 48.820235], [2.395649, 48.8206748], [2.3947164, 48.8212548], [2.3941804, 48.8214818], [2.3938742, 48.8216699], [2.3932908, 48.8220628], [2.3929769, 48.8223228], [2.3925676, 48.8226162], [2.3924667, 48.8226693], [2.3922703, 48.8227965], [2.3907445, 48.8238518], [2.3880624, 48.8257277]]}}]}