{"type": "FeatureCollection", "features": [{"type": "Feature", "properties": {"highway": "footway", "footway": "sidewalk", "name": null, "surface": null, "lit": null, "length_m": 6.69, "type_element": "Way", "__fid": 106677}, "geometry": {"type": "LineString", "coordinates": [[2.389567, 48.9010209], [2.3894757, 48.901020400000014]]}}, {"type": "Feature", "properties": {"highway": "footway", "footway": "crossing", "name": null, "surface": null, "lit": null, "length_m": 21.1, "type_element": "Way", "__fid": 106678}, "geometry": {"type": "LineString", "coordinates": [[2.3894757, 48.901020400000014], [2.3894778, 48.90103580000002], [2.3896371, 48.9011749]]}}, {"type": "Feature", "properties": {"highway": "service", "footway": null, "name": null, "surface": "asphalt", "lit": null, "length_m": 8.49, "type_element": "Way", "__fid": 106770}, "geometry": {"type": "LineString", "coordinates": [[2.3896405, 48.9010799], [2.389567, 48.9010209]]}}, {"type": "Feature", "properties": {"highway": "service", "footway": null, "name": null, "surface": "asphalt", "lit": null, "length_m": 172.76, "type_element": "Way", "__fid": 106771}, "geometry": {"type": "LineString", "coordinates": [[2.389567, 48.9010209], [2.3894574, 48.900928], [2.3894225, 48.9008928], [2.3894037, 48.9008566], [2.3893984, 48.9008205], [2.3894118, 48.9007922], [2.389444, 48.9007693], [2.3895479, 48.9007374], [2.390791, 48.9005778], [2.3908473, 48.9005734], [2.3908957, 48.9005831], [2.390925, 48.900597], [2.3909453, 48.9006201], [2.3909652, 48.9008464]]}}, {"type": "Feature", "properties": {"highway": "footway", "footway": "sidewalk", "name": null, "surface": null, "lit": null, "length_m": 91.95, "type_element": "Way", "__fid": 106772}, "geometry": {"type": "LineString", "coordinates": [[2.3907992, 48.9008667], [2.389567, 48.9010209]]}}, {"type": "Feature", "properties": {"highway": "footway", "footway": "sidewalk", "name": null, "surface": null, "lit": null, "length_m": 3.13, "type_element": "Way", "__fid": 106819}, "geometry": {"type": "LineString", "coordinates": [[2.3896371, 48.9011749], [2.3896244, 48.90120180000001]]}}, {"type": "Feature", "properties": {"highway": "footway", "footway": "sidewalk", "name": null, "surface": null, "lit": null, "length_m": 71.37, "type_element": "Way", "__fid": 106828}, "geometry": {"type": "LineString", "coordinates": [[2.390558, 48.9009821], [2.3896603, 48.9011547], [2.3896371, 48.9011749]]}}, {"type": "Feature", "properties": {"highway": "footway", "footway": null, "name": null, "surface": null, "lit": null, "length_m": 11.84, "type_element": "Way", "__fid": 107362}, "geometry": {"type": "LineString", "coordinates": [[2.390558, 48.9009821], [2.3905974, 48.901085399999985]]}}, {"type": "Feature", "properties": {"highway": "footway", "footway": "sidewalk", "name": null, "surface": null, "lit": null, "length_m": 19.9, "type_element": "Way", "__fid": 107363}, "geometry": {"type": "LineString", "coordinates": [[2.3908216, 48.9009394], [2.390558, 48.9009821]]}}, {"type": "Feature", "properties": {"highway": "footway", "footway": "crossing", "name": null, "surface": null, "lit": null, "length_m": 7.19, "type_element": "Way", "__fid": 107492}, "geometry": {"type": "LineString", "coordinates": [[2.3908192, 48.90093], [2.3907992, 48.9008667]]}}, {"type": "Feature", "properties": {"highway": "footway", "footway": "sidewalk", "name": null, "surface": null, "lit": null, "length_m": 12.38, "type_element": "Way", "__fid": 107493}, "geometry": {"type": "LineString", "coordinates": [[2.3909652, 48.9008464], [2.3907992, 48.9008667]]}}, {"type": "Feature", "properties": {"highway": "service", "footway": null, "name": null, "surface": "asphalt", "lit": null, "length_m": 4.05, "type_element": "Way", "__fid": 107557}, "geometry": {"type": "LineString", "coordinates": [[2.3909652, 48.9008464], [2.3909788, 48.9008817]]}}, {"type": "Feature", "properties": {"highway": "footway", "footway": "sidewalk", "name": null, "surface": null, "lit": null, "length_m": 34.47, "type_element": "Way", "__fid": 107558}, "geometry": {"type": "LineString", "coordinates": [[2.3914246, 48.9007804], [2.3909652, 48.9008464]]}}]}