{"type": "FeatureCollection", "features": [{"type": "Feature", "properties": {"highway": "footway", "footway": null, "name": null, "surface": null, "lit": null, "length_m": 251.94, "type_element": "Way", "__fid": 111892}, "geometry": {"type": "LineString", "coordinates": [[2.397969, 48.8282469], [2.3980082, 48.8282645], [2.3982053, 48.8281755], [2.3982657, 48.82815789999999], [2.3986633, 48.8279418], [2.3986777, 48.8279288], [2.3986516, 48.82790930000002], [2.3987235, 48.8278717], [2.3992262, 48.8274112], [2.399536, 48.8271419], [2.3997134, 48.8270757], [2.3998596, 48.8269476], [2.3999333, 48.8268761], [2.4000916, 48.8266541], [2.4001171, 48.82659870000001]]}}, {"type": "Feature", "properties": {"highway": "service", "footway": null, "name": null, "surface": null, "lit": null, "length_m": 632.06, "type_element": "Way", "__fid": 111893}, "geometry": {"type": "LineString", "coordinates": [[2.397969, 48.8282469], [2.398326, 48.82794], [2.3985251, 48.8277811], [2.3989134, 48.8274204], [2.3999602, 48.8264978], [2.4000148, 48.8264424], [2.400178, 48.826221], [2.4003147, 48.8260603], [2.4004697, 48.82595950000001], [2.4005489, 48.8258797], [2.4008426, 48.8254432], [2.4009177, 48.8253588], [2.4010907, 48.8252198], [2.4019316, 48.8247048], [2.4019889, 48.8246863], [2.4021851, 48.8246494], [2.4023091, 48.8246119], [2.4025887, 48.8244839], [2.4036576, 48.8242132]]}}, {"type": "Feature", "properties": {"highway": "service", "footway": null, "name": "Avenue des Marronniers", "surface": null, "lit": null, "length_m": 6.28, "type_element": "Way", "__fid": 112636}, "geometry": {"type": "LineString", "coordinates": [[2.3987341, 48.82961439999998], [2.3987082, 48.8296682]]}}, {"type": "Feature", "properties": {"highway": "footway", "footway": null, "name": null, "surface": null, "lit": null, "length_m": 13.09, "type_element": "Way", "__fid": 112664}, "geometry": {"type": "LineString", "coordinates": [[2.3987341, 48.82961439999998], [2.3988649, 48.829694400000015]]}}, {"type": "Feature", "properties": {"highway": "service", "footway": null, "name": "Avenue des Marronniers", "surface": null, "lit": null, "length_m": 8.41, "type_element": "Way", "__fid": 112665}, "geometry": {"type": "LineString", "coordinates": [[2.3987688, 48.8295423], [2.3987341, 48.82961439999998]]}}, {"type": "Feature", "properties": {"highway": "service", "footway": null, "name": "Allée de l'Est", "surface": null, "lit": null, "length_m": 16.53, "type_element": "Way", "__fid": 112687}, "geometry": {"type": "LineString", "coordinates": [[2.3987688, 48.8295423], [2.398926, 48.8296487]]}}, {"type": "Feature", "properties": {"highway": "service", "footway": null, "name": "Avenue des Marronniers", "surface": null, "lit": null, "length_m": 39.93, "type_element": "Way", "__fid": 112688}, "geometry": {"type": "LineString", "coordinates": [[2.3989351, 48.82920039999998], [2.3987688, 48.8295423]]}}, {"type": "Feature", "properties": {"highway": "footway", "footway": null, "name": null, "surface": null, "lit": null, "length_m": 6.87, "type_element": "Way", "__fid": 112689}, "geometry": {"type": "LineString", "coordinates": [[2.3988505, 48.8295213], [2.3988464, 48.82953], [2.3987688, 48.8295423]]}}, {"type": "Feature", "properties": {"highway": "footway", "footway": null, "name": null, "surface": null, "lit": null, "length_m": 12.57, "type_element": "Way", "__fid": 112799}, "geometry": {"type": "LineString", "coordinates": [[2.3989804, 48.8295949], [2.3988505, 48.8295213]]}}, {"type": "Feature", "properties": {"highway": "footway", "footway": null, "name": null, "surface": null, "lit": null, "length_m": 5.99, "type_element": "Way", "__fid": 112800}, "geometry": {"type": "LineString", "coordinates": [[2.3988745, 48.8294698], [2.3988505, 48.8295213]]}}, {"type": "Feature", "properties": {"highway": "footway", "footway": null, "name": null, "surface": null, "lit": null, "length_m": 14.8, "type_element": "Way", "__fid": 112828}, "geometry": {"type": "LineString", "coordinates": [[2.3990263, 48.82955740000001], [2.3988745, 48.8294698]]}}, {"type": "Feature", "properties": {"highway": "footway", "footway": null, "name": null, "surface": null, "lit": null, "length_m": 5.94, "type_element": "Way", "__fid": 112829}, "geometry": {"type": "LineString", "coordinates": [[2.3988982, 48.829418699999984], [2.3988745, 48.8294698]]}}, {"type": "Feature", "properties": {"highway": "footway", "footway": null, "name": null, "surface": null, "lit": null, "length_m": 17.01, "type_element": "Way", "__fid": 112846}, "geometry": {"type": "LineString", "coordinates": [[2.3988982, 48.829418699999984], [2.3990746, 48.8295179]]}}, {"type": "Feature", "properties": {"highway": "footway", "footway": null, "name": null, "surface": null, "lit": null, "length_m": 5.63, "type_element": "Way", "__fid": 112847}, "geometry": {"type": "LineString", "coordinates": [[2.3989208, 48.8293703], [2.3988982, 48.829418699999984]]}}, {"type": "Feature", "properties": {"highway": "footway", "footway": null, "name": null, "surface": null, "lit": null, "length_m": 28.87, "type_element": "Way", "__fid": 112878}, "geometry": {"type": "LineString", "coordinates": [[2.3992034, 48.8294036], [2.3991085, 48.8294767], [2.3989208, 48.8293703]]}}, {"type": "Feature", "properties": {"highway": "footway", "footway": null, "name": null, "surface": null, "lit": null, "length_m": 11.4, "type_element": "Way", "__fid": 112879}, "geometry": {"type": "LineString", "coordinates": [[2.3989664, 48.8292723], [2.3989208, 48.8293703]]}}, {"type": "Feature", "properties": {"highway": "footway", "footway": null, "name": null, "surface": null, "lit": null, "length_m": 13.24, "type_element": "Way", "__fid": 112903}, "geometry": {"type": "LineString", "coordinates": [[2.3989351, 48.82920039999998], [2.3989266, 48.8291438], [2.3989628, 48.8290864]]}}, {"type": "Feature", "properties": {"highway": "service", "footway": null, "name": "Avenue des Marronniers", "surface": null, "lit": null, "length_m": 5.79, "type_element": "Way", "__fid": 112904}, "geometry": {"type": "LineString", "coordinates": [[2.3989351, 48.82920039999998], [2.398983, 48.829190199999985], [2.3990043, 48.82920270000001]]}}, {"type": "Feature", "properties": {"highway": "footway", "footway": null, "name": null, "surface": null, "lit": null, "length_m": 40.84, "type_element": "Way", "__fid": 112920}, "geometry": {"type": "LineString", "coordinates": [[2.3993823, 48.829327699999986], [2.3989628, 48.8290864]]}}, {"type": "Feature", "properties": {"highway": "footway", "footway": null, "name": null, "surface": null, "lit": null, "length_m": 6.0, "type_element": "Way", "__fid": 112921}, "geometry": {"type": "LineString", "coordinates": [[2.3989628, 48.8290864], [2.3989948, 48.8290367]]}}, {"type": "Feature", "properties": {"highway": "footway", "footway": null, "name": null, "surface": null, "lit": null, "length_m": 22.71, "type_element": "Way", "__fid": 112931}, "geometry": {"type": "LineString", "coordinates": [[2.3989664, 48.8292723], [2.3992034, 48.8294036]]}}, {"type": "Feature", "properties": {"highway": "footway", "footway": null, "name": null, "surface": null, "lit": null, "length_m": 8.22, "type_element": "Way", "__fid": 112932}, "geometry": {"type": "LineString", "coordinates": [[2.3990043, 48.82920270000001], [2.3989664, 48.8292723]]}}, {"type": "Feature", "properties": {"highway": "footway", "footway": null, "name": null, "surface": null, "lit": null, "length_m": 7.16, "type_element": "Way", "__fid": 112961}, "geometry": {"type": "LineString", "coordinates": [[2.3989804, 48.8295949], [2.3989605, 48.829611200000016], [2.3990113, 48.8296389]]}}, {"type": "Feature", "properties": {"highway": "footway", "footway": null, "name": null, "surface": null, "lit": null, "length_m": 5.36, "type_element": "Way", "__fid": 112962}, "geometry": {"type": "LineString", "coordinates": [[2.3990263, 48.82955740000001], [2.3989804, 48.8295949]]}}, {"type": "Feature", "properties": {"highway": "footway", "footway": null, "name": null, "surface": null, "lit": null, "length_m": 42.72, "type_element": "Way", "__fid": 112977}, "geometry": {"type": "LineString", "coordinates": [[2.3994323, 48.82929], [2.3989948, 48.8290367]]}}, {"type": "Feature", "properties": {"highway": "footway", "footway": null, "name": null, "surface": null, "lit": null, "length_m": 5.42, "type_element": "Way", "__fid": 112978}, "geometry": {"type": "LineString", "coordinates": [[2.3989948, 48.8290367], [2.3990236, 48.82899179999998]]}}, {"type": "Feature", "properties": {"highway": "service", "footway": null, "name": "Avenue de l'Est", "surface": null, "lit": null, "length_m": 24.1, "type_element": "Way", "__fid": 112989}, "geometry": {"type": "LineString", "coordinates": [[2.3990043, 48.82920270000001], [2.3992501, 48.8293464]]}}, {"type": "Feature", "properties": {"highway": "service", "footway": null, "name": "Allée des Marronniers", "surface": null, "lit": null, "length_m": 13.27, "type_element": "Way", "__fid": 113000}, "geometry": {"type": "LineString", "coordinates": [[2.3991214, 48.82954429999999], [2.3990113, 48.8296389]]}}, {"type": "Feature", "properties": {"highway": "footway", "footway": null, "name": null, "surface": null, "lit": null, "length_m": 44.41, "type_element": "Way", "__fid": 113005}, "geometry": {"type": "LineString", "coordinates": [[2.3990236, 48.82899179999998], [2.39948, 48.829254]]}}, {"type": "Feature", "properties": {"highway": "footway", "footway": null, "name": null, "surface": null, "lit": null, "length_m": 5.57, "type_element": "Way", "__fid": 113006}, "geometry": {"type": "LineString", "coordinates": [[2.3990236, 48.82899179999998], [2.3990615, 48.8289484]]}}, {"type": "Feature", "properties": {"highway": "footway", "footway": null, "name": null, "surface": null, "lit": null, "length_m": 5.64, "type_element": "Way", "__fid": 113017}, "geometry": {"type": "LineString", "coordinates": [[2.3990746, 48.8295179], [2.3990263, 48.82955740000001]]}}, {"type": "Feature", "properties": {"highway": "footway", "footway": null, "name": null, "surface": null, "lit": null, "length_m": 14.94, "type_element": "Way", "__fid": 113048}, "geometry": {"type": "LineString", "coordinates": [[2.3992535, 48.828993], [2.3990615, 48.8289484]]}}, {"type": "Feature", "properties": {"highway": "footway", "footway": null, "name": null, "surface": null, "lit": null, "length_m": 45.51, "type_element": "Way", "__fid": 113049}, "geometry": {"type": "LineString", "coordinates": [[2.3990615, 48.8289484], [2.39953, 48.8292164]]}}, {"type": "Feature", "properties": {"highway": "footway", "footway": null, "name": null, "surface": null, "lit": null, "length_m": 4.52, "type_element": "Way", "__fid": 113068}, "geometry": {"type": "LineString", "coordinates": [[2.3990746, 48.8295179], [2.3991214, 48.82954429999999]]}}, {"type": "Feature", "properties": {"highway": "footway", "footway": null, "name": null, "surface": null, "lit": null, "length_m": 5.68, "type_element": "Way", "__fid": 113088}, "geometry": {"type": "LineString", "coordinates": [[2.3991463, 48.82959570000001], [2.3990989, 48.8296361]]}}, {"type": "Feature", "properties": {"highway": "service", "footway": null, "name": "Allée des Marronniers", "surface": null, "lit": null, "length_m": 17.93, "type_element": "Way", "__fid": 113112}, "geometry": {"type": "LineString", "coordinates": [[2.3992702, 48.8294164], [2.3991214, 48.82954429999999]]}}, {"type": "Feature", "properties": {"highway": "footway", "footway": null, "name": null, "surface": null, "lit": null, "length_m": 40.02, "type_element": "Way", "__fid": 113131}, "geometry": {"type": "LineString", "coordinates": [[2.3991463, 48.82959570000001], [2.3995251, 48.82985449999999]]}}, {"type": "Feature", "properties": {"highway": "footway", "footway": null, "name": null, "surface": null, "lit": null, "length_m": 5.29, "type_element": "Way", "__fid": 113132}, "geometry": {"type": "LineString", "coordinates": [[2.3991904, 48.8295581], [2.3991463, 48.82959570000001]]}}, {"type": "Feature", "properties": {"highway": "footway", "footway": null, "name": null, "surface": null, "lit": null, "length_m": 40.76, "type_element": "Way", "__fid": 113180}, "geometry": {"type": "LineString", "coordinates": [[2.3995778, 48.8298207], [2.3991904, 48.8295581]]}}, {"type": "Feature", "properties": {"highway": "footway", "footway": null, "name": null, "surface": null, "lit": null, "length_m": 5.55, "type_element": "Way", "__fid": 113181}, "geometry": {"type": "LineString", "coordinates": [[2.3992366, 48.8295186], [2.3991904, 48.8295581]]}}, {"type": "Feature", "properties": {"highway": "footway", "footway": null, "name": null, "surface": null, "lit": null, "length_m": 7.23, "type_element": "Way", "__fid": 113185}, "geometry": {"type": "LineString", "coordinates": [[2.3992501, 48.8293464], [2.3992034, 48.8294036]]}}, {"type": "Feature", "properties": {"highway": "footway", "footway": null, "name": null, "surface": null, "lit": null, "length_m": 41.55, "type_element": "Way", "__fid": 113218}, "geometry": {"type": "LineString", "coordinates": [[2.3992366, 48.8295186], [2.3996274, 48.82978890000001]]}}, {"type": "Feature", "properties": {"highway": "footway", "footway": null, "name": null, "surface": null, "lit": null, "length_m": 5.19, "type_element": "Way", "__fid": 113219}, "geometry": {"type": "LineString", "coordinates": [[2.3992799, 48.82948170000002], [2.3992366, 48.8295186]]}}, {"type": "Feature", "properties": {"highway": "footway", "footway": null, "name": null, "surface": null, "lit": null, "length_m": 32.87, "type_element": "Way", "__fid": 113234}, "geometry": {"type": "LineString", "coordinates": [[2.3992535, 48.828993], [2.3994971, 48.8290616], [2.399656, 48.8291214]]}}, {"type": "Feature", "properties": {"highway": "footway", "footway": null, "name": null, "surface": null, "lit": null, "length_m": 31.63, "type_element": "Way", "__fid": 113235}, "geometry": {"type": "LineString", "coordinates": [[2.3995774, 48.8291806], [2.3992535, 48.828993]]}}, {"type": "Feature", "properties": {"highway": "service", "footway": null, "name": "Avenue de l'Est", "surface": null, "lit": null, "length_m": 5.93, "type_element": "Way", "__fid": 113236}, "geometry": {"type": "LineString", "coordinates": [[2.3992501, 48.8293464], [2.3993106, 48.8293817]]}}, {"type": "Feature", "properties": {"highway": "footway", "footway": null, "name": null, "surface": null, "lit": null, "length_m": 5.01, "type_element": "Way", "__fid": 113252}, "geometry": {"type": "LineString", "coordinates": [[2.3992702, 48.8294164], [2.399322, 48.8294457]]}}, {"type": "Feature", "properties": {"highway": "service", "footway": null, "name": "Allée des Marronniers", "surface": null, "lit": null, "length_m": 4.87, "type_element": "Way", "__fid": 113253}, "geometry": {"type": "LineString", "coordinates": [[2.3993106, 48.8293817], [2.3992702, 48.8294164]]}}, {"type": "Feature", "properties": {"highway": "footway", "footway": null, "name": null, "surface": null, "lit": null, "length_m": 42.27, "type_element": "Way", "__fid": 113264}, "geometry": {"type": "LineString", "coordinates": [[2.3996797, 48.8297553], [2.3992799, 48.82948170000002]]}}, {"type": "Feature", "properties": {"highway": "footway", "footway": null, "name": null, "surface": null, "lit": null, "length_m": 5.06, "type_element": "Way", "__fid": 113265}, "geometry": {"type": "LineString", "coordinates": [[2.399322, 48.8294457], [2.3992799, 48.82948170000002]]}}, {"type": "Feature", "properties": {"highway": "service", "footway": null, "name": "Avenue de l'Est", "surface": null, "lit": null, "length_m": 48.86, "type_element": "Way", "__fid": 113285}, "geometry": {"type": "LineString", "coordinates": [[2.3993106, 48.8293817], [2.3998149, 48.8296685]]}}, {"type": "Feature", "properties": {"highway": "service", "footway": null, "name": "Avenue des Acacias", "surface": null, "lit": null, "length_m": 7.98, "type_element": "Way", "__fid": 113286}, "geometry": {"type": "LineString", "coordinates": [[2.3993823, 48.829327699999986], [2.3993106, 48.8293817]]}}, {"type": "Feature", "properties": {"highway": "footway", "footway": null, "name": null, "surface": null, "lit": null, "length_m": 43.03, "type_element": "Way", "__fid": 113301}, "geometry": {"type": "LineString", "coordinates": [[2.399322, 48.8294457], [2.3994208, 48.8295016], [2.3997406, 48.8297162]]}}, {"type": "Feature", "properties": {"highway": "footway", "footway": null, "name": null, "surface": null, "lit": null, "length_m": 53.61, "type_element": "Way", "__fid": 113357}, "geometry": {"type": "LineString", "coordinates": [[2.3999329, 48.8296444], [2.3993823, 48.829327699999986]]}}, {"type": "Feature", "properties": {"highway": "service", "footway": null, "name": "Avenue des Acacias", "surface": null, "lit": null, "length_m": 5.57, "type_element": "Way", "__fid": 113358}, "geometry": {"type": "LineString", "coordinates": [[2.3994323, 48.82929], [2.3993823, 48.829327699999986]]}}, {"type": "Feature", "properties": {"highway": "footway", "footway": null, "name": null, "surface": null, "lit": null, "length_m": 53.59, "type_element": "Way", "__fid": 113395}, "geometry": {"type": "LineString", "coordinates": [[2.3999811, 48.8296078], [2.3994323, 48.82929]]}}, {"type": "Feature", "properties": {"highway": "service", "footway": null, "name": "Avenue des Acacias", "surface": null, "lit": null, "length_m": 5.32, "type_element": "Way", "__fid": 113396}, "geometry": {"type": "LineString", "coordinates": [[2.39948, 48.829254], [2.3994323, 48.82929]]}}, {"type": "Feature", "properties": {"highway": "footway", "footway": null, "name": null, "surface": null, "lit": null, "length_m": 53.58, "type_element": "Way", "__fid": 113439}, "geometry": {"type": "LineString", "coordinates": [[2.39948, 48.829254], [2.4000306, 48.829570299999986]]}}, {"type": "Feature", "properties": {"highway": "service", "footway": null, "name": "Avenue des Acacias", "surface": null, "lit": null, "length_m": 5.56, "type_element": "Way", "__fid": 113440}, "geometry": {"type": "LineString", "coordinates": [[2.39953, 48.8292164], [2.39948, 48.829254]]}}, {"type": "Feature", "properties": {"highway": "footway", "footway": null, "name": null, "surface": null, "lit": null, "length_m": 53.56, "type_element": "Way", "__fid": 113482}, "geometry": {"type": "LineString", "coordinates": [[2.39953, 48.8292164], [2.4000762, 48.8295358]]}}, {"type": "Feature", "properties": {"highway": "service", "footway": null, "name": "Avenue des Acacias", "surface": null, "lit": null, "length_m": 5.29, "type_element": "Way", "__fid": 113483}, "geometry": {"type": "LineString", "coordinates": [[2.3995774, 48.8291806], [2.39953, 48.8292164]]}}, {"type": "Feature", "properties": {"highway": "footway", "footway": null, "name": null, "surface": null, "lit": null, "length_m": 53.55, "type_element": "Way", "__fid": 113513}, "geometry": {"type": "LineString", "coordinates": [[2.4001258, 48.82949820000001], [2.3995774, 48.8291806]]}}, {"type": "Feature", "properties": {"highway": "service", "footway": null, "name": "Avenue des Acacias", "surface": null, "lit": null, "length_m": 5.21, "type_element": "Way", "__fid": 113514}, "geometry": {"type": "LineString", "coordinates": [[2.3996242, 48.8291454], [2.3995774, 48.8291806]]}}, {"type": "Feature", "properties": {"highway": "footway", "footway": null, "name": null, "surface": null, "lit": null, "length_m": 53.54, "type_element": "Way", "__fid": 113552}, "geometry": {"type": "LineString", "coordinates": [[2.3996242, 48.8291454], [2.4001731, 48.8294624]]}}, {"type": "Feature", "properties": {"highway": "service", "footway": null, "name": "Avenue des Acacias", "surface": null, "lit": null, "length_m": 3.55, "type_element": "Way", "__fid": 113553}, "geometry": {"type": "LineString", "coordinates": [[2.399656, 48.8291214], [2.3996242, 48.8291454]]}}, {"type": "Feature", "properties": {"highway": "footway", "footway": null, "name": "Allée du Columbarium", "surface": null, "lit": null, "length_m": 61.52, "type_element": "Way", "__fid": 113586}, "geometry": {"type": "LineString", "coordinates": [[2.4002222, 48.8294252], [2.4002869, 48.8293761], [2.399656, 48.8291214]]}}, {"type": "Feature", "properties": {"highway": "footway", "footway": null, "name": null, "surface": null, "lit": null, "length_m": 5.39, "type_element": "Way", "__fid": 113803}, "geometry": {"type": "LineString", "coordinates": [[2.3999329, 48.8296444], [2.3999811, 48.8296078]]}}, {"type": "Feature", "properties": {"highway": "footway", "footway": null, "name": null, "surface": null, "lit": null, "length_m": 39.1, "type_element": "Way", "__fid": 113814}, "geometry": {"type": "LineString", "coordinates": [[2.4003814, 48.8298397], [2.3999811, 48.8296078]]}}, {"type": "Feature", "properties": {"highway": "footway", "footway": null, "name": null, "surface": null, "lit": null, "length_m": 5.53, "type_element": "Way", "__fid": 113815}, "geometry": {"type": "LineString", "coordinates": [[2.3999811, 48.8296078], [2.4000306, 48.829570299999986]]}}, {"type": "Feature", "properties": {"highway": "footway", "footway": null, "name": null, "surface": null, "lit": null, "length_m": 39.59, "type_element": "Way", "__fid": 113837}, "geometry": {"type": "LineString", "coordinates": [[2.4000306, 48.829570299999986], [2.4004375, 48.829804]]}}, {"type": "Feature", "properties": {"highway": "footway", "footway": null, "name": null, "surface": null, "lit": null, "length_m": 5.09, "type_element": "Way", "__fid": 113838}, "geometry": {"type": "LineString", "coordinates": [[2.4000306, 48.829570299999986], [2.4000762, 48.8295358]]}}, {"type": "Feature", "properties": {"highway": "footway", "footway": null, "name": null, "surface": null, "lit": null, "length_m": 40.07, "type_element": "Way", "__fid": 113858}, "geometry": {"type": "LineString", "coordinates": [[2.4000762, 48.8295358], [2.4004905, 48.8297704]]}}, {"type": "Feature", "properties": {"highway": "footway", "footway": null, "name": null, "surface": null, "lit": null, "length_m": 5.54, "type_element": "Way", "__fid": 113859}, "geometry": {"type": "LineString", "coordinates": [[2.4000762, 48.8295358], [2.4001258, 48.82949820000001]]}}, {"type": "Feature", "properties": {"highway": "footway", "footway": null, "name": null, "surface": null, "lit": null, "length_m": 40.52, "type_element": "Way", "__fid": 113888}, "geometry": {"type": "LineString", "coordinates": [[2.4005407, 48.8297385], [2.4001258, 48.82949820000001]]}}, {"type": "Feature", "properties": {"highway": "footway", "footway": null, "name": null, "surface": null, "lit": null, "length_m": 5.28, "type_element": "Way", "__fid": 113889}, "geometry": {"type": "LineString", "coordinates": [[2.4001258, 48.82949820000001], [2.4001731, 48.8294624]]}}, {"type": "Feature", "properties": {"highway": "footway", "footway": null, "name": null, "surface": null, "lit": null, "length_m": 22.95, "type_element": "Way", "__fid": 113911}, "geometry": {"type": "LineString", "coordinates": [[2.4001731, 48.8294624], [2.4004084, 48.8295983]]}}, {"type": "Feature", "properties": {"highway": "footway", "footway": null, "name": null, "surface": null, "lit": null, "length_m": 5.49, "type_element": "Way", "__fid": 113912}, "geometry": {"type": "LineString", "coordinates": [[2.4001731, 48.8294624], [2.4002222, 48.8294252]]}}, {"type": "Feature", "properties": {"highway": "footway", "footway": null, "name": null, "surface": null, "lit": null, "length_m": 28.53, "type_element": "Way", "__fid": 113944}, "geometry": {"type": "LineString", "coordinates": [[2.4004084, 48.8295983], [2.4004569, 48.8295515], [2.4002222, 48.8294252]]}}, {"type": "Feature", "properties": {"highway": "footway", "footway": null, "name": null, "surface": null, "lit": null, "length_m": 18.04, "type_element": "Way", "__fid": 114045}, "geometry": {"type": "LineString", "coordinates": [[2.4004084, 48.8295983], [2.4005933, 48.8297051]]}}, {"type": "Feature", "properties": {"highway": "footway", "footway": "sidewalk", "name": "Avenue de la Porte de Charenton", "surface": null, "lit": null, "length_m": 51.3, "type_element": "Way", "__fid": 114220}, "geometry": {"type": "LineString", "coordinates": [[2.4007504, 48.82969270000001], [2.4012627, 48.8293789]]}}, {"type": "Feature", "properties": {"highway": "footway", "footway": "traffic_island", "name": null, "surface": null, "lit": null, "length_m": 50.03, "type_element": "Way", "__fid": 114405}, "geometry": {"type": "LineString", "coordinates": [[2.4010684, 48.8298497], [2.4013979, 48.8296351], [2.4015197, 48.8295152]]}}, {"type": "Feature", "properties": {"highway": "footway", "footway": "crossing", "name": null, "surface": null, "lit": "yes", "length_m": 24.23, "type_element": "Way", "__fid": 114514}, "geometry": {"type": "LineString", "coordinates": [[2.4012627, 48.8293789], [2.401347, 48.829417], [2.4015197, 48.8295152]]}}, {"type": "Feature", "properties": {"highway": "footway", "footway": "sidewalk", "name": null, "surface": null, "lit": null, "length_m": 120.9, "type_element": "Way", "__fid": 114515}, "geometry": {"type": "LineString", "coordinates": [[2.4012627, 48.8293789], [2.4013148, 48.8293541], [2.4024432, 48.82862140000001]]}}, {"type": "Feature", "properties": {"highway": "footway", "footway": "sidewalk", "name": null, "surface": null, "lit": null, "length_m": 137.99, "type_element": "Way", "__fid": 114636}, "geometry": {"type": "LineString", "coordinates": [[2.4032612, 48.8291927], [2.4028714, 48.8293356], [2.4025757, 48.829427399999986], [2.4022212, 48.8295116], [2.4019008, 48.8295567], [2.4016975, 48.8295661], [2.4016101, 48.8295571], [2.4015197, 48.8295152]]}}, {"type": "Feature", "properties": {"highway": "footway", "footway": "sidewalk", "name": null, "surface": null, "lit": null, "length_m": 148.87, "type_element": "Way", "__fid": 114637}, "geometry": {"type": "LineString", "coordinates": [[2.4015197, 48.8295152], [2.4015455, 48.8294782], [2.4029453, 48.8285666]]}}, {"type": "Feature", "properties": {"highway": "path", "footway": null, "name": null, "surface": "dirt", "lit": null, "length_m": 131.86, "type_element": "Way", "__fid": 114788}, "geometry": {"type": "LineString", "coordinates": [[2.4034595, 48.8293554], [2.4033421, 48.8294128], [2.4030395, 48.8294917], [2.4028039, 48.82957730000001], [2.4025297, 48.8296588], [2.4021499, 48.8297471], [2.4018818, 48.8297872], [2.4018043, 48.829786]]}}, {"type": "Feature", "properties": {"highway": "path", "footway": null, "name": "Avenue de Gravelle", "surface": "asphalt", "lit": "yes", "length_m": 127.77, "type_element": "Way", "__fid": 114810}, "geometry": {"type": "LineString", "coordinates": [[2.4018517, 48.829761], [2.4027141, 48.8295433], [2.4032492, 48.829360499999986], [2.4033317, 48.8293447], [2.4034595, 48.8293554]]}}, {"type": "Feature", "properties": {"highway": "footway", "footway": "crossing", "name": "Avenue de Gravelle", "surface": "asphalt", "lit": "yes", "length_m": 17.11, "type_element": "Way", "__fid": 115451}, "geometry": {"type": "LineString", "coordinates": [[2.4034595, 48.8293554], [2.4035072, 48.8293669], [2.4036679, 48.8293101]]}}, {"type": "Feature", "properties": {"highway": "footway", "footway": "crossing", "name": null, "surface": null, "lit": null, "length_m": 14.32, "type_element": "Way", "__fid": 115514}, "geometry": {"type": "LineString", "coordinates": [[2.4035985, 48.8291897], [2.4036679, 48.8293101]]}}, {"type": "Feature", "properties": {"highway": "footway", "footway": "crossing", "name": "Avenue de Gravelle", "surface": "asphalt", "lit": "yes", "length_m": 12.35, "type_element": "Way", "__fid": 115540}, "geometry": {"type": "LineString", "coordinates": [[2.4036679, 48.8293101], [2.4038157, 48.8292571]]}}, {"type": "Feature", "properties": {"highway": "path", "footway": null, "name": null, "surface": null, "lit": null, "length_m": 55.37, "type_element": "Way", "__fid": 115623}, "geometry": {"type": "LineString", "coordinates": [[2.4038157, 48.8292571], [2.4039628, 48.8294104], [2.4040552, 48.8294597], [2.404388, 48.8295513]]}}, {"type": "Feature", "properties": {"highway": "path", "footway": null, "name": "Avenue de Gravelle", "surface": "asphalt", "lit": "yes", "length_m": 129.59, "type_element": "Way", "__fid": 115624}, "geometry": {"type": "LineString", "coordinates": [[2.4038157, 48.8292571], [2.4038156, 48.829208], [2.4039627, 48.8291072], [2.4041156, 48.82897830000001], [2.404241, 48.8289015], [2.4046956, 48.8286631], [2.4050396, 48.8284428]]}}, {"type": "Feature", "properties": {"highway": "service", "footway": null, "name": "Route de Reuilly", "surface": "asphalt", "lit": "yes", "length_m": 13.0, "type_element": "Way", "__fid": 115852}, "geometry": {"type": "LineString", "coordinates": [[2.404388, 48.8295513], [2.4043303, 48.8296618]]}}, {"type": "Feature", "properties": {"highway": "footway", "footway": null, "name": null, "surface": null, "lit": null, "length_m": 24.3, "type_element": "Way", "__fid": 115885}, "geometry": {"type": "LineString", "coordinates": [[2.4047055, 48.829561], [2.4045543, 48.8295868], [2.404388, 48.8295513]]}}, {"type": "Feature", "properties": {"highway": "service", "footway": null, "name": "Route de Reuilly", "surface": "asphalt", "lit": "yes", "length_m": 43.1, "type_element": "Way", "__fid": 115886}, "geometry": {"type": "LineString", "coordinates": [[2.4046138, 48.8291935], [2.404388, 48.8295513]]}}, {"type": "Feature", "properties": {"highway": "path", "footway": null, "name": null, "surface": null, "lit": null, "length_m": 81.11, "type_element": "Way", "__fid": 116034}, "geometry": {"type": "LineString", "coordinates": [[2.4046138, 48.8291935], [2.4046788, 48.8292188], [2.4056599, 48.8290131]]}}, {"type": "Feature", "properties": {"highway": "service", "footway": null, "name": "Route de Reuilly", "surface": "asphalt", "lit": "yes", "length_m": 81.81, "type_element": "Way", "__fid": 116035}, "geometry": {"type": "LineString", "coordinates": [[2.4050746, 48.8285236], [2.4046138, 48.8291935]]}}, {"type": "Feature", "properties": {"highway": "pedestrian", "footway": null, "name": null, "surface": null, "lit": null, "length_m": 148.71, "type_element": "Way", "__fid": 116098}, "geometry": {"type": "LineString", "coordinates": [[2.4065562, 48.8301048], [2.4047055, 48.829561]]}}, {"type": "Feature", "properties": {"highway": "pedestrian", "footway": null, "name": null, "surface": null, "lit": null, "length_m": 91.23, "type_element": "Way", "__fid": 116099}, "geometry": {"type": "LineString", "coordinates": [[2.4047055, 48.829561], [2.4048342, 48.8293561], [2.4057322, 48.829273]]}}, {"type": "Feature", "properties": {"highway": "service", "footway": null, "name": "Route de Reuilly", "surface": "asphalt", "lit": "yes", "length_m": 7.31, "type_element": "Way", "__fid": 116218}, "geometry": {"type": "LineString", "coordinates": [[2.4049721, 48.8283945], [2.4050396, 48.8284428]]}}, {"type": "Feature", "properties": {"highway": "service", "footway": null, "name": "Route de Reuilly", "surface": "asphalt", "lit": "yes", "length_m": 4.2, "type_element": "Way", "__fid": 116257}, "geometry": {"type": "LineString", "coordinates": [[2.4050396, 48.8284428], [2.4050752, 48.8284724]]}}, {"type": "Feature", "properties": {"highway": "path", "footway": null, "name": "Avenue de Gravelle", "surface": "asphalt", "lit": "yes", "length_m": 29.37, "type_element": "Way", "__fid": 116258}, "geometry": {"type": "LineString", "coordinates": [[2.4050396, 48.8284428], [2.4053267, 48.8282588]]}}, {"type": "Feature", "properties": {"highway": "path", "footway": null, "name": null, "surface": null, "lit": null, "length_m": 69.59, "type_element": "Way", "__fid": 116280}, "geometry": {"type": "LineString", "coordinates": [[2.4056599, 48.8290131], [2.4052455, 48.8286706], [2.4051315, 48.8285523], [2.4050746, 48.8285236]]}}, {"type": "Feature", "properties": {"highway": "service", "footway": null, "name": "Route de Reuilly", "surface": "asphalt", "lit": "yes", "length_m": 5.69, "type_element": "Way", "__fid": 116281}, "geometry": {"type": "LineString", "coordinates": [[2.4050752, 48.8284724], [2.4050746, 48.8285236]]}}, {"type": "Feature", "properties": {"highway": "path", "footway": null, "name": null, "surface": null, "lit": null, "length_m": 54.36, "type_element": "Way", "__fid": 116282}, "geometry": {"type": "LineString", "coordinates": [[2.4057792, 48.82833329999998], [2.4054547, 48.8283695], [2.4053581, 48.8283987], [2.4052468, 48.828419], [2.4050752, 48.8284724]]}}, {"type": "Feature", "properties": {"highway": "footway", "footway": null, "name": null, "surface": null, "lit": null, "length_m": 7.38, "type_element": "Way", "__fid": 116362}, "geometry": {"type": "LineString", "coordinates": [[2.4052575, 48.8282106], [2.4053267, 48.8282588]]}}, {"type": "Feature", "properties": {"highway": "footway", "footway": null, "name": null, "surface": null, "lit": null, "length_m": 34.37, "type_element": "Way", "__fid": 116396}, "geometry": {"type": "LineString", "coordinates": [[2.4053267, 48.8282588], [2.4054573, 48.82827420000001], [2.40568, 48.8283245], [2.4057792, 48.82833329999998]]}}, {"type": "Feature", "properties": {"highway": "path", "footway": null, "name": "Avenue de Gravelle", "surface": "asphalt", "lit": "yes", "length_m": 137.87, "type_element": "Way", "__fid": 116397}, "geometry": {"type": "LineString", "coordinates": [[2.4053267, 48.8282588], [2.405625, 48.8280671], [2.4057819, 48.8279458], [2.40649, 48.82735250000002], [2.4065584, 48.8273745]]}}, {"type": "Feature", "properties": {"highway": "path", "footway": null, "name": null, "surface": null, "lit": null, "length_m": 29.41, "type_element": "Way", "__fid": 116568}, "geometry": {"type": "LineString", "coordinates": [[2.4057322, 48.829273], [2.4057088, 48.8291569], [2.4056599, 48.8290131]]}}, {"type": "Feature", "properties": {"highway": "path", "footway": null, "name": null, "surface": null, "lit": null, "length_m": 50.16, "type_element": "Way", "__fid": 116569}, "geometry": {"type": "LineString", "coordinates": [[2.4056599, 48.8290131], [2.405857, 48.8289862], [2.4060246, 48.8289942], [2.406152, 48.8289844], [2.4063324, 48.82895530000001]]}}, {"type": "Feature", "properties": {"highway": "pedestrian", "footway": null, "name": null, "surface": null, "lit": null, "length_m": 91.44, "type_element": "Way", "__fid": 116604}, "geometry": {"type": "LineString", "coordinates": [[2.4057322, 48.829273], [2.4069657, 48.829158900000024]]}}, {"type": "Feature", "properties": {"highway": "footway", "footway": null, "name": null, "surface": null, "lit": null, "length_m": 51.13, "type_element": "Way", "__fid": 116616}, "geometry": {"type": "LineString", "coordinates": [[2.4057792, 48.82833329999998], [2.4061574, 48.828351], [2.4064699, 48.8283872]]}}, {"type": "Feature", "properties": {"highway": "path", "footway": null, "name": null, "surface": null, "lit": null, "length_m": 62.41, "type_element": "Way", "__fid": 116617}, "geometry": {"type": "LineString", "coordinates": [[2.4064927, 48.8280287], [2.4060582, 48.8282247], [2.4057792, 48.82833329999998]]}}, {"type": "Feature", "properties": {"highway": "path", "footway": null, "name": null, "surface": null, "lit": null, "length_m": 64.01, "type_element": "Way", "__fid": 116892}, "geometry": {"type": "LineString", "coordinates": [[2.4064699, 48.8283872], [2.4064028, 48.8287249], [2.4063324, 48.82895530000001]]}}, {"type": "Feature", "properties": {"highway": "path", "footway": null, "name": null, "surface": null, "lit": null, "length_m": 45.47, "type_element": "Way", "__fid": 116893}, "geometry": {"type": "LineString", "coordinates": [[2.4063324, 48.82895530000001], [2.4065289, 48.8289226], [2.4067582, 48.8289151], [2.4068675, 48.8288922], [2.4069259, 48.8288639]]}}, {"type": "Feature", "properties": {"highway": "footway", "footway": null, "name": null, "surface": null, "lit": null, "length_m": 39.49, "type_element": "Way", "__fid": 116958}, "geometry": {"type": "LineString", "coordinates": [[2.4064699, 48.8283872], [2.4067166, 48.8284552], [2.4069715, 48.8285152]]}}, {"type": "Feature", "properties": {"highway": "path", "footway": null, "name": null, "surface": null, "lit": null, "length_m": 39.9, "type_element": "Way", "__fid": 116959}, "geometry": {"type": "LineString", "coordinates": [[2.4064927, 48.8280287], [2.4064699, 48.8283872]]}}, {"type": "Feature", "properties": {"highway": "path", "footway": null, "name": null, "surface": null, "lit": null, "length_m": 72.96, "type_element": "Way", "__fid": 116964}, "geometry": {"type": "LineString", "coordinates": [[2.4065584, 48.8273745], [2.4065369, 48.8274549], [2.4064927, 48.8280287]]}}, {"type": "Feature", "properties": {"highway": "path", "footway": null, "name": null, "surface": null, "lit": null, "length_m": 8.85, "type_element": "Way", "__fid": 116965}, "geometry": {"type": "LineString", "coordinates": [[2.4066, 48.8279925], [2.4064927, 48.8280287]]}}, {"type": "Feature", "properties": {"highway": "service", "footway": null, "name": "Route de la Plaine", "surface": "asphalt", "lit": "yes", "length_m": 99.11, "type_element": "Way", "__fid": 117015}, "geometry": {"type": "LineString", "coordinates": [[2.4078237, 48.8270641], [2.4073353, 48.8271773], [2.4065584, 48.8273745]]}}, {"type": "Feature", "properties": {"highway": "path", "footway": null, "name": null, "surface": null, "lit": null, "length_m": 59.4, "type_element": "Way", "__fid": 117059}, "geometry": {"type": "LineString", "coordinates": [[2.4069728, 48.82846580000002], [2.4067099, 48.8281612], [2.4066, 48.8279925]]}}, {"type": "Feature", "properties": {"highway": "path", "footway": null, "name": null, "surface": null, "lit": null, "length_m": 110.14, "type_element": "Way", "__fid": 117060}, "geometry": {"type": "LineString", "coordinates": [[2.4078961, 48.8275005], [2.4078096, 48.8275176], [2.4076246, 48.82758290000001], [2.407469, 48.82766680000001], [2.4066, 48.8279925]]}}, {"type": "Feature", "properties": {"highway": "footway", "footway": null, "name": null, "surface": null, "lit": null, "length_m": 33.54, "type_element": "Way", "__fid": 117293}, "geometry": {"type": "LineString", "coordinates": [[2.4069657, 48.829158900000024], [2.4069494, 48.82901840000002], [2.4069692, 48.8289812], [2.4069589, 48.828928400000024], [2.4069259, 48.8288639]]}}, {"type": "Feature", "properties": {"highway": "path", "footway": null, "name": null, "surface": null, "lit": null, "length_m": 39.72, "type_element": "Way", "__fid": 117294}, "geometry": {"type": "LineString", "coordinates": [[2.4069259, 48.8288639], [2.4069668, 48.8288167], [2.4069849, 48.8287562], [2.4069715, 48.8285152]]}}, {"type": "Feature", "properties": {"highway": "pedestrian", "footway": null, "name": null, "surface": null, "lit": null, "length_m": 101.93, "type_element": "Way", "__fid": 117311}, "geometry": {"type": "LineString", "coordinates": [[2.4069399, 48.8297943], [2.4078115, 48.8290807]]}}, {"type": "Feature", "properties": {"highway": "path", "footway": null, "name": null, "surface": null, "lit": null, "length_m": 5.49, "type_element": "Way", "__fid": 117314}, "geometry": {"type": "LineString", "coordinates": [[2.4069715, 48.8285152], [2.4069728, 48.82846580000002]]}}, {"type": "Feature", "properties": {"highway": "path", "footway": null, "name": null, "surface": null, "lit": null, "length_m": 108.8, "type_element": "Way", "__fid": 117316}, "geometry": {"type": "LineString", "coordinates": [[2.4069728, 48.82846580000002], [2.4070117, 48.82840660000002], [2.4071793, 48.8282036], [2.4075146, 48.8279237], [2.4076447, 48.827838], [2.4077198, 48.82782129999999], [2.4079487, 48.8278034]]}}, {"type": "Feature", "properties": {"highway": "pedestrian", "footway": null, "name": null, "surface": null, "lit": null, "length_m": 62.7, "type_element": "Way", "__fid": 117318}, "geometry": {"type": "LineString", "coordinates": [[2.4069657, 48.829158900000024], [2.4078115, 48.8290807]]}}]}