{"type": "FeatureCollection", "features": [{"type": "Feature", "properties": {"highway": "footway", "footway": "sidewalk", "name": null, "surface": "paving_stones", "lit": null, "length_m": 291.73, "type_element": "Way", "__fid": 112168}, "geometry": {"type": "LineString", "coordinates": [[2.3976437, 48.8898205], [2.3990393, 48.8902175], [2.4008037, 48.89067760000001], [2.4013154, 48.89082970000002]]}}, {"type": "Feature", "properties": {"highway": "footway", "footway": "sidewalk", "name": null, "surface": "asphalt", "lit": "yes", "length_m": 402.96, "type_element": "Way", "__fid": 112546}, "geometry": {"type": "LineString", "coordinates": [[2.3979432, 48.88955149999999], [2.4014233, 48.8896578], [2.4016433, 48.8896704], [2.401664, 48.8896914], [2.4016649, 48.889745900000015], [2.4016461, 48.8899252], [2.401585, 48.8899833], [2.4013849, 48.8908239]]}}, {"type": "Feature", "properties": {"highway": "footway", "footway": "sidewalk", "name": null, "surface": "asphalt", "lit": "yes", "length_m": 51.24, "type_element": "Way", "__fid": 112596}, "geometry": {"type": "LineString", "coordinates": [[2.3979914, 48.88942119999999], [2.3986891, 48.8894462]]}}, {"type": "Feature", "properties": {"highway": "footway", "footway": "sidewalk", "name": null, "surface": "asphalt", "lit": null, "length_m": 304.68, "type_element": "Way", "__fid": 112608}, "geometry": {"type": "LineString", "coordinates": [[2.4006461, 48.895698399999986], [2.3997786, 48.8952187], [2.3995363, 48.895047900000016], [2.398961, 48.8945277], [2.3987692, 48.8943725], [2.3980779, 48.893730599999984], [2.3980139, 48.8936755], [2.3979471, 48.8936364]]}}, {"type": "Feature", "properties": {"highway": "footway", "footway": "sidewalk", "name": null, "surface": "asphalt", "lit": null, "length_m": 330.91, "type_element": "Way", "__fid": 112905}, "geometry": {"type": "LineString", "coordinates": [[2.3982016, 48.892779], [2.3980643, 48.8933726], [2.3980652, 48.893450500000014], [2.3980981, 48.8934981], [2.3981602, 48.8935432], [2.3985467, 48.8938895], [2.398657, 48.8940028], [2.3987152, 48.894008700000015], [2.3987611, 48.8939983], [2.3988185, 48.8939556], [2.3989248, 48.8938277], [2.3991279, 48.8936286], [2.3991289, 48.8936026], [2.3990959, 48.8935686], [2.39889, 48.8934975], [2.3986182, 48.893367], [2.3985223, 48.8933107], [2.3984207, 48.89321060000001], [2.3982871, 48.89303679999998], [2.3982119, 48.8928538], [2.3982016, 48.892779]]}}, {"type": "Feature", "properties": {"highway": "footway", "footway": "sidewalk", "name": null, "surface": "paving_stones", "lit": null, "length_m": 36.06, "type_element": "Way", "__fid": 112999}, "geometry": {"type": "LineString", "coordinates": [[2.3983061, 48.890619], [2.3985224, 48.8905472], [2.3987625, 48.8905921]]}}, {"type": "Feature", "properties": {"highway": "service", "footway": null, "name": null, "surface": "asphalt", "lit": null, "length_m": 26.37, "type_element": "Way", "__fid": 113066}, "geometry": {"type": "LineString", "coordinates": [[2.398351, 48.8922047], [2.3987062, 48.8922416]]}}, {"type": "Feature", "properties": {"highway": "footway", "footway": "sidewalk", "name": null, "surface": "asphalt", "lit": null, "length_m": 170.77, "type_element": "Way", "__fid": 113067}, "geometry": {"type": "LineString", "coordinates": [[2.398351, 48.8922047], [2.3984932, 48.8916257], [2.3986522, 48.89153550000001], [2.3987573, 48.8910091], [2.398819, 48.890845], [2.3988993, 48.8907476]]}}, {"type": "Feature", "properties": {"highway": "footway", "footway": "sidewalk", "name": null, "surface": "asphalt", "lit": null, "length_m": 430.12, "type_element": "Way", "__fid": 113103}, "geometry": {"type": "LineString", "coordinates": [[2.4007594, 48.8909285], [2.4000817, 48.8926257], [2.3999535, 48.892983], [2.3993719, 48.8934959], [2.3992835, 48.8934988], [2.3989593, 48.8933864], [2.3987765, 48.89326730000001], [2.3985997, 48.8931113], [2.3984921, 48.8929524], [2.3983866, 48.8926943]]}}, {"type": "Feature", "properties": {"highway": "footway", "footway": "sidewalk", "name": null, "surface": "asphalt", "lit": "yes", "length_m": 102.34, "type_element": "Way", "__fid": 113230}, "geometry": {"type": "LineString", "coordinates": [[2.3986891, 48.8894462], [2.3986942, 48.8893487], [2.3986613, 48.8893082], [2.3985607, 48.88853419999999]]}}, {"type": "Feature", "properties": {"highway": "footway", "footway": "crossing", "name": null, "surface": "asphalt", "lit": "yes", "length_m": 18.95, "type_element": "Way", "__fid": 113359}, "geometry": {"type": "LineString", "coordinates": [[2.3986891, 48.8894462], [2.398717, 48.8894716], [2.3989242, 48.8894973]]}}, {"type": "Feature", "properties": {"highway": "footway", "footway": "sidewalk", "name": null, "surface": "asphalt", "lit": "yes", "length_m": 260.24, "type_element": "Way", "__fid": 113547}, "geometry": {"type": "LineString", "coordinates": [[2.399125166666679, 48.888482500000094], [2.3995312, 48.8884691], [2.3999119, 48.8884467], [2.3999533, 48.8884622], [2.3999589, 48.8887911], [2.3999852, 48.8888134], [2.399993, 48.8889464], [2.3999827, 48.889234499999986], [2.399994, 48.8895375], [2.3990365, 48.8895106], [2.3989242, 48.8894973]]}}, {"type": "Feature", "properties": {"highway": "footway", "footway": "sidewalk", "name": null, "surface": "asphalt", "lit": "yes", "length_m": 111.19, "type_element": "Way", "__fid": 113548}, "geometry": {"type": "LineString", "coordinates": [[2.3991175, 48.8885055], [2.3989242, 48.8894973]]}}]}