{"type": "FeatureCollection", "features": [{"type": "Feature", "properties": {"@id": "node/9914278787", "access": "yes", "amenity": "drinking_water", "drinking_water": "yes", "fountain": "drinking", "wheelchair": "yes", "type_element": "Fontaines à boire", "__fid": 826}, "geometry": {"type": "Point", "coordinates": [2.3997835, 48.8828185]}, "id": "node/9914278787"}, {"type": "Feature", "properties": {"highway": "footway", "footway": null, "name": "Allée Michel Serrault", "surface": "compacted", "lit": null, "length_m": 138.71, "type_element": "Way", "__fid": 111616}, "geometry": {"type": "LineString", "coordinates": [[2.3986278, 48.882549500000025], [2.3985162, 48.8825976], [2.3980488, 48.8826479], [2.3978342, 48.8827063], [2.3973492, 48.8829091], [2.3972155, 48.8829221], [2.3971215, 48.88291419999998], [2.3970624, 48.88289179999999], [2.3970037, 48.882844], [2.3969665, 48.8827923]]}}, {"type": "Feature", "properties": {"highway": "footway", "footway": "sidewalk", "name": null, "surface": "asphalt", "lit": "yes", "length_m": 179.25, "type_element": "Way", "__fid": 111829}, "geometry": {"type": "LineString", "coordinates": [[2.399459099999889, 48.88259395], [2.3982161, 48.882742600000014], [2.3980591, 48.8827725], [2.3977795, 48.88285279999998], [2.397567, 48.88295020000001], [2.3974228, 48.8830274], [2.3972383, 48.8831557]]}}, {"type": "Feature", "properties": {"highway": "footway", "footway": "sidewalk", "name": null, "surface": "asphalt", "lit": "yes", "length_m": 191.61, "type_element": "Way", "__fid": 111896}, "geometry": {"type": "LineString", "coordinates": [[2.3973329, 48.88358479999998], [2.397348, 48.8834992], [2.3974342, 48.88339160000001], [2.3975468, 48.88328850000001], [2.3976628, 48.8832051], [2.3978332, 48.88311689999998], [2.398037, 48.8830389], [2.3982275, 48.8829913], [2.3984051, 48.882964800000025], [2.3989879, 48.8828951], [2.3990126, 48.8828787], [2.399357, 48.8828472], [2.3994736, 48.882828]]}}, {"type": "Feature", "properties": {"highway": "footway", "footway": "sidewalk", "name": null, "surface": "asphalt", "lit": "yes", "length_m": 153.03, "type_element": "Way", "__fid": 112260}, "geometry": {"type": "LineString", "coordinates": [[2.3977595, 48.885971], [2.3979083, 48.88562850000001], [2.3980115, 48.885450800000015], [2.3981698, 48.8852282], [2.3983374, 48.8850271], [2.3986315, 48.8847306]]}}, {"type": "Feature", "properties": {"highway": "footway", "footway": "sidewalk", "name": null, "surface": null, "lit": null, "length_m": 35.15, "type_element": "Way", "__fid": 112693}, "geometry": {"type": "LineString", "coordinates": [[2.3980886, 48.8884738], [2.3985663, 48.8884479]]}}, {"type": "Feature", "properties": {"highway": "footway", "footway": "sidewalk", "name": null, "surface": null, "lit": null, "length_m": 36.11, "type_element": "Way", "__fid": 112698}, "geometry": {"type": "LineString", "coordinates": [[2.3980917, 48.8885359], [2.398551, 48.8885141], [2.3985607, 48.88853419999999]]}}, {"type": "Feature", "properties": {"highway": "footway", "footway": null, "name": null, "surface": "concrete", "lit": null, "length_m": 37.79, "type_element": "Way", "__fid": 112737}, "geometry": {"type": "LineString", "coordinates": [[2.3981254, 48.8878346], [2.3982268, 48.8878885], [2.3982648, 48.8878955], [2.3983757, 48.8878788], [2.3984148, 48.887883], [2.3985395, 48.8879156], [2.3985833, 48.8879408]]}}, {"type": "Feature", "properties": {"highway": "footway", "footway": "sidewalk", "name": null, "surface": "asphalt", "lit": "yes", "length_m": 29.17, "type_element": "Way", "__fid": 112739}, "geometry": {"type": "LineString", "coordinates": [[2.3981254, 48.8878346], [2.398511, 48.8877703]]}}, {"type": "Feature", "properties": {"highway": "pedestrian", "footway": null, "name": "Rue des Cheminets", "surface": null, "lit": null, "length_m": 80.56, "type_element": "Way", "__fid": 112742}, "geometry": {"type": "LineString", "coordinates": [[2.3991945, 48.8876351], [2.3981271, 48.8878064]]}}, {"type": "Feature", "properties": {"highway": "footway", "footway": "sidewalk", "name": null, "surface": "asphalt", "lit": "yes", "length_m": 275.61, "type_element": "Way", "__fid": 112746}, "geometry": {"type": "LineString", "coordinates": [[2.3981292, 48.8877577], [2.3994329, 48.8875536], [2.3994546, 48.8875214], [2.3988837, 48.8860078]]}}, {"type": "Feature", "properties": {"highway": "footway", "footway": "sidewalk", "name": null, "surface": "asphalt", "lit": "yes", "length_m": 130.81, "type_element": "Way", "__fid": 112788}, "geometry": {"type": "LineString", "coordinates": [[2.398834, 48.8848133], [2.3984125, 48.8852405], [2.398143, 48.8856356], [2.3981436, 48.88577490000002], [2.3981889, 48.8858642]]}}, {"type": "Feature", "properties": {"highway": "footway", "footway": "sidewalk", "name": null, "surface": "asphalt", "lit": "yes", "length_m": 22.62, "type_element": "Way", "__fid": 112867}, "geometry": {"type": "LineString", "coordinates": [[2.3982892, 48.88375970000001], [2.3985362, 48.8838017], [2.3985789, 48.8837806]]}}, {"type": "Feature", "properties": {"highway": "footway", "footway": "sidewalk", "name": null, "surface": "asphalt", "lit": "yes", "length_m": 166.94, "type_element": "Way", "__fid": 112886}, "geometry": {"type": "LineString", "coordinates": [[2.3982731, 48.8858874], [2.3987793, 48.8858203], [2.3999442, 48.885711], [2.4004775, 48.8856698], [2.4005179, 48.8856545]]}}, {"type": "Feature", "properties": {"highway": "footway", "footway": "sidewalk", "name": null, "surface": "asphalt", "lit": "yes", "length_m": 41.16, "type_element": "Way", "__fid": 112972}, "geometry": {"type": "LineString", "coordinates": [[2.3988837, 48.8860078], [2.3983341, 48.8860831]]}}, {"type": "Feature", "properties": {"highway": "footway", "footway": "sidewalk", "name": null, "surface": "asphalt", "lit": "yes", "length_m": 32.08, "type_element": "Way", "__fid": 112996}, "geometry": {"type": "LineString", "coordinates": [[2.3986783, 48.8838437], [2.3986351, 48.883894300000016], [2.3983754, 48.8840485]]}}, {"type": "Feature", "properties": {"highway": "path", "footway": null, "name": "Avenue de la Porte Brunet", "surface": "concrete", "lit": null, "length_m": 42.33, "type_element": "Way", "__fid": 112997}, "geometry": {"type": "LineString", "coordinates": [[2.3988771, 48.8838751], [2.3984582, 48.8840483], [2.3983754, 48.8840485]]}}, {"type": "Feature", "properties": {"highway": "footway", "footway": null, "name": null, "surface": null, "lit": null, "length_m": 19.69, "type_element": "Way", "__fid": 113173}, "geometry": {"type": "LineString", "coordinates": [[2.398511, 48.8877703], [2.3985833, 48.8879408]]}}, {"type": "Feature", "properties": {"highway": "footway", "footway": "sidewalk", "name": null, "surface": "asphalt", "lit": "yes", "length_m": 43.85, "type_element": "Way", "__fid": 113174}, "geometry": {"type": "LineString", "coordinates": [[2.398511, 48.8877703], [2.3990928, 48.8876791]]}}, {"type": "Feature", "properties": {"highway": "footway", "footway": "crossing", "name": null, "surface": "asphalt", "lit": "yes", "length_m": 10.26, "type_element": "Way", "__fid": 113189}, "geometry": {"type": "LineString", "coordinates": [[2.3985789, 48.8837806], [2.398662, 48.8838401], [2.3986783, 48.8838437]]}}, {"type": "Feature", "properties": {"highway": "footway", "footway": "sidewalk", "name": null, "surface": "asphalt", "lit": "yes", "length_m": 71.93, "type_element": "Way", "__fid": 113190}, "geometry": {"type": "LineString", "coordinates": [[2.3985789, 48.8837806], [2.3992621, 48.8834286], [2.3993642, 48.8833953]]}}, {"type": "Feature", "properties": {"highway": "footway", "footway": null, "name": null, "surface": null, "lit": null, "length_m": 41.46, "type_element": "Way", "__fid": 113229}, "geometry": {"type": "LineString", "coordinates": [[2.3985607, 48.88853419999999], [2.3986862, 48.8885508], [2.3988959, 48.8885367], [2.3991175, 48.8885055]]}}, {"type": "Feature", "properties": {"highway": "footway", "footway": "sidewalk", "name": null, "surface": "asphalt", "lit": "yes", "length_m": 102.34, "type_element": "Way", "__fid": 113230}, "geometry": {"type": "LineString", "coordinates": [[2.3986891, 48.8894462], [2.3986942, 48.8893487], [2.3986613, 48.8893082], [2.3985607, 48.88853419999999]]}}, {"type": "Feature", "properties": {"highway": "footway", "footway": null, "name": null, "surface": null, "lit": null, "length_m": 57.03, "type_element": "Way", "__fid": 113232}, "geometry": {"type": "LineString", "coordinates": [[2.3985833, 48.8879408], [2.3986166, 48.888029400000015], [2.3986249, 48.8881146], [2.3986028, 48.8883304], [2.3985663, 48.8884479]]}}, {"type": "Feature", "properties": {"highway": "footway", "footway": "sidewalk", "name": null, "surface": "asphalt", "lit": "yes", "length_m": 41.2, "type_element": "Way", "__fid": 113233}, "geometry": {"type": "LineString", "coordinates": [[2.3991262, 48.8884169], [2.3985663, 48.8884479]]}}, {"type": "Feature", "properties": {"highway": "footway", "footway": null, "name": null, "surface": null, "lit": null, "length_m": 56.65, "type_element": "Way", "__fid": 113248}, "geometry": {"type": "LineString", "coordinates": [[2.3990928, 48.8876791], [2.399107, 48.887721099999986], [2.3990847, 48.8877741], [2.3989632, 48.8878901], [2.3989008, 48.88792460000001], [2.3987747, 48.8879558], [2.3986549, 48.8879535], [2.3985833, 48.8879408]]}}, {"type": "Feature", "properties": {"highway": "footway", "footway": "crossing", "name": null, "surface": "sett", "lit": "yes", "length_m": 17.47, "type_element": "Way", "__fid": 113250}, "geometry": {"type": "LineString", "coordinates": [[2.3986315, 48.8847306], [2.398834, 48.8848133]]}}, {"type": "Feature", "properties": {"highway": "footway", "footway": "sidewalk", "name": null, "surface": "asphalt", "lit": "yes", "length_m": 25.02, "type_element": "Way", "__fid": 113251}, "geometry": {"type": "LineString", "coordinates": [[2.3986315, 48.8847306], [2.3988336, 48.8845493]]}}, {"type": "Feature", "properties": {"highway": "steps", "footway": null, "name": null, "surface": "asphalt", "lit": null, "length_m": 14.99, "type_element": "Way", "__fid": 113279}, "geometry": {"type": "LineString", "coordinates": [[2.3986783, 48.8838437], [2.3988771, 48.8838751]]}}, {"type": "Feature", "properties": {"highway": "footway", "footway": "sidewalk", "name": null, "surface": "asphalt", "lit": "yes", "length_m": 79.24, "type_element": "Way", "__fid": 113280}, "geometry": {"type": "LineString", "coordinates": [[2.3993642, 48.8833953], [2.3994391, 48.8834576], [2.3986783, 48.8838437]]}}, {"type": "Feature", "properties": {"highway": "footway", "footway": "crossing", "name": null, "surface": "sett", "lit": "yes", "length_m": 17.06, "type_element": "Way", "__fid": 113425}, "geometry": {"type": "LineString", "coordinates": [[2.3988336, 48.8845493], [2.3990278, 48.8846337]]}}, {"type": "Feature", "properties": {"highway": "footway", "footway": "sidewalk", "name": null, "surface": "asphalt", "lit": "yes", "length_m": 78.95, "type_element": "Way", "__fid": 113426}, "geometry": {"type": "LineString", "coordinates": [[2.3988336, 48.8845493], [2.3995124, 48.8839982]]}}, {"type": "Feature", "properties": {"highway": "footway", "footway": "sidewalk", "name": null, "surface": "asphalt", "lit": "yes", "length_m": 2.4, "type_element": "Way", "__fid": 113430}, "geometry": {"type": "LineString", "coordinates": [[2.3988519, 48.88479520000001], [2.398834, 48.8848133]]}}, {"type": "Feature", "properties": {"highway": "footway", "footway": "sidewalk", "name": null, "surface": null, "lit": null, "length_m": 41.22, "type_element": "Way", "__fid": 113444}, "geometry": {"type": "LineString", "coordinates": [[2.3993178, 48.8849482], [2.3991597, 48.8849557], [2.3990951, 48.8849471], [2.3990168, 48.8849154], [2.3988519, 48.88479520000001]]}}, {"type": "Feature", "properties": {"highway": "footway", "footway": "crossing", "name": null, "surface": "asphalt", "lit": "yes", "length_m": 15.33, "type_element": "Way", "__fid": 113445}, "geometry": {"type": "LineString", "coordinates": [[2.3989696, 48.884681300000025], [2.3988519, 48.88479520000001]]}}, {"type": "Feature", "properties": {"highway": "path", "footway": null, "name": "Avenue de la Porte Brunet", "surface": "concrete", "lit": "yes", "length_m": 48.56, "type_element": "Way", "__fid": 113451}, "geometry": {"type": "LineString", "coordinates": [[2.3988771, 48.8838751], [2.3995124, 48.8839982]]}}, {"type": "Feature", "properties": {"highway": "footway", "footway": "crossing", "name": null, "surface": "asphalt", "lit": "yes", "length_m": 7.97, "type_element": "Way", "__fid": 113492}, "geometry": {"type": "LineString", "coordinates": [[2.3989885, 48.8859888], [2.3988837, 48.8860078]]}}, {"type": "Feature", "properties": {"highway": "footway", "footway": "sidewalk", "name": null, "surface": null, "lit": null, "length_m": 43.99, "type_element": "Way", "__fid": 113541}, "geometry": {"type": "LineString", "coordinates": [[2.3989696, 48.884681300000025], [2.3991848, 48.88482960000001], [2.3992334, 48.8848416], [2.399304, 48.8848391], [2.3993178, 48.8849482]]}}, {"type": "Feature", "properties": {"highway": "footway", "footway": "sidewalk", "name": null, "surface": "asphalt", "lit": "yes", "length_m": 6.8, "type_element": "Way", "__fid": 113542}, "geometry": {"type": "LineString", "coordinates": [[2.3990278, 48.8846337], [2.3989696, 48.884681300000025]]}}, {"type": "Feature", "properties": {"highway": "footway", "footway": "sidewalk", "name": null, "surface": "asphalt", "lit": "yes", "length_m": 260.24, "type_element": "Way", "__fid": 113547}, "geometry": {"type": "LineString", "coordinates": [[2.399125166666679, 48.888482500000094], [2.3995312, 48.8884691], [2.3999119, 48.8884467], [2.3999533, 48.8884622], [2.3999589, 48.8887911], [2.3999852, 48.8888134], [2.399993, 48.8889464], [2.3999827, 48.889234499999986], [2.399994, 48.8895375], [2.3990365, 48.8895106], [2.3989242, 48.8894973]]}}, {"type": "Feature", "properties": {"highway": "footway", "footway": "sidewalk", "name": null, "surface": "asphalt", "lit": "yes", "length_m": 111.19, "type_element": "Way", "__fid": 113548}, "geometry": {"type": "LineString", "coordinates": [[2.3991175, 48.8885055], [2.3989242, 48.8894973]]}}, {"type": "Feature", "properties": {"highway": "footway", "footway": "sidewalk", "name": null, "surface": "asphalt", "lit": "yes", "length_m": 176.97, "type_element": "Way", "__fid": 113577}, "geometry": {"type": "LineString", "coordinates": [[2.3989885, 48.8859888], [2.3995581, 48.8875095], [2.3995773, 48.8875311]]}}, {"type": "Feature", "properties": {"highway": "footway", "footway": "sidewalk", "name": null, "surface": "asphalt", "lit": "yes", "length_m": 83.78, "type_element": "Way", "__fid": 113578}, "geometry": {"type": "LineString", "coordinates": [[2.4001139, 48.8858692], [2.4000755, 48.8858803], [2.3996269, 48.885908100000016], [2.3989885, 48.8859888]]}}, {"type": "Feature", "properties": {"highway": "footway", "footway": "sidewalk", "name": null, "surface": "asphalt", "lit": "yes", "length_m": 85.08, "type_element": "Way", "__fid": 113594}, "geometry": {"type": "LineString", "coordinates": [[2.3997562, 48.8840382], [2.3990278, 48.8846337]]}}, {"type": "Feature", "properties": {"highway": "footway", "footway": "sidewalk", "name": null, "surface": "asphalt", "lit": "yes", "length_m": 122.28, "type_element": "Way", "__fid": 113679}, "geometry": {"type": "LineString", "coordinates": [[2.3990928, 48.8876791], [2.3992946, 48.8876484], [2.3993113, 48.8876557], [2.3993231, 48.8876742], [2.3994442, 48.8883704], [2.3994303, 48.88839629999999], [2.3991262, 48.8884169]]}}, {"type": "Feature", "properties": {"highway": "footway", "footway": "sidewalk", "name": null, "surface": "asphalt", "lit": "yes", "length_m": 2.62, "type_element": "Way", "__fid": 113705}, "geometry": {"type": "LineString", "coordinates": [[2.399125166666679, 48.888482500000094], [2.3991175, 48.8885055]]}}, {"type": "Feature", "properties": {"highway": "footway", "footway": "crossing", "name": null, "surface": "asphalt", "lit": "yes", "length_m": 7.29, "type_element": "Way", "__fid": 113711}, "geometry": {"type": "LineString", "coordinates": [[2.3991262, 48.8884169], [2.399125166666679, 48.888482500000094]]}}, {"type": "Feature", "properties": {"highway": "footway", "footway": "sidewalk", "name": null, "surface": null, "lit": null, "length_m": 164.27, "type_element": "Way", "__fid": 113806}, "geometry": {"type": "LineString", "coordinates": [[2.3993178, 48.8849482], [2.3995099, 48.884948499999986], [2.4003194, 48.8848733], [2.4003583, 48.8848816], [2.4003764, 48.8849005], [2.4004669, 48.8852984], [2.4005299, 48.8856251], [2.4005179, 48.8856545]]}}, {"type": "Feature", "properties": {"highway": "footway", "footway": null, "name": null, "surface": "concrete", "lit": null, "length_m": 68.21, "type_element": "Way", "__fid": 113816}, "geometry": {"type": "LineString", "coordinates": [[2.399486, 48.8828591], [2.3993878, 48.8828888], [2.3993317, 48.882940900000015], [2.3993137, 48.8829816], [2.399320799999886, 48.883037100000024], [2.3993875, 48.8831734], [2.39942945000003, 48.88330705], [2.399423050000201, 48.88333785000004], [2.3993642, 48.8833953]]}}, {"type": "Feature", "properties": {"highway": "footway", "footway": "crossing", "name": null, "surface": null, "lit": "yes", "length_m": 25.36, "type_element": "Way", "__fid": 113854}, "geometry": {"type": "LineString", "coordinates": [[2.399459099999889, 48.88259395], [2.3995452, 48.8828148]]}}, {"type": "Feature", "properties": {"highway": "footway", "footway": null, "name": null, "surface": "compacted", "lit": null, "length_m": 3.58, "type_element": "Way", "__fid": 113867}, "geometry": {"type": "LineString", "coordinates": [[2.399486, 48.8828591], [2.3994736, 48.882828]]}}, {"type": "Feature", "properties": {"highway": "path", "footway": null, "name": "Boulevard d'Algérie", "surface": "concrete", "lit": "yes", "length_m": 5.45, "type_element": "Way", "__fid": 113868}, "geometry": {"type": "LineString", "coordinates": [[2.3994736, 48.882828], [2.3995452, 48.8828148]]}}, {"type": "Feature", "properties": {"highway": "footway", "footway": null, "name": null, "surface": "compacted", "lit": null, "length_m": 46.84, "type_element": "Way", "__fid": 113876}, "geometry": {"type": "LineString", "coordinates": [[2.3996524, 48.8828561], [2.3997108, 48.8829948], [2.399559, 48.883025], [2.399486, 48.8828591]]}}, {"type": "Feature", "properties": {"highway": "path", "footway": null, "name": "Avenue de la Porte Brunet", "surface": "concrete", "lit": "yes", "length_m": 8.74, "type_element": "Way", "__fid": 113898}, "geometry": {"type": "LineString", "coordinates": [[2.3995124, 48.8839982], [2.3996267, 48.8840204]]}}, {"type": "Feature", "properties": {"highway": "footway", "footway": "sidewalk", "name": null, "surface": "asphalt", "lit": "yes", "length_m": 6.27, "type_element": "Way", "__fid": 113899}, "geometry": {"type": "LineString", "coordinates": [[2.3995124, 48.8839982], [2.3995682, 48.8839555]]}}, {"type": "Feature", "properties": {"highway": "path", "footway": null, "name": "Boulevard d'Algérie", "surface": "concrete", "lit": "yes", "length_m": 6.28, "type_element": "Way", "__fid": 113908}, "geometry": {"type": "LineString", "coordinates": [[2.3995452, 48.8828148], [2.3996272, 48.8827985]]}}, {"type": "Feature", "properties": {"highway": "footway", "footway": "crossing", "name": null, "surface": "asphalt", "lit": "yes", "length_m": 16.57, "type_element": "Way", "__fid": 113927}, "geometry": {"type": "LineString", "coordinates": [[2.3997562, 48.8840382], [2.3995682, 48.8839555]]}}, {"type": "Feature", "properties": {"highway": "footway", "footway": "sidewalk", "name": null, "surface": "asphalt", "lit": "yes", "length_m": 293.26, "type_element": "Way", "__fid": 113928}, "geometry": {"type": "LineString", "coordinates": [[2.3995682, 48.8839555], [2.4014528, 48.8824533], [2.4022809, 48.88203569999999]]}}, {"type": "Feature", "properties": {"highway": "footway", "footway": null, "name": null, "surface": "compacted", "lit": null, "length_m": 6.67, "type_element": "Way", "__fid": 113953}, "geometry": {"type": "LineString", "coordinates": [[2.3996272, 48.8827985], [2.3996524, 48.8828561]]}}, {"type": "Feature", "properties": {"highway": "footway", "footway": null, "name": null, "surface": "concrete", "lit": null, "length_m": 188.83, "type_element": "Way", "__fid": 113968}, "geometry": {"type": "LineString", "coordinates": [[2.4008545, 48.8815745], [2.4009023, 48.8816669], [2.4009276, 48.881942500000015], [2.4009105, 48.8820328], [2.4008779, 48.882135200000015], [2.4007959, 48.882271500000016], [2.4006982, 48.8823931], [2.4004194, 48.8825843], [2.4001311, 48.8827178], [2.3998458, 48.8828213], [2.3996524, 48.8828561]]}}, {"type": "Feature", "properties": {"highway": "footway", "footway": "sidewalk", "name": null, "surface": "asphalt", "lit": "yes", "length_m": 34.92, "type_element": "Way", "__fid": 114034}, "geometry": {"type": "LineString", "coordinates": [[2.4000551, 48.883793800000014], [2.3997562, 48.8840382]]}}, {"type": "Feature", "properties": {"highway": "footway", "footway": null, "name": "Passage Augier", "surface": "asphalt", "lit": "no", "length_m": 13.31, "type_element": "Way", "__fid": 114109}, "geometry": {"type": "LineString", "coordinates": [[2.4000551, 48.883793800000014], [2.3998772, 48.8838176]]}}, {"type": "Feature", "properties": {"highway": "footway", "footway": null, "name": "Passage Augier", "surface": "asphalt", "lit": "no", "length_m": 40.49, "type_element": "Way", "__fid": 114186}, "geometry": {"type": "LineString", "coordinates": [[2.4004025, 48.88351080000001], [2.4000551, 48.883793800000014]]}}, {"type": "Feature", "properties": {"highway": "footway", "footway": "sidewalk", "name": null, "surface": "asphalt", "lit": "yes", "length_m": 162.07, "type_element": "Way", "__fid": 114376}, "geometry": {"type": "LineString", "coordinates": [[2.4004025, 48.88351080000001], [2.4014723, 48.8826142], [2.4018582, 48.8824259]]}}, {"type": "Feature", "properties": {"highway": "footway", "footway": null, "name": "Passage Augier", "surface": "asphalt", "lit": "no", "length_m": 6.43, "type_element": "Way", "__fid": 114377}, "geometry": {"type": "LineString", "coordinates": [[2.4004886, 48.8834997], [2.4004025, 48.88351080000001]]}}, {"type": "Feature", "properties": {"highway": "footway", "footway": "sidewalk", "name": null, "surface": "asphalt", "lit": "yes", "length_m": 3.81, "type_element": "Way", "__fid": 114463}, "geometry": {"type": "LineString", "coordinates": [[2.4005179, 48.8856545], [2.400569, 48.8856607]]}}, {"type": "Feature", "properties": {"highway": "service", "footway": null, "name": null, "surface": "asphalt", "lit": null, "length_m": 52.85, "type_element": "Way", "__fid": 115079}, "geometry": {"type": "LineString", "coordinates": [[2.4018582, 48.8824259], [2.4019448, 48.8827068], [2.4018993, 48.8827126], [2.4019403, 48.8828683]]}}]}