{"type": "FeatureCollection", "features": [{"type": "Feature", "properties": {"highway": "footway", "footway": "sidewalk", "name": null, "surface": "paving_stones", "lit": "yes", "length_m": 533.73, "type_element": "Way", "__fid": 111158}, "geometry": {"type": "LineString", "coordinates": [[2.4009338, 48.8961065], [2.4009094, 48.8962301], [2.4008715, 48.8963236], [2.4008497, 48.89635230000001], [2.400683, 48.89647989999999], [2.4000882, 48.89687], [2.399834, 48.89705649999997], [2.399783, 48.8970591], [2.3997509, 48.8970468], [2.3991547, 48.89651640000002], [2.399081, 48.8964948], [2.3989669, 48.89647650000001], [2.3986121, 48.8965039], [2.398553, 48.8965303], [2.3985182, 48.89656690000002], [2.39814, 48.89717659999999], [2.3980267, 48.89734009999998], [2.3978919, 48.89758830000001], [2.3978543, 48.8976108], [2.3974606, 48.8975993], [2.3972443, 48.8975624], [2.39609, 48.8974953], [2.3959499, 48.8974946]]}}, {"type": "Feature", "properties": {"highway": "footway", "footway": null, "name": "Quai de l'Ourcq", "surface": "asphalt", "lit": null, "length_m": 166.09, "type_element": "Way", "__fid": 111574}, "geometry": {"type": "LineString", "coordinates": [[2.3989909, 48.896266], [2.3978784, 48.8962961], [2.3975105, 48.896291], [2.3967307, 48.896238]]}}, {"type": "Feature", "properties": {"highway": "path", "footway": null, "name": "Quai Kathrine Switzer", "surface": "asphalt", "lit": null, "length_m": 204.28, "type_element": "Way", "__fid": 111734}, "geometry": {"type": "LineString", "coordinates": [[2.3969734, 48.89581530000001], [2.3974021, 48.89587029999998], [2.3975941, 48.89588459999999], [2.398183, 48.895890500000014], [2.3990822, 48.8958775], [2.399744, 48.8958186]]}}, {"type": "Feature", "properties": {"highway": "footway", "footway": "sidewalk", "name": null, "surface": "asphalt", "lit": null, "length_m": 304.68, "type_element": "Way", "__fid": 112608}, "geometry": {"type": "LineString", "coordinates": [[2.4006461, 48.895698399999986], [2.3997786, 48.8952187], [2.3995363, 48.895047900000016], [2.398961, 48.8945277], [2.3987692, 48.8943725], [2.3980779, 48.893730599999984], [2.3980139, 48.8936755], [2.3979471, 48.8936364]]}}]}