{"type": "FeatureCollection", "features": [{"type": "Feature", "properties": {"@id": "node/5834919985", "amenity": "drinking_water", "man_made": "water_tap", "type_element": "Fontaines à boire", "__fid": 574}, "geometry": {"type": "Point", "coordinates": [2.4138109, 48.8285055]}, "id": "node/5834919985"}, {"type": "Feature", "properties": {"highway": "service", "footway": null, "name": "Route de la Plaine", "surface": "asphalt", "lit": "yes", "length_m": 99.11, "type_element": "Way", "__fid": 117015}, "geometry": {"type": "LineString", "coordinates": [[2.4078237, 48.8270641], [2.4073353, 48.8271773], [2.4065584, 48.8273745]]}}, {"type": "Feature", "properties": {"highway": "path", "footway": null, "name": null, "surface": null, "lit": null, "length_m": 110.14, "type_element": "Way", "__fid": 117060}, "geometry": {"type": "LineString", "coordinates": [[2.4078961, 48.8275005], [2.4078096, 48.8275176], [2.4076246, 48.82758290000001], [2.407469, 48.82766680000001], [2.4066, 48.8279925]]}}, {"type": "Feature", "properties": {"highway": "pedestrian", "footway": null, "name": null, "surface": null, "lit": null, "length_m": 101.93, "type_element": "Way", "__fid": 117311}, "geometry": {"type": "LineString", "coordinates": [[2.4069399, 48.8297943], [2.4078115, 48.8290807]]}}, {"type": "Feature", "properties": {"highway": "path", "footway": null, "name": null, "surface": null, "lit": null, "length_m": 108.8, "type_element": "Way", "__fid": 117316}, "geometry": {"type": "LineString", "coordinates": [[2.4069728, 48.82846580000002], [2.4070117, 48.82840660000002], [2.4071793, 48.8282036], [2.4075146, 48.8279237], [2.4076447, 48.827838], [2.4077198, 48.82782129999999], [2.4079487, 48.8278034]]}}, {"type": "Feature", "properties": {"highway": "pedestrian", "footway": null, "name": null, "surface": null, "lit": null, "length_m": 62.7, "type_element": "Way", "__fid": 117318}, "geometry": {"type": "LineString", "coordinates": [[2.4069657, 48.829158900000024], [2.4078115, 48.8290807]]}}, {"type": "Feature", "properties": {"highway": "track", "footway": null, "name": null, "surface": "compacted", "lit": null, "length_m": 10.29, "type_element": "Way", "__fid": 117521}, "geometry": {"type": "LineString", "coordinates": [[2.4075928, 48.8265172], [2.4076559, 48.8265663], [2.4076715, 48.8265925]]}}, {"type": "Feature", "properties": {"highway": "path", "footway": null, "name": null, "surface": "ground", "lit": null, "length_m": 56.2, "type_element": "Way", "__fid": 117555}, "geometry": {"type": "LineString", "coordinates": [[2.4076715, 48.8265925], [2.4079378, 48.8268677], [2.4080546, 48.8270291]]}}, {"type": "Feature", "properties": {"highway": "track", "footway": null, "name": null, "surface": "sand", "lit": null, "length_m": 53.89, "type_element": "Way", "__fid": 117556}, "geometry": {"type": "LineString", "coordinates": [[2.4078237, 48.8270641], [2.4077586, 48.8269295], [2.407709, 48.826661], [2.4076715, 48.8265925]]}}, {"type": "Feature", "properties": {"highway": "footway", "footway": null, "name": null, "surface": null, "lit": null, "length_m": 37.78, "type_element": "Way", "__fid": 117610}, "geometry": {"type": "LineString", "coordinates": [[2.4077699, 48.8286748], [2.4080851, 48.8284062]]}}, {"type": "Feature", "properties": {"highway": "track", "footway": null, "name": null, "surface": "sand", "lit": null, "length_m": 48.99, "type_element": "Way", "__fid": 117625}, "geometry": {"type": "LineString", "coordinates": [[2.4078961, 48.8275005], [2.4078579, 48.8271388], [2.4078237, 48.8270641]]}}, {"type": "Feature", "properties": {"highway": "service", "footway": null, "name": "Route de la Plaine", "surface": "asphalt", "lit": "yes", "length_m": 17.39, "type_element": "Way", "__fid": 117626}, "geometry": {"type": "LineString", "coordinates": [[2.4080546, 48.8270291], [2.4078237, 48.8270641]]}}, {"type": "Feature", "properties": {"highway": "pedestrian", "footway": null, "name": null, "surface": null, "lit": null, "length_m": 73.43, "type_element": "Way", "__fid": 117629}, "geometry": {"type": "LineString", "coordinates": [[2.4078115, 48.8290807], [2.4084205, 48.8285568]]}}, {"type": "Feature", "properties": {"highway": "pedestrian", "footway": null, "name": null, "surface": null, "lit": null, "length_m": 73.35, "type_element": "Way", "__fid": 117630}, "geometry": {"type": "LineString", "coordinates": [[2.4078115, 48.8290807], [2.4087985, 48.828977899999984]]}}, {"type": "Feature", "properties": {"highway": "track", "footway": null, "name": null, "surface": "sand", "lit": null, "length_m": 8.85, "type_element": "Way", "__fid": 117659}, "geometry": {"type": "LineString", "coordinates": [[2.4079216, 48.8275783], [2.4078961, 48.8275005]]}}, {"type": "Feature", "properties": {"highway": "path", "footway": null, "name": null, "surface": null, "lit": null, "length_m": 6.04, "type_element": "Way", "__fid": 117660}, "geometry": {"type": "LineString", "coordinates": [[2.4079761, 48.8274879], [2.4078961, 48.8275005]]}}, {"type": "Feature", "properties": {"highway": "track", "footway": null, "name": null, "surface": "sand", "lit": null, "length_m": 25.11, "type_element": "Way", "__fid": 117672}, "geometry": {"type": "LineString", "coordinates": [[2.4079216, 48.8275783], [2.4079487, 48.8278034]]}}, {"type": "Feature", "properties": {"highway": "path", "footway": null, "name": null, "surface": "ground", "lit": null, "length_m": 10.82, "type_element": "Way", "__fid": 117673}, "geometry": {"type": "LineString", "coordinates": [[2.4079761, 48.8274879], [2.4079216, 48.8275783]]}}, {"type": "Feature", "properties": {"highway": "track", "footway": null, "name": null, "surface": "sand", "lit": null, "length_m": 4.54, "type_element": "Way", "__fid": 117697}, "geometry": {"type": "LineString", "coordinates": [[2.4079487, 48.8278034], [2.4079629, 48.82784310000001]]}}, {"type": "Feature", "properties": {"highway": "path", "footway": null, "name": null, "surface": "dirt", "lit": null, "length_m": 126.7, "type_element": "Way", "__fid": 117698}, "geometry": {"type": "LineString", "coordinates": [[2.4079487, 48.8278034], [2.4080738, 48.8277851], [2.4082053, 48.82777890000001], [2.4083555, 48.8277462], [2.4085566, 48.8276632], [2.4089187, 48.8274549], [2.4093841, 48.8273657], [2.4094896, 48.8273612]]}}, {"type": "Feature", "properties": {"highway": "path", "footway": null, "name": null, "surface": "ground", "lit": null, "length_m": 51.62, "type_element": "Way", "__fid": 117711}, "geometry": {"type": "LineString", "coordinates": [[2.4080546, 48.8270291], [2.4080528, 48.8272533], [2.4079761, 48.8274879]]}}, {"type": "Feature", "properties": {"highway": "path", "footway": null, "name": null, "surface": null, "lit": null, "length_m": 79.23, "type_element": "Way", "__fid": 117712}, "geometry": {"type": "LineString", "coordinates": [[2.4088866, 48.827115800000016], [2.4088061, 48.8271472], [2.4084648, 48.8273224], [2.4083756, 48.8273542], [2.4080779, 48.8274368], [2.4080168, 48.8274602], [2.4079761, 48.8274879]]}}, {"type": "Feature", "properties": {"highway": "service", "footway": null, "name": "Route de la Plaine", "surface": "asphalt", "lit": "yes", "length_m": 44.32, "type_element": "Way", "__fid": 117760}, "geometry": {"type": "LineString", "coordinates": [[2.408648, 48.826956], [2.4080546, 48.8270291]]}}, {"type": "Feature", "properties": {"highway": "footway", "footway": null, "name": null, "surface": null, "lit": null, "length_m": 29.78, "type_element": "Way", "__fid": 117772}, "geometry": {"type": "LineString", "coordinates": [[2.4080851, 48.8284062], [2.4084205, 48.8285568]]}}, {"type": "Feature", "properties": {"highway": "footway", "footway": null, "name": null, "surface": null, "lit": null, "length_m": 76.94, "type_element": "Way", "__fid": 117773}, "geometry": {"type": "LineString", "coordinates": [[2.4080851, 48.8284062], [2.4085035, 48.8280672], [2.4088065, 48.8282247]]}}, {"type": "Feature", "properties": {"highway": "footway", "footway": null, "name": null, "surface": null, "lit": null, "length_m": 148.9, "type_element": "Way", "__fid": 117881}, "geometry": {"type": "LineString", "coordinates": [[2.4087985, 48.828977899999984], [2.4083525, 48.8302842]]}}, {"type": "Feature", "properties": {"highway": "pedestrian", "footway": null, "name": null, "surface": null, "lit": null, "length_m": 46.55, "type_element": "Way", "__fid": 117895}, "geometry": {"type": "LineString", "coordinates": [[2.4084205, 48.8285568], [2.4088065, 48.8282247]]}}, {"type": "Feature", "properties": {"highway": "path", "footway": null, "name": null, "surface": null, "lit": null, "length_m": 25.18, "type_element": "Way", "__fid": 117974}, "geometry": {"type": "LineString", "coordinates": [[2.4088866, 48.827115800000016], [2.4087819, 48.82704339999997], [2.4086968, 48.8270037], [2.408648, 48.826956]]}}, {"type": "Feature", "properties": {"highway": "service", "footway": null, "name": "Route de la Plaine", "surface": "asphalt", "lit": "yes", "length_m": 64.23, "type_element": "Way", "__fid": 117975}, "geometry": {"type": "LineString", "coordinates": [[2.4095193, 48.82695070000001], [2.4088258, 48.8269341], [2.408648, 48.826956]]}}, {"type": "Feature", "properties": {"highway": "pedestrian", "footway": null, "name": null, "surface": null, "lit": null, "length_m": 32.55, "type_element": "Way", "__fid": 118078}, "geometry": {"type": "LineString", "coordinates": [[2.4088065, 48.8282247], [2.4090765, 48.8279925]]}}, {"type": "Feature", "properties": {"highway": "footway", "footway": null, "name": null, "surface": null, "lit": null, "length_m": 111.57, "type_element": "Way", "__fid": 118079}, "geometry": {"type": "LineString", "coordinates": [[2.4090765, 48.8279925], [2.4090539, 48.8281672], [2.4087985, 48.828977899999984]]}}, {"type": "Feature", "properties": {"highway": "pedestrian", "footway": null, "name": null, "surface": null, "lit": null, "length_m": 60.27, "type_element": "Way", "__fid": 118080}, "geometry": {"type": "LineString", "coordinates": [[2.4087985, 48.828977899999984], [2.4093579, 48.8289197], [2.4096124, 48.8289255]]}}, {"type": "Feature", "properties": {"highway": "path", "footway": null, "name": null, "surface": null, "lit": null, "length_m": 52.21, "type_element": "Way", "__fid": 118114}, "geometry": {"type": "LineString", "coordinates": [[2.4094896, 48.8273612], [2.4092138, 48.8272399], [2.4091119, 48.82720149999999], [2.408967, 48.82715949999998], [2.4088866, 48.827115800000016]]}}, {"type": "Feature", "properties": {"highway": "path", "footway": null, "name": null, "surface": null, "lit": null, "length_m": 48.8, "type_element": "Way", "__fid": 118115}, "geometry": {"type": "LineString", "coordinates": [[2.4095288, 48.8270305], [2.4092862, 48.8270289], [2.409132, 48.82705089999999], [2.4088866, 48.827115800000016]]}}, {"type": "Feature", "properties": {"highway": "footway", "footway": null, "name": null, "surface": null, "lit": null, "length_m": 48.6, "type_element": "Way", "__fid": 118246}, "geometry": {"type": "LineString", "coordinates": [[2.4095391, 48.8294103], [2.4092316, 48.82961320000001], [2.4090566, 48.829709]]}}, {"type": "Feature", "properties": {"highway": "pedestrian", "footway": null, "name": null, "surface": null, "lit": null, "length_m": 61.8, "type_element": "Way", "__fid": 118247}, "geometry": {"type": "LineString", "coordinates": [[2.4090765, 48.8279925], [2.409416, 48.827628], [2.4096069, 48.8276065]]}}, {"type": "Feature", "properties": {"highway": "path", "footway": null, "name": null, "surface": "dirt", "lit": null, "length_m": 5.78, "type_element": "Way", "__fid": 118452}, "geometry": {"type": "LineString", "coordinates": [[2.4094896, 48.8273612], [2.4095682, 48.8273578]]}}, {"type": "Feature", "properties": {"highway": "service", "footway": null, "name": "Route de la Plaine", "surface": "asphalt", "lit": "yes", "length_m": 180.39, "type_element": "Way", "__fid": 118467}, "geometry": {"type": "LineString", "coordinates": [[2.4119403, 48.8272262], [2.4102722, 48.82702149999999], [2.4095193, 48.82695070000001]]}}, {"type": "Feature", "properties": {"highway": "service", "footway": null, "name": "Route Dom Pérignon", "surface": "asphalt", "lit": null, "length_m": 8.9, "type_element": "Way", "__fid": 118468}, "geometry": {"type": "LineString", "coordinates": [[2.4095288, 48.8270305], [2.4095193, 48.82695070000001]]}}, {"type": "Feature", "properties": {"highway": "service", "footway": null, "name": "Route Dom Pérignon", "surface": "asphalt", "lit": null, "length_m": 189.08, "type_element": "Way", "__fid": 118469}, "geometry": {"type": "LineString", "coordinates": [[2.4095193, 48.82695070000001], [2.4094524, 48.8264764], [2.4095468, 48.8259961], [2.4096941, 48.82570170000001], [2.4098882, 48.8253763], [2.4098915, 48.8253495], [2.4098709, 48.82529810000001]]}}, {"type": "Feature", "properties": {"highway": "service", "footway": null, "name": "Route Dom Pérignon", "surface": "asphalt", "lit": null, "length_m": 4.36, "type_element": "Way", "__fid": 118475}, "geometry": {"type": "LineString", "coordinates": [[2.4095378, 48.8270693], [2.4095288, 48.8270305]]}}, {"type": "Feature", "properties": {"highway": "path", "footway": null, "name": null, "surface": "compacted", "lit": "no", "length_m": 108.64, "type_element": "Way", "__fid": 118486}, "geometry": {"type": "LineString", "coordinates": [[2.4108077, 48.8275414], [2.4105911, 48.8274805], [2.4101606, 48.8273379], [2.4100634, 48.827258], [2.4099373, 48.8271794], [2.4096778, 48.8270969], [2.4095378, 48.8270693]]}}, {"type": "Feature", "properties": {"highway": "service", "footway": null, "name": "Route Dom Pérignon", "surface": "asphalt", "lit": null, "length_m": 32.16, "type_element": "Way", "__fid": 118487}, "geometry": {"type": "LineString", "coordinates": [[2.4095682, 48.8273578], [2.4095378, 48.8270693]]}}, {"type": "Feature", "properties": {"highway": "service", "footway": null, "name": "Route Dom Pérignon", "surface": "asphalt", "lit": null, "length_m": 29.91, "type_element": "Way", "__fid": 118503}, "geometry": {"type": "LineString", "coordinates": [[2.4095304, 48.82967919999999], [2.4095391, 48.8294103]]}}, {"type": "Feature", "properties": {"highway": "service", "footway": null, "name": "Route du Bac", "surface": "asphalt", "lit": "yes", "length_m": 112.02, "type_element": "Way", "__fid": 118504}, "geometry": {"type": "LineString", "coordinates": [[2.4095304, 48.82967919999999], [2.410334, 48.8288228]]}}, {"type": "Feature", "properties": {"highway": "service", "footway": null, "name": "Route Dom Pérignon", "surface": "asphalt", "lit": null, "length_m": 54.17, "type_element": "Way", "__fid": 118507}, "geometry": {"type": "LineString", "coordinates": [[2.4095391, 48.8294103], [2.4096124, 48.8289255]]}}, {"type": "Feature", "properties": {"highway": "path", "footway": null, "name": null, "surface": "dirt", "lit": null, "length_m": 46.87, "type_element": "Way", "__fid": 118509}, "geometry": {"type": "LineString", "coordinates": [[2.4095682, 48.8273578], [2.4097274, 48.8273772], [2.409824, 48.827408099999985], [2.4100479, 48.8275299], [2.4100976, 48.8275705]]}}, {"type": "Feature", "properties": {"highway": "service", "footway": null, "name": "Route Dom Pérignon", "surface": "asphalt", "lit": null, "length_m": 27.8, "type_element": "Way", "__fid": 118510}, "geometry": {"type": "LineString", "coordinates": [[2.4096069, 48.8276065], [2.4095682, 48.8273578]]}}, {"type": "Feature", "properties": {"highway": "service", "footway": null, "name": "Route Dom Pérignon", "surface": "asphalt", "lit": null, "length_m": 146.78, "type_element": "Way", "__fid": 118539}, "geometry": {"type": "LineString", "coordinates": [[2.4096124, 48.8289255], [2.4096498, 48.8283185], [2.4096069, 48.8276065]]}}, {"type": "Feature", "properties": {"highway": "path", "footway": null, "name": null, "surface": "dirt", "lit": null, "length_m": 36.63, "type_element": "Way", "__fid": 118540}, "geometry": {"type": "LineString", "coordinates": [[2.4100976, 48.8275705], [2.4099004, 48.8275643], [2.4097422, 48.827596100000015], [2.4096069, 48.8276065]]}}, {"type": "Feature", "properties": {"highway": "path", "footway": null, "name": null, "surface": "dirt", "lit": null, "length_m": 54.48, "type_element": "Way", "__fid": 118550}, "geometry": {"type": "LineString", "coordinates": [[2.4096124, 48.8289255], [2.4101646, 48.8288255], [2.410334, 48.8288228]]}}, {"type": "Feature", "properties": {"highway": "path", "footway": null, "name": null, "surface": "dirt", "lit": null, "length_m": 11.22, "type_element": "Way", "__fid": 118739}, "geometry": {"type": "LineString", "coordinates": [[2.4100976, 48.8275705], [2.4102452, 48.8275966]]}}, {"type": "Feature", "properties": {"highway": "path", "footway": null, "name": null, "surface": "dirt", "lit": null, "length_m": 90.7, "type_element": "Way", "__fid": 118788}, "geometry": {"type": "LineString", "coordinates": [[2.4102452, 48.8275966], [2.4102773, 48.8276023], [2.4103819, 48.8276447], [2.4105468, 48.8277445], [2.4107118, 48.8278142], [2.4109183, 48.8278804], [2.4111798, 48.82795280000002], [2.4112858, 48.8280199]]}}, {"type": "Feature", "properties": {"highway": "path", "footway": null, "name": null, "surface": "compacted", "lit": "no", "length_m": 41.78, "type_element": "Way", "__fid": 118789}, "geometry": {"type": "LineString", "coordinates": [[2.4108077, 48.8275414], [2.410752, 48.8275515], [2.4102452, 48.8275966]]}}, {"type": "Feature", "properties": {"highway": "path", "footway": null, "name": null, "surface": "dirt", "lit": null, "length_m": 7.08, "type_element": "Way", "__fid": 118839}, "geometry": {"type": "LineString", "coordinates": [[2.410334, 48.8288228], [2.4104006, 48.82886890000002]]}}, {"type": "Feature", "properties": {"highway": "service", "footway": null, "name": "Route du Bac", "surface": "asphalt", "lit": "yes", "length_m": 110.91, "type_element": "Way", "__fid": 118840}, "geometry": {"type": "LineString", "coordinates": [[2.410334, 48.8288228], [2.4107948, 48.8284561], [2.4113453, 48.8280829]]}}, {"type": "Feature", "properties": {"highway": "path", "footway": null, "name": null, "surface": "dirt", "lit": null, "length_m": 124.4, "type_element": "Way", "__fid": 118841}, "geometry": {"type": "LineString", "coordinates": [[2.410334, 48.8288228], [2.4104357, 48.8288027], [2.4105928, 48.8287918], [2.4107074, 48.8287755], [2.4108668, 48.8287413], [2.4110156, 48.828675199999985], [2.4113156, 48.8285671], [2.4116321, 48.828466800000015], [2.4118893, 48.8284057]]}}, {"type": "Feature", "properties": {"highway": "path", "footway": null, "name": null, "surface": "dirt", "lit": null, "length_m": 66.74, "type_element": "Way", "__fid": 118856}, "geometry": {"type": "LineString", "coordinates": [[2.4104006, 48.82886890000002], [2.4104898, 48.8288945], [2.4112879, 48.8289928]]}}, {"type": "Feature", "properties": {"highway": "path", "footway": null, "name": null, "surface": "dirt", "lit": null, "length_m": 117.89, "type_element": "Way", "__fid": 118857}, "geometry": {"type": "LineString", "coordinates": [[2.4107035, 48.8299059], [2.4106957, 48.8298006], [2.4106555, 48.8296921], [2.410634, 48.8295799], [2.4106032, 48.829500500000016], [2.4105602, 48.8294281], [2.4105012, 48.8292365], [2.4104784, 48.8290926], [2.4104208, 48.82896370000001], [2.4104006, 48.82886890000002]]}}, {"type": "Feature", "properties": {"highway": "path", "footway": null, "name": null, "surface": "compacted", "lit": "no", "length_m": 69.17, "type_element": "Way", "__fid": 118992}, "geometry": {"type": "LineString", "coordinates": [[2.4112858, 48.8280199], [2.4112871, 48.827867200000014], [2.4112382, 48.8278076], [2.4111979, 48.8277317], [2.4111564, 48.827703], [2.4110156, 48.8276434], [2.4108077, 48.8275414]]}}, {"type": "Feature", "properties": {"highway": "path", "footway": null, "name": null, "surface": "compacted", "lit": "no", "length_m": 92.28, "type_element": "Way", "__fid": 118993}, "geometry": {"type": "LineString", "coordinates": [[2.4119872, 48.827283], [2.4118826, 48.82730789999999], [2.4116016, 48.8273476], [2.4112134, 48.827484400000024], [2.4110082, 48.82753170000002], [2.4108077, 48.8275414]]}}, {"type": "Feature", "properties": {"highway": "pedestrian", "footway": null, "name": "Route de la Ceinture du Lac Daumesnil", "surface": "asphalt", "lit": "yes", "length_m": 75.31, "type_element": "Way", "__fid": 119003}, "geometry": {"type": "LineString", "coordinates": [[2.4108117, 48.8298512], [2.4116439, 48.8294551]]}}, {"type": "Feature", "properties": {"highway": "path", "footway": null, "name": null, "surface": "dirt", "lit": null, "length_m": 8.26, "type_element": "Way", "__fid": 119208}, "geometry": {"type": "LineString", "coordinates": [[2.4112858, 48.8280199], [2.4113453, 48.8280829]]}}, {"type": "Feature", "properties": {"highway": "path", "footway": null, "name": null, "surface": "dirt", "lit": null, "length_m": 82.9, "type_element": "Way", "__fid": 119213}, "geometry": {"type": "LineString", "coordinates": [[2.4112879, 48.8289928], [2.4115734, 48.8290269], [2.4118068, 48.8290269], [2.4120723, 48.8290446], [2.4122762, 48.829087], [2.4123767, 48.8291361]]}}, {"type": "Feature", "properties": {"highway": "path", "footway": null, "name": null, "surface": "ground", "lit": null, "length_m": 57.67, "type_element": "Way", "__fid": 119214}, "geometry": {"type": "LineString", "coordinates": [[2.4116439, 48.8294551], [2.4112879, 48.8289928]]}}, {"type": "Feature", "properties": {"highway": "path", "footway": null, "name": null, "surface": "dirt", "lit": null, "length_m": 53.96, "type_element": "Way", "__fid": 119246}, "geometry": {"type": "LineString", "coordinates": [[2.4113453, 48.8280829], [2.4113904, 48.8281267], [2.4114896, 48.8281912], [2.4116237, 48.8282539], [2.4118893, 48.8284057]]}}, {"type": "Feature", "properties": {"highway": "service", "footway": null, "name": "Route du Bac", "surface": "asphalt", "lit": "yes", "length_m": 94.77, "type_element": "Way", "__fid": 119247}, "geometry": {"type": "LineString", "coordinates": [[2.4113453, 48.8280829], [2.4115273, 48.82796620000001], [2.4123354, 48.8275369]]}}, {"type": "Feature", "properties": {"highway": "path", "footway": null, "name": null, "surface": "ground", "lit": null, "length_m": 22.62, "type_element": "Way", "__fid": 119387}, "geometry": {"type": "LineString", "coordinates": [[2.4116539, 48.829658], [2.4116586, 48.82954370000002], [2.4116439, 48.8294551]]}}, {"type": "Feature", "properties": {"highway": "pedestrian", "footway": null, "name": "Route de la Ceinture du Lac Daumesnil", "surface": "asphalt", "lit": "yes", "length_m": 64.44, "type_element": "Way", "__fid": 119388}, "geometry": {"type": "LineString", "coordinates": [[2.4116439, 48.8294551], [2.4123767, 48.8291361]]}}, {"type": "Feature", "properties": {"highway": "track", "footway": null, "name": null, "surface": "compacted", "lit": null, "length_m": 217.89, "type_element": "Way", "__fid": 119398}, "geometry": {"type": "LineString", "coordinates": [[2.4145419, 48.8293118], [2.4144596, 48.8292997], [2.4141346, 48.82928169999999], [2.4135938, 48.8293043], [2.4132143, 48.8293495], [2.4127369, 48.8294295], [2.4122137, 48.8295277], [2.4116539, 48.829658]]}}, {"type": "Feature", "properties": {"highway": "track", "footway": null, "name": "Promenade Maurice-Boitel", "surface": "compacted", "lit": null, "length_m": 147.31, "type_element": "Way", "__fid": 119454}, "geometry": {"type": "LineString", "coordinates": [[2.4135721, 48.8295816], [2.4127824, 48.829811], [2.4122395, 48.8299848], [2.4117732, 48.83016520000002]]}}, {"type": "Feature", "properties": {"highway": "path", "footway": null, "name": null, "surface": "dirt", "lit": null, "length_m": 63.4, "type_element": "Way", "__fid": 119486}, "geometry": {"type": "LineString", "coordinates": [[2.4118893, 48.8284057], [2.4120636, 48.8285011], [2.4126029, 48.8287251]]}}, {"type": "Feature", "properties": {"highway": "path", "footway": null, "name": null, "surface": "dirt", "lit": null, "length_m": 61.49, "type_element": "Way", "__fid": 119487}, "geometry": {"type": "LineString", "coordinates": [[2.4118893, 48.8284057], [2.4120266, 48.8283549], [2.4126725, 48.82821420000002]]}}, {"type": "Feature", "properties": {"highway": "service", "footway": null, "name": "Route de la Plaine", "surface": "asphalt", "lit": "yes", "length_m": 85.81, "type_element": "Way", "__fid": 119500}, "geometry": {"type": "LineString", "coordinates": [[2.4131046, 48.8271967], [2.4127329, 48.827228200000015], [2.4123104, 48.827243], [2.4119403, 48.8272262]]}}, {"type": "Feature", "properties": {"highway": "path", "footway": null, "name": null, "surface": "compacted", "lit": "no", "length_m": 7.19, "type_element": "Way", "__fid": 119501}, "geometry": {"type": "LineString", "coordinates": [[2.4119872, 48.827283], [2.4119403, 48.8272262]]}}, {"type": "Feature", "properties": {"highway": "path", "footway": null, "name": null, "surface": "compacted", "lit": "no", "length_m": 38.2, "type_element": "Way", "__fid": 119512}, "geometry": {"type": "LineString", "coordinates": [[2.4123354, 48.8275369], [2.4121944, 48.8274187], [2.4120214, 48.82731230000001], [2.4119872, 48.827283]]}}, {"type": "Feature", "properties": {"highway": "path", "footway": null, "name": null, "surface": "compacted", "lit": "no", "length_m": 41.39, "type_element": "Way", "__fid": 119618}, "geometry": {"type": "LineString", "coordinates": [[2.4125841, 48.82787], [2.4124505, 48.8276685], [2.4123808, 48.8275794], [2.4123354, 48.8275369]]}}, {"type": "Feature", "properties": {"highway": "service", "footway": null, "name": "Route du Bac", "surface": "asphalt", "lit": "yes", "length_m": 39.96, "type_element": "Way", "__fid": 119619}, "geometry": {"type": "LineString", "coordinates": [[2.4123354, 48.8275369], [2.4127852, 48.8273346]]}}, {"type": "Feature", "properties": {"highway": "path", "footway": null, "name": null, "surface": "dirt", "lit": null, "length_m": 49.8, "type_element": "Way", "__fid": 119649}, "geometry": {"type": "LineString", "coordinates": [[2.4123767, 48.8291361], [2.4123674, 48.8290499], [2.4125471, 48.8288362], [2.4126029, 48.8287251]]}}, {"type": "Feature", "properties": {"highway": "pedestrian", "footway": null, "name": "Route de la Ceinture du Lac Daumesnil", "surface": "asphalt", "lit": "yes", "length_m": 55.9, "type_element": "Way", "__fid": 119650}, "geometry": {"type": "LineString", "coordinates": [[2.4123767, 48.8291361], [2.4130214, 48.828868599999986]]}}, {"type": "Feature", "properties": {"highway": "path", "footway": null, "name": null, "surface": "compacted", "lit": null, "length_m": 123.85, "type_element": "Way", "__fid": 119668}, "geometry": {"type": "LineString", "coordinates": [[2.4132486, 48.82579120000001], [2.4129052, 48.82551440000001], [2.4125512, 48.8249972], [2.4125076, 48.8249221], [2.4124729, 48.8248165]]}}, {"type": "Feature", "properties": {"highway": "path", "footway": null, "name": null, "surface": "compacted", "lit": "no", "length_m": 21.48, "type_element": "Way", "__fid": 119714}, "geometry": {"type": "LineString", "coordinates": [[2.4125841, 48.82787], [2.4126632, 48.828056]]}}, {"type": "Feature", "properties": {"highway": "path", "footway": null, "name": null, "surface": "compacted", "lit": "no", "length_m": 61.84, "type_element": "Way", "__fid": 119715}, "geometry": {"type": "LineString", "coordinates": [[2.4127852, 48.8273346], [2.4126146, 48.82764440000001], [2.4125841, 48.82787]]}}, {"type": "Feature", "properties": {"highway": "path", "footway": null, "name": null, "surface": "dirt", "lit": null, "length_m": 34.68, "type_element": "Way", "__fid": 119723}, "geometry": {"type": "LineString", "coordinates": [[2.4126029, 48.8287251], [2.4127892, 48.8287907], [2.4129166, 48.828826], [2.4130214, 48.828868599999986]]}}, {"type": "Feature", "properties": {"highway": "path", "footway": null, "name": null, "surface": "dirt", "lit": null, "length_m": 57.45, "type_element": "Way", "__fid": 119724}, "geometry": {"type": "LineString", "coordinates": [[2.4126029, 48.8287251], [2.412649, 48.8286332], [2.4126731, 48.8284884], [2.4126725, 48.82821420000002]]}}, {"type": "Feature", "properties": {"highway": "path", "footway": null, "name": null, "surface": null, "lit": "no", "length_m": 95.86, "type_element": "Way", "__fid": 119725}, "geometry": {"type": "LineString", "coordinates": [[2.4126571, 48.8248452], [2.412877, 48.8248508], [2.413046, 48.8248649], [2.4131559, 48.8248985], [2.4133061, 48.8249197], [2.4136629, 48.824925], [2.4139445, 48.8249479]]}}, {"type": "Feature", "properties": {"highway": "service", "footway": null, "name": "Chemin du Cimetière", "surface": "asphalt", "lit": null, "length_m": 85.31, "type_element": "Way", "__fid": 119726}, "geometry": {"type": "LineString", "coordinates": [[2.4134673, 48.82535020000001], [2.4132891, 48.8253039], [2.4131065, 48.8252333], [2.4128894, 48.825110400000014], [2.4127254, 48.8249799], [2.4126661, 48.8248809], [2.4126571, 48.8248452]]}}, {"type": "Feature", "properties": {"highway": "path", "footway": null, "name": "Avenue de Gravelle", "surface": "asphalt", "lit": "yes", "length_m": 101.05, "type_element": "Way", "__fid": 119727}, "geometry": {"type": "LineString", "coordinates": [[2.4126571, 48.8248452], [2.4126428, 48.8248065], [2.4130472, 48.8247857], [2.4136138, 48.8247817], [2.4139573, 48.82479090000001]]}}, {"type": "Feature", "properties": {"highway": "path", "footway": null, "name": null, "surface": "compacted", "lit": "no", "length_m": 17.55, "type_element": "Way", "__fid": 119733}, "geometry": {"type": "LineString", "coordinates": [[2.4126632, 48.828056], [2.4127827, 48.82819270000001]]}}, {"type": "Feature", "properties": {"highway": "path", "footway": null, "name": null, "surface": "dirt", "lit": null, "length_m": 17.6, "type_element": "Way", "__fid": 119734}, "geometry": {"type": "LineString", "coordinates": [[2.4126725, 48.82821420000002], [2.4126632, 48.828056]]}}, {"type": "Feature", "properties": {"highway": "path", "footway": null, "name": null, "surface": "dirt", "lit": null, "length_m": 8.5, "type_element": "Way", "__fid": 119738}, "geometry": {"type": "LineString", "coordinates": [[2.4126725, 48.82821420000002], [2.4127376, 48.828206399999985], [2.4127827, 48.82819270000001]]}}, {"type": "Feature", "properties": {"highway": "service", "footway": null, "name": "Route du Bac", "surface": "asphalt", "lit": "yes", "length_m": 28.02, "type_element": "Way", "__fid": 119756}, "geometry": {"type": "LineString", "coordinates": [[2.4127852, 48.8273346], [2.4131046, 48.8271967]]}}, {"type": "Feature", "properties": {"highway": "path", "footway": null, "name": null, "surface": "compacted", "lit": "no", "length_m": 81.49, "type_element": "Way", "__fid": 119757}, "geometry": {"type": "LineString", "coordinates": [[2.4127827, 48.82819270000001], [2.4129736, 48.8283096], [2.4136821, 48.828619199999984]]}}, {"type": "Feature", "properties": {"highway": "path", "footway": null, "name": null, "surface": "dirt", "lit": null, "length_m": 230.83, "type_element": "Way", "__fid": 119758}, "geometry": {"type": "LineString", "coordinates": [[2.4127827, 48.82819270000001], [2.4130647, 48.8281139], [2.4133954, 48.8280003], [2.4135431, 48.8279622], [2.4138395, 48.827868199999976], [2.4141088, 48.827764], [2.4142033, 48.8277344], [2.4144737, 48.8276823], [2.4145588, 48.827659], [2.414841, 48.8275579], [2.4152237, 48.8274506], [2.4156235, 48.8273136]]}}, {"type": "Feature", "properties": {"highway": "pedestrian", "footway": null, "name": "Route de la Ceinture du Lac Daumesnil", "surface": "asphalt", "lit": "yes", "length_m": 55.87, "type_element": "Way", "__fid": 119804}, "geometry": {"type": "LineString", "coordinates": [[2.4130214, 48.828868599999986], [2.4136821, 48.828619199999984]]}}, {"type": "Feature", "properties": {"highway": "path", "footway": null, "name": null, "surface": "compacted", "lit": null, "length_m": 121.5, "type_element": "Way", "__fid": 119827}, "geometry": {"type": "LineString", "coordinates": [[2.4131046, 48.8271967], [2.4132898, 48.8269594], [2.4134618, 48.826705], [2.4135218, 48.8265608], [2.4135409, 48.8264024], [2.4135252, 48.8262882], [2.4134843, 48.8261671]]}}, {"type": "Feature", "properties": {"highway": "service", "footway": null, "name": "Route du Bac", "surface": "asphalt", "lit": "yes", "length_m": 48.14, "type_element": "Way", "__fid": 119828}, "geometry": {"type": "LineString", "coordinates": [[2.4131046, 48.8271967], [2.4137137, 48.8270363]]}}, {"type": "Feature", "properties": {"highway": "path", "footway": null, "name": null, "surface": "compacted", "lit": null, "length_m": 9.75, "type_element": "Way", "__fid": 119855}, "geometry": {"type": "LineString", "coordinates": [[2.4132994, 48.8258722], [2.4132486, 48.82579120000001]]}}, {"type": "Feature", "properties": {"highway": "footway", "footway": null, "name": null, "surface": "dirt", "lit": null, "length_m": 35.08, "type_element": "Way", "__fid": 119856}, "geometry": {"type": "LineString", "coordinates": [[2.4132486, 48.82579120000001], [2.413288, 48.8256103], [2.4133295, 48.825542], [2.4133796, 48.825493]]}}, {"type": "Feature", "properties": {"highway": "path", "footway": null, "name": null, "surface": "compacted", "lit": null, "length_m": 35.49, "type_element": "Way", "__fid": 119867}, "geometry": {"type": "LineString", "coordinates": [[2.4134843, 48.8261671], [2.4132994, 48.8258722]]}}, {"type": "Feature", "properties": {"highway": "footway", "footway": null, "name": null, "surface": "dirt", "lit": null, "length_m": 44.16, "type_element": "Way", "__fid": 119868}, "geometry": {"type": "LineString", "coordinates": [[2.4132994, 48.8258722], [2.4133937, 48.82574860000001], [2.4134018, 48.82552630000002], [2.4133796, 48.825493]]}}, {"type": "Feature", "properties": {"highway": "steps", "footway": null, "name": null, "surface": "concrete", "lit": null, "length_m": 8.55, "type_element": "Way", "__fid": 119883}, "geometry": {"type": "LineString", "coordinates": [[2.4133796, 48.825493], [2.4134577, 48.825436]]}}, {"type": "Feature", "properties": {"highway": "path", "footway": null, "name": null, "surface": "dirt", "lit": null, "length_m": 216.78, "type_element": "Way", "__fid": 119900}, "geometry": {"type": "LineString", "coordinates": [[2.4134577, 48.825436], [2.4134755, 48.8254819], [2.4135398, 48.825509], [2.4135595, 48.8257666], [2.4151318, 48.8261665], [2.4152283, 48.8261806], [2.4158579, 48.8261606]]}}, {"type": "Feature", "properties": {"highway": "path", "footway": null, "name": null, "surface": "dirt", "lit": null, "length_m": 9.57, "type_element": "Way", "__fid": 119901}, "geometry": {"type": "LineString", "coordinates": [[2.4134673, 48.82535020000001], [2.4134577, 48.825436]]}}, {"type": "Feature", "properties": {"highway": "footway", "footway": null, "name": null, "surface": "dirt", "lit": null, "length_m": 66.11, "type_element": "Way", "__fid": 119908}, "geometry": {"type": "LineString", "coordinates": [[2.4134638, 48.825291], [2.4133827, 48.8252156], [2.4133824, 48.825202], [2.413558, 48.8250549], [2.41391, 48.82499480000001], [2.4140025, 48.82499759999999]]}}, {"type": "Feature", "properties": {"highway": "service", "footway": null, "name": "Chemin du Cimetière", "surface": "sett", "lit": null, "length_m": 7.68, "type_element": "Way", "__fid": 119910}, "geometry": {"type": "LineString", "coordinates": [[2.4135653, 48.8253743], [2.4134673, 48.82535020000001]]}}, {"type": "Feature", "properties": {"highway": "path", "footway": null, "name": null, "surface": "compacted", "lit": null, "length_m": 97.2, "type_element": "Way", "__fid": 119913}, "geometry": {"type": "LineString", "coordinates": [[2.4143092, 48.826843], [2.4139975, 48.8265163], [2.4138111, 48.826370699999984], [2.4135965, 48.82622940000001], [2.4135201, 48.8261932], [2.4134843, 48.8261671]]}}, {"type": "Feature", "properties": {"highway": "service", "footway": null, "name": null, "surface": "asphalt", "lit": null, "length_m": 54.13, "type_element": "Way", "__fid": 119924}, "geometry": {"type": "LineString", "coordinates": [[2.4142555, 48.82554560000001], [2.4135653, 48.8253743]]}}, {"type": "Feature", "properties": {"highway": "service", "footway": null, "name": null, "surface": "sett", "lit": null, "length_m": 19.18, "type_element": "Way", "__fid": 119925}, "geometry": {"type": "LineString", "coordinates": [[2.4135653, 48.8253743], [2.4136602, 48.8252136]]}}, {"type": "Feature", "properties": {"highway": "steps", "footway": null, "name": null, "surface": "compacted", "lit": "no", "length_m": 7.85, "type_element": "Way", "__fid": 119930}, "geometry": {"type": "LineString", "coordinates": [[2.4136054, 48.8296487], [2.4135721, 48.8295816]]}}, {"type": "Feature", "properties": {"highway": "track", "footway": null, "name": "Promenade Maurice-Boitel", "surface": "compacted", "lit": null, "length_m": 83.49, "type_element": "Way", "__fid": 119931}, "geometry": {"type": "LineString", "coordinates": [[2.4146443, 48.8293318], [2.4141956, 48.8294388], [2.4138236, 48.8295182], [2.4135721, 48.8295816]]}}, {"type": "Feature", "properties": {"highway": "path", "footway": null, "name": null, "surface": "compacted", "lit": "no", "length_m": 91.13, "type_element": "Way", "__fid": 119949}, "geometry": {"type": "LineString", "coordinates": [[2.4136821, 48.828619199999984], [2.4139725, 48.8287447], [2.4146897, 48.8290974]]}}, {"type": "Feature", "properties": {"highway": "pedestrian", "footway": null, "name": "Route de la Ceinture du Lac Daumesnil", "surface": "asphalt", "lit": "yes", "length_m": 130.77, "type_element": "Way", "__fid": 119950}, "geometry": {"type": "LineString", "coordinates": [[2.4136821, 48.828619199999984], [2.4147941, 48.8282382], [2.4152844, 48.828108]]}}, {"type": "Feature", "properties": {"highway": "service", "footway": null, "name": "Route du Bac", "surface": "asphalt", "lit": "yes", "length_m": 48.72, "type_element": "Way", "__fid": 119951}, "geometry": {"type": "LineString", "coordinates": [[2.4137137, 48.8270363], [2.4143092, 48.826843]]}}, {"type": "Feature", "properties": {"highway": "service", "footway": null, "name": "Route de la Plaine", "surface": "asphalt", "lit": "no", "length_m": 56.46, "type_element": "Way", "__fid": 119952}, "geometry": {"type": "LineString", "coordinates": [[2.4144648, 48.8269272], [2.4137137, 48.8270363]]}}, {"type": "Feature", "properties": {"highway": "service", "footway": null, "name": null, "surface": "compacted", "lit": null, "length_m": 18.75, "type_element": "Way", "__fid": 119972}, "geometry": {"type": "LineString", "coordinates": [[2.4140844, 48.8258391], [2.4138473, 48.8257765]]}}, {"type": "Feature", "properties": {"highway": "path", "footway": null, "name": null, "surface": null, "lit": null, "length_m": 6.98, "type_element": "Way", "__fid": 119981}, "geometry": {"type": "LineString", "coordinates": [[2.4139445, 48.8249479], [2.4140025, 48.82499759999999]]}}, {"type": "Feature", "properties": {"highway": "path", "footway": null, "name": null, "surface": null, "lit": null, "length_m": 19.04, "type_element": "Way", "__fid": 119982}, "geometry": {"type": "LineString", "coordinates": [[2.4139573, 48.82479090000001], [2.4139868, 48.8248847], [2.4139881, 48.82492], [2.4139445, 48.8249479]]}}, {"type": "Feature", "properties": {"highway": "path", "footway": null, "name": null, "surface": null, "lit": "no", "length_m": 106.71, "type_element": "Way", "__fid": 119983}, "geometry": {"type": "LineString", "coordinates": [[2.4139445, 48.8249479], [2.4142342, 48.8249409], [2.4144729, 48.8249444], [2.415181, 48.8250027], [2.4153716, 48.8249427]]}}, {"type": "Feature", "properties": {"highway": "path", "footway": null, "name": "Avenue de Gravelle", "surface": "asphalt", "lit": "yes", "length_m": 98.16, "type_element": "Way", "__fid": 119984}, "geometry": {"type": "LineString", "coordinates": [[2.4139573, 48.82479090000001], [2.4149514, 48.8248426], [2.4152909, 48.8248519]]}}, {"type": "Feature", "properties": {"highway": "path", "footway": null, "name": null, "surface": null, "lit": null, "length_m": 130.58, "type_element": "Way", "__fid": 119990}, "geometry": {"type": "LineString", "coordinates": [[2.4140025, 48.82499759999999], [2.4140283, 48.8250092], [2.4144374, 48.8250851], [2.4151589, 48.82524849999999], [2.4153319, 48.82530410000001], [2.4156712, 48.825397]]}}, {"type": "Feature", "properties": {"highway": "service", "footway": null, "name": null, "surface": "compacted", "lit": null, "length_m": 28.41, "type_element": "Way", "__fid": 119995}, "geometry": {"type": "LineString", "coordinates": [[2.4140844, 48.8258391], [2.4144468, 48.8259286]]}}, {"type": "Feature", "properties": {"highway": "service", "footway": null, "name": null, "surface": "asphalt", "lit": null, "length_m": 34.97, "type_element": "Way", "__fid": 119996}, "geometry": {"type": "LineString", "coordinates": [[2.4142555, 48.82554560000001], [2.4140844, 48.8258391]]}}, {"type": "Feature", "properties": {"highway": "service", "footway": null, "name": null, "surface": "asphalt", "lit": null, "length_m": 26.08, "type_element": "Way", "__fid": 120015}, "geometry": {"type": "LineString", "coordinates": [[2.4145878, 48.8256284], [2.4142555, 48.82554560000001]]}}, {"type": "Feature", "properties": {"highway": "service", "footway": null, "name": null, "surface": "asphalt", "lit": null, "length_m": 63.66, "type_element": "Way", "__fid": 120016}, "geometry": {"type": "LineString", "coordinates": [[2.4147911, 48.8253408], [2.4144384, 48.8252475], [2.4142555, 48.82554560000001]]}}, {"type": "Feature", "properties": {"highway": "path", "footway": null, "name": null, "surface": "compacted", "lit": "no", "length_m": 15.32, "type_element": "Way", "__fid": 120019}, "geometry": {"type": "LineString", "coordinates": [[2.4143092, 48.826843], [2.4143988, 48.8268678], [2.4144648, 48.8269272]]}}, {"type": "Feature", "properties": {"highway": "service", "footway": null, "name": "Route du Bac", "surface": "asphalt", "lit": "yes", "length_m": 137.1, "type_element": "Way", "__fid": 120020}, "geometry": {"type": "LineString", "coordinates": [[2.4143092, 48.826843], [2.4151378, 48.826535], [2.4158579, 48.8261606]]}}, {"type": "Feature", "properties": {"highway": "service", "footway": null, "name": null, "surface": "asphalt", "lit": null, "length_m": 61.44, "type_element": "Way", "__fid": 120040}, "geometry": {"type": "LineString", "coordinates": [[2.4144468, 48.8259286], [2.4148139, 48.8260192], [2.4149697, 48.825744]]}}, {"type": "Feature", "properties": {"highway": "service", "footway": null, "name": null, "surface": "compacted", "lit": null, "length_m": 32.09, "type_element": "Way", "__fid": 120041}, "geometry": {"type": "LineString", "coordinates": [[2.4146035, 48.8256592], [2.4144468, 48.8259286]]}}, {"type": "Feature", "properties": {"highway": "path", "footway": null, "name": null, "surface": "compacted", "lit": "no", "length_m": 95.84, "type_element": "Way", "__fid": 120048}, "geometry": {"type": "LineString", "coordinates": [[2.4144648, 48.8269272], [2.4145522, 48.82698110000001], [2.4150105, 48.8270977], [2.4156235, 48.8273136]]}}, {"type": "Feature", "properties": {"highway": "service", "footway": null, "name": "Route de la Plaine", "surface": "asphalt", "lit": "no", "length_m": 146.2, "type_element": "Way", "__fid": 120049}, "geometry": {"type": "LineString", "coordinates": [[2.4164495, 48.8268692], [2.4157996, 48.82685], [2.4152364, 48.8268664], [2.4144648, 48.8269272]]}}, {"type": "Feature", "properties": {"highway": "path", "footway": null, "name": null, "surface": null, "lit": null, "length_m": 44.66, "type_element": "Way", "__fid": 120077}, "geometry": {"type": "LineString", "coordinates": [[2.4145137, 48.8286152], [2.4145462, 48.8285907], [2.4147263, 48.82857], [2.4148337, 48.8285248], [2.4149492, 48.82853140000002], [2.4150562, 48.8285834]]}}, {"type": "Feature", "properties": {"highway": "track", "footway": null, "name": null, "surface": "compacted", "lit": null, "length_m": 7.84, "type_element": "Way", "__fid": 120081}, "geometry": {"type": "LineString", "coordinates": [[2.4146443, 48.8293318], [2.4145419, 48.8293118]]}}, {"type": "Feature", "properties": {"highway": "path", "footway": null, "name": null, "surface": "compacted", "lit": null, "length_m": 26.19, "type_element": "Way", "__fid": 120082}, "geometry": {"type": "LineString", "coordinates": [[2.4146897, 48.8290974], [2.4145419, 48.8293118]]}}, {"type": "Feature", "properties": {"highway": "service", "footway": null, "name": null, "surface": null, "lit": null, "length_m": 3.85, "type_element": "Way", "__fid": 120083}, "geometry": {"type": "LineString", "coordinates": [[2.4146035, 48.8256592], [2.4145904, 48.82565120000001], [2.4145878, 48.8256284]]}}, {"type": "Feature", "properties": {"highway": "service", "footway": null, "name": null, "surface": null, "lit": null, "length_m": 3.59, "type_element": "Way", "__fid": 120084}, "geometry": {"type": "LineString", "coordinates": [[2.4145878, 48.8256284], [2.4145978, 48.8256197], [2.4146293, 48.82561470000001]]}}, {"type": "Feature", "properties": {"highway": "service", "footway": null, "name": null, "surface": null, "lit": null, "length_m": 4.59, "type_element": "Way", "__fid": 120087}, "geometry": {"type": "LineString", "coordinates": [[2.414656, 48.8256454], [2.4146347, 48.8256605], [2.4146035, 48.8256592]]}}, {"type": "Feature", "properties": {"highway": "service", "footway": null, "name": null, "surface": null, "lit": null, "length_m": 4.3, "type_element": "Way", "__fid": 120097}, "geometry": {"type": "LineString", "coordinates": [[2.4146293, 48.82561470000001], [2.4146529, 48.8256262], [2.414656, 48.8256454]]}}, {"type": "Feature", "properties": {"highway": "service", "footway": null, "name": null, "surface": "asphalt", "lit": null, "length_m": 32.69, "type_element": "Way", "__fid": 120098}, "geometry": {"type": "LineString", "coordinates": [[2.4147911, 48.8253408], [2.4146293, 48.82561470000001]]}}, {"type": "Feature", "properties": {"highway": "service", "footway": null, "name": null, "surface": "asphalt", "lit": null, "length_m": 25.42, "type_element": "Way", "__fid": 120105}, "geometry": {"type": "LineString", "coordinates": [[2.4149785, 48.8257285], [2.414656, 48.8256454]]}}, {"type": "Feature", "properties": {"highway": "track", "footway": null, "name": "Promenade Maurice-Boitel", "surface": "compacted", "lit": null, "length_m": 34.19, "type_element": "Way", "__fid": 120112}, "geometry": {"type": "LineString", "coordinates": [[2.4150924, 48.8294155], [2.4146443, 48.8293318]]}}, {"type": "Feature", "properties": {"highway": "path", "footway": null, "name": null, "surface": "compacted", "lit": "no", "length_m": 46.18, "type_element": "Way", "__fid": 120117}, "geometry": {"type": "LineString", "coordinates": [[2.4146897, 48.8290974], [2.4149671, 48.8292986], [2.4150924, 48.8294155]]}}, {"type": "Feature", "properties": {"highway": "path", "footway": null, "name": null, "surface": null, "lit": null, "length_m": 66.47, "type_element": "Way", "__fid": 120118}, "geometry": {"type": "LineString", "coordinates": [[2.4146897, 48.8290974], [2.4147931, 48.8290284], [2.414862, 48.8289286], [2.4150723, 48.8287235], [2.4150873, 48.828679399999984], [2.4150562, 48.8285834]]}}, {"type": "Feature", "properties": {"highway": "service", "footway": null, "name": null, "surface": "asphalt", "lit": null, "length_m": 60.73, "type_element": "Way", "__fid": 120127}, "geometry": {"type": "LineString", "coordinates": [[2.4149895, 48.8257092], [2.4151465, 48.82543470000002], [2.4147911, 48.8253408]]}}, {"type": "Feature", "properties": {"highway": "service", "footway": null, "name": null, "surface": "asphalt", "lit": null, "length_m": 7.74, "type_element": "Way", "__fid": 120170}, "geometry": {"type": "LineString", "coordinates": [[2.4150696, 48.8257516], [2.4150313, 48.82575889999998], [2.4149697, 48.825744]]}}, {"type": "Feature", "properties": {"highway": "service", "footway": null, "name": null, "surface": "asphalt", "lit": null, "length_m": 1.84, "type_element": "Way", "__fid": 120171}, "geometry": {"type": "LineString", "coordinates": [[2.4149697, 48.825744], [2.4149785, 48.8257285]]}}, {"type": "Feature", "properties": {"highway": "service", "footway": null, "name": null, "surface": "asphalt", "lit": null, "length_m": 2.29, "type_element": "Way", "__fid": 120175}, "geometry": {"type": "LineString", "coordinates": [[2.4149785, 48.8257285], [2.4149895, 48.8257092]]}}, {"type": "Feature", "properties": {"highway": "service", "footway": null, "name": null, "surface": "asphalt", "lit": null, "length_m": 8.11, "type_element": "Way", "__fid": 120179}, "geometry": {"type": "LineString", "coordinates": [[2.4150696, 48.8257516], [2.4150516, 48.8257253], [2.4149895, 48.8257092]]}}, {"type": "Feature", "properties": {"highway": "service", "footway": null, "name": null, "surface": "asphalt", "lit": null, "length_m": 19.47, "type_element": "Way", "__fid": 120194}, "geometry": {"type": "LineString", "coordinates": [[2.4153155, 48.8258171], [2.4150696, 48.8257516]]}}, {"type": "Feature", "properties": {"highway": "path", "footway": null, "name": null, "surface": null, "lit": null, "length_m": 35.98, "type_element": "Way", "__fid": 120197}, "geometry": {"type": "LineString", "coordinates": [[2.4150562, 48.8285834], [2.4150411, 48.8285026], [2.4150798, 48.828425], [2.4150532, 48.8282655]]}}, {"type": "Feature", "properties": {"highway": "service", "footway": null, "name": "Route des Îles", "surface": "asphalt", "lit": null, "length_m": 26.25, "type_element": "Way", "__fid": 120212}, "geometry": {"type": "LineString", "coordinates": [[2.4151783, 48.8296447], [2.4150924, 48.8294155]]}}, {"type": "Feature", "properties": {"highway": "service", "footway": null, "name": "Route des Îles", "surface": "asphalt", "lit": null, "length_m": 24.71, "type_element": "Way", "__fid": 120213}, "geometry": {"type": "LineString", "coordinates": [[2.4152308, 48.8292129], [2.4150924, 48.8294155]]}}, {"type": "Feature", "properties": {"highway": "track", "footway": null, "name": "Promenade Maurice-Boitel", "surface": "compacted", "lit": null, "length_m": 137.1, "type_element": "Way", "__fid": 120229}, "geometry": {"type": "LineString", "coordinates": [[2.416434, 48.82877639999999], [2.4160095, 48.829121], [2.4154655, 48.8295915], [2.4151783, 48.8296447]]}}, {"type": "Feature", "properties": {"highway": "service", "footway": null, "name": "Route des Îles", "surface": "asphalt", "lit": null, "length_m": 122.2, "type_element": "Way", "__fid": 120240}, "geometry": {"type": "LineString", "coordinates": [[2.4160579, 48.8282663], [2.4154687, 48.8288339], [2.4153283, 48.82902720000002], [2.4152308, 48.8292129]]}}, {"type": "Feature", "properties": {"highway": "footway", "footway": null, "name": null, "surface": "compacted", "lit": "no", "length_m": 101.85, "type_element": "Way", "__fid": 120241}, "geometry": {"type": "LineString", "coordinates": [[2.4152308, 48.8292129], [2.4153064, 48.8292118], [2.4154187, 48.82913869999999], [2.416434, 48.82877639999999]]}}, {"type": "Feature", "properties": {"highway": "path", "footway": null, "name": null, "surface": "dirt", "lit": null, "length_m": 11.71, "type_element": "Way", "__fid": 120244}, "geometry": {"type": "LineString", "coordinates": [[2.4153716, 48.8249427], [2.4152909, 48.8248519]]}}, {"type": "Feature", "properties": {"highway": "path", "footway": null, "name": "Avenue de Gravelle", "surface": "asphalt", "lit": "yes", "length_m": 185.73, "type_element": "Way", "__fid": 120245}, "geometry": {"type": "LineString", "coordinates": [[2.4152909, 48.8248519], [2.4158436, 48.8248437], [2.4162066, 48.82482670000001], [2.4165814, 48.8247953], [2.4171856, 48.82471], [2.4177801, 48.8246001]]}}, {"type": "Feature", "properties": {"highway": "path", "footway": null, "name": null, "surface": "compacted", "lit": null, "length_m": 61.25, "type_element": "Way", "__fid": 120249}, "geometry": {"type": "LineString", "coordinates": [[2.4152844, 48.828108], [2.4153296, 48.8281515], [2.4154013, 48.8281808], [2.4155204, 48.8282054], [2.4160579, 48.8282663]]}}, {"type": "Feature", "properties": {"highway": "pedestrian", "footway": null, "name": "Route de la Ceinture du Lac Daumesnil", "surface": "asphalt", "lit": "yes", "length_m": 87.78, "type_element": "Way", "__fid": 120250}, "geometry": {"type": "LineString", "coordinates": [[2.4152844, 48.828108], [2.4164274, 48.8278762]]}}, {"type": "Feature", "properties": {"highway": "path", "footway": null, "name": null, "surface": "dirt", "lit": null, "length_m": 55.31, "type_element": "Way", "__fid": 120255}, "geometry": {"type": "LineString", "coordinates": [[2.4156712, 48.825397], [2.4156003, 48.8253279], [2.4154731, 48.8250961], [2.4153716, 48.8249427]]}}, {"type": "Feature", "properties": {"highway": "path", "footway": null, "name": null, "surface": null, "lit": "no", "length_m": 176.31, "type_element": "Way", "__fid": 120256}, "geometry": {"type": "LineString", "coordinates": [[2.4153716, 48.8249427], [2.4154465, 48.8249268], [2.4161734, 48.8248897], [2.4168708, 48.8248226], [2.4174609, 48.8247431], [2.4177347, 48.8246871]]}}, {"type": "Feature", "properties": {"highway": "path", "footway": null, "name": null, "surface": "compacted", "lit": "no", "length_m": 78.56, "type_element": "Way", "__fid": 120279}, "geometry": {"type": "LineString", "coordinates": [[2.4156235, 48.8273136], [2.4159434, 48.8274571], [2.4163554, 48.8277508], [2.4163885, 48.827796700000015]]}}, {"type": "Feature", "properties": {"highway": "path", "footway": null, "name": null, "surface": "dirt", "lit": null, "length_m": 71.41, "type_element": "Way", "__fid": 120280}, "geometry": {"type": "LineString", "coordinates": [[2.4156235, 48.8273136], [2.4160811, 48.8271078], [2.4163983, 48.8269271]]}}, {"type": "Feature", "properties": {"highway": "path", "footway": null, "name": null, "surface": "dirt", "lit": null, "length_m": 8.84, "type_element": "Way", "__fid": 120283}, "geometry": {"type": "LineString", "coordinates": [[2.4157053, 48.8254675], [2.41571, 48.8254295], [2.4156712, 48.825397]]}}, {"type": "Feature", "properties": {"highway": "path", "footway": null, "name": null, "surface": "dirt", "lit": null, "length_m": 68.85, "type_element": "Way", "__fid": 120286}, "geometry": {"type": "LineString", "coordinates": [[2.4157053, 48.8254675], [2.4157825, 48.8254853], [2.4159178, 48.82553329999999], [2.4159661, 48.82556430000001], [2.4159967, 48.8256325], [2.416045, 48.8256992], [2.416052, 48.82574870000002], [2.4160179, 48.8257937], [2.4160355, 48.82583240000001], [2.4161711, 48.8259319]]}}, {"type": "Feature", "properties": {"highway": "path", "footway": null, "name": null, "surface": "dirt", "lit": null, "length_m": 80.08, "type_element": "Way", "__fid": 120287}, "geometry": {"type": "LineString", "coordinates": [[2.4158579, 48.8261606], [2.4156368, 48.8257059], [2.4157053, 48.8254675]]}}, {"type": "Feature", "properties": {"highway": "path", "footway": null, "name": null, "surface": "dirt", "lit": "no", "length_m": 54.95, "type_element": "Way", "__fid": 120304}, "geometry": {"type": "LineString", "coordinates": [[2.4158579, 48.8261606], [2.4161658, 48.8262131], [2.416596, 48.8262037]]}}, {"type": "Feature", "properties": {"highway": "path", "footway": null, "name": null, "surface": "dirt", "lit": null, "length_m": 90.78, "type_element": "Way", "__fid": 120305}, "geometry": {"type": "LineString", "coordinates": [[2.4164495, 48.8268692], [2.4163806, 48.82675420000001], [2.4161808, 48.8265903], [2.4159889, 48.8263922], [2.4158579, 48.8261606]]}}, {"type": "Feature", "properties": {"highway": "service", "footway": null, "name": "Route du Bac", "surface": "asphalt", "lit": "yes", "length_m": 34.28, "type_element": "Way", "__fid": 120306}, "geometry": {"type": "LineString", "coordinates": [[2.4158579, 48.8261606], [2.4161711, 48.8259319]]}}, {"type": "Feature", "properties": {"highway": "path", "footway": null, "name": null, "surface": "compacted", "lit": null, "length_m": 49.87, "type_element": "Way", "__fid": 120329}, "geometry": {"type": "LineString", "coordinates": [[2.4160579, 48.8282663], [2.4163714, 48.828303], [2.4165478, 48.8283152], [2.4167306, 48.8283047]]}}, {"type": "Feature", "properties": {"highway": "service", "footway": null, "name": "Route des Îles", "surface": "asphalt", "lit": null, "length_m": 49.53, "type_element": "Way", "__fid": 120330}, "geometry": {"type": "LineString", "coordinates": [[2.4165453, 48.8279583], [2.4160579, 48.8282663]]}}, {"type": "Feature", "properties": {"highway": "path", "footway": null, "name": null, "surface": "dirt", "lit": null, "length_m": 43.51, "type_element": "Way", "__fid": 120345}, "geometry": {"type": "LineString", "coordinates": [[2.4161711, 48.8259319], [2.4162992, 48.82601059999998], [2.416398, 48.8260873], [2.416596, 48.8262037]]}}, {"type": "Feature", "properties": {"highway": "service", "footway": null, "name": "Route du Bac", "surface": "asphalt", "lit": "yes", "length_m": 69.9, "type_element": "Way", "__fid": 120346}, "geometry": {"type": "LineString", "coordinates": [[2.4161711, 48.8259319], [2.4165369, 48.8256648], [2.4168005, 48.8254603]]}}, {"type": "Feature", "properties": {"highway": "path", "footway": null, "name": null, "surface": "dirt", "lit": "no", "length_m": 2.36, "type_element": "Way", "__fid": 120373}, "geometry": {"type": "LineString", "coordinates": [[2.4163984, 48.8278169], [2.4163885, 48.827796700000015]]}}, {"type": "Feature", "properties": {"highway": "path", "footway": null, "name": null, "surface": "dirt", "lit": "no", "length_m": 96.84, "type_element": "Way", "__fid": 120374}, "geometry": {"type": "LineString", "coordinates": [[2.4163885, 48.827796700000015], [2.4163581, 48.8273424], [2.4163983, 48.8269271]]}}, {"type": "Feature", "properties": {"highway": "path", "footway": null, "name": null, "surface": "dirt", "lit": "no", "length_m": 7.46, "type_element": "Way", "__fid": 120375}, "geometry": {"type": "LineString", "coordinates": [[2.4163983, 48.8269271], [2.4164495, 48.8268692]]}}, {"type": "Feature", "properties": {"highway": "path", "footway": null, "name": null, "surface": "dirt", "lit": "no", "length_m": 6.93, "type_element": "Way", "__fid": 120376}, "geometry": {"type": "LineString", "coordinates": [[2.4164274, 48.8278762], [2.4163984, 48.8278169]]}}, {"type": "Feature", "properties": {"highway": "path", "footway": null, "name": null, "surface": "compacted", "lit": null, "length_m": 82.46, "type_element": "Way", "__fid": 120377}, "geometry": {"type": "LineString", "coordinates": [[2.4163984, 48.8278169], [2.4172094, 48.82770739999999], [2.4175031, 48.8276862]]}}, {"type": "Feature", "properties": {"highway": "path", "footway": null, "name": null, "surface": "compacted", "lit": null, "length_m": 12.63, "type_element": "Way", "__fid": 120378}, "geometry": {"type": "LineString", "coordinates": [[2.4165453, 48.8279583], [2.4164955, 48.8279305], [2.4164274, 48.8278762]]}}, {"type": "Feature", "properties": {"highway": "pedestrian", "footway": null, "name": "Route de la Ceinture du Lac Daumesnil", "surface": "asphalt", "lit": "yes", "length_m": 20.44, "type_element": "Way", "__fid": 120379}, "geometry": {"type": "LineString", "coordinates": [[2.4164274, 48.8278762], [2.4167005, 48.8278405]]}}, {"type": "Feature", "properties": {"highway": "service", "footway": null, "name": "Route de la Plaine", "surface": "asphalt", "lit": "no", "length_m": 101.93, "type_element": "Way", "__fid": 120380}, "geometry": {"type": "LineString", "coordinates": [[2.4177988, 48.8270804], [2.4172417, 48.82697060000001], [2.4164495, 48.8268692]]}}, {"type": "Feature", "properties": {"highway": "path", "footway": null, "name": null, "surface": "dirt", "lit": "no", "length_m": 59.26, "type_element": "Way", "__fid": 120381}, "geometry": {"type": "LineString", "coordinates": [[2.4164495, 48.8268692], [2.4165499, 48.8268046], [2.4168056, 48.8263979]]}}, {"type": "Feature", "properties": {"highway": "track", "footway": null, "name": "Promenade Maurice-Boitel", "surface": "compacted", "lit": null, "length_m": 24.09, "type_element": "Way", "__fid": 120382}, "geometry": {"type": "LineString", "coordinates": [[2.4166509, 48.828613800000014], [2.416434, 48.82877639999999]]}}]}