{"type": "FeatureCollection", "features": [{"type": "Feature", "geometry": {"type": "Point", "coordinates": [2.411646, 48.859198]}, "properties": {"id": 20408, "name": "Baignade estivale - Louis Lumière", "categorie": "Baignades estivales", "photo_url": "https://cdn.paris.fr/eqpts-prod/2024/06/28/feb9c2a33dd9e30a864faff008d0c2ed.jpg", "photo_credit": "@", "photo_alt": null, "address_street": "30, rue Louis Lumière", "address_postcode": "75020", "address_city": "Paris", "phone": "0143708632", "accessibility": "{\"handicaps\": [{\"name\": \"Personnes déficientes visuelles\", \"status\": \"undefined\"}, {\"name\": \"Personnes déficientes auditives\", \"status\": \"undefined\"}, {\"name\": \"Personnes déficientes mentales\", \"status\": \"undefined\"}, {\"name\": \"Personnes à mobilité réduite\", \"status\": \"accessible\"}, {\"name\": \"Accueil en langue des signes\", \"status\": \"undefined\"}]}", "latitude": 48.859198, "longitude": 2.411646, "url": "https://www.paris.fr/lieux/baignade-estivale-louis-lumiere-20408", "type_element": "Baignades estivales", "__fid": 6}}, {"type": "Feature", "properties": {"@id": "node/918205930", "amenity": "drinking_water", "bottle": "yes", "fee": "no", "fixme": "verifier la position", "fountain": "water_tap", "panoramax": "14b6bc32-1675-49f4-8a41-fb23da8359ce", "source": "Eau de Paris", "type_element": "Fontaines à boire", "__fid": 262}, "geometry": {"type": "Point", "coordinates": [2.4114554, 48.8609242]}, "id": "node/918205930"}, {"type": "Feature", "properties": {"@id": "node/10539179736", "amenity": "drinking_water", "mapillary": "127425270206200", "type_element": "Fontaines à boire", "__fid": 849}, "geometry": {"type": "Point", "coordinates": [2.4106963, 48.8608387]}, "id": "node/10539179736"}, {"type": "Feature", "properties": {"@id": "node/10539179737", "amenity": "drinking_water", "mapillary": "130845599866127", "type_element": "Fontaines à boire", "__fid": 850}, "geometry": {"type": "Point", "coordinates": [2.4099267, 48.8609076]}, "id": "node/10539179737"}, {"type": "Feature", "properties": {"@id": "node/12877320436", "amenity": "drinking_water", "check_date": "2025-05-31", "fee": "no", "type_element": "Fontaines à boire", "__fid": 1012}, "geometry": {"type": "Point", "coordinates": [2.4122844, 48.8596212]}, "id": "node/12877320436"}, {"type": "Feature", "geometry": {"type": "Point", "coordinates": [2.412725, 48.862232]}, "properties": {"id": 16217, "name": "Jardin d'immeubles HLM Bagnolet", "categorie": "Parcs, jardins et bois", "photo_url": "https://cdn.paris.fr/eqpts-prod/2022/05/10/dc4af7a80688529d3851e98fec64a943.jpg", "photo_credit": "Sonia Yassa/Ville de Paris", "photo_alt": null, "address_street": "Rue Henri-Duvernois", "address_postcode": "75020", "address_city": "PARIS", "phone": null, "accessibility": "{\"handicaps\": [{\"name\": \"Personnes à mobilité réduite\", \"status\": \"accessible\"}, {\"name\": \"Personnes déficientes visuelles\", \"status\": \"undefined\"}, {\"name\": \"Personnes déficientes auditives\", \"status\": \"undefined\"}, {\"name\": \"Personnes déficientes mentales\", \"status\": \"undefined\"}, {\"name\": \"Accueil en langue des signes\", \"status\": \"undefined\"}]}", "latitude": 48.862232, "longitude": 2.412725, "url": "https://www.paris.fr/lieux/jardin-d-immeubles-hlm-bagnolet-16217", "type_element": "Parcs, Jardins et Bois", "__fid": 1162}}, {"type": "Feature", "geometry": {"type": "Point", "coordinates": [2.413122, 48.861024]}, "properties": {"id": 20418, "name": "Parc Aretha Franklin", "categorie": "Parcs, jardins et bois", "photo_url": "https://cdn.paris.fr/eqpts-prod/2024/09/12/ccab64d6cccf951cca6d5c25a511d791.jpg", "photo_credit": "Frédéric Combeau - Ville de Paris", "photo_alt": null, "address_street": "rue Serpollet", "address_postcode": "75020", "address_city": "Paris", "phone": null, "accessibility": "{\"handicaps\": [{\"name\": \"Personnes déficientes visuelles\", \"status\": \"undefined\"}, {\"name\": \"Personnes déficientes auditives\", \"status\": \"undefined\"}, {\"name\": \"Personnes déficientes mentales\", \"status\": \"undefined\"}, {\"name\": \"Personnes à mobilité réduite\", \"status\": \"undefined\"}, {\"name\": \"Accueil en langue des signes\", \"status\": \"undefined\"}]}", "latitude": 48.861024, "longitude": 2.413122, "url": "https://www.paris.fr/lieux/parc-aretha-franklin-20418", "type_element": "Parcs, Jardins et Bois", "__fid": 1279}}, {"type": "Feature", "geometry": {"type": "Point", "coordinates": [2.409838, 48.86053]}, "properties": {"id": 16195, "name": "Jardin Nicole Maestracci (ex Serpollet Boulevard Davout)", "categorie": "Parcs, jardins et bois", "photo_url": "https://cdn.paris.fr/eqpts-prod/2022/07/07/73ae515021a206fc72d5e213554f66e6.jpg", "photo_credit": "Sonia Yassa/Ville de Paris", "photo_alt": null, "address_street": "2, rue Serpollet", "address_postcode": "75020", "address_city": "PARIS", "phone": null, "accessibility": "{\"handicaps\": [{\"name\": \"Personnes à mobilité réduite\", \"status\": \"accessible\"}, {\"name\": \"Personnes déficientes visuelles\", \"status\": \"undefined\"}, {\"name\": \"Personnes déficientes auditives\", \"status\": \"undefined\"}, {\"name\": \"Personnes déficientes mentales\", \"status\": \"undefined\"}, {\"name\": \"Accueil en langue des signes\", \"status\": \"undefined\"}]}", "latitude": 48.86053, "longitude": 2.409838, "url": "https://www.paris.fr/lieux/jardin-nicole-maestracci-ex-serpollet-boulevard-davout-16195", "type_element": "Parcs, Jardins et Bois", "__fid": 1398}}, {"type": "Feature", "geometry": {"type": "Point", "coordinates": [2.411485, 48.860117]}, "properties": {"id": 2707, "name": "Square Louis Lumière", "categorie": "Parcs, jardins et bois", "photo_url": "https://cdn.paris.fr/eqpts-prod/2022/05/10/bd79ffc6d8a436f659b257b8aedcdeb9.jpg", "photo_credit": "Sonia Yassa/Ville de Paris", "photo_alt": null, "address_street": "42 rue Louis Lumière", "address_postcode": "75020", "address_city": "PARIS", "phone": null, "accessibility": "{\"handicaps\": [{\"name\": \"Personnes à mobilité réduite\", \"status\": \"accessible\"}, {\"name\": \"Personnes déficientes visuelles\", \"status\": \"undefined\"}, {\"name\": \"Personnes déficientes auditives\", \"status\": \"undefined\"}, {\"name\": \"Personnes déficientes mentales\", \"status\": \"undefined\"}, {\"name\": \"Accueil en langue des signes\", \"status\": \"undefined\"}]}", "latitude": 48.860117, "longitude": 2.411485, "url": "https://www.paris.fr/lieux/square-louis-lumiere-2707", "type_element": "Parcs, Jardins et Bois", "__fid": 1629}}, {"type": "Feature", "geometry": {"type": "Point", "coordinates": [2.410607, 48.860786]}, "properties": {"id": 19543, "name": "Piscine Yvonne Godard", "categorie": "Piscines", "photo_url": "https://cdn.paris.fr/eqpts-prod/2022/05/10/99386a9249187420e97ccaaf8f255980.jpg", "photo_credit": null, "photo_alt": null, "address_street": "7 rue Serpollet", "address_postcode": "75020", "address_city": "Paris", "phone": "0143617714", "accessibility": "{\"handicaps\": [{\"name\": \"Personnes à mobilité réduite\", \"status\": \"accessible\"}, {\"name\": \"Personnes déficientes visuelles\", \"status\": \"undefined\"}, {\"name\": \"Personnes déficientes auditives\", \"status\": \"undefined\"}, {\"name\": \"Personnes déficientes mentales\", \"status\": \"undefined\"}, {\"name\": \"Accueil en langue des signes\", \"status\": \"undefined\"}], \"additional_info\": \"<p>PMR : chaise de mise à l’eau et rampe d’accès dans le petit bassin, chaise de mise à l’eau dans<br>\\n&nbsp;le grand bassin, vestiaires et douches.&nbsp;&nbsp;</p>\"}", "latitude": 48.860786, "longitude": 2.410607, "url": "https://www.paris.fr/lieux/piscine-yvonne-godard-19543", "type_element": "Piscines", "__fid": 1666}}, {"type": "Feature", "properties": {"highway": "pedestrian", "footway": null, "name": "Allée Alquier-Debrousse", "surface": "paving_stones", "lit": "yes", "length_m": 188.33, "type_element": "Way", "__fid": 117219}, "geometry": {"type": "LineString", "coordinates": [[2.4064482, 48.8611766], [2.4089965, 48.8613801]]}}, {"type": "Feature", "properties": {"highway": "footway", "footway": "sidewalk", "name": null, "surface": "asphalt", "lit": null, "length_m": 166.09, "type_element": "Way", "__fid": 117270}, "geometry": {"type": "LineString", "coordinates": [[2.4065036, 48.8623661], [2.4073094, 48.8632207], [2.4077287, 48.86362170000002]]}}, {"type": "Feature", "properties": {"highway": "footway", "footway": "sidewalk", "name": null, "surface": "asphalt", "lit": null, "length_m": 125.92, "type_element": "Way", "__fid": 117315}, "geometry": {"type": "LineString", "coordinates": [[2.4075253, 48.8637121], [2.4072511, 48.86345270000002], [2.4065823, 48.8627661]]}}, {"type": "Feature", "properties": {"highway": "footway", "footway": "sidewalk", "name": null, "surface": "asphalt", "lit": null, "length_m": 54.88, "type_element": "Way", "__fid": 117469}, "geometry": {"type": "LineString", "coordinates": [[2.406948233333182, 48.864043500000044], [2.40755536666656, 48.863755133333356]]}}, {"type": "Feature", "properties": {"highway": "footway", "footway": "sidewalk", "name": null, "surface": "asphalt", "lit": null, "length_m": 55.93, "type_element": "Way", "__fid": 117481}, "geometry": {"type": "LineString", "coordinates": [[2.4069947, 48.8640949], [2.4070399, 48.86406680000001], [2.4075518, 48.8638358], [2.407627206363952, 48.86381799295641]]}}, {"type": "Feature", "properties": {"highway": "footway", "footway": null, "name": null, "surface": "compacted", "lit": null, "length_m": 42.87, "type_element": "Way", "__fid": 117501}, "geometry": {"type": "LineString", "coordinates": [[2.4070981, 48.8617821], [2.4072386, 48.8618073], [2.4073088, 48.86174430000001], [2.4074578, 48.8617415], [2.4075294, 48.8618095], [2.4075677, 48.8618259]]}}, {"type": "Feature", "properties": {"highway": "footway", "footway": "sidewalk", "name": null, "surface": null, "lit": "yes", "length_m": 69.46, "type_element": "Way", "__fid": 117523}, "geometry": {"type": "LineString", "coordinates": [[2.4078634, 48.8589805], [2.4075233, 48.8592301], [2.4072189, 48.8594379]]}}, {"type": "Feature", "properties": {"highway": "living_street", "footway": null, "name": "Rue de Srebrenica", "surface": "asphalt", "lit": "yes", "length_m": 68.56, "type_element": "Way", "__fid": 117541}, "geometry": {"type": "LineString", "coordinates": [[2.4072724, 48.8594645], [2.4073532, 48.8593843], [2.4078888, 48.85900249999999]]}}, {"type": "Feature", "properties": {"highway": "footway", "footway": "sidewalk", "name": null, "surface": null, "lit": "yes", "length_m": 230.2, "type_element": "Way", "__fid": 117553}, "geometry": {"type": "LineString", "coordinates": [[2.4094269, 48.8589842], [2.4094659, 48.8587602], [2.4094518, 48.8587523], [2.4086968, 48.8585794], [2.4084219, 48.8586539], [2.4079444, 48.8589896], [2.407648, 48.8592155], [2.4073751, 48.859399], [2.4072903, 48.85947310000001]]}}, {"type": "Feature", "properties": {"highway": "service", "footway": null, "name": null, "surface": null, "lit": null, "length_m": 167.69, "type_element": "Way", "__fid": 117586}, "geometry": {"type": "LineString", "coordinates": [[2.407333, 48.8606906], [2.4075213, 48.8608451], [2.4077359, 48.8608946], [2.4079223, 48.8609687], [2.4080765, 48.8610101], [2.4081288, 48.8610053], [2.4081858, 48.8609753], [2.4082341, 48.8609325], [2.4082864, 48.86069519999999], [2.408338, 48.8605716], [2.4084091, 48.8603277], [2.4084976, 48.86029060000001], [2.4086193, 48.8602643]]}}, {"type": "Feature", "properties": {"highway": "service", "footway": null, "name": null, "surface": null, "lit": "yes", "length_m": 89.95, "type_element": "Way", "__fid": 117587}, "geometry": {"type": "LineString", "coordinates": [[2.407333, 48.8606906], [2.4073947, 48.8606334], [2.4074406, 48.86036820000001], [2.4074784, 48.8603234], [2.4075935, 48.8602509], [2.4076297, 48.8602192], [2.4076726, 48.859944800000015]]}}, {"type": "Feature", "properties": {"highway": "footway", "footway": "sidewalk", "name": null, "surface": "asphalt", "lit": null, "length_m": 72.46, "type_element": "Way", "__fid": 117590}, "geometry": {"type": "LineString", "coordinates": [[2.4082761, 48.8645886], [2.407291, 48.86463540000002]]}}, {"type": "Feature", "properties": {"highway": "footway", "footway": "sidewalk", "name": null, "surface": null, "lit": null, "length_m": 117.0, "type_element": "Way", "__fid": 117592}, "geometry": {"type": "LineString", "coordinates": [[2.4086193, 48.8602643], [2.4084205, 48.8601031], [2.4073523, 48.8596381]]}}, {"type": "Feature", "properties": {"highway": "service", "footway": null, "name": null, "surface": null, "lit": null, "length_m": 124.21, "type_element": "Way", "__fid": 117597}, "geometry": {"type": "LineString", "coordinates": [[2.4088686, 48.8620766], [2.4087185, 48.8620708], [2.4073314, 48.8625162]]}}, {"type": "Feature", "properties": {"highway": "footway", "footway": "sidewalk", "name": null, "surface": null, "lit": null, "length_m": 20.08, "type_element": "Way", "__fid": 117603}, "geometry": {"type": "LineString", "coordinates": [[2.4073939, 48.8595243], [2.4076192, 48.8596268]]}}, {"type": "Feature", "properties": {"highway": "footway", "footway": "sidewalk", "name": null, "surface": "asphalt", "lit": null, "length_m": 67.64, "type_element": "Way", "__fid": 117604}, "geometry": {"type": "LineString", "coordinates": [[2.4082468, 48.864414400000015], [2.4081342, 48.8644483], [2.4073376, 48.8644819]]}}, {"type": "Feature", "properties": {"highway": "footway", "footway": "sidewalk", "name": null, "surface": null, "lit": null, "length_m": 86.48, "type_element": "Way", "__fid": 117639}, "geometry": {"type": "LineString", "coordinates": [[2.407416, 48.86508270000002], [2.408444085198751, 48.864702239288896]]}}, {"type": "Feature", "properties": {"highway": "pedestrian", "footway": null, "name": "Square Vitruve", "surface": "asphalt", "lit": "yes", "length_m": 7.51, "type_element": "Way", "__fid": 117677}, "geometry": {"type": "LineString", "coordinates": [[2.4076192, 48.8596268], [2.4075614, 48.8596825]]}}, {"type": "Feature", "properties": {"highway": "footway", "footway": "sidewalk", "name": null, "surface": "asphalt", "lit": null, "length_m": 5.27, "type_element": "Way", "__fid": 117687}, "geometry": {"type": "LineString", "coordinates": [[2.40755536666656, 48.863755133333356], [2.4075253, 48.8637121]]}}, {"type": "Feature", "properties": {"highway": "footway", "footway": "crossing", "name": null, "surface": "asphalt", "lit": null, "length_m": 17.99, "type_element": "Way", "__fid": 117688}, "geometry": {"type": "LineString", "coordinates": [[2.4075253, 48.8637121], [2.4077287, 48.86362170000002]]}}, {"type": "Feature", "properties": {"highway": "footway", "footway": "crossing", "name": null, "surface": "asphalt", "lit": null, "length_m": 8.21, "type_element": "Way", "__fid": 117706}, "geometry": {"type": "LineString", "coordinates": [[2.40755536666656, 48.863755133333356], [2.407623333333166, 48.86381383333337]]}}, {"type": "Feature", "properties": {"highway": "footway", "footway": "sidewalk", "name": null, "surface": null, "lit": null, "length_m": 150.53, "type_element": "Way", "__fid": 117720}, "geometry": {"type": "LineString", "coordinates": [[2.4076192, 48.8596268], [2.4080651, 48.8598473], [2.4085667, 48.8600687], [2.409132, 48.8605231]]}}, {"type": "Feature", "properties": {"highway": "pedestrian", "footway": null, "name": "Square Vitruve", "surface": "asphalt", "lit": "yes", "length_m": 239.94, "type_element": "Way", "__fid": 117721}, "geometry": {"type": "LineString", "coordinates": [[2.4094269, 48.8589842], [2.4092369, 48.8589699], [2.408904, 48.8587536], [2.4083178, 48.8591271], [2.408297, 48.85927610000001], [2.4077747, 48.859590200000014], [2.4074519, 48.8594408], [2.4074206, 48.859438200000014], [2.4074031, 48.8594486], [2.407409, 48.8594679], [2.4076614, 48.8595861], [2.4076192, 48.8596268]]}}, {"type": "Feature", "properties": {"highway": "footway", "footway": "sidewalk", "name": null, "surface": null, "lit": null, "length_m": 18.61, "type_element": "Way", "__fid": 117741}, "geometry": {"type": "LineString", "coordinates": [[2.4075792, 48.8651211], [2.4078025, 48.8650417]]}}, {"type": "Feature", "properties": {"highway": "footway", "footway": "sidewalk", "name": null, "surface": "asphalt", "lit": null, "length_m": 0.54, "type_element": "Way", "__fid": 117754}, "geometry": {"type": "LineString", "coordinates": [[2.407623333333166, 48.86381383333337], [2.407627206363952, 48.86381799295641]]}}, {"type": "Feature", "properties": {"highway": "footway", "footway": "sidewalk", "name": null, "surface": "asphalt", "lit": null, "length_m": 81.06, "type_element": "Way", "__fid": 117756}, "geometry": {"type": "LineString", "coordinates": [[2.407627206363952, 48.86381799295641], [2.4081275, 48.8643553], [2.4082468, 48.864414400000015]]}}, {"type": "Feature", "properties": {"highway": "footway", "footway": "sidewalk", "name": null, "surface": "asphalt", "lit": null, "length_m": 84.42, "type_element": "Way", "__fid": 117800}, "geometry": {"type": "LineString", "coordinates": [[2.4077287, 48.86362170000002], [2.40822, 48.8641477], [2.4083722, 48.8642472]]}}, {"type": "Feature", "properties": {"highway": "footway", "footway": "sidewalk", "name": null, "surface": null, "lit": "yes", "length_m": 70.22, "type_element": "Way", "__fid": 117835}, "geometry": {"type": "LineString", "coordinates": [[2.4078025, 48.8650417], [2.4080202, 48.8650932], [2.4081235, 48.8651373], [2.4082177, 48.8651881], [2.4082921, 48.8652415], [2.4084457, 48.8653868], [2.4084859, 48.8654133], [2.4085318, 48.8654148]]}}, {"type": "Feature", "properties": {"highway": "footway", "footway": "crossing", "name": null, "surface": null, "lit": "yes", "length_m": 11.23, "type_element": "Way", "__fid": 117836}, "geometry": {"type": "LineString", "coordinates": [[2.4078025, 48.8650417], [2.4079382, 48.864994899999985]]}}, {"type": "Feature", "properties": {"highway": "footway", "footway": null, "name": null, "surface": "asphalt", "lit": null, "length_m": 25.23, "type_element": "Way", "__fid": 117870}, "geometry": {"type": "LineString", "coordinates": [[2.408275339246913, 48.86456596759615], [2.4082294, 48.8645823], [2.4079384, 48.8645956]]}}, {"type": "Feature", "properties": {"highway": "steps", "footway": null, "name": null, "surface": null, "lit": null, "length_m": 24.57, "type_element": "Way", "__fid": 117872}, "geometry": {"type": "LineString", "coordinates": [[2.408273205587698, 48.86453141398367], [2.4082207, 48.8645207], [2.4079412, 48.8645308]]}}, {"type": "Feature", "properties": {"highway": "footway", "footway": "sidewalk", "name": null, "surface": null, "lit": null, "length_m": 53.36, "type_element": "Way", "__fid": 117873}, "geometry": {"type": "LineString", "coordinates": [[2.4079382, 48.864994899999985], [2.408163, 48.86507119999998], [2.4082834, 48.8651314], [2.4083756, 48.8651969], [2.4084856, 48.8652975]]}}, {"type": "Feature", "properties": {"highway": "footway", "footway": "sidewalk", "name": null, "surface": null, "lit": null, "length_m": 44.54, "type_element": "Way", "__fid": 117874}, "geometry": {"type": "LineString", "coordinates": [[2.4079382, 48.864994899999985], [2.4084723, 48.8648044]]}}, {"type": "Feature", "properties": {"highway": "footway", "footway": "sidewalk", "name": null, "surface": "paving_stones", "lit": null, "length_m": 13.23, "type_element": "Way", "__fid": 117984}, "geometry": {"type": "LineString", "coordinates": [[2.408273205587698, 48.86453141398367], [2.4082696, 48.8644727], [2.4082468, 48.864414400000015]]}}, {"type": "Feature", "properties": {"highway": "footway", "footway": "traffic_island", "name": null, "surface": "asphalt", "lit": null, "length_m": 20.87, "type_element": "Way", "__fid": 117985}, "geometry": {"type": "LineString", "coordinates": [[2.4082468, 48.864414400000015], [2.408281, 48.8643869], [2.4083722, 48.8642472]]}}, {"type": "Feature", "properties": {"highway": "footway", "footway": null, "name": null, "surface": null, "lit": null, "length_m": 1.65, "type_element": "Way", "__fid": 117999}, "geometry": {"type": "LineString", "coordinates": [[2.4082947, 48.8645358], [2.408273205587698, 48.86453141398367]]}}, {"type": "Feature", "properties": {"highway": "footway", "footway": "crossing", "name": null, "surface": "asphalt", "lit": "yes", "length_m": 3.85, "type_element": "Way", "__fid": 118000}, "geometry": {"type": "LineString", "coordinates": [[2.408275339246913, 48.86456596759615], [2.408273205587698, 48.86453141398367]]}}, {"type": "Feature", "properties": {"highway": "footway", "footway": "sidewalk", "name": null, "surface": null, "lit": null, "length_m": 2.52, "type_element": "Way", "__fid": 118002}, "geometry": {"type": "LineString", "coordinates": [[2.4082761, 48.8645886], [2.408275339246913, 48.86456596759615]]}}, {"type": "Feature", "properties": {"highway": "footway", "footway": null, "name": null, "surface": null, "lit": null, "length_m": 1.68, "type_element": "Way", "__fid": 118003}, "geometry": {"type": "LineString", "coordinates": [[2.408275339246913, 48.86456596759615], [2.4082955, 48.8645588]]}}, {"type": "Feature", "properties": {"highway": "footway", "footway": "sidewalk", "name": null, "surface": null, "lit": null, "length_m": 12.62, "type_element": "Way", "__fid": 118004}, "geometry": {"type": "LineString", "coordinates": [[2.408419801732883, 48.86464259076851], [2.4083441, 48.86459649999998], [2.4082761, 48.8645886]]}}, {"type": "Feature", "properties": {"highway": "footway", "footway": null, "name": null, "surface": null, "lit": null, "length_m": 2.56, "type_element": "Way", "__fid": 118023}, "geometry": {"type": "LineString", "coordinates": [[2.4082955, 48.8645588], [2.4082947, 48.8645358]]}}, {"type": "Feature", "properties": {"highway": "footway", "footway": null, "name": null, "surface": null, "lit": null, "length_m": 3.39, "type_element": "Way", "__fid": 118024}, "geometry": {"type": "LineString", "coordinates": [[2.4082947, 48.8645358], [2.4083409, 48.864535]]}}, {"type": "Feature", "properties": {"highway": "footway", "footway": null, "name": null, "surface": null, "lit": null, "length_m": 3.4, "type_element": "Way", "__fid": 118027}, "geometry": {"type": "LineString", "coordinates": [[2.4083418, 48.8645576], [2.4082955, 48.8645588]]}}, {"type": "Feature", "properties": {"highway": "footway", "footway": null, "name": null, "surface": "asphalt", "lit": null, "length_m": 2.51, "type_element": "Way", "__fid": 118057}, "geometry": {"type": "LineString", "coordinates": [[2.4083418, 48.8645576], [2.4083409, 48.864535]]}}, {"type": "Feature", "properties": {"highway": "footway", "footway": null, "name": null, "surface": "asphalt", "lit": null, "length_m": 36.91, "type_element": "Way", "__fid": 118058}, "geometry": {"type": "LineString", "coordinates": [[2.4083409, 48.864535], [2.4083415, 48.864519399999985], [2.4083831, 48.8644717], [2.40844420059083, 48.86421357274633]]}}, {"type": "Feature", "properties": {"highway": "footway", "footway": null, "name": null, "surface": "asphalt", "lit": null, "length_m": 11.99, "type_element": "Way", "__fid": 118061}, "geometry": {"type": "LineString", "coordinates": [[2.408419801732883, 48.86464259076851], [2.408392, 48.8645743], [2.4083418, 48.8645576]]}}, {"type": "Feature", "properties": {"highway": "footway", "footway": "sidewalk", "name": null, "surface": null, "lit": null, "length_m": 6.47, "type_element": "Way", "__fid": 118070}, "geometry": {"type": "LineString", "coordinates": [[2.4083722, 48.8642472], [2.40844420059083, 48.86421357274633]]}}, {"type": "Feature", "properties": {"highway": "footway", "footway": "sidewalk", "name": null, "surface": null, "lit": null, "length_m": 7.47, "type_element": "Way", "__fid": 118093}, "geometry": {"type": "LineString", "coordinates": [[2.408455, 48.8646982], [2.4084594, 48.86466669999998], [2.408419801732883, 48.86464259076851]]}}, {"type": "Feature", "properties": {"highway": "footway", "footway": null, "name": null, "surface": "asphalt", "lit": null, "length_m": 6.87, "type_element": "Way", "__fid": 118094}, "geometry": {"type": "LineString", "coordinates": [[2.408444085198751, 48.864702239288896], [2.408419801732883, 48.86464259076851]]}}, {"type": "Feature", "properties": {"highway": "footway", "footway": null, "name": null, "surface": "asphalt", "lit": null, "length_m": 28.86, "type_element": "Way", "__fid": 118107}, "geometry": {"type": "LineString", "coordinates": [[2.40844420059083, 48.86421357274633], [2.40850490129198, 48.86395713225438]]}}, {"type": "Feature", "properties": {"highway": "footway", "footway": "sidewalk", "name": null, "surface": null, "lit": null, "length_m": 4.71, "type_element": "Way", "__fid": 118108}, "geometry": {"type": "LineString", "coordinates": [[2.40844420059083, 48.86421357274633], [2.4084966, 48.8641891]]}}, {"type": "Feature", "properties": {"highway": "footway", "footway": null, "name": null, "surface": "asphalt", "lit": null, "length_m": 10.23, "type_element": "Way", "__fid": 118109}, "geometry": {"type": "LineString", "coordinates": [[2.40848025882236, 48.864791093846144], [2.408444085198751, 48.864702239288896]]}}, {"type": "Feature", "properties": {"highway": "footway", "footway": "sidewalk", "name": null, "surface": null, "lit": null, "length_m": 0.92, "type_element": "Way", "__fid": 118110}, "geometry": {"type": "LineString", "coordinates": [[2.408444085198751, 48.864702239288896], [2.408455, 48.8646982]]}}, {"type": "Feature", "properties": {"highway": "footway", "footway": "crossing", "name": null, "surface": null, "lit": "yes", "length_m": 10.33, "type_element": "Way", "__fid": 118113}, "geometry": {"type": "LineString", "coordinates": [[2.4084851, 48.864783], [2.4084981, 48.8647542], [2.408455, 48.8646982]]}}, {"type": "Feature", "properties": {"highway": "footway", "footway": "sidewalk", "name": null, "surface": null, "lit": null, "length_m": 33.03, "type_element": "Way", "__fid": 118124}, "geometry": {"type": "LineString", "coordinates": [[2.4084723, 48.8648044], [2.4084581, 48.864887], [2.4084724, 48.8651007]]}}, {"type": "Feature", "properties": {"highway": "footway", "footway": "sidewalk", "name": null, "surface": null, "lit": null, "length_m": 1.59, "type_element": "Way", "__fid": 118125}, "geometry": {"type": "LineString", "coordinates": [[2.4084723, 48.8648044], [2.40848025882236, 48.864791093846144]]}}, {"type": "Feature", "properties": {"highway": "steps", "footway": null, "name": null, "surface": null, "lit": null, "length_m": 43.55, "type_element": "Way", "__fid": 118127}, "geometry": {"type": "LineString", "coordinates": [[2.4084724, 48.8651007], [2.4085846, 48.8650981], [2.4085726, 48.8649647], [2.40848025882236, 48.864791093846144]]}}, {"type": "Feature", "properties": {"highway": "footway", "footway": "sidewalk", "name": null, "surface": null, "lit": null, "length_m": 0.97, "type_element": "Way", "__fid": 118132}, "geometry": {"type": "LineString", "coordinates": [[2.40848025882236, 48.864791093846144], [2.4084851, 48.864783]]}}, {"type": "Feature", "properties": {"highway": "footway", "footway": "crossing", "name": null, "surface": "asphalt", "lit": "yes", "length_m": 36.01, "type_element": "Way", "__fid": 118135}, "geometry": {"type": "LineString", "coordinates": [[2.4084851, 48.864783], [2.4085644, 48.86481050000001], [2.4089652, 48.8647984]]}}, {"type": "Feature", "properties": {"highway": "footway", "footway": "sidewalk", "name": null, "surface": "asphalt", "lit": null, "length_m": 25.8, "type_element": "Way", "__fid": 118136}, "geometry": {"type": "LineString", "coordinates": [[2.4084966, 48.8641891], [2.40850490129198, 48.86395713225438]]}}, {"type": "Feature", "properties": {"highway": "footway", "footway": "crossing", "name": null, "surface": "paving_stones", "lit": "yes", "length_m": 33.32, "type_element": "Way", "__fid": 118137}, "geometry": {"type": "LineString", "coordinates": [[2.4084966, 48.8641891], [2.4089507, 48.8641829]]}}, {"type": "Feature", "properties": {"highway": "footway", "footway": "sidewalk", "name": null, "surface": "asphalt", "lit": null, "length_m": 30.52, "type_element": "Way", "__fid": 118143}, "geometry": {"type": "LineString", "coordinates": [[2.40850490129198, 48.86395713225438], [2.4085108, 48.8637923], [2.4085273, 48.863698], [2.4085439, 48.8636883]]}}, {"type": "Feature", "properties": {"highway": "footway", "footway": null, "name": null, "surface": "asphalt", "lit": null, "length_m": 27.69, "type_element": "Way", "__fid": 118144}, "geometry": {"type": "LineString", "coordinates": [[2.40850490129198, 48.86395713225438], [2.408558, 48.8637106]]}}, {"type": "Feature", "properties": {"highway": "footway", "footway": "sidewalk", "name": null, "surface": "asphalt", "lit": null, "length_m": 2.69, "type_element": "Way", "__fid": 118157}, "geometry": {"type": "LineString", "coordinates": [[2.408558, 48.8637106], [2.4085439, 48.8636883]]}}, {"type": "Feature", "properties": {"highway": "footway", "footway": "sidewalk", "name": null, "surface": "asphalt", "lit": null, "length_m": 64.24, "type_element": "Way", "__fid": 118158}, "geometry": {"type": "LineString", "coordinates": [[2.4085439, 48.8636883], [2.4086498, 48.8631148]]}}, {"type": "Feature", "properties": {"highway": "footway", "footway": "crossing", "name": null, "surface": "paving_stones", "lit": "yes", "length_m": 10.81, "type_element": "Way", "__fid": 118165}, "geometry": {"type": "LineString", "coordinates": [[2.408558, 48.8637106], [2.408704, 48.8637237]]}}, {"type": "Feature", "properties": {"highway": "footway", "footway": "sidewalk", "name": null, "surface": null, "lit": null, "length_m": 57.0, "type_element": "Way", "__fid": 118179}, "geometry": {"type": "LineString", "coordinates": [[2.4091279, 48.86065089999999], [2.4090414, 48.8605994], [2.4086193, 48.8602643]]}}, {"type": "Feature", "properties": {"highway": "service", "footway": null, "name": null, "surface": null, "lit": null, "length_m": 4.06, "type_element": "Way", "__fid": 118180}, "geometry": {"type": "LineString", "coordinates": [[2.4086193, 48.8602643], [2.4086712, 48.8602517]]}}, {"type": "Feature", "properties": {"highway": "footway", "footway": "crossing", "name": null, "surface": "paving_stones", "lit": "yes", "length_m": 12.97, "type_element": "Way", "__fid": 118223}, "geometry": {"type": "LineString", "coordinates": [[2.4086498, 48.8631148], [2.4088245, 48.8631324]]}}, {"type": "Feature", "properties": {"highway": "footway", "footway": "sidewalk", "name": null, "surface": "asphalt", "lit": null, "length_m": 93.42, "type_element": "Way", "__fid": 118224}, "geometry": {"type": "LineString", "coordinates": [[2.4086498, 48.8631148], [2.4087095, 48.8629026], [2.4088289, 48.8622833]]}}, {"type": "Feature", "properties": {"highway": "footway", "footway": "crossing", "name": null, "surface": "paving_stones", "lit": "yes", "length_m": 10.16, "type_element": "Way", "__fid": 118272}, "geometry": {"type": "LineString", "coordinates": [[2.408704, 48.8637237], [2.4088407, 48.8637381]]}}, {"type": "Feature", "properties": {"highway": "footway", "footway": "traffic_island", "name": null, "surface": "paving_stones", "lit": "yes", "length_m": 66.34, "type_element": "Way", "__fid": 118273}, "geometry": {"type": "LineString", "coordinates": [[2.408704, 48.8637237], [2.4088245, 48.8631324]]}}, {"type": "Feature", "properties": {"highway": "footway", "footway": "crossing", "name": null, "surface": "paving_stones", "lit": "yes", "length_m": 33.95, "type_element": "Way", "__fid": 118339}, "geometry": {"type": "LineString", "coordinates": [[2.4088289, 48.8622833], [2.4092889, 48.8623168]]}}, {"type": "Feature", "properties": {"highway": "footway", "footway": "sidewalk", "name": null, "surface": null, "lit": null, "length_m": 23.17, "type_element": "Way", "__fid": 118340}, "geometry": {"type": "LineString", "coordinates": [[2.4088289, 48.8622833], [2.4088686, 48.8620766]]}}, {"type": "Feature", "properties": {"highway": "footway", "footway": "crossing", "name": null, "surface": "paving_stones", "lit": "yes", "length_m": 10.36, "type_element": "Way", "__fid": 118343}, "geometry": {"type": "LineString", "coordinates": [[2.4088245, 48.8631324], [2.4089644, 48.8631448]]}}, {"type": "Feature", "properties": {"highway": "footway", "footway": "crossing", "name": null, "surface": "paving_stones", "lit": "yes", "length_m": 11.96, "type_element": "Way", "__fid": 118347}, "geometry": {"type": "LineString", "coordinates": [[2.4088407, 48.8637381], [2.4090018, 48.8637547]]}}, {"type": "Feature", "properties": {"highway": "footway", "footway": "traffic_island", "name": null, "surface": "paving_stones", "lit": "yes", "length_m": 66.59, "type_element": "Way", "__fid": 118348}, "geometry": {"type": "LineString", "coordinates": [[2.4088407, 48.8637381], [2.4089644, 48.8631448]]}}, {"type": "Feature", "properties": {"highway": "service", "footway": null, "name": null, "surface": "sett", "lit": null, "length_m": 8.16, "type_element": "Way", "__fid": 118351}, "geometry": {"type": "LineString", "coordinates": [[2.408948, 48.86412139999999], [2.4088391, 48.8641063]]}}, {"type": "Feature", "properties": {"highway": "service", "footway": null, "name": null, "surface": null, "lit": null, "length_m": 9.81, "type_element": "Way", "__fid": 118353}, "geometry": {"type": "LineString", "coordinates": [[2.4090016, 48.8620857], [2.4088686, 48.8620766]]}}, {"type": "Feature", "properties": {"highway": "footway", "footway": "sidewalk", "name": null, "surface": null, "lit": null, "length_m": 78.01, "type_element": "Way", "__fid": 118354}, "geometry": {"type": "LineString", "coordinates": [[2.4088686, 48.8620766], [2.4089965, 48.8613801]]}}, {"type": "Feature", "properties": {"highway": "service", "footway": null, "name": null, "surface": null, "lit": null, "length_m": 18.24, "type_element": "Way", "__fid": 118393}, "geometry": {"type": "LineString", "coordinates": [[2.4091737, 48.8646571], [2.4089356, 48.8646098]]}}, {"type": "Feature", "properties": {"highway": "service", "footway": null, "name": null, "surface": "sett", "lit": null, "length_m": 55.01, "type_element": "Way", "__fid": 118396}, "geometry": {"type": "LineString", "coordinates": [[2.4094242, 48.8644621], [2.4093716, 48.8643399], [2.4093307, 48.864293199999985], [2.4092466, 48.864225], [2.4091821, 48.8641876], [2.4090995, 48.864154], [2.408948, 48.86412139999999]]}}, {"type": "Feature", "properties": {"highway": "footway", "footway": "sidewalk", "name": null, "surface": null, "lit": null, "length_m": 6.84, "type_element": "Way", "__fid": 118397}, "geometry": {"type": "LineString", "coordinates": [[2.408948, 48.86412139999999], [2.4089507, 48.8641829]]}}, {"type": "Feature", "properties": {"highway": "footway", "footway": "sidewalk", "name": null, "surface": null, "lit": null, "length_m": 41.16, "type_element": "Way", "__fid": 118398}, "geometry": {"type": "LineString", "coordinates": [[2.4090018, 48.8637547], [2.4089375, 48.86404119999999], [2.408948, 48.86412139999999]]}}, {"type": "Feature", "properties": {"highway": "footway", "footway": "sidewalk", "name": null, "surface": "concrete:plates", "lit": null, "length_m": 37.96, "type_element": "Way", "__fid": 118399}, "geometry": {"type": "LineString", "coordinates": [[2.4089507, 48.8641829], [2.4090435, 48.8642194], [2.4091276, 48.8642649], [2.4091981, 48.8643153], [2.409283, 48.8644323]]}}, {"type": "Feature", "properties": {"highway": "footway", "footway": "crossing", "name": null, "surface": "paving_stones", "lit": "yes", "length_m": 11.49, "type_element": "Way", "__fid": 118400}, "geometry": {"type": "LineString", "coordinates": [[2.4089644, 48.8631448], [2.4091196, 48.8631587]]}}, {"type": "Feature", "properties": {"highway": "pedestrian", "footway": null, "name": "Allée Alquier-Debrousse", "surface": "paving_stones", "lit": "yes", "length_m": 9.8, "type_element": "Way", "__fid": 118405}, "geometry": {"type": "LineString", "coordinates": [[2.4089965, 48.8613801], [2.4091291, 48.8613907]]}}, {"type": "Feature", "properties": {"highway": "footway", "footway": "sidewalk", "name": null, "surface": null, "lit": null, "length_m": 74.26, "type_element": "Way", "__fid": 118406}, "geometry": {"type": "LineString", "coordinates": [[2.4089965, 48.8613801], [2.4091145, 48.86071680000001]]}}, {"type": "Feature", "properties": {"highway": "footway", "footway": "sidewalk", "name": null, "surface": null, "lit": "yes", "length_m": 26.22, "type_element": "Way", "__fid": 118413}, "geometry": {"type": "LineString", "coordinates": [[2.4089811, 48.865034], [2.4089652, 48.8647984]]}}, {"type": "Feature", "properties": {"highway": "footway", "footway": "sidewalk", "name": null, "surface": "paving_stones", "lit": "yes", "length_m": 2.63, "type_element": "Way", "__fid": 118414}, "geometry": {"type": "LineString", "coordinates": [[2.4089652, 48.8647984], [2.4090001, 48.864793100000014]]}}, {"type": "Feature", "properties": {"highway": "footway", "footway": "sidewalk", "name": null, "surface": null, "lit": "yes", "length_m": 137.94, "type_element": "Way", "__fid": 118417}, "geometry": {"type": "LineString", "coordinates": [[2.40908, 48.86627280000001], [2.4089811, 48.865034]]}}, {"type": "Feature", "properties": {"highway": "footway", "footway": null, "name": null, "surface": "paving_stones", "lit": null, "length_m": 14.84, "type_element": "Way", "__fid": 118418}, "geometry": {"type": "LineString", "coordinates": [[2.4089811, 48.865034], [2.4090989, 48.8650321], [2.4091753, 48.865008400000015]]}}, {"type": "Feature", "properties": {"highway": "footway", "footway": "sidewalk", "name": null, "surface": "asphalt", "lit": null, "length_m": 35.71, "type_element": "Way", "__fid": 118424}, "geometry": {"type": "LineString", "coordinates": [[2.4090779, 48.86343750000001], [2.4090018, 48.8637547]]}}, {"type": "Feature", "properties": {"highway": "footway", "footway": "sidewalk", "name": null, "surface": "paving_stones", "lit": "yes", "length_m": 27.17, "type_element": "Way", "__fid": 118427}, "geometry": {"type": "LineString", "coordinates": [[2.4091753, 48.865008400000015], [2.4090001, 48.864793100000014]]}}, {"type": "Feature", "properties": {"highway": "footway", "footway": "sidewalk", "name": null, "surface": "paving_stones", "lit": "yes", "length_m": 8.31, "type_element": "Way", "__fid": 118428}, "geometry": {"type": "LineString", "coordinates": [[2.4090001, 48.864793100000014], [2.4091013, 48.86475950000001]]}}, {"type": "Feature", "properties": {"highway": "footway", "footway": "sidewalk", "name": null, "surface": null, "lit": null, "length_m": 111.43, "type_element": "Way", "__fid": 118449}, "geometry": {"type": "LineString", "coordinates": [[2.4090779, 48.86343750000001], [2.4105284, 48.8635716], [2.4105693, 48.8635951]]}}, {"type": "Feature", "properties": {"highway": "footway", "footway": "crossing", "name": null, "surface": null, "lit": null, "length_m": 14.28, "type_element": "Way", "__fid": 118450}, "geometry": {"type": "LineString", "coordinates": [[2.4091045, 48.8633103], [2.4090779, 48.86343750000001]]}}, {"type": "Feature", "properties": {"highway": "footway", "footway": "crossing", "name": null, "surface": null, "lit": "yes", "length_m": 34.46, "type_element": "Way", "__fid": 118455}, "geometry": {"type": "LineString", "coordinates": [[2.4091145, 48.86071680000001], [2.4095809, 48.86075319999998]]}}, {"type": "Feature", "properties": {"highway": "footway", "footway": "sidewalk", "name": null, "surface": null, "lit": null, "length_m": 7.39, "type_element": "Way", "__fid": 118456}, "geometry": {"type": "LineString", "coordinates": [[2.4091145, 48.86071680000001], [2.4091279, 48.86065089999999]]}}, {"type": "Feature", "properties": {"highway": "footway", "footway": "crossing", "name": null, "surface": null, "lit": null, "length_m": 14.42, "type_element": "Way", "__fid": 118463}, "geometry": {"type": "LineString", "coordinates": [[2.4091279, 48.86065089999999], [2.4091454, 48.8605553], [2.409132, 48.8605231]]}}, {"type": "Feature", "properties": {"highway": "footway", "footway": "sidewalk", "name": null, "surface": null, "lit": null, "length_m": 7.27, "type_element": "Way", "__fid": 118464}, "geometry": {"type": "LineString", "coordinates": [[2.409132, 48.8605231], [2.4091682, 48.8604622]]}}, {"type": "Feature", "properties": {"highway": "footway", "footway": "sidewalk", "name": null, "surface": null, "lit": null, "length_m": 112.96, "type_element": "Way", "__fid": 118465}, "geometry": {"type": "LineString", "coordinates": [[2.4091045, 48.8633103], [2.410556, 48.863447300000026], [2.4106258, 48.8634321]]}}, {"type": "Feature", "properties": {"highway": "footway", "footway": "sidewalk", "name": null, "surface": null, "lit": null, "length_m": 16.89, "type_element": "Way", "__fid": 118466}, "geometry": {"type": "LineString", "coordinates": [[2.4091196, 48.8631587], [2.4091045, 48.8633103]]}}, {"type": "Feature", "properties": {"highway": "footway", "footway": "sidewalk", "name": null, "surface": "paving_stones", "lit": null, "length_m": 24.67, "type_element": "Way", "__fid": 118476}, "geometry": {"type": "LineString", "coordinates": [[2.4091013, 48.86475950000001], [2.4093504, 48.8649085]]}}, {"type": "Feature", "properties": {"highway": "footway", "footway": "sidewalk", "name": null, "surface": "paving_stones", "lit": "yes", "length_m": 2.46, "type_element": "Way", "__fid": 118477}, "geometry": {"type": "LineString", "coordinates": [[2.4091257, 48.8647443], [2.4091013, 48.86475950000001]]}}, {"type": "Feature", "properties": {"highway": "footway", "footway": "sidewalk", "name": null, "surface": "asphalt", "lit": null, "length_m": 72.87, "type_element": "Way", "__fid": 118478}, "geometry": {"type": "LineString", "coordinates": [[2.4092631, 48.8625102], [2.4091196, 48.8631587]]}}, {"type": "Feature", "properties": {"highway": "footway", "footway": "crossing", "name": null, "surface": null, "lit": "yes", "length_m": 34.01, "type_element": "Way", "__fid": 118492}, "geometry": {"type": "LineString", "coordinates": [[2.4091682, 48.8604622], [2.409629, 48.8604956]]}}, {"type": "Feature", "properties": {"highway": "footway", "footway": "sidewalk", "name": null, "surface": null, "lit": "yes", "length_m": 165.44, "type_element": "Way", "__fid": 118493}, "geometry": {"type": "LineString", "coordinates": [[2.4091682, 48.8604622], [2.4094269, 48.8589842]]}}, {"type": "Feature", "properties": {"highway": "footway", "footway": "sidewalk", "name": null, "surface": "asphalt", "lit": null, "length_m": 25.21, "type_element": "Way", "__fid": 118498}, "geometry": {"type": "LineString", "coordinates": [[2.4091257, 48.8647443], [2.4094512, 48.864817]]}}, {"type": "Feature", "properties": {"highway": "footway", "footway": "crossing", "name": null, "surface": "asphalt", "lit": "yes", "length_m": 10.32, "type_element": "Way", "__fid": 118499}, "geometry": {"type": "LineString", "coordinates": [[2.4091737, 48.8646571], [2.4091257, 48.8647443]]}}, {"type": "Feature", "properties": {"highway": "service", "footway": null, "name": null, "surface": null, "lit": null, "length_m": 62.05, "type_element": "Way", "__fid": 118531}, "geometry": {"type": "LineString", "coordinates": [[2.4099727, 48.8648402], [2.4091737, 48.8646571]]}}, {"type": "Feature", "properties": {"highway": "footway", "footway": "crossing", "name": null, "surface": "asphalt", "lit": "yes", "length_m": 26.25, "type_element": "Way", "__fid": 118532}, "geometry": {"type": "LineString", "coordinates": [[2.409283, 48.8644323], [2.4091737, 48.8646571]]}}, {"type": "Feature", "properties": {"highway": "footway", "footway": null, "name": null, "surface": "paving_stones", "lit": null, "length_m": 12.16, "type_element": "Way", "__fid": 118533}, "geometry": {"type": "LineString", "coordinates": [[2.4091753, 48.865008400000015], [2.4091901, 48.8650266], [2.4092837, 48.8650903]]}}, {"type": "Feature", "properties": {"highway": "footway", "footway": null, "name": null, "surface": "paving_stones", "lit": null, "length_m": 16.98, "type_element": "Way", "__fid": 118534}, "geometry": {"type": "LineString", "coordinates": [[2.4091753, 48.865008400000015], [2.4093504, 48.8649085]]}}, {"type": "Feature", "properties": {"highway": "service", "footway": null, "name": null, "surface": null, "lit": null, "length_m": 10.26, "type_element": "Way", "__fid": 118559}, "geometry": {"type": "LineString", "coordinates": [[2.4092619, 48.8616848], [2.4093995, 48.8617011]]}}, {"type": "Feature", "properties": {"highway": "footway", "footway": "sidewalk", "name": null, "surface": null, "lit": null, "length_m": 110.14, "type_element": "Way", "__fid": 118560}, "geometry": {"type": "LineString", "coordinates": [[2.4107507, 48.8626438], [2.4092631, 48.8625102]]}}, {"type": "Feature", "properties": {"highway": "footway", "footway": "crossing", "name": null, "surface": null, "lit": null, "length_m": 16.75, "type_element": "Way", "__fid": 118561}, "geometry": {"type": "LineString", "coordinates": [[2.4092943, 48.8623621], [2.4092843, 48.8624699], [2.4092631, 48.8625102]]}}, {"type": "Feature", "properties": {"highway": "footway", "footway": "sidewalk", "name": null, "surface": null, "lit": null, "length_m": 5.05, "type_element": "Way", "__fid": 118569}, "geometry": {"type": "LineString", "coordinates": [[2.4092889, 48.8623168], [2.4092943, 48.8623621]]}}, {"type": "Feature", "properties": {"highway": "footway", "footway": "sidewalk", "name": null, "surface": "asphalt", "lit": null, "length_m": 68.94, "type_element": "Way", "__fid": 118570}, "geometry": {"type": "LineString", "coordinates": [[2.4093995, 48.8617011], [2.4092889, 48.8623168]]}}, {"type": "Feature", "properties": {"highway": "footway", "footway": "sidewalk", "name": null, "surface": null, "lit": null, "length_m": 110.8, "type_element": "Way", "__fid": 118576}, "geometry": {"type": "LineString", "coordinates": [[2.4092943, 48.8623621], [2.410722, 48.862485], [2.4107897, 48.8624722]]}}, {"type": "Feature", "properties": {"highway": "footway", "footway": "sidewalk", "name": null, "surface": "asphalt", "lit": "yes", "length_m": 10.88, "type_element": "Way", "__fid": 118579}, "geometry": {"type": "LineString", "coordinates": [[2.409283, 48.8644323], [2.4094242, 48.8644621]]}}, {"type": "Feature", "properties": {"highway": "footway", "footway": null, "name": null, "surface": "concrete:plates", "lit": null, "length_m": 17.31, "type_element": "Way", "__fid": 118584}, "geometry": {"type": "LineString", "coordinates": [[2.4094644, 48.8649902], [2.4092837, 48.8650903]]}}, {"type": "Feature", "properties": {"highway": "footway", "footway": "sidewalk", "name": null, "surface": "paving_stones", "lit": null, "length_m": 12.35, "type_element": "Way", "__fid": 118604}, "geometry": {"type": "LineString", "coordinates": [[2.4093504, 48.8649085], [2.4094644, 48.8649902]]}}, {"type": "Feature", "properties": {"highway": "footway", "footway": null, "name": null, "surface": "paving_stones", "lit": null, "length_m": 12.58, "type_element": "Way", "__fid": 118605}, "geometry": {"type": "LineString", "coordinates": [[2.4093504, 48.8649085], [2.4094512, 48.864817]]}}, {"type": "Feature", "properties": {"highway": "service", "footway": null, "name": null, "surface": null, "lit": null, "length_m": 38.33, "type_element": "Way", "__fid": 118614}, "geometry": {"type": "LineString", "coordinates": [[2.4093995, 48.8617011], [2.40961, 48.8617257], [2.4099095, 48.8617749]]}}, {"type": "Feature", "properties": {"highway": "footway", "footway": "sidewalk", "name": null, "surface": "asphalt", "lit": null, "length_m": 90.91, "type_element": "Way", "__fid": 118615}, "geometry": {"type": "LineString", "coordinates": [[2.4095512, 48.860889700000016], [2.4093995, 48.8617011]]}}, {"type": "Feature", "properties": {"highway": "footway", "footway": null, "name": null, "surface": "paving_stones", "lit": null, "length_m": 10.05, "type_element": "Way", "__fid": 118616}, "geometry": {"type": "LineString", "coordinates": [[2.4095512, 48.860889700000016], [2.4094151, 48.86087939999999]]}}, {"type": "Feature", "properties": {"highway": "service", "footway": null, "name": null, "surface": "sett", "lit": null, "length_m": 11.75, "type_element": "Way", "__fid": 118620}, "geometry": {"type": "LineString", "coordinates": [[2.4093924, 48.8645645], [2.4094262, 48.8644892], [2.4094242, 48.8644621]]}}, {"type": "Feature", "properties": {"highway": "footway", "footway": "sidewalk", "name": null, "surface": "asphalt", "lit": "yes", "length_m": 52.35, "type_element": "Way", "__fid": 118630}, "geometry": {"type": "LineString", "coordinates": [[2.4094242, 48.8644621], [2.4101031, 48.86460719999999]]}}, {"type": "Feature", "properties": {"highway": "footway", "footway": "sidewalk", "name": null, "surface": "asphalt", "lit": null, "length_m": 36.89, "type_element": "Way", "__fid": 118648}, "geometry": {"type": "LineString", "coordinates": [[2.4094512, 48.864817], [2.4099304, 48.864917500000026]]}}, {"type": "Feature", "properties": {"highway": "steps", "footway": null, "name": null, "surface": "concrete", "lit": null, "length_m": 38.13, "type_element": "Way", "__fid": 118655}, "geometry": {"type": "LineString", "coordinates": [[2.4094644, 48.8649902], [2.4097965, 48.865254]]}}, {"type": "Feature", "properties": {"highway": "footway", "footway": null, "name": null, "surface": "asphalt", "lit": null, "length_m": 69.42, "type_element": "Way", "__fid": 118656}, "geometry": {"type": "LineString", "coordinates": [[2.4094644, 48.8649902], [2.4095466, 48.864938299999984], [2.409614, 48.8649394], [2.4101838, 48.86506160000001], [2.4102014, 48.8650857], [2.4101998, 48.8651185], [2.410179, 48.8651665]]}}, {"type": "Feature", "properties": {"highway": "footway", "footway": null, "name": null, "surface": "paving_stones", "lit": null, "length_m": 34.9, "type_element": "Way", "__fid": 118676}, "geometry": {"type": "LineString", "coordinates": [[2.4100239, 48.860925], [2.4095512, 48.860889700000016]]}}, {"type": "Feature", "properties": {"highway": "footway", "footway": "sidewalk", "name": null, "surface": "asphalt", "lit": null, "length_m": 15.33, "type_element": "Way", "__fid": 118677}, "geometry": {"type": "LineString", "coordinates": [[2.4095809, 48.86075319999998], [2.4095512, 48.860889700000016]]}}, {"type": "Feature", "properties": {"highway": "service", "footway": null, "name": "Square d'Amiens", "surface": null, "lit": null, "length_m": 10.45, "type_element": "Way", "__fid": 118678}, "geometry": {"type": "LineString", "coordinates": [[2.4097074, 48.8600338], [2.4095657, 48.8600243]]}}, {"type": "Feature", "properties": {"highway": "footway", "footway": "crossing", "name": null, "surface": null, "lit": null, "length_m": 22.75, "type_element": "Way", "__fid": 118681}, "geometry": {"type": "LineString", "coordinates": [[2.4096218, 48.8605504], [2.4095809, 48.86075319999998]]}}, {"type": "Feature", "properties": {"highway": "footway", "footway": "sidewalk", "name": null, "surface": null, "lit": null, "length_m": 5.46, "type_element": "Way", "__fid": 118682}, "geometry": {"type": "LineString", "coordinates": [[2.4095809, 48.86075319999998], [2.4096409, 48.8607242]]}}, {"type": "Feature", "properties": {"highway": "service", "footway": null, "name": "Square d'Amiens", "surface": null, "lit": null, "length_m": 10.33, "type_element": "Way", "__fid": 118694}, "geometry": {"type": "LineString", "coordinates": [[2.4096296, 48.859652], [2.4097694, 48.8596631]]}}, {"type": "Feature", "properties": {"highway": "footway", "footway": "sidewalk", "name": null, "surface": null, "lit": null, "length_m": 45.67, "type_element": "Way", "__fid": 118698}, "geometry": {"type": "LineString", "coordinates": [[2.4102405, 48.8605954], [2.4096218, 48.8605504]]}}, {"type": "Feature", "properties": {"highway": "footway", "footway": "sidewalk", "name": null, "surface": null, "lit": null, "length_m": 6.12, "type_element": "Way", "__fid": 118699}, "geometry": {"type": "LineString", "coordinates": [[2.409629, 48.8604956], [2.4096218, 48.8605504]]}}, {"type": "Feature", "properties": {"highway": "footway", "footway": "sidewalk", "name": null, "surface": "asphalt", "lit": "yes", "length_m": 51.67, "type_element": "Way", "__fid": 118701}, "geometry": {"type": "LineString", "coordinates": [[2.4097074, 48.8600338], [2.409629, 48.8604956]]}}, {"type": "Feature", "properties": {"highway": "footway", "footway": null, "name": null, "surface": null, "lit": null, "length_m": 32.12, "type_element": "Way", "__fid": 118705}, "geometry": {"type": "LineString", "coordinates": [[2.4096409, 48.8607242], [2.4097274, 48.8607745], [2.4099686, 48.8607863], [2.4100389, 48.8607602]]}}, {"type": "Feature", "properties": {"highway": "footway", "footway": "sidewalk", "name": null, "surface": null, "lit": null, "length_m": 28.46, "type_element": "Way", "__fid": 118706}, "geometry": {"type": "LineString", "coordinates": [[2.4096409, 48.8607242], [2.4096922, 48.8606995], [2.4100145, 48.8607235]]}}, {"type": "Feature", "properties": {"highway": "service", "footway": null, "name": "Avenue de la Porte de Bagnolet", "surface": "asphalt", "lit": null, "length_m": 41.32, "type_element": "Way", "__fid": 118707}, "geometry": {"type": "LineString", "coordinates": [[2.4095975, 48.8646124], [2.4096719, 48.864544], [2.4100855, 48.8646343]]}}, {"type": "Feature", "properties": {"highway": "service", "footway": null, "name": "Square d'Amiens", "surface": null, "lit": null, "length_m": 9.85, "type_element": "Way", "__fid": 118721}, "geometry": {"type": "LineString", "coordinates": [[2.4098367, 48.8592713], [2.4097032, 48.8592623]]}}, {"type": "Feature", "properties": {"highway": "service", "footway": null, "name": "Square d'Amiens", "surface": null, "lit": null, "length_m": 19.0, "type_element": "Way", "__fid": 118731}, "geometry": {"type": "LineString", "coordinates": [[2.4099651, 48.8600509], [2.4097074, 48.8600338]]}}, {"type": "Feature", "properties": {"highway": "footway", "footway": "sidewalk", "name": null, "surface": "asphalt", "lit": "yes", "length_m": 41.47, "type_element": "Way", "__fid": 118732}, "geometry": {"type": "LineString", "coordinates": [[2.4097694, 48.8596631], [2.4097074, 48.8600338]]}}, {"type": "Feature", "properties": {"highway": "service", "footway": null, "name": "Square d'Amiens", "surface": null, "lit": null, "length_m": 18.51, "type_element": "Way", "__fid": 118747}, "geometry": {"type": "LineString", "coordinates": [[2.4097694, 48.8596631], [2.4100201, 48.8596818]]}}, {"type": "Feature", "properties": {"highway": "footway", "footway": "sidewalk", "name": null, "surface": "asphalt", "lit": "yes", "length_m": 43.85, "type_element": "Way", "__fid": 118748}, "geometry": {"type": "LineString", "coordinates": [[2.4098367, 48.8592713], [2.4097694, 48.8596631]]}}, {"type": "Feature", "properties": {"highway": "service", "footway": null, "name": "Square d'Amiens", "surface": null, "lit": null, "length_m": 19.79, "type_element": "Way", "__fid": 118773}, "geometry": {"type": "LineString", "coordinates": [[2.410105, 48.8592897], [2.4098367, 48.8592713]]}}, {"type": "Feature", "properties": {"highway": "footway", "footway": "sidewalk", "name": null, "surface": "asphalt", "lit": "yes", "length_m": 28.39, "type_element": "Way", "__fid": 118774}, "geometry": {"type": "LineString", "coordinates": [[2.409886, 48.8590181], [2.4098367, 48.8592713]]}}, {"type": "Feature", "properties": {"highway": "service", "footway": null, "name": "Square d'Amiens", "surface": null, "lit": null, "length_m": 40.09, "type_element": "Way", "__fid": 118800}, "geometry": {"type": "LineString", "coordinates": [[2.4099131, 48.860409799999985], [2.4099651, 48.8600509]]}}, {"type": "Feature", "properties": {"highway": "service", "footway": null, "name": null, "surface": null, "lit": null, "length_m": 120.49, "type_element": "Way", "__fid": 118809}, "geometry": {"type": "LineString", "coordinates": [[2.4099095, 48.8617749], [2.4105002, 48.86183840000002], [2.4104687, 48.8619791], [2.4098843, 48.8619321], [2.4099095, 48.8617749]]}}, {"type": "Feature", "properties": {"highway": "service", "footway": null, "name": "Square d'Amiens", "surface": null, "lit": null, "length_m": 18.41, "type_element": "Way", "__fid": 118832}, "geometry": {"type": "LineString", "coordinates": [[2.4099651, 48.8600509], [2.4099889, 48.85988609999998]]}}, {"type": "Feature", "properties": {"highway": "footway", "footway": "sidewalk", "name": null, "surface": "asphalt", "lit": null, "length_m": 95.74, "type_element": "Way", "__fid": 118843}, "geometry": {"type": "LineString", "coordinates": [[2.4099304, 48.864917500000026], [2.4111094, 48.8651739], [2.4111658, 48.86519340000001]]}}, {"type": "Feature", "properties": {"highway": "footway", "footway": "crossing", "name": null, "surface": "asphalt", "lit": null, "length_m": 9.14, "type_element": "Way", "__fid": 118844}, "geometry": {"type": "LineString", "coordinates": [[2.4099304, 48.864917500000026], [2.4099727, 48.8648402]]}}, {"type": "Feature", "properties": {"highway": "footway", "footway": null, "name": "Square d'Amiens", "surface": null, "lit": null, "length_m": 49.11, "type_element": "Way", "__fid": 118846}, "geometry": {"type": "LineString", "coordinates": [[2.4105408, 48.85989840000001], [2.4103537, 48.859804], [2.4101137, 48.859779300000014], [2.4100922, 48.85973520000001], [2.4100278, 48.859713100000015], [2.4100201, 48.8596818]]}}, {"type": "Feature", "properties": {"highway": "footway", "footway": null, "name": "Square d'Amiens", "surface": null, "lit": null, "length_m": 50.13, "type_element": "Way", "__fid": 118847}, "geometry": {"type": "LineString", "coordinates": [[2.4106007, 48.859540500000016], [2.4103859, 48.8596099], [2.4101512, 48.8595923], [2.4101204, 48.85963810000001], [2.4100359, 48.85965490000001], [2.4100201, 48.8596818]]}}, {"type": "Feature", "properties": {"highway": "footway", "footway": "sidewalk", "name": null, "surface": null, "lit": null, "length_m": 11.33, "type_element": "Way", "__fid": 118848}, "geometry": {"type": "LineString", "coordinates": [[2.4100145, 48.8607235], [2.410168, 48.86073430000001]]}}, {"type": "Feature", "properties": {"highway": "footway", "footway": null, "name": null, "surface": "paving_stones", "lit": null, "length_m": 4.46, "type_element": "Way", "__fid": 118849}, "geometry": {"type": "LineString", "coordinates": [[2.4100389, 48.8607602], [2.4100145, 48.8607235]]}}, {"type": "Feature", "properties": {"highway": "service", "footway": null, "name": null, "surface": null, "lit": null, "length_m": 80.95, "type_element": "Way", "__fid": 118850}, "geometry": {"type": "LineString", "coordinates": [[2.4110188, 48.86507180000002], [2.4099727, 48.8648402]]}}, {"type": "Feature", "properties": {"highway": "footway", "footway": "crossing", "name": null, "surface": "asphalt", "lit": null, "length_m": 24.34, "type_element": "Way", "__fid": 118851}, "geometry": {"type": "LineString", "coordinates": [[2.4099727, 48.8648402], [2.4100855, 48.8646343]]}}, {"type": "Feature", "properties": {"highway": "footway", "footway": null, "name": null, "surface": "paving_stones", "lit": null, "length_m": 48.34, "type_element": "Way", "__fid": 118852}, "geometry": {"type": "LineString", "coordinates": [[2.4106796, 48.8609678], [2.4100239, 48.860925]]}}, {"type": "Feature", "properties": {"highway": "footway", "footway": null, "name": null, "surface": "paving_stones", "lit": null, "length_m": 14.41, "type_element": "Way", "__fid": 118853}, "geometry": {"type": "LineString", "coordinates": [[2.4100239, 48.860925], [2.410073, 48.8607995]]}}, {"type": "Feature", "properties": {"highway": "footway", "footway": null, "name": null, "surface": "paving_stones", "lit": null, "length_m": 5.04, "type_element": "Way", "__fid": 118855}, "geometry": {"type": "LineString", "coordinates": [[2.410073, 48.8607995], [2.4100389, 48.8607602]]}}, {"type": "Feature", "properties": {"highway": "service", "footway": null, "name": "Square d'Amiens", "surface": null, "lit": null, "length_m": 19.94, "type_element": "Way", "__fid": 118863}, "geometry": {"type": "LineString", "coordinates": [[2.4100748, 48.859467899999984], [2.410105, 48.8592897]]}}, {"type": "Feature", "properties": {"highway": "footway", "footway": null, "name": null, "surface": "paving_stones", "lit": null, "length_m": 10.06, "type_element": "Way", "__fid": 118871}, "geometry": {"type": "LineString", "coordinates": [[2.410073, 48.8607995], [2.410168, 48.86073430000001]]}}, {"type": "Feature", "properties": {"highway": "service", "footway": null, "name": "Square d'Amiens", "surface": null, "lit": null, "length_m": 36.71, "type_element": "Way", "__fid": 118875}, "geometry": {"type": "LineString", "coordinates": [[2.410105, 48.8592897], [2.4101607, 48.8589616]]}}, {"type": "Feature", "properties": {"highway": "service", "footway": null, "name": "Avenue de la Porte de Bagnolet", "surface": "asphalt", "lit": null, "length_m": 7.39, "type_element": "Way", "__fid": 118892}, "geometry": {"type": "LineString", "coordinates": [[2.4100855, 48.8646343], [2.4101809, 48.864655599999985]]}}, {"type": "Feature", "properties": {"highway": "footway", "footway": "sidewalk", "name": null, "surface": "asphalt", "lit": null, "length_m": 3.28, "type_element": "Way", "__fid": 118893}, "geometry": {"type": "LineString", "coordinates": [[2.4100855, 48.8646343], [2.4101031, 48.86460719999999]]}}, {"type": "Feature", "properties": {"highway": "footway", "footway": "crossing", "name": null, "surface": "asphalt", "lit": "yes", "length_m": 24.89, "type_element": "Way", "__fid": 118894}, "geometry": {"type": "LineString", "coordinates": [[2.4101031, 48.86460719999999], [2.4103807, 48.8646656], [2.4104253, 48.8646541]]}}, {"type": "Feature", "properties": {"highway": "footway", "footway": "sidewalk", "name": null, "surface": null, "lit": null, "length_m": 119.38, "type_element": "Way", "__fid": 118895}, "geometry": {"type": "LineString", "coordinates": [[2.4105693, 48.8635951], [2.410594, 48.8636558], [2.4103718, 48.8642493], [2.4101031, 48.86460719999999]]}}, {"type": "Feature", "properties": {"highway": "footway", "footway": "sidewalk", "name": null, "surface": null, "lit": null, "length_m": 3.26, "type_element": "Way", "__fid": 118899}, "geometry": {"type": "LineString", "coordinates": [[2.410168, 48.86073430000001], [2.4102121, 48.860737499999985]]}}, {"type": "Feature", "properties": {"highway": "footway", "footway": "sidewalk", "name": null, "surface": null, "lit": null, "length_m": 25.81, "type_element": "Way", "__fid": 118906}, "geometry": {"type": "LineString", "coordinates": [[2.4102121, 48.860737499999985], [2.4105617, 48.8607632]]}}, {"type": "Feature", "properties": {"highway": "footway", "footway": "crossing", "name": null, "surface": "asphalt", "lit": null, "length_m": 15.94, "type_element": "Way", "__fid": 118907}, "geometry": {"type": "LineString", "coordinates": [[2.4102121, 48.860737499999985], [2.4102405, 48.8605954]]}}, {"type": "Feature", "properties": {"highway": "footway", "footway": "sidewalk", "name": null, "surface": null, "lit": null, "length_m": 18.92, "type_element": "Way", "__fid": 118920}, "geometry": {"type": "LineString", "coordinates": [[2.4104968, 48.860614], [2.4102405, 48.8605954]]}}, {"type": "Feature", "properties": {"highway": "footway", "footway": "sidewalk", "name": null, "surface": "asphalt", "lit": "yes", "length_m": 71.05, "type_element": "Way", "__fid": 119008}, "geometry": {"type": "LineString", "coordinates": [[2.4104253, 48.8646541], [2.4104716, 48.8646843], [2.4104988, 48.86469240000002], [2.4113226, 48.864884]]}}, {"type": "Feature", "properties": {"highway": "footway", "footway": "sidewalk", "name": null, "surface": null, "lit": null, "length_m": 49.45, "type_element": "Way", "__fid": 119009}, "geometry": {"type": "LineString", "coordinates": [[2.4106112, 48.8642476], [2.4105925, 48.8642968], [2.4103879, 48.8645859], [2.4103911, 48.8646194], [2.4104253, 48.8646541]]}}, {"type": "Feature", "properties": {"highway": "footway", "footway": null, "name": "Square d'Amiens", "surface": null, "lit": null, "length_m": 7.67, "type_element": "Way", "__fid": 119014}, "geometry": {"type": "LineString", "coordinates": [[2.4104844, 48.8606825], [2.4104968, 48.860614]]}}, {"type": "Feature", "properties": {"highway": "footway", "footway": "sidewalk", "name": null, "surface": null, "lit": null, "length_m": 38.12, "type_element": "Way", "__fid": 119020}, "geometry": {"type": "LineString", "coordinates": [[2.4110133, 48.86065159999998], [2.4104968, 48.860614]]}}, {"type": "Feature", "properties": {"highway": "footway", "footway": null, "name": "Square d'Amiens", "surface": null, "lit": null, "length_m": 98.89, "type_element": "Way", "__fid": 119021}, "geometry": {"type": "LineString", "coordinates": [[2.4104968, 48.860614], [2.4105013, 48.860589], [2.4104442, 48.860494], [2.4106649, 48.8604349], [2.4107413, 48.8599995], [2.4105408, 48.85989840000001]]}}, {"type": "Feature", "properties": {"highway": "footway", "footway": null, "name": null, "surface": null, "lit": null, "length_m": 13.56, "type_element": "Way", "__fid": 119037}, "geometry": {"type": "LineString", "coordinates": [[2.4106523, 48.8598012], [2.4105408, 48.85989840000001]]}}, {"type": "Feature", "properties": {"highway": "footway", "footway": "sidewalk", "name": null, "surface": null, "lit": null, "length_m": 11.27, "type_element": "Way", "__fid": 119051}, "geometry": {"type": "LineString", "coordinates": [[2.4105617, 48.8607632], [2.4107144, 48.8607744]]}}, {"type": "Feature", "properties": {"highway": "footway", "footway": null, "name": null, "surface": null, "lit": null, "length_m": 9.67, "type_element": "Way", "__fid": 119052}, "geometry": {"type": "LineString", "coordinates": [[2.41064, 48.8608332], [2.4105617, 48.8607632]]}}, {"type": "Feature", "properties": {"highway": "footway", "footway": null, "name": null, "surface": null, "lit": null, "length_m": 13.97, "type_element": "Way", "__fid": 119062}, "geometry": {"type": "LineString", "coordinates": [[2.4106007, 48.859540500000016], [2.4106809, 48.85965440000001]]}}, {"type": "Feature", "properties": {"highway": "footway", "footway": null, "name": "Square d'Amiens", "surface": null, "lit": null, "length_m": 96.35, "type_element": "Way", "__fid": 119063}, "geometry": {"type": "LineString", "coordinates": [[2.4108024, 48.85884990000001], [2.410803, 48.8588654], [2.4107165, 48.8589464], [2.4109002, 48.85903990000001], [2.4108338, 48.8594652], [2.4106007, 48.859540500000016]]}}, {"type": "Feature", "properties": {"highway": "footway", "footway": "crossing", "name": null, "surface": null, "lit": null, "length_m": 18.98, "type_element": "Way", "__fid": 119068}, "geometry": {"type": "LineString", "coordinates": [[2.4105693, 48.8635951], [2.4105823, 48.8635848], [2.4106327, 48.8634511], [2.4106258, 48.8634321]]}}, {"type": "Feature", "properties": {"highway": "footway", "footway": null, "name": null, "surface": null, "lit": null, "length_m": 15.25, "type_element": "Way", "__fid": 119079}, "geometry": {"type": "LineString", "coordinates": [[2.4106796, 48.8609678], [2.41064, 48.8608332]]}}, {"type": "Feature", "properties": {"highway": "footway", "footway": null, "name": null, "surface": null, "lit": null, "length_m": 8.52, "type_element": "Way", "__fid": 119080}, "geometry": {"type": "LineString", "coordinates": [[2.41064, 48.8608332], [2.4107144, 48.8607744]]}}, {"type": "Feature", "properties": {"highway": "living_street", "footway": null, "name": "Rue Joseph Python", "surface": "asphalt", "lit": "yes", "length_m": 73.16, "type_element": "Way", "__fid": 119082}, "geometry": {"type": "LineString", "coordinates": [[2.4111108, 48.8646617], [2.410877, 48.8646897], [2.410794, 48.86466690000001], [2.4106887, 48.86432350000001], [2.4106112, 48.8642476]]}}, {"type": "Feature", "properties": {"highway": "footway", "footway": "sidewalk", "name": null, "surface": null, "lit": null, "length_m": 13.65, "type_element": "Way", "__fid": 119083}, "geometry": {"type": "LineString", "coordinates": [[2.4106566, 48.864128600000015], [2.4106112, 48.8642476]]}}, {"type": "Feature", "properties": {"highway": "footway", "footway": "sidewalk", "name": null, "surface": null, "lit": null, "length_m": 8.81, "type_element": "Way", "__fid": 119087}, "geometry": {"type": "LineString", "coordinates": [[2.4106258, 48.8634321], [2.4106627, 48.86341050000003], [2.4106779, 48.863364900000015]]}}, {"type": "Feature", "properties": {"highway": "footway", "footway": null, "name": null, "surface": "paving_stones", "lit": null, "length_m": 28.47, "type_element": "Way", "__fid": 119110}, "geometry": {"type": "LineString", "coordinates": [[2.4110641, 48.8610021], [2.4106796, 48.8609678]]}}, {"type": "Feature", "properties": {"highway": "living_street", "footway": null, "name": "Rue Joseph Python", "surface": "asphalt", "lit": null, "length_m": 70.38, "type_element": "Way", "__fid": 119113}, "geometry": {"type": "LineString", "coordinates": [[2.4108482, 48.8636257], [2.4109671, 48.8636815], [2.4107876, 48.8641147], [2.4106566, 48.864128600000015]]}}, {"type": "Feature", "properties": {"highway": "footway", "footway": "crossing", "name": null, "surface": null, "lit": null, "length_m": 16.54, "type_element": "Way", "__fid": 119121}, "geometry": {"type": "LineString", "coordinates": [[2.4109023, 48.863379], [2.4106779, 48.863364900000015]]}}, {"type": "Feature", "properties": {"highway": "footway", "footway": "sidewalk", "name": null, "surface": null, "lit": null, "length_m": 81.84, "type_element": "Way", "__fid": 119122}, "geometry": {"type": "LineString", "coordinates": [[2.4106779, 48.863364900000015], [2.4107998, 48.8626994], [2.4107836, 48.862668], [2.4107507, 48.8626438]]}}, {"type": "Feature", "properties": {"highway": "footway", "footway": "sidewalk", "name": null, "surface": null, "lit": null, "length_m": 20.2, "type_element": "Way", "__fid": 119129}, "geometry": {"type": "LineString", "coordinates": [[2.4107144, 48.8607744], [2.4109881, 48.8607944]]}}, {"type": "Feature", "properties": {"highway": "living_street", "footway": null, "name": "Rue Joseph Python", "surface": "asphalt", "lit": null, "length_m": 11.96, "type_element": "Way", "__fid": 119136}, "geometry": {"type": "LineString", "coordinates": [[2.4107178, 48.8635612], [2.4108482, 48.8636257]]}}, {"type": "Feature", "properties": {"highway": "footway", "footway": "crossing", "name": null, "surface": null, "lit": null, "length_m": 19.58, "type_element": "Way", "__fid": 119144}, "geometry": {"type": "LineString", "coordinates": [[2.4107507, 48.8626438], [2.4107664, 48.8626298], [2.4107838, 48.8625663], [2.4107897, 48.8624722]]}}, {"type": "Feature", "properties": {"highway": "footway", "footway": "sidewalk", "name": null, "surface": null, "lit": null, "length_m": 166.06, "type_element": "Way", "__fid": 119160}, "geometry": {"type": "LineString", "coordinates": [[2.4107897, 48.8624722], [2.4108471, 48.8624359], [2.4110641, 48.8610021]]}}, {"type": "Feature", "properties": {"highway": "footway", "footway": "crossing", "name": null, "surface": null, "lit": null, "length_m": 16.16, "type_element": "Way", "__fid": 119166}, "geometry": {"type": "LineString", "coordinates": [[2.411023, 48.8627323], [2.410808066666571, 48.86270060000014]]}}, {"type": "Feature", "properties": {"highway": "footway", "footway": "crossing", "name": null, "surface": null, "lit": null, "length_m": 27.8, "type_element": "Way", "__fid": 119194}, "geometry": {"type": "LineString", "coordinates": [[2.4109023, 48.863379], [2.4108817, 48.86353780000001], [2.4108482, 48.8636257]]}}, {"type": "Feature", "properties": {"highway": "footway", "footway": "sidewalk", "name": null, "surface": "asphalt", "lit": null, "length_m": 72.45, "type_element": "Way", "__fid": 119215}, "geometry": {"type": "LineString", "coordinates": [[2.411023, 48.8627323], [2.4109023, 48.863379]]}}, {"type": "Feature", "properties": {"highway": "footway", "footway": "sidewalk", "name": null, "surface": null, "lit": null, "length_m": 9.84, "type_element": "Way", "__fid": 119258}, "geometry": {"type": "LineString", "coordinates": [[2.4109881, 48.8607944], [2.4110704, 48.8608643]]}}, {"type": "Feature", "properties": {"highway": "footway", "footway": "crossing", "name": null, "surface": null, "lit": null, "length_m": 15.99, "type_element": "Way", "__fid": 119259}, "geometry": {"type": "LineString", "coordinates": [[2.4109881, 48.8607944], [2.4110133, 48.86065159999998]]}}, {"type": "Feature", "properties": {"highway": "footway", "footway": "sidewalk", "name": null, "surface": null, "lit": null, "length_m": 8.83, "type_element": "Way", "__fid": 119266}, "geometry": {"type": "LineString", "coordinates": [[2.4110133, 48.86065159999998], [2.4111252, 48.8606223]]}}, {"type": "Feature", "properties": {"highway": "footway", "footway": null, "name": null, "surface": null, "lit": null, "length_m": 3.54, "type_element": "Way", "__fid": 119280}, "geometry": {"type": "LineString", "coordinates": [[2.411071, 48.862475], [2.4110227, 48.8624742]]}}, {"type": "Feature", "properties": {"highway": "footway", "footway": "crossing", "name": null, "surface": null, "lit": null, "length_m": 28.83, "type_element": "Way", "__fid": 119283}, "geometry": {"type": "LineString", "coordinates": [[2.411071, 48.862475], [2.411023, 48.8627323]]}}, {"type": "Feature", "properties": {"highway": "footway", "footway": "sidewalk", "name": null, "surface": null, "lit": null, "length_m": 15.33, "type_element": "Way", "__fid": 119291}, "geometry": {"type": "LineString", "coordinates": [[2.4110641, 48.8610021], [2.4110704, 48.8608643]]}}, {"type": "Feature", "properties": {"highway": "service", "footway": null, "name": null, "surface": null, "lit": null, "length_m": 18.24, "type_element": "Way", "__fid": 119292}, "geometry": {"type": "LineString", "coordinates": [[2.4112393, 48.8651426], [2.4111894, 48.8651134], [2.4110188, 48.86507180000002]]}}, {"type": "Feature", "properties": {"highway": "service", "footway": null, "name": null, "surface": null, "lit": null, "length_m": 12.64, "type_element": "Way", "__fid": 119293}, "geometry": {"type": "LineString", "coordinates": [[2.4111898, 48.865058], [2.4110188, 48.86507180000002]]}}, {"type": "Feature", "properties": {"highway": "footway", "footway": "crossing", "name": null, "surface": null, "lit": null, "length_m": 18.02, "type_element": "Way", "__fid": 119295}, "geometry": {"type": "LineString", "coordinates": [[2.4110704, 48.8608643], [2.4113157, 48.8608733]]}}, {"type": "Feature", "properties": {"highway": "footway", "footway": null, "name": null, "surface": null, "lit": null, "length_m": 198.37, "type_element": "Way", "__fid": 119300}, "geometry": {"type": "LineString", "coordinates": [[2.4111492, 48.864018500000014], [2.4114389, 48.863397200000016], [2.4115272, 48.8631611], [2.4114333, 48.8625277], [2.411373, 48.8624915], [2.4112697, 48.8624783], [2.411071, 48.862475]]}}, {"type": "Feature", "properties": {"highway": "footway", "footway": "sidewalk", "name": null, "surface": "asphalt", "lit": null, "length_m": 89.81, "type_element": "Way", "__fid": 119301}, "geometry": {"type": "LineString", "coordinates": [[2.4111938, 48.8616714], [2.411071, 48.862475]]}}, {"type": "Feature", "properties": {"highway": "footway", "footway": "crossing", "name": null, "surface": null, "lit": null, "length_m": 17.71, "type_element": "Way", "__fid": 119314}, "geometry": {"type": "LineString", "coordinates": [[2.4113658, 48.8606356], [2.4111252, 48.8606223]]}}, {"type": "Feature", "properties": {"highway": "footway", "footway": "sidewalk", "name": null, "surface": "asphalt", "lit": "yes", "length_m": 8.2, "type_element": "Way", "__fid": 119315}, "geometry": {"type": "LineString", "coordinates": [[2.4111375, 48.860549], [2.4111252, 48.8606223]]}}, {"type": "Feature", "properties": {"highway": "footway", "footway": null, "name": null, "surface": null, "lit": null, "length_m": 10.89, "type_element": "Way", "__fid": 119318}, "geometry": {"type": "LineString", "coordinates": [[2.4111108, 48.8646617], [2.4110853, 48.8645652]]}}, {"type": "Feature", "properties": {"highway": "footway", "footway": null, "name": null, "surface": null, "lit": null, "length_m": 62.7, "type_element": "Way", "__fid": 119319}, "geometry": {"type": "LineString", "coordinates": [[2.4110853, 48.8645652], [2.4110162, 48.8643036], [2.4111492, 48.864018500000014]]}}, {"type": "Feature", "properties": {"highway": "footway", "footway": null, "name": null, "surface": null, "lit": null, "length_m": 115.77, "type_element": "Way", "__fid": 119320}, "geometry": {"type": "LineString", "coordinates": [[2.4110853, 48.8645652], [2.411731, 48.86401340000001], [2.4119765, 48.8637099]]}}, {"type": "Feature", "properties": {"highway": "service", "footway": null, "name": null, "surface": null, "lit": null, "length_m": 7.26, "type_element": "Way", "__fid": 119327}, "geometry": {"type": "LineString", "coordinates": [[2.4112193, 48.86058569999999], [2.4111375, 48.860549]]}}, {"type": "Feature", "properties": {"highway": "footway", "footway": "sidewalk", "name": null, "surface": "asphalt", "lit": "yes", "length_m": 64.42, "type_element": "Way", "__fid": 119328}, "geometry": {"type": "LineString", "coordinates": [[2.4112367, 48.8599737], [2.4111455, 48.8604355], [2.4111375, 48.860549]]}}, {"type": "Feature", "properties": {"highway": "living_street", "footway": null, "name": "Rue Joseph Python", "surface": "asphalt", "lit": "yes", "length_m": 63.18, "type_element": "Way", "__fid": 119335}, "geometry": {"type": "LineString", "coordinates": [[2.4119582, 48.8645603], [2.4111108, 48.8646617]]}}, {"type": "Feature", "properties": {"highway": "footway", "footway": null, "name": null, "surface": null, "lit": null, "length_m": 78.96, "type_element": "Way", "__fid": 119344}, "geometry": {"type": "LineString", "coordinates": [[2.4111492, 48.864018500000014], [2.4112456, 48.8639357], [2.4113877, 48.8637637], [2.4115366, 48.8636984], [2.4116868, 48.8636887], [2.4119765, 48.8637099]]}}, {"type": "Feature", "properties": {"highway": "footway", "footway": null, "name": null, "surface": null, "lit": null, "length_m": 16.51, "type_element": "Way", "__fid": 119350}, "geometry": {"type": "LineString", "coordinates": [[2.4114132, 48.8617045], [2.4111938, 48.8616714]]}}, {"type": "Feature", "properties": {"highway": "footway", "footway": "sidewalk", "name": null, "surface": "asphalt", "lit": null, "length_m": 73.81, "type_element": "Way", "__fid": 119351}, "geometry": {"type": "LineString", "coordinates": [[2.4112947, 48.861011], [2.4111938, 48.8616714]]}}, {"type": "Feature", "properties": {"highway": "service", "footway": null, "name": null, "surface": null, "lit": null, "length_m": 5.96, "type_element": "Way", "__fid": 119364}, "geometry": {"type": "LineString", "coordinates": [[2.4112367, 48.8599737], [2.4113179, 48.8599743]]}}, {"type": "Feature", "properties": {"highway": "footway", "footway": "sidewalk", "name": null, "surface": "asphalt", "lit": "yes", "length_m": 44.08, "type_element": "Way", "__fid": 119365}, "geometry": {"type": "LineString", "coordinates": [[2.4113052, 48.859579900000014], [2.4112367, 48.8599737]]}}, {"type": "Feature", "properties": {"highway": "footway", "footway": "crossing", "name": null, "surface": "asphalt", "lit": "yes", "length_m": 31.2, "type_element": "Way", "__fid": 119386}, "geometry": {"type": "LineString", "coordinates": [[2.4113226, 48.864884], [2.4113297, 48.8650726], [2.4112393, 48.8651426]]}}, {"type": "Feature", "properties": {"highway": "service", "footway": null, "name": null, "surface": null, "lit": null, "length_m": 6.15, "type_element": "Way", "__fid": 119389}, "geometry": {"type": "LineString", "coordinates": [[2.4113883, 48.8595871], [2.4113052, 48.859579900000014]]}}, {"type": "Feature", "properties": {"highway": "footway", "footway": "sidewalk", "name": null, "surface": "asphalt", "lit": "yes", "length_m": 62.09, "type_element": "Way", "__fid": 119390}, "geometry": {"type": "LineString", "coordinates": [[2.4113992, 48.859025], [2.4113052, 48.859579900000014]]}}, {"type": "Feature", "properties": {"highway": "footway", "footway": null, "name": null, "surface": "paving_stones", "lit": null, "length_m": 19.34, "type_element": "Way", "__fid": 119395}, "geometry": {"type": "LineString", "coordinates": [[2.4115566, 48.8610311], [2.4112947, 48.861011]]}}, {"type": "Feature", "properties": {"highway": "footway", "footway": "sidewalk", "name": null, "surface": "asphalt", "lit": null, "length_m": 15.39, "type_element": "Way", "__fid": 119396}, "geometry": {"type": "LineString", "coordinates": [[2.4113157, 48.8608733], [2.4112947, 48.861011]]}}, {"type": "Feature", "properties": {"highway": "footway", "footway": "sidewalk", "name": null, "surface": null, "lit": null, "length_m": 7.24, "type_element": "Way", "__fid": 119403}, "geometry": {"type": "LineString", "coordinates": [[2.4113807, 48.8608243], [2.4113157, 48.8608733]]}}, {"type": "Feature", "properties": {"highway": "footway", "footway": null, "name": null, "surface": null, "lit": null, "length_m": 9.33, "type_element": "Way", "__fid": 119412}, "geometry": {"type": "LineString", "coordinates": [[2.4113207, 48.8624333], [2.4114458, 48.8624181]]}}, {"type": "Feature", "properties": {"highway": "footway", "footway": "crossing", "name": null, "surface": null, "lit": null, "length_m": 22.36, "type_element": "Way", "__fid": 119421}, "geometry": {"type": "LineString", "coordinates": [[2.4113658, 48.8606356], [2.4114096, 48.860667], [2.4113807, 48.8608243]]}}, {"type": "Feature", "properties": {"highway": "footway", "footway": "sidewalk", "name": null, "surface": "asphalt", "lit": "yes", "length_m": 189.48, "type_element": "Way", "__fid": 119422}, "geometry": {"type": "LineString", "coordinates": [[2.4116554, 48.85894229999999], [2.4113658, 48.8606356]]}}, {"type": "Feature", "properties": {"highway": "footway", "footway": "sidewalk", "name": null, "surface": null, "lit": null, "length_m": 59.13, "type_element": "Way", "__fid": 119425}, "geometry": {"type": "LineString", "coordinates": [[2.4113226, 48.864884], [2.4113911, 48.8648853], [2.411609, 48.864848500000015], [2.4116821, 48.864816499999975], [2.4120123, 48.8646402]]}}, {"type": "Feature", "properties": {"highway": "footway", "footway": null, "name": null, "surface": null, "lit": null, "length_m": 26.57, "type_element": "Way", "__fid": 119430}, "geometry": {"type": "LineString", "coordinates": [[2.4113807, 48.8608243], [2.4114762, 48.8609069], [2.4115566, 48.8610311]]}}, {"type": "Feature", "properties": {"highway": "footway", "footway": null, "name": null, "surface": null, "lit": null, "length_m": 46.52, "type_element": "Way", "__fid": 119450}, "geometry": {"type": "LineString", "coordinates": [[2.4120324, 48.86179439999998], [2.4114132, 48.8617045]]}}, {"type": "Feature", "properties": {"highway": "footway", "footway": null, "name": null, "surface": null, "lit": null, "length_m": 84.2, "type_element": "Way", "__fid": 119451}, "geometry": {"type": "LineString", "coordinates": [[2.4114458, 48.8624181], [2.4113716, 48.862342400000024], [2.4113542, 48.8622895], [2.4114145, 48.8622118], [2.4114333, 48.862158], [2.4114239, 48.8620768], [2.4113542, 48.8619145], [2.4113367, 48.8618492], [2.4113502, 48.8618024], [2.4114132, 48.8617045]]}}, {"type": "Feature", "properties": {"highway": "footway", "footway": null, "name": null, "surface": null, "lit": null, "length_m": 66.72, "type_element": "Way", "__fid": 119452}, "geometry": {"type": "LineString", "coordinates": [[2.4114132, 48.8617045], [2.4113676, 48.8614125], [2.4114011, 48.8613631], [2.4114709, 48.8613339], [2.411554, 48.8613234], [2.411731, 48.8613357], [2.4117623, 48.861349]]}}, {"type": "Feature", "properties": {"highway": "footway", "footway": null, "name": null, "surface": null, "lit": null, "length_m": 103.32, "type_element": "Way", "__fid": 119463}, "geometry": {"type": "LineString", "coordinates": [[2.4114458, 48.8624181], [2.4121159, 48.86233710000001], [2.4120878, 48.862263], [2.412006, 48.8621421], [2.4119979, 48.8620901], [2.4120194, 48.8620186], [2.4120837, 48.86187920000001]]}}, {"type": "Feature", "properties": {"highway": "footway", "footway": null, "name": null, "surface": "paving_stones", "lit": null, "length_m": 98.11, "type_element": "Way", "__fid": 119498}, "geometry": {"type": "LineString", "coordinates": [[2.4122192, 48.8614204], [2.4123144, 48.8613683], [2.4123453, 48.8611213], [2.4123198, 48.8610772], [2.4115566, 48.8610311]]}}, {"type": "Feature", "properties": {"highway": "footway", "footway": null, "name": null, "surface": null, "lit": null, "length_m": 38.44, "type_element": "Way", "__fid": 119499}, "geometry": {"type": "LineString", "coordinates": [[2.4115566, 48.8610311], [2.4117623, 48.861349]]}}, {"type": "Feature", "properties": {"highway": "footway", "footway": null, "name": null, "surface": null, "lit": null, "length_m": 366.08, "type_element": "Way", "__fid": 119504}, "geometry": {"type": "LineString", "coordinates": [[2.4131539, 48.8577835], [2.4134522, 48.8578777], [2.4134684, 48.8579217], [2.4134906, 48.8580907], [2.4136877, 48.85828390000001], [2.4137387, 48.8584434], [2.4137011, 48.8588828], [2.4135791, 48.8594342], [2.4134772, 48.8595667], [2.4133565, 48.8596637], [2.4132156, 48.8597158], [2.4131298, 48.8597264], [2.4115802, 48.859624]]}}, {"type": "Feature", "properties": {"highway": "footway", "footway": null, "name": null, "surface": null, "lit": null, "length_m": 38.32, "type_element": "Way", "__fid": 119560}, "geometry": {"type": "LineString", "coordinates": [[2.4117623, 48.861349], [2.411837, 48.8613807], [2.4120677, 48.861362200000016], [2.4121843, 48.8613701], [2.4122192, 48.8614204]]}}, {"type": "Feature", "properties": {"highway": "footway", "footway": null, "name": null, "surface": null, "lit": null, "length_m": 53.34, "type_element": "Way", "__fid": 119561}, "geometry": {"type": "LineString", "coordinates": [[2.4117623, 48.861349], [2.4120324, 48.86179439999998]]}}, {"type": "Feature", "properties": {"highway": "footway", "footway": null, "name": null, "surface": null, "lit": null, "length_m": 13.89, "type_element": "Way", "__fid": 119600}, "geometry": {"type": "LineString", "coordinates": [[2.4120294, 48.8636412], [2.4118766, 48.86356750000002]]}}, {"type": "Feature", "properties": {"highway": "service", "footway": null, "name": null, "surface": null, "lit": "yes", "length_m": 57.99, "type_element": "Way", "__fid": 119606}, "geometry": {"type": "LineString", "coordinates": [[2.412038, 48.8588755], [2.4119447, 48.85939339999999]]}}, {"type": "Feature", "properties": {"highway": "footway", "footway": null, "name": null, "surface": null, "lit": null, "length_m": 9.73, "type_element": "Way", "__fid": 119638}, "geometry": {"type": "LineString", "coordinates": [[2.4119582, 48.8645603], [2.4120123, 48.8646402]]}}, {"type": "Feature", "properties": {"highway": "living_street", "footway": null, "name": "Rue Joseph Python", "surface": "asphalt", "lit": "yes", "length_m": 70.62, "type_element": "Way", "__fid": 119639}, "geometry": {"type": "LineString", "coordinates": [[2.4125609, 48.8640651], [2.4119582, 48.8645603]]}}, {"type": "Feature", "properties": {"highway": "footway", "footway": null, "name": null, "surface": null, "lit": null, "length_m": 8.57, "type_element": "Way", "__fid": 119643}, "geometry": {"type": "LineString", "coordinates": [[2.4119765, 48.8637099], [2.4120294, 48.8636412]]}}, {"type": "Feature", "properties": {"highway": "footway", "footway": null, "name": null, "surface": null, "lit": null, "length_m": 5.84, "type_element": "Way", "__fid": 119662}, "geometry": {"type": "LineString", "coordinates": [[2.4121039, 48.8618174], [2.4120324, 48.86179439999998]]}}, {"type": "Feature", "properties": {"highway": "footway", "footway": null, "name": null, "surface": null, "lit": null, "length_m": 10.15, "type_element": "Way", "__fid": 119663}, "geometry": {"type": "LineString", "coordinates": [[2.4120324, 48.86179439999998], [2.4120837, 48.86187920000001]]}}, {"type": "Feature", "properties": {"highway": "footway", "footway": null, "name": null, "surface": null, "lit": null, "length_m": 3.66, "type_element": "Way", "__fid": 119664}, "geometry": {"type": "LineString", "coordinates": [[2.4120123, 48.8646402], [2.4120326, 48.8646703]]}}, {"type": "Feature", "properties": {"highway": "footway", "footway": "crossing", "name": null, "surface": "asphalt", "lit": null, "length_m": 163.86, "type_element": "Way", "__fid": 119665}, "geometry": {"type": "LineString", "coordinates": [[2.4120123, 48.8646402], [2.4125413, 48.8643327], [2.4127097, 48.864195], [2.4128065, 48.86412940000002], [2.4129478, 48.86409560000001], [2.4136697, 48.8636669]]}}, {"type": "Feature", "properties": {"highway": "footway", "footway": null, "name": null, "surface": null, "lit": null, "length_m": 7.39, "type_element": "Way", "__fid": 119666}, "geometry": {"type": "LineString", "coordinates": [[2.4120294, 48.8636412], [2.4120931, 48.8636927]]}}, {"type": "Feature", "properties": {"highway": "footway", "footway": null, "name": null, "surface": null, "lit": null, "length_m": 27.96, "type_element": "Way", "__fid": 119680}, "geometry": {"type": "LineString", "coordinates": [[2.4120837, 48.86187920000001], [2.4122366, 48.86210949999999]]}}, {"type": "Feature", "properties": {"highway": "footway", "footway": null, "name": null, "surface": null, "lit": null, "length_m": 7.03, "type_element": "Way", "__fid": 119681}, "geometry": {"type": "LineString", "coordinates": [[2.4121039, 48.8618174], [2.4120837, 48.86187920000001]]}}, {"type": "Feature", "properties": {"highway": "footway", "footway": null, "name": null, "surface": null, "lit": null, "length_m": 12.29, "type_element": "Way", "__fid": 119689}, "geometry": {"type": "LineString", "coordinates": [[2.4122688, 48.861836799999985], [2.4121039, 48.8618174]]}}, {"type": "Feature", "properties": {"highway": "footway", "footway": null, "name": null, "surface": null, "lit": null, "length_m": 46.29, "type_element": "Way", "__fid": 119690}, "geometry": {"type": "LineString", "coordinates": [[2.4122192, 48.8614204], [2.4122232, 48.8614839], [2.4121803, 48.86155449999998], [2.4121052, 48.8616401], [2.4120958, 48.8617045], [2.4121039, 48.8618174]]}}, {"type": "Feature", "properties": {"highway": "footway", "footway": null, "name": null, "surface": null, "lit": null, "length_m": 22.23, "type_element": "Way", "__fid": 119695}, "geometry": {"type": "LineString", "coordinates": [[2.4120931, 48.8636927], [2.4122849, 48.8638475]]}}, {"type": "Feature", "properties": {"highway": "footway", "footway": null, "name": null, "surface": null, "lit": null, "length_m": 46.1, "type_element": "Way", "__fid": 119696}, "geometry": {"type": "LineString", "coordinates": [[2.4120931, 48.8636927], [2.412364, 48.86364110000002], [2.4123184, 48.86375670000001], [2.412483, 48.863746200000016]]}}, {"type": "Feature", "properties": {"highway": "footway", "footway": null, "name": null, "surface": null, "lit": null, "length_m": 32.67, "type_element": "Way", "__fid": 119741}, "geometry": {"type": "LineString", "coordinates": [[2.4122849, 48.8638475], [2.4122849, 48.8638855], [2.4125609, 48.8640651]]}}, {"type": "Feature", "properties": {"highway": "footway", "footway": null, "name": null, "surface": null, "lit": null, "length_m": 18.39, "type_element": "Way", "__fid": 119742}, "geometry": {"type": "LineString", "coordinates": [[2.4122849, 48.8638475], [2.412483, 48.863746200000016]]}}, {"type": "Feature", "properties": {"highway": "footway", "footway": null, "name": null, "surface": null, "lit": null, "length_m": 31.88, "type_element": "Way", "__fid": 119772}, "geometry": {"type": "LineString", "coordinates": [[2.412483, 48.863746200000016], [2.4125558, 48.863709], [2.4128124, 48.8638586]]}}, {"type": "Feature", "properties": {"highway": "living_street", "footway": null, "name": "Rue Joseph Python", "surface": "asphalt", "lit": "yes", "length_m": 29.46, "type_element": "Way", "__fid": 119796}, "geometry": {"type": "LineString", "coordinates": [[2.4128124, 48.8638586], [2.4125609, 48.8640651]]}}, {"type": "Feature", "properties": {"highway": "service", "footway": null, "name": null, "surface": null, "lit": null, "length_m": 45.48, "type_element": "Way", "__fid": 119836}, "geometry": {"type": "LineString", "coordinates": [[2.4127275, 48.8635334], [2.4129482, 48.86368629999998], [2.4129085, 48.8637778], [2.4128124, 48.8638586]]}}, {"type": "Feature", "properties": {"highway": "footway", "footway": "sidewalk", "name": null, "surface": null, "lit": null, "length_m": 59.81, "type_element": "Way", "__fid": 119999}, "geometry": {"type": "LineString", "coordinates": [[2.4142604, 48.8635766], [2.4139491, 48.86376210000002], [2.4139016, 48.8638046], [2.4137776, 48.86375240000001], [2.4136697, 48.8636669]]}}, {"type": "Feature", "properties": {"highway": "footway", "footway": "sidewalk", "name": null, "surface": null, "lit": null, "length_m": 58.7, "type_element": "Way", "__fid": 120000}, "geometry": {"type": "LineString", "coordinates": [[2.4136697, 48.8636669], [2.4142643, 48.8633137]]}}, {"type": "Feature", "properties": {"highway": "footway", "footway": "sidewalk", "name": null, "surface": null, "lit": null, "length_m": 268.34, "type_element": "Way", "__fid": 120013}, "geometry": {"type": "LineString", "coordinates": [[2.4137824, 48.8670999], [2.4137782, 48.8669642], [2.4138196, 48.8666678], [2.4138914, 48.8662106], [2.413948, 48.8659879], [2.4139544, 48.8656158], [2.4139291, 48.8646937]]}}, {"type": "Feature", "properties": {"highway": "footway", "footway": "sidewalk", "name": null, "surface": null, "lit": null, "length_m": 107.44, "type_element": "Way", "__fid": 120188}, "geometry": {"type": "LineString", "coordinates": [[2.4146677, 48.858808], [2.4150407, 48.8597309], [2.4150569, 48.8597279]]}}]}