{"type": "FeatureCollection", "features": [{"type": "Feature", "properties": {"@id": "node/2944152897", "amenity": "drinking_water", "check_date": "2022-09-25", "man_made": "water_tap", "type_element": "Fontaines à boire", "__fid": 401}, "geometry": {"type": "Point", "coordinates": [2.4080728, 48.8405076]}, "id": "node/2944152897"}, {"type": "Feature", "properties": {"@id": "node/2944152900", "amenity": "drinking_water", "check_date": "2022-09-25", "man_made": "water_tap", "type_element": "Fontaines à boire", "__fid": 402}, "geometry": {"type": "Point", "coordinates": [2.4111999, 48.84073]}, "id": "node/2944152900"}, {"type": "Feature", "properties": {"@id": "node/7647521693", "amenity": "drinking_water", "man_made": "water_tap", "type_element": "Fontaines à boire", "__fid": 686}, "geometry": {"type": "Point", "coordinates": [2.4110135, 48.8376419]}, "id": "node/7647521693"}, {"type": "Feature", "geometry": {"type": "Point", "coordinates": [2.410279, 48.841251]}, "properties": {"id": 2592, "name": "Square Georges Méliès", "categorie": "Parcs, jardins et bois", "photo_url": "https://cdn.paris.fr/eqpts-prod/2023/07/07/51805e779645f4401c9813c8d42ed47e.jpeg", "photo_credit": "Dana Escalera / Ville de Paris", "photo_alt": null, "address_street": "3, rue Albert-Malet", "address_postcode": "75012", "address_city": "PARIS", "phone": null, "accessibility": "{\"handicaps\": [{\"name\": \"Personnes à mobilité réduite\", \"status\": \"accessible\"}, {\"name\": \"Personnes déficientes visuelles\", \"status\": \"undefined\"}, {\"name\": \"Personnes déficientes auditives\", \"status\": \"undefined\"}, {\"name\": \"Personnes déficientes mentales\", \"status\": \"undefined\"}, {\"name\": \"Accueil en langue des signes\", \"status\": \"undefined\"}]}", "latitude": 48.841251, "longitude": 2.410279, "url": "https://www.paris.fr/lieux/square-georges-melies-2592", "type_element": "Parcs, Jardins et Bois", "__fid": 1155}}, {"type": "Feature", "geometry": {"type": "Point", "coordinates": [2.411882, 48.835941]}, "properties": {"id": 6598, "name": "Bois de Vincennes", "categorie": "Parcs, jardins et bois", "photo_url": "https://cdn.paris.fr/eqpts-prod/2025/11/19/a98187abec6615224676668fe39ff5a0.jpg", "photo_credit": "Sonia Yassa / Ville de Paris", "photo_alt": null, "address_street": "Porte Dorée", "address_postcode": "75012", "address_city": "Paris", "phone": null, "accessibility": "{\"handicaps\": [{\"name\": \"Personnes déficientes visuelles\", \"status\": \"undefined\"}, {\"name\": \"Personnes déficientes auditives\", \"status\": \"undefined\"}, {\"name\": \"Personnes déficientes mentales\", \"status\": \"undefined\"}, {\"name\": \"Accueil en langue des signes\", \"status\": \"undefined\"}, {\"name\": \"Personnes à mobilité réduite\", \"status\": \"accessible\"}]}", "latitude": 48.835941, "longitude": 2.411882, "url": "https://www.paris.fr/lieux/bois-de-vincennes-6598", "type_element": "Parcs, Jardins et Bois", "__fid": 1414}}, {"type": "Feature", "geometry": {"type": "Point", "coordinates": [2.409179, 48.839842]}, "properties": {"id": 20725, "name": "Jardin Paul Valéry", "categorie": "Parcs, jardins et bois", "photo_url": "https://cdn.paris.fr/eqpts-prod/2026/06/30/2d065c060f5feae40b13ee31fcd08209.jpg", "photo_credit": "SPA / Ville de Paris", "photo_alt": "Chemin en pas japonais sous les arbres", "address_street": "38 boulevard Soult", "address_postcode": "75012", "address_city": "Paris", "phone": null, "accessibility": "{\"handicaps\": [{\"name\": \"Personnes déficientes visuelles\", \"status\": \"undefined\"}, {\"name\": \"Personnes déficientes auditives\", \"status\": \"undefined\"}, {\"name\": \"Personnes déficientes mentales\", \"status\": \"undefined\"}, {\"name\": \"Personnes à mobilité réduite\", \"status\": \"undefined\"}, {\"name\": \"Accueil en langue des signes\", \"status\": \"undefined\"}]}", "latitude": 48.839842, "longitude": 2.409179, "url": "https://www.paris.fr/lieux/jardin-paul-valery-20725", "type_element": "Parcs, Jardins et Bois", "__fid": 1424}}, {"type": "Feature", "geometry": {"type": "Point", "coordinates": [2.41297, 48.839727]}, "properties": {"id": 1772, "name": "Coulée verte René Dumont", "categorie": "Parcs, jardins et bois", "photo_url": "https://cdn.paris.fr/eqpts-prod/2022/10/25/1d4f2fa2596462ebc10c241b76c4f27f.jpg", "photo_credit": "Frédéric Combeau / Ville de Paris", "photo_alt": "Vue sur le jardin au fond d'un tunnel éclairé", "address_street": "De la rue Édouard Lartet à la Bastille", "address_postcode": "75012", "address_city": "Paris", "phone": "01 86 21 21 12", "accessibility": "{\"handicaps\": [{\"name\": \"Personnes déficientes visuelles\", \"status\": \"undefined\"}, {\"name\": \"Personnes déficientes mentales\", \"status\": \"accessible\"}, {\"name\": \"Personnes à mobilité réduite\", \"status\": \"accessible\"}, {\"name\": \"Personnes déficientes auditives\", \"status\": \"accessible\"}, {\"name\": \"Accueil en langue des signes\", \"status\": \"non_accessible\"}]}", "latitude": 48.839727, "longitude": 2.41297, "url": "https://www.paris.fr/lieux/coulee-verte-rene-dumont-1772", "type_element": "Parcs, Jardins et Bois", "__fid": 1465}}, {"type": "Feature", "properties": {"highway": "footway", "footway": "sidewalk", "name": null, "surface": "concrete", "lit": "yes", "length_m": 216.52, "type_element": "Way", "__fid": 116622}, "geometry": {"type": "LineString", "coordinates": [[2.4078338, 48.83728090000002], [2.4077942, 48.837246], [2.4067716, 48.836977199999986], [2.4065671, 48.8368563], [2.4060588, 48.836362], [2.4057052, 48.8360391]]}}, {"type": "Feature", "properties": {"highway": "footway", "footway": "sidewalk", "name": null, "surface": "concrete", "lit": "yes", "length_m": 203.3, "type_element": "Way", "__fid": 116672}, "geometry": {"type": "LineString", "coordinates": [[2.4078001, 48.8371608], [2.4077332, 48.837156], [2.4068796, 48.836930899999984], [2.4068387, 48.8369181], [2.4066778, 48.83683], [2.4058744, 48.83606669999999], [2.4058134, 48.8359978]]}}, {"type": "Feature", "properties": {"highway": "footway", "footway": null, "name": "La Coulée Verte", "surface": "concrete", "lit": "yes", "length_m": 104.47, "type_element": "Way", "__fid": 116847}, "geometry": {"type": "LineString", "coordinates": [[2.4075307, 48.8405517], [2.4073765, 48.8405746], [2.4061203, 48.84067430000002]]}}, {"type": "Feature", "properties": {"highway": "footway", "footway": "sidewalk", "name": null, "surface": "concrete", "lit": "yes", "length_m": 157.73, "type_element": "Way", "__fid": 117214}, "geometry": {"type": "LineString", "coordinates": [[2.4067307, 48.8358222], [2.4070278, 48.8360742], [2.4074019, 48.836411], [2.407693, 48.8368303], [2.4077466, 48.8369975], [2.4077836, 48.8370405]]}}, {"type": "Feature", "properties": {"highway": "footway", "footway": "sidewalk", "name": null, "surface": null, "lit": "yes", "length_m": 116.33, "type_element": "Way", "__fid": 117308}, "geometry": {"type": "LineString", "coordinates": [[2.406838, 48.83844340000002], [2.4083045, 48.8388402]]}}, {"type": "Feature", "properties": {"highway": "footway", "footway": "sidewalk", "name": null, "surface": "concrete", "lit": "yes", "length_m": 113.19, "type_element": "Way", "__fid": 117336}, "geometry": {"type": "LineString", "coordinates": [[2.4083186, 48.838939], [2.4082254, 48.8389064], [2.406891879197516, 48.83855347537027]]}}, {"type": "Feature", "properties": {"highway": "footway", "footway": null, "name": "Ligne de La Râpée à Batignolles (Petite Ceinture)", "surface": "dirt", "lit": "no", "length_m": 202.35, "type_element": "Way", "__fid": 117337}, "geometry": {"type": "LineString", "coordinates": [[2.407718120010453, 48.84028521602531], [2.40763, 48.8399834], [2.4075142, 48.8396918], [2.4073764, 48.8393978], [2.4072624, 48.8391675], [2.406891879197516, 48.83855347537027]]}}, {"type": "Feature", "properties": {"highway": "footway", "footway": null, "name": null, "surface": "paving_stones", "lit": "yes", "length_m": 45.58, "type_element": "Way", "__fid": 117369}, "geometry": {"type": "LineString", "coordinates": [[2.4075289, 48.8403543], [2.4069348, 48.8402349]]}}, {"type": "Feature", "properties": {"highway": "footway", "footway": "sidewalk", "name": null, "surface": null, "lit": null, "length_m": 45.91, "type_element": "Way", "__fid": 117380}, "geometry": {"type": "LineString", "coordinates": [[2.4075746, 48.8402606], [2.406977, 48.8401387]]}}, {"type": "Feature", "properties": {"highway": "footway", "footway": "sidewalk", "name": null, "surface": "concrete", "lit": null, "length_m": 81.39, "type_element": "Way", "__fid": 117465}, "geometry": {"type": "LineString", "coordinates": [[2.4081855, 48.8352769], [2.4080661, 48.83534489999999], [2.4072928, 48.835621799999984], [2.4072572, 48.8356626]]}}, {"type": "Feature", "properties": {"highway": "footway", "footway": "sidewalk", "name": null, "surface": "concrete", "lit": null, "length_m": 69.26, "type_element": "Way", "__fid": 117484}, "geometry": {"type": "LineString", "coordinates": [[2.4073447, 48.8358397], [2.4078505, 48.8363048], [2.4079128, 48.8363338]]}}, {"type": "Feature", "properties": {"highway": "footway", "footway": "sidewalk", "name": null, "surface": null, "lit": null, "length_m": 32.74, "type_element": "Way", "__fid": 117485}, "geometry": {"type": "LineString", "coordinates": [[2.4077646, 48.8358374], [2.4074138, 48.8358008], [2.4073447, 48.8358397]]}}, {"type": "Feature", "properties": {"highway": "footway", "footway": "sidewalk", "name": null, "surface": null, "lit": "yes", "length_m": 8.87, "type_element": "Way", "__fid": 117520}, "geometry": {"type": "LineString", "coordinates": [[2.4074254, 48.8407256], [2.4075411, 48.8407026]]}}, {"type": "Feature", "properties": {"highway": "footway", "footway": "sidewalk", "name": null, "surface": null, "lit": null, "length_m": 16.65, "type_element": "Way", "__fid": 117562}, "geometry": {"type": "LineString", "coordinates": [[2.407747470157966, 48.84039455182956], [2.4075289, 48.8403543]]}}, {"type": "Feature", "properties": {"highway": "footway", "footway": null, "name": null, "surface": "paving_stones", "lit": "yes", "length_m": 22.23, "type_element": "Way", "__fid": 117563}, "geometry": {"type": "LineString", "coordinates": [[2.4075289, 48.8403543], [2.4075059, 48.8404369], [2.4075307, 48.8405517]]}}, {"type": "Feature", "properties": {"highway": "footway", "footway": "crossing", "name": null, "surface": "concrete", "lit": "yes", "length_m": 10.95, "type_element": "Way", "__fid": 117564}, "geometry": {"type": "LineString", "coordinates": [[2.4075746, 48.8402606], [2.4075289, 48.8403543]]}}, {"type": "Feature", "properties": {"highway": "footway", "footway": "crossing", "name": null, "surface": "asphalt", "lit": "yes", "length_m": 16.8, "type_element": "Way", "__fid": 117566}, "geometry": {"type": "LineString", "coordinates": [[2.4075307, 48.8405517], [2.4075411, 48.8407026]]}}, {"type": "Feature", "properties": {"highway": "footway", "footway": null, "name": "La Coulée Verte", "surface": "compacted", "lit": "yes", "length_m": 18.83, "type_element": "Way", "__fid": 117567}, "geometry": {"type": "LineString", "coordinates": [[2.407785207820605, 48.84053519039546], [2.4076097, 48.8405401], [2.4075307, 48.8405517]]}}, {"type": "Feature", "properties": {"highway": "footway", "footway": "sidewalk", "name": null, "surface": null, "lit": "yes", "length_m": 21.09, "type_element": "Way", "__fid": 117578}, "geometry": {"type": "LineString", "coordinates": [[2.4075411, 48.8407026], [2.4077694, 48.84068589999998], [2.407826681562599, 48.84068983814822]]}}, {"type": "Feature", "properties": {"highway": "footway", "footway": "sidewalk", "name": null, "surface": null, "lit": null, "length_m": 10.88, "type_element": "Way", "__fid": 117594}, "geometry": {"type": "LineString", "coordinates": [[2.407718120010453, 48.84028521602531], [2.4075746, 48.8402606]]}}, {"type": "Feature", "properties": {"highway": "service", "footway": null, "name": null, "surface": null, "lit": null, "length_m": 61.98, "type_element": "Way", "__fid": 117595}, "geometry": {"type": "LineString", "coordinates": [[2.4075615, 48.841527], [2.4077412, 48.8409824]]}}, {"type": "Feature", "properties": {"highway": "footway", "footway": null, "name": null, "surface": null, "lit": null, "length_m": 24.12, "type_element": "Way", "__fid": 117644}, "geometry": {"type": "LineString", "coordinates": [[2.40784, 48.83602480000001], [2.4077276, 48.8359339], [2.4077646, 48.8358374]]}}, {"type": "Feature", "properties": {"highway": "footway", "footway": null, "name": null, "surface": null, "lit": null, "length_m": 65.89, "type_element": "Way", "__fid": 117645}, "geometry": {"type": "LineString", "coordinates": [[2.4077646, 48.8358374], [2.4078056, 48.8357118], [2.408422, 48.8354886]]}}, {"type": "Feature", "properties": {"highway": "footway", "footway": "sidewalk", "name": null, "surface": null, "lit": null, "length_m": 77.76, "type_element": "Way", "__fid": 117649}, "geometry": {"type": "LineString", "coordinates": [[2.4087726, 48.840323], [2.4079074, 48.84031380000001], [2.407718120010453, 48.84028521602531]]}}, {"type": "Feature", "properties": {"highway": "footway", "footway": null, "name": "Ligne de La Râpée à Batignolles (Petite Ceinture)", "surface": "compacted", "lit": "no", "length_m": 12.35, "type_element": "Way", "__fid": 117650}, "geometry": {"type": "LineString", "coordinates": [[2.407747470157966, 48.84039455182956], [2.407718120010453, 48.84028521602531]]}}, {"type": "Feature", "properties": {"highway": "footway", "footway": "sidewalk", "name": null, "surface": "concrete", "lit": "yes", "length_m": 14.16, "type_element": "Way", "__fid": 117655}, "geometry": {"type": "LineString", "coordinates": [[2.4078001, 48.8371608], [2.4078213, 48.8371375], [2.4077836, 48.8370405]]}}, {"type": "Feature", "properties": {"highway": "footway", "footway": "sidewalk", "name": null, "surface": null, "lit": "yes", "length_m": 34.01, "type_element": "Way", "__fid": 117656}, "geometry": {"type": "LineString", "coordinates": [[2.4082343, 48.8369695], [2.4077836, 48.8370405]]}}, {"type": "Feature", "properties": {"highway": "footway", "footway": "sidewalk", "name": null, "surface": null, "lit": null, "length_m": 65.59, "type_element": "Way", "__fid": 117657}, "geometry": {"type": "LineString", "coordinates": [[2.4086376, 48.8404261], [2.4079084, 48.8404162], [2.407747470157966, 48.84039455182956]]}}, {"type": "Feature", "properties": {"highway": "footway", "footway": null, "name": "Ligne de La Râpée à Batignolles (Petite Ceinture)", "surface": "compacted", "lit": "no", "length_m": 9.14, "type_element": "Way", "__fid": 117658}, "geometry": {"type": "LineString", "coordinates": [[2.4077692, 48.8404755], [2.407747470157966, 48.84039455182956]]}}, {"type": "Feature", "properties": {"highway": "footway", "footway": "crossing", "name": null, "surface": "asphalt", "lit": "yes", "length_m": 13.58, "type_element": "Way", "__fid": 117668}, "geometry": {"type": "LineString", "coordinates": [[2.4078338, 48.83728090000002], [2.4078001, 48.8371608]]}}, {"type": "Feature", "properties": {"highway": "footway", "footway": null, "name": "Ligne de La Râpée à Batignolles (Petite Ceinture)", "surface": "compacted", "lit": "no", "length_m": 6.74, "type_element": "Way", "__fid": 117670}, "geometry": {"type": "LineString", "coordinates": [[2.407785207820605, 48.84053519039546], [2.4077692, 48.8404755]]}}, {"type": "Feature", "properties": {"highway": "footway", "footway": null, "name": null, "surface": "metal", "lit": "no", "length_m": 29.32, "type_element": "Way", "__fid": 117671}, "geometry": {"type": "LineString", "coordinates": [[2.4079759, 48.8405319], [2.4079766, 48.8404643], [2.4079444, 48.8404639], [2.4079438, 48.8404983], [2.4079203, 48.8404978], [2.407921, 48.8404731], [2.4077692, 48.8404755]]}}, {"type": "Feature", "properties": {"highway": "footway", "footway": null, "name": "Ligne de La Râpée à Batignolles (Petite Ceinture)", "surface": "compacted", "lit": "no", "length_m": 17.46, "type_element": "Way", "__fid": 117681}, "geometry": {"type": "LineString", "coordinates": [[2.407826681562599, 48.84068983814822], [2.407785207820605, 48.84053519039546]]}}, {"type": "Feature", "properties": {"highway": "footway", "footway": null, "name": "La Coulée Verte", "surface": "compacted", "lit": "yes", "length_m": 14.0, "type_element": "Way", "__fid": 117682}, "geometry": {"type": "LineString", "coordinates": [[2.4079759, 48.8405319], [2.407785207820605, 48.84053519039546]]}}, {"type": "Feature", "properties": {"highway": "footway", "footway": "sidewalk", "name": null, "surface": "concrete", "lit": "yes", "length_m": 172.77, "type_element": "Way", "__fid": 117691}, "geometry": {"type": "LineString", "coordinates": [[2.4083246, 48.8388005], [2.4078338, 48.83728090000002]]}}, {"type": "Feature", "properties": {"highway": "footway", "footway": "sidewalk", "name": null, "surface": null, "lit": "yes", "length_m": 22.19, "type_element": "Way", "__fid": 117713}, "geometry": {"type": "LineString", "coordinates": [[2.407826681562599, 48.84068983814822], [2.4081283, 48.84070349999999]]}}, {"type": "Feature", "properties": {"highway": "footway", "footway": null, "name": "Ligne de La Râpée à Batignolles (Petite Ceinture)", "surface": null, "lit": null, "length_m": 160.53, "type_element": "Way", "__fid": 117714}, "geometry": {"type": "LineString", "coordinates": [[2.408208, 48.8421114], [2.407826681562599, 48.84068983814822]]}}, {"type": "Feature", "properties": {"highway": "footway", "footway": "crossing", "name": null, "surface": "asphalt", "lit": "yes", "length_m": 19.34, "type_element": "Way", "__fid": 117744}, "geometry": {"type": "LineString", "coordinates": [[2.4079128, 48.8363338], [2.4079377, 48.8363779], [2.4079758, 48.83641549999999], [2.408076, 48.8364633]]}}, {"type": "Feature", "properties": {"highway": "footway", "footway": "sidewalk", "name": null, "surface": "concrete", "lit": null, "length_m": 74.27, "type_element": "Way", "__fid": 117745}, "geometry": {"type": "LineString", "coordinates": [[2.4079128, 48.8363338], [2.40802, 48.8363169], [2.4087667, 48.836063], [2.4088174, 48.8360399]]}}, {"type": "Feature", "properties": {"highway": "footway", "footway": null, "name": "La Coulée Verte", "surface": "compacted", "lit": "yes", "length_m": 34.21, "type_element": "Way", "__fid": 117795}, "geometry": {"type": "LineString", "coordinates": [[2.408442, 48.8405361], [2.4079759, 48.8405319]]}}, {"type": "Feature", "properties": {"highway": "footway", "footway": "sidewalk", "name": null, "surface": "concrete", "lit": "yes", "length_m": 57.47, "type_element": "Way", "__fid": 117816}, "geometry": {"type": "LineString", "coordinates": [[2.4082343, 48.8369695], [2.408076, 48.8364633]]}}, {"type": "Feature", "properties": {"highway": "footway", "footway": "sidewalk", "name": null, "surface": "concrete", "lit": "yes", "length_m": 70.63, "type_element": "Way", "__fid": 117817}, "geometry": {"type": "LineString", "coordinates": [[2.408076, 48.8364633], [2.4088594, 48.836189], [2.4089318, 48.8361749]]}}, {"type": "Feature", "properties": {"highway": "service", "footway": null, "name": null, "surface": null, "lit": null, "length_m": 5.32, "type_element": "Way", "__fid": 117849}, "geometry": {"type": "LineString", "coordinates": [[2.4081248, 48.8406557], [2.4081283, 48.84070349999999]]}}, {"type": "Feature", "properties": {"highway": "footway", "footway": "sidewalk", "name": null, "surface": null, "lit": "yes", "length_m": 52.91, "type_element": "Way", "__fid": 117850}, "geometry": {"type": "LineString", "coordinates": [[2.4081283, 48.84070349999999], [2.408849, 48.840715]]}}, {"type": "Feature", "properties": {"highway": "service", "footway": null, "name": null, "surface": null, "lit": null, "length_m": 18.71, "type_element": "Way", "__fid": 117851}, "geometry": {"type": "LineString", "coordinates": [[2.4081283, 48.84070349999999], [2.4081389, 48.8408716]]}}, {"type": "Feature", "properties": {"highway": "service", "footway": null, "name": null, "surface": null, "lit": null, "length_m": 41.23, "type_element": "Way", "__fid": 117854}, "geometry": {"type": "LineString", "coordinates": [[2.4082214, 48.8412384], [2.4081389, 48.8408716]]}}, {"type": "Feature", "properties": {"highway": "service", "footway": null, "name": null, "surface": null, "lit": null, "length_m": 63.83, "type_element": "Way", "__fid": 117855}, "geometry": {"type": "LineString", "coordinates": [[2.4081389, 48.8408716], [2.4082958, 48.8408708], [2.4084822, 48.8408902], [2.4086016, 48.8409352], [2.4086814, 48.8409917], [2.408733, 48.8410583], [2.4087605, 48.8411598]]}}, {"type": "Feature", "properties": {"highway": "footway", "footway": "sidewalk", "name": null, "surface": null, "lit": "yes", "length_m": 23.29, "type_element": "Way", "__fid": 117868}, "geometry": {"type": "LineString", "coordinates": [[2.4082343, 48.8369695], [2.4082933, 48.8371753]]}}, {"type": "Feature", "properties": {"highway": "service", "footway": null, "name": null, "surface": null, "lit": null, "length_m": 14.02, "type_element": "Way", "__fid": 117887}, "geometry": {"type": "LineString", "coordinates": [[2.4082845, 48.837729], [2.4084687, 48.8376955]]}}, {"type": "Feature", "properties": {"highway": "footway", "footway": "sidewalk", "name": null, "surface": null, "lit": "yes", "length_m": 20.71, "type_element": "Way", "__fid": 117889}, "geometry": {"type": "LineString", "coordinates": [[2.4082933, 48.8371753], [2.4083367, 48.83732540000001], [2.4083719, 48.837349400000015]]}}, {"type": "Feature", "properties": {"highway": "footway", "footway": "sidewalk", "name": null, "surface": "concrete", "lit": null, "length_m": 24.66, "type_element": "Way", "__fid": 117890}, "geometry": {"type": "LineString", "coordinates": [[2.4085955, 48.837086200000016], [2.4084251, 48.837157], [2.4082933, 48.8371753]]}}, {"type": "Feature", "properties": {"highway": "footway", "footway": "crossing", "name": null, "surface": "concrete", "lit": "yes", "length_m": 11.03, "type_element": "Way", "__fid": 117896}, "geometry": {"type": "LineString", "coordinates": [[2.4083045, 48.8388402], [2.4083186, 48.838939]]}}, {"type": "Feature", "properties": {"highway": "footway", "footway": "sidewalk", "name": null, "surface": "concrete", "lit": "yes", "length_m": 4.65, "type_element": "Way", "__fid": 117897}, "geometry": {"type": "LineString", "coordinates": [[2.4083045, 48.8388402], [2.4083246, 48.8388005]]}}, {"type": "Feature", "properties": {"highway": "footway", "footway": "sidewalk", "name": null, "surface": "concrete", "lit": "yes", "length_m": 12.23, "type_element": "Way", "__fid": 117903}, "geometry": {"type": "LineString", "coordinates": [[2.4083186, 48.838939], [2.4083843, 48.8390401]]}}, {"type": "Feature", "properties": {"highway": "footway", "footway": "crossing", "name": null, "surface": "asphalt", "lit": "yes", "length_m": 35.32, "type_element": "Way", "__fid": 117905}, "geometry": {"type": "LineString", "coordinates": [[2.4083246, 48.8388005], [2.4084192, 48.8387939], [2.4087969, 48.8387413]]}}, {"type": "Feature", "properties": {"highway": "footway", "footway": "sidewalk", "name": null, "surface": null, "lit": null, "length_m": 39.38, "type_element": "Way", "__fid": 117912}, "geometry": {"type": "LineString", "coordinates": [[2.4083719, 48.837349400000015], [2.4083663, 48.8374109], [2.4084687, 48.8376955]]}}, {"type": "Feature", "properties": {"highway": "footway", "footway": "sidewalk", "name": null, "surface": null, "lit": null, "length_m": 74.17, "type_element": "Way", "__fid": 117913}, "geometry": {"type": "LineString", "coordinates": [[2.4092438, 48.8370136], [2.4091894, 48.8370278], [2.4084602, 48.8373091], [2.4083719, 48.837349400000015]]}}, {"type": "Feature", "properties": {"highway": "footway", "footway": "sidewalk", "name": null, "surface": "concrete", "lit": null, "length_m": 61.13, "type_element": "Way", "__fid": 117926}, "geometry": {"type": "LineString", "coordinates": [[2.4087947, 48.8359796], [2.4087858, 48.835956], [2.408422, 48.8354886]]}}, {"type": "Feature", "properties": {"highway": "footway", "footway": "sidewalk", "name": null, "surface": null, "lit": "yes", "length_m": 45.68, "type_element": "Way", "__fid": 117927}, "geometry": {"type": "LineString", "coordinates": [[2.4083843, 48.8390401], [2.4084986, 48.839443899999985]]}}, {"type": "Feature", "properties": {"highway": "footway", "footway": "crossing", "name": null, "surface": "asphalt", "lit": "yes", "length_m": 36.59, "type_element": "Way", "__fid": 117928}, "geometry": {"type": "LineString", "coordinates": [[2.4083843, 48.8390401], [2.4084905, 48.8390325], [2.4088728, 48.83897620000001]]}}, {"type": "Feature", "properties": {"highway": "footway", "footway": "sidewalk", "name": null, "surface": null, "lit": null, "length_m": 44.05, "type_element": "Way", "__fid": 117950}, "geometry": {"type": "LineString", "coordinates": [[2.4084687, 48.8376955], [2.4085898, 48.83808350000002]]}}, {"type": "Feature", "properties": {"highway": "service", "footway": null, "name": null, "surface": null, "lit": null, "length_m": 21.44, "type_element": "Way", "__fid": 117951}, "geometry": {"type": "LineString", "coordinates": [[2.4084687, 48.8376955], [2.4087422, 48.8376278]]}}, {"type": "Feature", "properties": {"highway": "footway", "footway": null, "name": "La Coulée Verte", "surface": "compacted", "lit": "yes", "length_m": 29.15, "type_element": "Way", "__fid": 117954}, "geometry": {"type": "LineString", "coordinates": [[2.40883887879669, 48.840544712236586], [2.408442, 48.8405361]]}}, {"type": "Feature", "properties": {"highway": "steps", "footway": null, "name": null, "surface": "metal", "lit": "yes", "length_m": 18.86, "type_element": "Way", "__fid": 117955}, "geometry": {"type": "LineString", "coordinates": [[2.408442, 48.8405361], [2.4086376, 48.8404261]]}}, {"type": "Feature", "properties": {"highway": "service", "footway": null, "name": null, "surface": null, "lit": null, "length_m": 22.24, "type_element": "Way", "__fid": 117968}, "geometry": {"type": "LineString", "coordinates": [[2.4085955, 48.837086200000016], [2.4085231, 48.836892]]}}, {"type": "Feature", "properties": {"highway": "footway", "footway": "sidewalk", "name": null, "surface": null, "lit": "yes", "length_m": 13.36, "type_element": "Way", "__fid": 117969}, "geometry": {"type": "LineString", "coordinates": [[2.4084986, 48.839443899999985], [2.4085329, 48.83956190000003]]}}, {"type": "Feature", "properties": {"highway": "service", "footway": null, "name": null, "surface": null, "lit": null, "length_m": 33.14, "type_element": "Way", "__fid": 117970}, "geometry": {"type": "LineString", "coordinates": [[2.4085763, 48.8396984], [2.4084997, 48.8396639], [2.4084452, 48.8394843], [2.4084986, 48.839443899999985]]}}, {"type": "Feature", "properties": {"highway": "service", "footway": null, "name": null, "surface": null, "lit": null, "length_m": 11.65, "type_element": "Way", "__fid": 117971}, "geometry": {"type": "LineString", "coordinates": [[2.4084986, 48.839443899999985], [2.4085999, 48.8393632]]}}, {"type": "Feature", "properties": {"highway": "footway", "footway": "sidewalk", "name": null, "surface": null, "lit": "yes", "length_m": 15.51, "type_element": "Way", "__fid": 117986}, "geometry": {"type": "LineString", "coordinates": [[2.4085329, 48.83956190000003], [2.4085763, 48.8396984]]}}, {"type": "Feature", "properties": {"highway": "footway", "footway": "crossing", "name": null, "surface": "paving_stones", "lit": "yes", "length_m": 12.48, "type_element": "Way", "__fid": 117987}, "geometry": {"type": "LineString", "coordinates": [[2.408699, 48.83953790000001], [2.4085329, 48.83956190000003]]}}, {"type": "Feature", "properties": {"highway": "service", "footway": null, "name": null, "surface": null, "lit": null, "length_m": 10.06, "type_element": "Way", "__fid": 118011}, "geometry": {"type": "LineString", "coordinates": [[2.4086636, 48.83716470000002], [2.4085955, 48.837086200000016]]}}, {"type": "Feature", "properties": {"highway": "footway", "footway": "sidewalk", "name": null, "surface": "concrete", "lit": null, "length_m": 45.63, "type_element": "Way", "__fid": 118012}, "geometry": {"type": "LineString", "coordinates": [[2.4091216, 48.8368676], [2.4085955, 48.837086200000016]]}}, {"type": "Feature", "properties": {"highway": "footway", "footway": "crossing", "name": null, "surface": null, "lit": "yes", "length_m": 17.23, "type_element": "Way", "__fid": 118016}, "geometry": {"type": "LineString", "coordinates": [[2.4085898, 48.83808350000002], [2.4086336, 48.838235699999984]]}}, {"type": "Feature", "properties": {"highway": "footway", "footway": "sidewalk", "name": null, "surface": null, "lit": null, "length_m": 95.11, "type_element": "Way", "__fid": 118017}, "geometry": {"type": "LineString", "coordinates": [[2.4085898, 48.83808350000002], [2.4098574, 48.8379061]]}}, {"type": "Feature", "properties": {"highway": "service", "footway": null, "name": null, "surface": null, "lit": null, "length_m": 8.43, "type_element": "Way", "__fid": 118021}, "geometry": {"type": "LineString", "coordinates": [[2.408689, 48.8397132], [2.4085763, 48.8396984]]}}, {"type": "Feature", "properties": {"highway": "footway", "footway": "sidewalk", "name": null, "surface": null, "lit": "yes", "length_m": 56.11, "type_element": "Way", "__fid": 118022}, "geometry": {"type": "LineString", "coordinates": [[2.4085763, 48.8396984], [2.4087409, 48.8401912]]}}, {"type": "Feature", "properties": {"highway": "service", "footway": null, "name": null, "surface": null, "lit": null, "length_m": 93.09, "type_element": "Way", "__fid": 118036}, "geometry": {"type": "LineString", "coordinates": [[2.4086099, 48.8380216], [2.409848668771583, 48.83784207723918]]}}, {"type": "Feature", "properties": {"highway": "service", "footway": null, "name": null, "surface": null, "lit": null, "length_m": 21.99, "type_element": "Way", "__fid": 118044}, "geometry": {"type": "LineString", "coordinates": [[2.4086358, 48.8374429], [2.4087422, 48.8376278]]}}, {"type": "Feature", "properties": {"highway": "footway", "footway": "sidewalk", "name": null, "surface": null, "lit": "yes", "length_m": 57.48, "type_element": "Way", "__fid": 118049}, "geometry": {"type": "LineString", "coordinates": [[2.4087969, 48.8387413], [2.4086336, 48.838235699999984]]}}, {"type": "Feature", "properties": {"highway": "footway", "footway": null, "name": "Rue du Général Archinard", "surface": null, "lit": null, "length_m": 91.87, "type_element": "Way", "__fid": 118050}, "geometry": {"type": "LineString", "coordinates": [[2.4086336, 48.838235699999984], [2.4098571, 48.8380617]]}}, {"type": "Feature", "properties": {"highway": "footway", "footway": "sidewalk", "name": null, "surface": null, "lit": null, "length_m": 11.86, "type_element": "Way", "__fid": 118067}, "geometry": {"type": "LineString", "coordinates": [[2.408799099999908, 48.8404218], [2.4086376, 48.8404261]]}}, {"type": "Feature", "properties": {"highway": "footway", "footway": null, "name": null, "surface": "paving_stones", "lit": "yes", "length_m": 16.35, "type_element": "Way", "__fid": 118091}, "geometry": {"type": "LineString", "coordinates": [[2.4087457, 48.839681699999986], [2.408699, 48.83953790000001]]}}, {"type": "Feature", "properties": {"highway": "footway", "footway": "crossing", "name": null, "surface": "paving_stones", "lit": "yes", "length_m": 9.84, "type_element": "Way", "__fid": 118092}, "geometry": {"type": "LineString", "coordinates": [[2.40883, 48.839519], [2.408699, 48.83953790000001]]}}, {"type": "Feature", "properties": {"highway": "service", "footway": null, "name": null, "surface": null, "lit": null, "length_m": 23.47, "type_element": "Way", "__fid": 118102}, "geometry": {"type": "LineString", "coordinates": [[2.4087422, 48.8376278], [2.4088557, 48.8378251]]}}, {"type": "Feature", "properties": {"highway": "service", "footway": null, "name": null, "surface": null, "lit": null, "length_m": 28.58, "type_element": "Way", "__fid": 118103}, "geometry": {"type": "LineString", "coordinates": [[2.4087422, 48.8376278], [2.4091052, 48.83753469999997]]}}, {"type": "Feature", "properties": {"highway": "footway", "footway": "sidewalk", "name": null, "surface": null, "lit": "yes", "length_m": 14.84, "type_element": "Way", "__fid": 118116}, "geometry": {"type": "LineString", "coordinates": [[2.4087409, 48.8401912], [2.4087726, 48.840323]]}}, {"type": "Feature", "properties": {"highway": "footway", "footway": "crossing", "name": null, "surface": null, "lit": "yes", "length_m": 12.14, "type_element": "Way", "__fid": 118117}, "geometry": {"type": "LineString", "coordinates": [[2.4089026, 48.8401681], [2.4087409, 48.8401912]]}}, {"type": "Feature", "properties": {"highway": "footway", "footway": "sidewalk", "name": null, "surface": "concrete", "lit": null, "length_m": 6.91, "type_element": "Way", "__fid": 118118}, "geometry": {"type": "LineString", "coordinates": [[2.4088174, 48.8360399], [2.4087947, 48.8359796]]}}, {"type": "Feature", "properties": {"highway": "footway", "footway": "crossing", "name": null, "surface": "asphalt", "lit": null, "length_m": 13.17, "type_element": "Way", "__fid": 118119}, "geometry": {"type": "LineString", "coordinates": [[2.4087947, 48.8359796], [2.4089564, 48.8359283]]}}, {"type": "Feature", "properties": {"highway": "footway", "footway": "sidewalk", "name": null, "surface": "concrete", "lit": null, "length_m": 17.38, "type_element": "Way", "__fid": 118138}, "geometry": {"type": "LineString", "coordinates": [[2.4088174, 48.8360399], [2.4088549, 48.8360649], [2.4089318, 48.8361749]]}}, {"type": "Feature", "properties": {"highway": "footway", "footway": "crossing", "name": "Boulevard Soult", "surface": "asphalt", "lit": "yes", "length_m": 11.16, "type_element": "Way", "__fid": 118142}, "geometry": {"type": "LineString", "coordinates": [[2.4087726, 48.840323], [2.408799099999908, 48.8404218]]}}, {"type": "Feature", "properties": {"highway": "footway", "footway": "sidewalk", "name": null, "surface": null, "lit": "yes", "length_m": 26.71, "type_element": "Way", "__fid": 118152}, "geometry": {"type": "LineString", "coordinates": [[2.4088728, 48.83897620000001], [2.4087969, 48.8387413]]}}, {"type": "Feature", "properties": {"highway": "footway", "footway": "sidewalk", "name": "Boulevard Soult", "surface": "wood", "lit": "yes", "length_m": 13.98, "type_element": "Way", "__fid": 118156}, "geometry": {"type": "LineString", "coordinates": [[2.40883887879669, 48.840544712236586], [2.408799099999908, 48.8404218]]}}, {"type": "Feature", "properties": {"highway": "footway", "footway": null, "name": null, "surface": "paving_stones", "lit": "yes", "length_m": 16.35, "type_element": "Way", "__fid": 118163}, "geometry": {"type": "LineString", "coordinates": [[2.4088782, 48.8396626], [2.40883, 48.839519]]}}, {"type": "Feature", "properties": {"highway": "footway", "footway": "crossing", "name": null, "surface": "paving_stones", "lit": "yes", "length_m": 15.67, "type_element": "Way", "__fid": 118164}, "geometry": {"type": "LineString", "coordinates": [[2.4090385, 48.839488899999985], [2.40883, 48.839519]]}}, {"type": "Feature", "properties": {"highway": "footway", "footway": null, "name": "Ligne de Paris-Bastille à Marles-en-Brie", "surface": null, "lit": "yes", "length_m": 37.72, "type_element": "Way", "__fid": 118175}, "geometry": {"type": "LineString", "coordinates": [[2.409352698779944, 48.84055252598814], [2.40883887879669, 48.840544712236586]]}}, {"type": "Feature", "properties": {"highway": "footway", "footway": "sidewalk", "name": "Boulevard Soult", "surface": "asphalt", "lit": "yes", "length_m": 19.89, "type_element": "Way", "__fid": 118176}, "geometry": {"type": "LineString", "coordinates": [[2.408849, 48.840715], [2.4088778, 48.8406894], [2.40883887879669, 48.840544712236586]]}}, {"type": "Feature", "properties": {"highway": "footway", "footway": "sidewalk", "name": null, "surface": null, "lit": "yes", "length_m": 21.09, "type_element": "Way", "__fid": 118183}, "geometry": {"type": "LineString", "coordinates": [[2.408849, 48.840715], [2.4089087, 48.8407626], [2.4089529, 48.84088710000001]]}}, {"type": "Feature", "properties": {"highway": "footway", "footway": "sidewalk", "name": null, "surface": null, "lit": "yes", "length_m": 58.29, "type_element": "Way", "__fid": 118184}, "geometry": {"type": "LineString", "coordinates": [[2.4090385, 48.839488899999985], [2.4088728, 48.83897620000001]]}}, {"type": "Feature", "properties": {"highway": "footway", "footway": null, "name": null, "surface": "paving_stones", "lit": "yes", "length_m": 10.47, "type_element": "Way", "__fid": 118192}, "geometry": {"type": "LineString", "coordinates": [[2.4088735, 48.8400759], [2.4089026, 48.8401681]]}}, {"type": "Feature", "properties": {"highway": "footway", "footway": "sidewalk", "name": null, "surface": "concrete", "lit": null, "length_m": 74.56, "type_element": "Way", "__fid": 118200}, "geometry": {"type": "LineString", "coordinates": [[2.4089318, 48.8361749], [2.409239, 48.83654880000002], [2.4092514, 48.8367651], [2.4092303, 48.8367902]]}}, {"type": "Feature", "properties": {"highway": "footway", "footway": "sidewalk", "name": null, "surface": "concrete", "lit": null, "length_m": 10.53, "type_element": "Way", "__fid": 118201}, "geometry": {"type": "LineString", "coordinates": [[2.4089318, 48.8361749], [2.4090651, 48.8361398]]}}, {"type": "Feature", "properties": {"highway": "footway", "footway": "crossing", "name": null, "surface": null, "lit": "yes", "length_m": 9.91, "type_element": "Way", "__fid": 118211}, "geometry": {"type": "LineString", "coordinates": [[2.4090347, 48.8401497], [2.4089026, 48.8401681]]}}, {"type": "Feature", "properties": {"highway": "footway", "footway": "sidewalk", "name": null, "surface": null, "lit": "yes", "length_m": 99.52, "type_element": "Way", "__fid": 118258}, "geometry": {"type": "LineString", "coordinates": [[2.4089529, 48.84088710000001], [2.4092311, 48.8417631]]}}, {"type": "Feature", "properties": {"highway": "footway", "footway": "crossing", "name": null, "surface": null, "lit": "yes", "length_m": 35.52, "type_element": "Way", "__fid": 118259}, "geometry": {"type": "LineString", "coordinates": [[2.4094297, 48.84083459999999], [2.4093744, 48.8408357], [2.4089529, 48.84088710000001]]}}, {"type": "Feature", "properties": {"highway": "footway", "footway": null, "name": null, "surface": "paving_stones", "lit": "yes", "length_m": 10.55, "type_element": "Way", "__fid": 118296}, "geometry": {"type": "LineString", "coordinates": [[2.4090033, 48.84005710000001], [2.4090347, 48.8401497]]}}, {"type": "Feature", "properties": {"highway": "pedestrian", "footway": null, "name": "Avenue Armand Rousseau", "surface": "asphalt", "lit": null, "length_m": 136.91, "type_element": "Way", "__fid": 118302}, "geometry": {"type": "LineString", "coordinates": [[2.4090651, 48.8361398], [2.4093729, 48.836567], [2.4093839, 48.8367285], [2.4097422, 48.836697], [2.4102169, 48.836524]]}}, {"type": "Feature", "properties": {"highway": "service", "footway": null, "name": "Rue Montesquiou-Fezensac", "surface": "asphalt", "lit": "yes", "length_m": 125.31, "type_element": "Way", "__fid": 118303}, "geometry": {"type": "LineString", "coordinates": [[2.4090651, 48.8361398], [2.4090461, 48.836113], [2.4105187, 48.83560389999999]]}}, {"type": "Feature", "properties": {"highway": "footway", "footway": "crossing", "name": null, "surface": "asphalt", "lit": null, "length_m": 3.86, "type_element": "Way", "__fid": 118304}, "geometry": {"type": "LineString", "coordinates": [[2.4090651, 48.8361398], [2.4091129, 48.8361254]]}}, {"type": "Feature", "properties": {"highway": "footway", "footway": "sidewalk", "name": null, "surface": null, "lit": "yes", "length_m": 71.95, "type_element": "Way", "__fid": 118313}, "geometry": {"type": "LineString", "coordinates": [[2.4092293, 48.8401236], [2.4090385, 48.839488899999985]]}}, {"type": "Feature", "properties": {"highway": "footway", "footway": "crossing", "name": null, "surface": null, "lit": "yes", "length_m": 14.57, "type_element": "Way", "__fid": 118316}, "geometry": {"type": "LineString", "coordinates": [[2.4092293, 48.8401236], [2.4090347, 48.8401497]]}}, {"type": "Feature", "properties": {"highway": "service", "footway": null, "name": null, "surface": null, "lit": null, "length_m": 44.28, "type_element": "Way", "__fid": 118337}, "geometry": {"type": "LineString", "coordinates": [[2.4091052, 48.83753469999997], [2.4091025, 48.83750470000002], [2.4091199, 48.8374861], [2.4092661, 48.8374543], [2.4092929, 48.8374658], [2.4093197, 48.8375108], [2.4093144, 48.8375267], [2.4091561, 48.8375647], [2.4091333, 48.8375611], [2.4091052, 48.83753469999997]]}}, {"type": "Feature", "properties": {"highway": "footway", "footway": "crossing", "name": null, "surface": null, "lit": null, "length_m": 18.66, "type_element": "Way", "__fid": 118341}, "geometry": {"type": "LineString", "coordinates": [[2.4091216, 48.8368676], [2.409232, 48.8369848], [2.4092438, 48.8370136]]}}, {"type": "Feature", "properties": {"highway": "footway", "footway": "sidewalk", "name": null, "surface": "concrete", "lit": null, "length_m": 12.11, "type_element": "Way", "__fid": 118342}, "geometry": {"type": "LineString", "coordinates": [[2.4092303, 48.8367902], [2.4091884, 48.836839800000014], [2.4091216, 48.8368676]]}}, {"type": "Feature", "properties": {"highway": "footway", "footway": "crossing", "name": null, "surface": "asphalt", "lit": null, "length_m": 16.87, "type_element": "Way", "__fid": 118384}, "geometry": {"type": "LineString", "coordinates": [[2.4092303, 48.8367902], [2.4092917, 48.8367962], [2.4094593, 48.8367911]]}}, {"type": "Feature", "properties": {"highway": "footway", "footway": "sidewalk", "name": null, "surface": null, "lit": null, "length_m": 7.04, "type_element": "Way", "__fid": 118389}, "geometry": {"type": "LineString", "coordinates": [[2.4093325, 48.83703779999998], [2.4092438, 48.8370136]]}}, {"type": "Feature", "properties": {"highway": "footway", "footway": "sidewalk", "name": null, "surface": null, "lit": "yes", "length_m": 48.55, "type_element": "Way", "__fid": 118402}, "geometry": {"type": "LineString", "coordinates": [[2.409352698779944, 48.84055252598814], [2.4092293, 48.8401236]]}}, {"type": "Feature", "properties": {"highway": "footway", "footway": "sidewalk", "name": null, "surface": null, "lit": null, "length_m": 83.21, "type_element": "Way", "__fid": 118435}, "geometry": {"type": "LineString", "coordinates": [[2.4097753, 48.8377267], [2.4093325, 48.83703779999998]]}}, {"type": "Feature", "properties": {"highway": "footway", "footway": "crossing", "name": null, "surface": null, "lit": null, "length_m": 13.58, "type_element": "Way", "__fid": 118436}, "geometry": {"type": "LineString", "coordinates": [[2.4093325, 48.83703779999998], [2.4094995, 48.8369853]]}}, {"type": "Feature", "properties": {"highway": "footway", "footway": null, "name": "Ligne de Paris-Bastille à Marles-en-Brie", "surface": "compacted", "lit": "yes", "length_m": 194.96, "type_element": "Way", "__fid": 118461}, "geometry": {"type": "LineString", "coordinates": [[2.4119693, 48.8408139], [2.4116693, 48.8407626], [2.4102505, 48.8405715], [2.409352698779944, 48.84055252598814]]}}, {"type": "Feature", "properties": {"highway": "footway", "footway": "sidewalk", "name": null, "surface": null, "lit": "yes", "length_m": 8.66, "type_element": "Way", "__fid": 118462}, "geometry": {"type": "LineString", "coordinates": [[2.4093747, 48.840629], [2.409352698779944, 48.84055252598814]]}}, {"type": "Feature", "properties": {"highway": "footway", "footway": "traffic_island", "name": null, "surface": "asphalt", "lit": "yes", "length_m": 18.55, "type_element": "Way", "__fid": 118473}, "geometry": {"type": "LineString", "coordinates": [[2.4094371, 48.8407896], [2.4094219, 48.8407737], [2.4093747, 48.840629]]}}, {"type": "Feature", "properties": {"highway": "footway", "footway": "sidewalk", "name": null, "surface": null, "lit": null, "length_m": 173.94, "type_element": "Way", "__fid": 118474}, "geometry": {"type": "LineString", "coordinates": [[2.4116617, 48.84099159999999], [2.4112378, 48.84092910000002], [2.4107878, 48.8407855], [2.4105344, 48.8407413], [2.4102044, 48.8406914], [2.4093747, 48.840629]]}}, {"type": "Feature", "properties": {"highway": "footway", "footway": "sidewalk", "name": null, "surface": "asphalt", "lit": "yes", "length_m": 92.13, "type_element": "Way", "__fid": 118518}, "geometry": {"type": "LineString", "coordinates": [[2.4094297, 48.84083459999999], [2.4096805, 48.84162010000002], [2.4097039, 48.8416408]]}}, {"type": "Feature", "properties": {"highway": "footway", "footway": "sidewalk", "name": null, "surface": null, "lit": null, "length_m": 5.03, "type_element": "Way", "__fid": 118519}, "geometry": {"type": "LineString", "coordinates": [[2.4094371, 48.8407896], [2.4094297, 48.84083459999999]]}}, {"type": "Feature", "properties": {"highway": "footway", "footway": "sidewalk", "name": null, "surface": null, "lit": null, "length_m": 10.93, "type_element": "Way", "__fid": 118524}, "geometry": {"type": "LineString", "coordinates": [[2.4095859, 48.840786], [2.4094371, 48.8407896]]}}, {"type": "Feature", "properties": {"highway": "footway", "footway": "sidewalk", "name": null, "surface": "asphalt", "lit": null, "length_m": 41.86, "type_element": "Way", "__fid": 118590}, "geometry": {"type": "LineString", "coordinates": [[2.4101546, 48.8408147], [2.4095859, 48.840786]]}}, {"type": "Feature", "properties": {"highway": "footway", "footway": null, "name": null, "surface": "compacted", "lit": null, "length_m": 12.63, "type_element": "Way", "__fid": 118591}, "geometry": {"type": "LineString", "coordinates": [[2.4095859, 48.840786], [2.409622, 48.840897100000014]]}}, {"type": "Feature", "properties": {"highway": "footway", "footway": null, "name": null, "surface": "compacted", "lit": null, "length_m": 25.55, "type_element": "Way", "__fid": 118602}, "geometry": {"type": "LineString", "coordinates": [[2.409622, 48.840897100000014], [2.4096925, 48.8411221]]}}, {"type": "Feature", "properties": {"highway": "footway", "footway": null, "name": null, "surface": "compacted", "lit": null, "length_m": 5.54, "type_element": "Way", "__fid": 118603}, "geometry": {"type": "LineString", "coordinates": [[2.409622, 48.840897100000014], [2.4096959, 48.840886900000015]]}}, {"type": "Feature", "properties": {"highway": "footway", "footway": null, "name": null, "surface": "compacted", "lit": null, "length_m": 61.4, "type_element": "Way", "__fid": 118631}, "geometry": {"type": "LineString", "coordinates": [[2.4096925, 48.8411221], [2.4098182, 48.8415237], [2.4097372, 48.8416265], [2.4097039, 48.8416408]]}}, {"type": "Feature", "properties": {"highway": "footway", "footway": null, "name": null, "surface": "compacted", "lit": null, "length_m": 28.63, "type_element": "Way", "__fid": 118632}, "geometry": {"type": "LineString", "coordinates": [[2.4096925, 48.8411221], [2.4098243, 48.8411036], [2.4097722, 48.8409386]]}}, {"type": "Feature", "properties": {"highway": "footway", "footway": null, "name": null, "surface": "compacted", "lit": null, "length_m": 29.32, "type_element": "Way", "__fid": 118633}, "geometry": {"type": "LineString", "coordinates": [[2.4096959, 48.840886900000015], [2.4100211, 48.84089919999999], [2.4100178, 48.8409478]]}}, {"type": "Feature", "properties": {"highway": "footway", "footway": null, "name": null, "surface": "compacted", "lit": null, "length_m": 9.95, "type_element": "Way", "__fid": 118634}, "geometry": {"type": "LineString", "coordinates": [[2.4097722, 48.8409386], [2.409714, 48.8409365], [2.4096959, 48.840886900000015]]}}, {"type": "Feature", "properties": {"highway": "service", "footway": null, "name": null, "surface": null, "lit": null, "length_m": 16.66, "type_element": "Way", "__fid": 118651}, "geometry": {"type": "LineString", "coordinates": [[2.4097688, 48.837132], [2.4099584, 48.8372144]]}}, {"type": "Feature", "properties": {"highway": "footway", "footway": "sidewalk", "name": null, "surface": null, "lit": null, "length_m": 13.91, "type_element": "Way", "__fid": 118657}, "geometry": {"type": "LineString", "coordinates": [[2.409848668771583, 48.83784207723918], [2.4097753, 48.8377267]]}}, {"type": "Feature", "properties": {"highway": "footway", "footway": "crossing", "name": null, "surface": null, "lit": null, "length_m": 13.55, "type_element": "Way", "__fid": 118658}, "geometry": {"type": "LineString", "coordinates": [[2.4099449, 48.83767850000001], [2.4097753, 48.8377267]]}}, {"type": "Feature", "properties": {"highway": "footway", "footway": null, "name": null, "surface": "compacted", "lit": "yes", "length_m": 18.06, "type_element": "Way", "__fid": 118675}, "geometry": {"type": "LineString", "coordinates": [[2.4097722, 48.8409386], [2.4100178, 48.8409478]]}}, {"type": "Feature", "properties": {"highway": "footway", "footway": "sidewalk", "name": null, "surface": null, "lit": null, "length_m": 7.88, "type_element": "Way", "__fid": 118684}, "geometry": {"type": "LineString", "coordinates": [[2.4098574, 48.8379061], [2.4098759, 48.8378849], [2.409848668771583, 48.83784207723918]]}}, {"type": "Feature", "properties": {"highway": "service", "footway": null, "name": null, "surface": null, "lit": null, "length_m": 7.11, "type_element": "Way", "__fid": 118685}, "geometry": {"type": "LineString", "coordinates": [[2.409848668771583, 48.83784207723918], [2.4099421, 48.8378251]]}}, {"type": "Feature", "properties": {"highway": "footway", "footway": "crossing", "name": null, "surface": null, "lit": "yes", "length_m": 17.3, "type_element": "Way", "__fid": 118686}, "geometry": {"type": "LineString", "coordinates": [[2.4098571, 48.8380617], [2.4098574, 48.8379061]]}}, {"type": "Feature", "properties": {"highway": "footway", "footway": null, "name": "Rue du Général Archinard", "surface": null, "lit": null, "length_m": 42.55, "type_element": "Way", "__fid": 118687}, "geometry": {"type": "LineString", "coordinates": [[2.4098571, 48.8380617], [2.4104238, 48.837981]]}}, {"type": "Feature", "properties": {"highway": "pedestrian", "footway": null, "name": "Avenue du Général Archinard", "surface": "asphalt", "lit": null, "length_m": 97.9, "type_element": "Way", "__fid": 118690}, "geometry": {"type": "LineString", "coordinates": [[2.4098755, 48.8377204], [2.4111526, 48.8379743]]}}, {"type": "Feature", "properties": {"highway": "service", "footway": null, "name": null, "surface": null, "lit": null, "length_m": 35.45, "type_element": "Way", "__fid": 118725}, "geometry": {"type": "LineString", "coordinates": [[2.4099584, 48.8372144], [2.4103618, 48.83738969999999]]}}, {"type": "Feature", "properties": {"highway": "footway", "footway": null, "name": null, "surface": null, "lit": null, "length_m": 50.83, "type_element": "Way", "__fid": 118726}, "geometry": {"type": "LineString", "coordinates": [[2.4099584, 48.8372144], [2.4098575, 48.83731310000001], [2.4098736, 48.837367], [2.4102316, 48.83752289999999]]}}, {"type": "Feature", "properties": {"highway": "footway", "footway": "sidewalk", "name": null, "surface": null, "lit": null, "length_m": 63.14, "type_element": "Way", "__fid": 118735}, "geometry": {"type": "LineString", "coordinates": [[2.4099275, 48.8414935], [2.4101063, 48.8412315], [2.4101458, 48.84095219999998]]}}, {"type": "Feature", "properties": {"highway": "footway", "footway": null, "name": null, "surface": "compacted", "lit": "yes", "length_m": 9.41, "type_element": "Way", "__fid": 118764}, "geometry": {"type": "LineString", "coordinates": [[2.4100178, 48.8409478], [2.4101458, 48.84095219999998]]}}, {"type": "Feature", "properties": {"highway": "footway", "footway": "sidewalk", "name": null, "surface": null, "lit": "yes", "length_m": 49.32, "type_element": "Way", "__fid": 118776}, "geometry": {"type": "LineString", "coordinates": [[2.4103986, 48.8412128], [2.4103732, 48.8411978], [2.4103316, 48.8411942], [2.4102431, 48.8412521], [2.4100442, 48.8415342]]}}, {"type": "Feature", "properties": {"highway": "service", "footway": null, "name": null, "surface": null, "lit": null, "length_m": 16.06, "type_element": "Way", "__fid": 118784}, "geometry": {"type": "LineString", "coordinates": [[2.4102316, 48.83752289999999], [2.410113, 48.8376443]]}}, {"type": "Feature", "properties": {"highway": "footway", "footway": null, "name": null, "surface": "compacted", "lit": "yes", "length_m": 5.35, "type_element": "Way", "__fid": 118810}, "geometry": {"type": "LineString", "coordinates": [[2.4101458, 48.84095219999998], [2.4102185, 48.8409559]]}}, {"type": "Feature", "properties": {"highway": "footway", "footway": "sidewalk", "name": null, "surface": "asphalt", "lit": "yes", "length_m": 15.3, "type_element": "Way", "__fid": 118811}, "geometry": {"type": "LineString", "coordinates": [[2.4101458, 48.84095219999998], [2.4101546, 48.8408147]]}}, {"type": "Feature", "properties": {"highway": "footway", "footway": "crossing", "name": null, "surface": "asphalt", "lit": "yes", "length_m": 11.42, "type_element": "Way", "__fid": 118816}, "geometry": {"type": "LineString", "coordinates": [[2.4103101, 48.8408182], [2.4101546, 48.8408147]]}}, {"type": "Feature", "properties": {"highway": "footway", "footway": null, "name": null, "surface": null, "lit": null, "length_m": 25.59, "type_element": "Way", "__fid": 118837}, "geometry": {"type": "LineString", "coordinates": [[2.4102316, 48.83752289999999], [2.4105226, 48.8376496]]}}, {"type": "Feature", "properties": {"highway": "service", "footway": null, "name": null, "surface": null, "lit": null, "length_m": 17.63, "type_element": "Way", "__fid": 118838}, "geometry": {"type": "LineString", "coordinates": [[2.4103618, 48.83738969999999], [2.4102316, 48.83752289999999]]}}, {"type": "Feature", "properties": {"highway": "service", "footway": null, "name": null, "surface": null, "lit": null, "length_m": 29.28, "type_element": "Way", "__fid": 118862}, "geometry": {"type": "LineString", "coordinates": [[2.4105187, 48.83560389999999], [2.4103376, 48.83536930000002]]}}, {"type": "Feature", "properties": {"highway": "footway", "footway": "sidewalk", "name": null, "surface": "asphalt", "lit": "yes", "length_m": 85.73, "type_element": "Way", "__fid": 118873}, "geometry": {"type": "LineString", "coordinates": [[2.4113401, 48.84114969999998], [2.411314, 48.84112720000001], [2.4105448, 48.8408324], [2.4103101, 48.8408182]]}}, {"type": "Feature", "properties": {"highway": "footway", "footway": "sidewalk", "name": null, "surface": null, "lit": "yes", "length_m": 42.5, "type_element": "Way", "__fid": 118874}, "geometry": {"type": "LineString", "coordinates": [[2.4103101, 48.8408182], [2.4102987, 48.8408359], [2.41029, 48.8409573], [2.4105301, 48.8411395]]}}, {"type": "Feature", "properties": {"highway": "service", "footway": null, "name": null, "surface": null, "lit": null, "length_m": 25.6, "type_element": "Way", "__fid": 118878}, "geometry": {"type": "LineString", "coordinates": [[2.4103618, 48.83738969999999], [2.4106549, 48.8375145]]}}, {"type": "Feature", "properties": {"highway": "service", "footway": null, "name": null, "surface": null, "lit": null, "length_m": 38.32, "type_element": "Way", "__fid": 118879}, "geometry": {"type": "LineString", "coordinates": [[2.4106449, 48.8371001], [2.4103618, 48.83738969999999]]}}, {"type": "Feature", "properties": {"highway": "service", "footway": null, "name": null, "surface": null, "lit": null, "length_m": 9.22, "type_element": "Way", "__fid": 118884}, "geometry": {"type": "LineString", "coordinates": [[2.4104238, 48.837981], [2.410369, 48.8379064]]}}, {"type": "Feature", "properties": {"highway": "footway", "footway": null, "name": null, "surface": null, "lit": null, "length_m": 13.41, "type_element": "Way", "__fid": 118896}, "geometry": {"type": "LineString", "coordinates": [[2.4105226, 48.8376496], [2.4104235, 48.8377509]]}}, {"type": "Feature", "properties": {"highway": "service", "footway": null, "name": null, "surface": null, "lit": null, "length_m": 84.73, "type_element": "Way", "__fid": 118897}, "geometry": {"type": "LineString", "coordinates": [[2.4110377, 48.83838820000001], [2.410579, 48.8384262], [2.4104238, 48.837981]]}}, {"type": "Feature", "properties": {"highway": "footway", "footway": null, "name": "Rue du Général Archinard", "surface": null, "lit": null, "length_m": 143.48, "type_element": "Way", "__fid": 118898}, "geometry": {"type": "LineString", "coordinates": [[2.4104238, 48.837981], [2.4105334, 48.8379652], [2.4122956, 48.83832069999998]]}}, {"type": "Feature", "properties": {"highway": "footway", "footway": "sidewalk", "name": null, "surface": null, "lit": "yes", "length_m": 90.05, "type_element": "Way", "__fid": 118900}, "geometry": {"type": "LineString", "coordinates": [[2.4106521, 48.8419507], [2.4107265, 48.84179669999999], [2.4107326, 48.84172430000001], [2.4107151, 48.8415663], [2.4106468, 48.84143790000002], [2.4105596, 48.8413253], [2.4103986, 48.8412128]]}}, {"type": "Feature", "properties": {"highway": "footway", "footway": "crossing", "name": null, "surface": null, "lit": null, "length_m": 12.63, "type_element": "Way", "__fid": 118901}, "geometry": {"type": "LineString", "coordinates": [[2.4105301, 48.8411395], [2.4103986, 48.8412128]]}}, {"type": "Feature", "properties": {"highway": "service", "footway": null, "name": "Rue Montesquiou-Fezensac", "surface": "asphalt", "lit": "yes", "length_m": 31.6, "type_element": "Way", "__fid": 118916}, "geometry": {"type": "LineString", "coordinates": [[2.4105187, 48.83560389999999], [2.4108998, 48.835471699999985]]}}, {"type": "Feature", "properties": {"highway": "footway", "footway": null, "name": null, "surface": null, "lit": null, "length_m": 24.85, "type_element": "Way", "__fid": 118924}, "geometry": {"type": "LineString", "coordinates": [[2.4105226, 48.8376496], [2.4108051, 48.8377727]]}}, {"type": "Feature", "properties": {"highway": "footway", "footway": null, "name": null, "surface": null, "lit": null, "length_m": 17.89, "type_element": "Way", "__fid": 118925}, "geometry": {"type": "LineString", "coordinates": [[2.4106549, 48.8375145], [2.4105226, 48.8376496]]}}, {"type": "Feature", "properties": {"highway": "footway", "footway": "sidewalk", "name": null, "surface": null, "lit": "yes", "length_m": 103.92, "type_element": "Way", "__fid": 118940}, "geometry": {"type": "LineString", "coordinates": [[2.4105301, 48.8411395], [2.4107949, 48.8413311], [2.4108915, 48.8415491], [2.4109223, 48.8416771], [2.4109197, 48.8417574], [2.4108184, 48.841986]]}}, {"type": "Feature", "properties": {"highway": "service", "footway": null, "name": null, "surface": null, "lit": null, "length_m": 25.64, "type_element": "Way", "__fid": 118969}, "geometry": {"type": "LineString", "coordinates": [[2.410937, 48.8372265], [2.4106449, 48.8371001]]}}, {"type": "Feature", "properties": {"highway": "service", "footway": null, "name": null, "surface": null, "lit": null, "length_m": 40.45, "type_element": "Way", "__fid": 118970}, "geometry": {"type": "LineString", "coordinates": [[2.4109391, 48.8367925], [2.4106449, 48.8371001]]}}, {"type": "Feature", "properties": {"highway": "service", "footway": null, "name": null, "surface": null, "lit": null, "length_m": 24.38, "type_element": "Way", "__fid": 118979}, "geometry": {"type": "LineString", "coordinates": [[2.4106549, 48.8375145], [2.410934, 48.8376334]]}}, {"type": "Feature", "properties": {"highway": "footway", "footway": null, "name": null, "surface": null, "lit": null, "length_m": 38.13, "type_element": "Way", "__fid": 118980}, "geometry": {"type": "LineString", "coordinates": [[2.410937, 48.8372265], [2.4106549, 48.8375145]]}}, {"type": "Feature", "properties": {"highway": "service", "footway": null, "name": null, "surface": null, "lit": null, "length_m": 26.09, "type_element": "Way", "__fid": 119046}, "geometry": {"type": "LineString", "coordinates": [[2.4108051, 48.8377727], [2.4108946, 48.8378116], [2.411022, 48.8376709]]}}, {"type": "Feature", "properties": {"highway": "footway", "footway": null, "name": null, "surface": null, "lit": null, "length_m": 18.15, "type_element": "Way", "__fid": 119047}, "geometry": {"type": "LineString", "coordinates": [[2.4108051, 48.8377727], [2.410934, 48.8376334]]}}, {"type": "Feature", "properties": {"highway": "service", "footway": null, "name": null, "surface": null, "lit": null, "length_m": 26.07, "type_element": "Way", "__fid": 119095}, "geometry": {"type": "LineString", "coordinates": [[2.4112363, 48.836920800000016], [2.4109391, 48.8367925]]}}, {"type": "Feature", "properties": {"highway": "service", "footway": null, "name": null, "surface": null, "lit": null, "length_m": 37.49, "type_element": "Way", "__fid": 119096}, "geometry": {"type": "LineString", "coordinates": [[2.411223, 48.8365122], [2.4109391, 48.8367925]]}}, {"type": "Feature", "properties": {"highway": "service", "footway": null, "name": null, "surface": null, "lit": null, "length_m": 23.39, "type_element": "Way", "__fid": 119098}, "geometry": {"type": "LineString", "coordinates": [[2.4112036, 48.8373418], [2.410937, 48.8372265]]}}, {"type": "Feature", "properties": {"highway": "footway", "footway": null, "name": null, "surface": null, "lit": null, "length_m": 40.47, "type_element": "Way", "__fid": 119099}, "geometry": {"type": "LineString", "coordinates": [[2.4112363, 48.836920800000016], [2.410937, 48.8372265]]}}, {"type": "Feature", "properties": {"highway": "service", "footway": null, "name": null, "surface": null, "lit": null, "length_m": 7.69, "type_element": "Way", "__fid": 119100}, "geometry": {"type": "LineString", "coordinates": [[2.410934, 48.8376334], [2.411022, 48.8376709]]}}, {"type": "Feature", "properties": {"highway": "footway", "footway": null, "name": null, "surface": null, "lit": null, "length_m": 37.99, "type_element": "Way", "__fid": 119101}, "geometry": {"type": "LineString", "coordinates": [[2.410934, 48.8376334], [2.4112036, 48.8373418]]}}, {"type": "Feature", "properties": {"highway": "service", "footway": null, "name": null, "surface": null, "lit": null, "length_m": 24.01, "type_element": "Way", "__fid": 119142}, "geometry": {"type": "LineString", "coordinates": [[2.411022, 48.8376709], [2.4112909, 48.8377939]]}}, {"type": "Feature", "properties": {"highway": "service", "footway": null, "name": null, "surface": null, "lit": null, "length_m": 37.93, "type_element": "Way", "__fid": 119143}, "geometry": {"type": "LineString", "coordinates": [[2.411022, 48.8376709], [2.4112915, 48.8373798]]}}, {"type": "Feature", "properties": {"highway": "living_street", "footway": null, "name": "Rue du Général Archinard", "surface": "asphalt", "lit": null, "length_m": 91.33, "type_element": "Way", "__fid": 119200}, "geometry": {"type": "LineString", "coordinates": [[2.4111526, 48.8379743], [2.41234, 48.8382199]]}}, {"type": "Feature", "properties": {"highway": "service", "footway": null, "name": null, "surface": null, "lit": null, "length_m": 22.57, "type_element": "Way", "__fid": 119201}, "geometry": {"type": "LineString", "coordinates": [[2.4112909, 48.8377939], [2.4111797, 48.8379213], [2.4111526, 48.8379743]]}}, {"type": "Feature", "properties": {"highway": "service", "footway": null, "name": null, "surface": null, "lit": null, "length_m": 7.71, "type_element": "Way", "__fid": 119219}, "geometry": {"type": "LineString", "coordinates": [[2.4112915, 48.8373798], [2.4112036, 48.8373418]]}}, {"type": "Feature", "properties": {"highway": "footway", "footway": null, "name": null, "surface": null, "lit": null, "length_m": 43.59, "type_element": "Way", "__fid": 119220}, "geometry": {"type": "LineString", "coordinates": [[2.4112036, 48.8373418], [2.4112335, 48.8373096], [2.4112, 48.8372831], [2.4114574, 48.83701219999998]]}}, {"type": "Feature", "properties": {"highway": "service", "footway": null, "name": null, "surface": null, "lit": null, "length_m": 38.31, "type_element": "Way", "__fid": 119225}, "geometry": {"type": "LineString", "coordinates": [[2.411223, 48.8365122], [2.4116609, 48.8366996]]}}, {"type": "Feature", "properties": {"highway": "service", "footway": null, "name": null, "surface": null, "lit": null, "length_m": 107.22, "type_element": "Way", "__fid": 119226}, "geometry": {"type": "LineString", "coordinates": [[2.4119412, 48.8364164], [2.4118293, 48.8361179], [2.4118099, 48.8360948], [2.4117595, 48.8360736], [2.4117073, 48.83606889999999], [2.4116551, 48.8360785], [2.4116147, 48.8361024], [2.411223, 48.8365122]]}}, {"type": "Feature", "properties": {"highway": "service", "footway": null, "name": null, "surface": null, "lit": null, "length_m": 12.93, "type_element": "Way", "__fid": 119238}, "geometry": {"type": "LineString", "coordinates": [[2.4113856, 48.83698250000001], [2.4112363, 48.836920800000016]]}}, {"type": "Feature", "properties": {"highway": "service", "footway": null, "name": null, "surface": null, "lit": null, "length_m": 23.71, "type_element": "Way", "__fid": 119274}, "geometry": {"type": "LineString", "coordinates": [[2.4115567, 48.8375016], [2.4112915, 48.8373798]]}}, {"type": "Feature", "properties": {"highway": "service", "footway": null, "name": null, "surface": null, "lit": null, "length_m": 40.84, "type_element": "Way", "__fid": 119275}, "geometry": {"type": "LineString", "coordinates": [[2.4112915, 48.8373798], [2.4115792, 48.8370654]]}}, {"type": "Feature", "properties": {"highway": "service", "footway": null, "name": null, "surface": null, "lit": null, "length_m": 37.91, "type_element": "Way", "__fid": 119276}, "geometry": {"type": "LineString", "coordinates": [[2.4115567, 48.8375016], [2.4112909, 48.8377939]]}}, {"type": "Feature", "properties": {"highway": "service", "footway": null, "name": null, "surface": null, "lit": null, "length_m": 6.22, "type_element": "Way", "__fid": 119310}, "geometry": {"type": "LineString", "coordinates": [[2.4114574, 48.83701219999998], [2.4113856, 48.83698250000001]]}}, {"type": "Feature", "properties": {"highway": "service", "footway": null, "name": null, "surface": null, "lit": null, "length_m": 37.39, "type_element": "Way", "__fid": 119311}, "geometry": {"type": "LineString", "coordinates": [[2.4116609, 48.8366996], [2.4113856, 48.83698250000001]]}}, {"type": "Feature", "properties": {"highway": "footway", "footway": "sidewalk", "name": null, "surface": "asphalt", "lit": "yes", "length_m": 112.63, "type_element": "Way", "__fid": 119312}, "geometry": {"type": "LineString", "coordinates": [[2.4114467, 48.84215409999999], [2.4114923, 48.8418761], [2.4113401, 48.84114969999998]]}}, {"type": "Feature", "properties": {"highway": "footway", "footway": "crossing", "name": null, "surface": "asphalt", "lit": "yes", "length_m": 18.74, "type_element": "Way", "__fid": 119313}, "geometry": {"type": "LineString", "coordinates": [[2.4115922, 48.8411356], [2.4115577, 48.8411311], [2.4113864, 48.8411408], [2.4113401, 48.84114969999998]]}}, {"type": "Feature", "properties": {"highway": "service", "footway": null, "name": null, "surface": null, "lit": null, "length_m": 10.72, "type_element": "Way", "__fid": 119346}, "geometry": {"type": "LineString", "coordinates": [[2.4115792, 48.8370654], [2.4114574, 48.83701219999998]]}}, {"type": "Feature", "properties": {"highway": "service", "footway": null, "name": null, "surface": null, "lit": null, "length_m": 21.21, "type_element": "Way", "__fid": 119370}, "geometry": {"type": "LineString", "coordinates": [[2.411497, 48.8378855], [2.4116543, 48.8379533], [2.4116895, 48.8379641], [2.4117517, 48.8379668]]}}, {"type": "Feature", "properties": {"highway": "footway", "footway": null, "name": "Boulevard de la Guyane", "surface": "ground", "lit": "yes", "length_m": 388.17, "type_element": "Way", "__fid": 119383}, "geometry": {"type": "LineString", "coordinates": [[2.4131367, 48.837885], [2.4131204, 48.8378396], [2.4131392, 48.8378368], [2.4127617, 48.8367521], [2.4125055, 48.8360274], [2.4122413, 48.8353372], [2.412128, 48.8351372], [2.4119724, 48.8349394], [2.4118437, 48.8348075], [2.4117579, 48.83473330000001], [2.4115781, 48.8346035]]}}, {"type": "Feature", "properties": {"highway": "service", "footway": null, "name": null, "surface": null, "lit": null, "length_m": 37.63, "type_element": "Way", "__fid": 119393}, "geometry": {"type": "LineString", "coordinates": [[2.4119839, 48.83768869999998], [2.4115567, 48.8375016]]}}, {"type": "Feature", "properties": {"highway": "service", "footway": null, "name": null, "surface": null, "lit": null, "length_m": 41.09, "type_element": "Way", "__fid": 119394}, "geometry": {"type": "LineString", "coordinates": [[2.4118434, 48.83718420000001], [2.4115567, 48.8375016]]}}, {"type": "Feature", "properties": {"highway": "service", "footway": null, "name": null, "surface": null, "lit": null, "length_m": 23.46, "type_element": "Way", "__fid": 119402}, "geometry": {"type": "LineString", "coordinates": [[2.4118434, 48.83718420000001], [2.4115792, 48.8370654]]}}, {"type": "Feature", "properties": {"highway": "footway", "footway": "sidewalk", "name": null, "surface": null, "lit": "yes", "length_m": 116.93, "type_element": "Way", "__fid": 119426}, "geometry": {"type": "LineString", "coordinates": [[2.4115922, 48.8411356], [2.4115818, 48.84119290000001], [2.4117263, 48.841876100000015], [2.41167, 48.84217790000001]]}}, {"type": "Feature", "properties": {"highway": "footway", "footway": "sidewalk", "name": null, "surface": "asphalt", "lit": "yes", "length_m": 4.61, "type_element": "Way", "__fid": 119427}, "geometry": {"type": "LineString", "coordinates": [[2.4116383, 48.8411074], [2.4115922, 48.8411356]]}}, {"type": "Feature", "properties": {"highway": "service", "footway": null, "name": null, "surface": null, "lit": null, "length_m": 38.21, "type_element": "Way", "__fid": 119435}, "geometry": {"type": "LineString", "coordinates": [[2.4116609, 48.8366996], [2.4120113, 48.8368488], [2.4121102, 48.83686919999999]]}}, {"type": "Feature", "properties": {"highway": "service", "footway": null, "name": null, "surface": null, "lit": null, "length_m": 37.62, "type_element": "Way", "__fid": 119436}, "geometry": {"type": "LineString", "coordinates": [[2.4119412, 48.8364164], [2.4116609, 48.8366996]]}}, {"type": "Feature", "properties": {"highway": "footway", "footway": "crossing", "name": null, "surface": null, "lit": "yes", "length_m": 12.99, "type_element": "Way", "__fid": 119446}, "geometry": {"type": "LineString", "coordinates": [[2.4116383, 48.8411074], [2.4116617, 48.84099159999999]]}}, {"type": "Feature", "properties": {"highway": "footway", "footway": "sidewalk", "name": null, "surface": "asphalt", "lit": "yes", "length_m": 148.51, "type_element": "Way", "__fid": 119447}, "geometry": {"type": "LineString", "coordinates": [[2.4130111, 48.8417891], [2.4130514, 48.841478], [2.4130292, 48.8414427], [2.4129689, 48.8414123], [2.4121139, 48.84116779999999], [2.4118115, 48.8411223], [2.4116383, 48.8411074]]}}, {"type": "Feature", "properties": {"highway": "footway", "footway": "sidewalk", "name": null, "surface": null, "lit": null, "length_m": 59.04, "type_element": "Way", "__fid": 119456}, "geometry": {"type": "LineString", "coordinates": [[2.4124379, 48.841129], [2.4120743, 48.8410529], [2.4116617, 48.84099159999999]]}}, {"type": "Feature", "properties": {"highway": "service", "footway": null, "name": null, "surface": null, "lit": null, "length_m": 41.34, "type_element": "Way", "__fid": 119472}, "geometry": {"type": "LineString", "coordinates": [[2.4117517, 48.8379668], [2.4117914, 48.83799720000001], [2.4120722, 48.8380522], [2.4121562, 48.83804220000001], [2.4122701, 48.838009599999985]]}}, {"type": "Feature", "properties": {"highway": "service", "footway": null, "name": null, "surface": null, "lit": null, "length_m": 35.46, "type_element": "Way", "__fid": 119473}, "geometry": {"type": "LineString", "coordinates": [[2.4119839, 48.83768869999998], [2.4117693, 48.8379249], [2.4117517, 48.8379668]]}}, {"type": "Feature", "properties": {"highway": "footway", "footway": "sidewalk", "name": null, "surface": "concrete", "lit": "yes", "length_m": 202.67, "type_element": "Way", "__fid": 119477}, "geometry": {"type": "LineString", "coordinates": [[2.4117931, 48.83448780000001], [2.4119309, 48.8345841], [2.4121146, 48.8347311], [2.4122581, 48.8348825], [2.4123614, 48.8350145], [2.4124505, 48.8351495], [2.4125417, 48.8353574], [2.4128287, 48.8361437]]}}, {"type": "Feature", "properties": {"highway": "footway", "footway": "sidewalk", "name": null, "surface": null, "lit": "yes", "length_m": 357.38, "type_element": "Way", "__fid": 119497}, "geometry": {"type": "LineString", "coordinates": [[2.4118514, 48.834387400000026], [2.4162901, 48.8356412], [2.4162834, 48.8356677]]}}, {"type": "Feature", "properties": {"highway": "service", "footway": null, "name": null, "surface": null, "lit": null, "length_m": 37.25, "type_element": "Way", "__fid": 119505}, "geometry": {"type": "LineString", "coordinates": [[2.4122689, 48.837366799999984], [2.4118434, 48.83718420000001]]}}, {"type": "Feature", "properties": {"highway": "service", "footway": null, "name": null, "surface": null, "lit": null, "length_m": 40.13, "type_element": "Way", "__fid": 119506}, "geometry": {"type": "LineString", "coordinates": [[2.4121102, 48.83686919999999], [2.4118434, 48.83718420000001]]}}, {"type": "Feature", "properties": {"highway": "service", "footway": null, "name": null, "surface": null, "lit": null, "length_m": 51.85, "type_element": "Way", "__fid": 119540}, "geometry": {"type": "LineString", "coordinates": [[2.4121102, 48.83686919999999], [2.4119412, 48.8364164]]}}, {"type": "Feature", "properties": {"highway": "service", "footway": null, "name": null, "surface": null, "lit": null, "length_m": 33.34, "type_element": "Way", "__fid": 119551}, "geometry": {"type": "LineString", "coordinates": [[2.4123636, 48.8378532], [2.4119839, 48.83768869999998]]}}, {"type": "Feature", "properties": {"highway": "service", "footway": null, "name": null, "surface": null, "lit": null, "length_m": 41.46, "type_element": "Way", "__fid": 119552}, "geometry": {"type": "LineString", "coordinates": [[2.4122689, 48.837366799999984], [2.4119839, 48.83768869999998]]}}, {"type": "Feature", "properties": {"highway": "footway", "footway": null, "name": null, "surface": "compacted", "lit": "yes", "length_m": 21.72, "type_element": "Way", "__fid": 119557}, "geometry": {"type": "LineString", "coordinates": [[2.4119693, 48.8408139], [2.4122534, 48.8408687]]}}, {"type": "Feature", "properties": {"highway": "footway", "footway": null, "name": null, "surface": null, "lit": null, "length_m": 19.48, "type_element": "Way", "__fid": 119558}, "geometry": {"type": "LineString", "coordinates": [[2.4119693, 48.8408139], [2.4120997, 48.840903800000014], [2.4121613, 48.8409341]]}}, {"type": "Feature", "properties": {"highway": "service", "footway": null, "name": null, "surface": null, "lit": null, "length_m": 58.28, "type_element": "Way", "__fid": 119580}, "geometry": {"type": "LineString", "coordinates": [[2.4122992, 48.83737829999998], [2.4121102, 48.83686919999999]]}}, {"type": "Feature", "properties": {"highway": "footway", "footway": null, "name": null, "surface": null, "lit": null, "length_m": 27.52, "type_element": "Way", "__fid": 119608}, "geometry": {"type": "LineString", "coordinates": [[2.4121613, 48.8409341], [2.4124622, 48.8410818]]}}, {"type": "Feature", "properties": {"highway": "footway", "footway": null, "name": null, "surface": "paving_stones", "lit": null, "length_m": 9.93, "type_element": "Way", "__fid": 119609}, "geometry": {"type": "LineString", "coordinates": [[2.4121613, 48.8409341], [2.4122534, 48.8408687]]}}, {"type": "Feature", "properties": {"highway": "service", "footway": null, "name": null, "surface": null, "lit": null, "length_m": 2.57, "type_element": "Way", "__fid": 119640}, "geometry": {"type": "LineString", "coordinates": [[2.4122992, 48.83737829999998], [2.4122689, 48.837366799999984]]}}, {"type": "Feature", "properties": {"highway": "service", "footway": null, "name": null, "surface": null, "lit": null, "length_m": 13.86, "type_element": "Way", "__fid": 119644}, "geometry": {"type": "LineString", "coordinates": [[2.4122701, 48.838009599999985], [2.412307, 48.8379756], [2.4123436, 48.8378964]]}}, {"type": "Feature", "properties": {"highway": "footway", "footway": null, "name": null, "surface": "compacted", "lit": "yes", "length_m": 52.72, "type_element": "Way", "__fid": 119653}, "geometry": {"type": "LineString", "coordinates": [[2.4122534, 48.8408687], [2.4129366, 48.8410152]]}}, {"type": "Feature", "properties": {"highway": "footway", "footway": null, "name": null, "surface": "concrete", "lit": "yes", "length_m": 88.64, "type_element": "Way", "__fid": 119654}, "geometry": {"type": "LineString", "coordinates": [[2.413221, 48.8406876], [2.4131486, 48.8408501], [2.4130716, 48.840896], [2.4129755, 48.8409127], [2.4128392, 48.840922], [2.4127791, 48.8409189], [2.4123023, 48.8408469], [2.4122816, 48.8408496], [2.4122534, 48.8408687]]}}, {"type": "Feature", "properties": {"highway": "service", "footway": null, "name": null, "surface": null, "lit": null, "length_m": 54.23, "type_element": "Way", "__fid": 119655}, "geometry": {"type": "LineString", "coordinates": [[2.4123636, 48.8378532], [2.4124043, 48.8377686], [2.4124117, 48.8377001], [2.4122992, 48.83737829999998]]}}, {"type": "Feature", "properties": {"highway": "footway", "footway": null, "name": "Rue du Général Archinard", "surface": null, "lit": null, "length_m": 19.79, "type_element": "Way", "__fid": 119660}, "geometry": {"type": "LineString", "coordinates": [[2.4122956, 48.83832069999998], [2.4124291, 48.8383485], [2.4125412, 48.8383915]]}}, {"type": "Feature", "properties": {"highway": "footway", "footway": null, "name": null, "surface": null, "lit": null, "length_m": 11.67, "type_element": "Way", "__fid": 119661}, "geometry": {"type": "LineString", "coordinates": [[2.4122956, 48.83832069999998], [2.41234, 48.8382199]]}}, {"type": "Feature", "properties": {"highway": "service", "footway": null, "name": null, "surface": null, "lit": null, "length_m": 5.02, "type_element": "Way", "__fid": 119675}, "geometry": {"type": "LineString", "coordinates": [[2.4123436, 48.8378964], [2.4123636, 48.8378532]]}}, {"type": "Feature", "properties": {"highway": "living_street", "footway": null, "name": "Rue du Général Archinard", "surface": "asphalt", "lit": null, "length_m": 26.27, "type_element": "Way", "__fid": 119676}, "geometry": {"type": "LineString", "coordinates": [[2.41234, 48.8382199], [2.4124234, 48.8382369], [2.4124802, 48.8382706], [2.4125009, 48.8383339], [2.4125412, 48.8383915]]}}, {"type": "Feature", "properties": {"highway": "footway", "footway": null, "name": null, "surface": "concrete", "lit": null, "length_m": 74.66, "type_element": "Way", "__fid": 119677}, "geometry": {"type": "LineString", "coordinates": [[2.41234, 48.8382199], [2.4123514, 48.83814719999998], [2.4125718, 48.8379973], [2.4131367, 48.837885]]}}, {"type": "Feature", "properties": {"highway": "footway", "footway": null, "name": null, "surface": null, "lit": null, "length_m": 8.09, "type_element": "Way", "__fid": 119711}, "geometry": {"type": "LineString", "coordinates": [[2.4124379, 48.841129], [2.4124025, 48.8411979]]}}, {"type": "Feature", "properties": {"highway": "footway", "footway": null, "name": null, "surface": null, "lit": null, "length_m": 5.54, "type_element": "Way", "__fid": 119716}, "geometry": {"type": "LineString", "coordinates": [[2.4124622, 48.8410818], [2.4124379, 48.841129]]}}, {"type": "Feature", "properties": {"highway": "footway", "footway": null, "name": null, "surface": null, "lit": null, "length_m": 56.31, "type_element": "Way", "__fid": 119722}, "geometry": {"type": "LineString", "coordinates": [[2.4124622, 48.8410818], [2.4131125, 48.8411992], [2.4131472, 48.8411947], [2.4131915, 48.84117039999999]]}}, {"type": "Feature", "properties": {"highway": "footway", "footway": null, "name": "Rue Édouard Lartet", "surface": "compacted", "lit": "yes", "length_m": 169.31, "type_element": "Way", "__fid": 119732}, "geometry": {"type": "LineString", "coordinates": [[2.4129488, 48.83988950000001], [2.4125555, 48.838412], [2.4125412, 48.8383915]]}}, {"type": "Feature", "properties": {"highway": "footway", "footway": "sidewalk", "name": null, "surface": null, "lit": "yes", "length_m": 5.68, "type_element": "Way", "__fid": 119784}, "geometry": {"type": "LineString", "coordinates": [[2.4128904, 48.8361745], [2.4128287, 48.8361437]]}}, {"type": "Feature", "properties": {"highway": "footway", "footway": "crossing", "name": null, "surface": null, "lit": "yes", "length_m": 8.63, "type_element": "Way", "__fid": 119785}, "geometry": {"type": "LineString", "coordinates": [[2.4128287, 48.8361437], [2.4128537, 48.8362195]]}}, {"type": "Feature", "properties": {"highway": "footway", "footway": "crossing", "name": null, "surface": null, "lit": "yes", "length_m": 3.45, "type_element": "Way", "__fid": 119790}, "geometry": {"type": "LineString", "coordinates": [[2.4128537, 48.8362195], [2.4128649, 48.8362496]]}}, {"type": "Feature", "properties": {"highway": "service", "footway": null, "name": "Villa Carnot", "surface": "asphalt", "lit": null, "length_m": 5.68, "type_element": "Way", "__fid": 119791}, "geometry": {"type": "LineString", "coordinates": [[2.4128904, 48.8361745], [2.4128537, 48.8362195]]}}, {"type": "Feature", "properties": {"highway": "footway", "footway": "crossing", "name": null, "surface": null, "lit": "yes", "length_m": 2.56, "type_element": "Way", "__fid": 119801}, "geometry": {"type": "LineString", "coordinates": [[2.4129203, 48.8361863], [2.4128904, 48.8361745]]}}, {"type": "Feature", "properties": {"highway": "service", "footway": null, "name": "Villa Carnot", "surface": "asphalt", "lit": null, "length_m": 39.65, "type_element": "Way", "__fid": 119802}, "geometry": {"type": "LineString", "coordinates": [[2.4132215, 48.8358928], [2.4128904, 48.8361745]]}}, {"type": "Feature", "properties": {"highway": "footway", "footway": null, "name": "Rue Édouard Lartet", "surface": "compacted", "lit": "yes", "length_m": 7.16, "type_element": "Way", "__fid": 119817}, "geometry": {"type": "LineString", "coordinates": [[2.4129657, 48.8399529], [2.4129488, 48.83988950000001]]}}, {"type": "Feature", "properties": {"highway": "living_street", "footway": null, "name": "Rue Édouard Lartet", "surface": "asphalt", "lit": "yes", "length_m": 4.26, "type_element": "Way", "__fid": 119818}, "geometry": {"type": "LineString", "coordinates": [[2.4130061, 48.8398835], [2.4129488, 48.83988950000001]]}}, {"type": "Feature", "properties": {"highway": "footway", "footway": null, "name": null, "surface": "compacted", "lit": "yes", "length_m": 9.97, "type_element": "Way", "__fid": 119819}, "geometry": {"type": "LineString", "coordinates": [[2.4129366, 48.8410152], [2.413068493041373, 48.84103668350362]]}}, {"type": "Feature", "properties": {"highway": "footway", "footway": null, "name": null, "surface": "compacted", "lit": "no", "length_m": 22.15, "type_element": "Way", "__fid": 119820}, "geometry": {"type": "LineString", "coordinates": [[2.413163710466276, 48.841052760895636], [2.4131617, 48.8410144], [2.413102, 48.8409912], [2.4130433, 48.8409893], [2.4129712, 48.8409998], [2.4129366, 48.8410152]]}}, {"type": "Feature", "properties": {"highway": "footway", "footway": null, "name": null, "surface": "concrete", "lit": null, "length_m": 83.97, "type_element": "Way", "__fid": 119830}, "geometry": {"type": "LineString", "coordinates": [[2.413221, 48.8406876], [2.4131525, 48.8405464], [2.4130627, 48.840309], [2.4129729, 48.84001420000002], [2.4129657, 48.8399529]]}}, {"type": "Feature", "properties": {"highway": "footway", "footway": "sidewalk", "name": "Rue Édouard Lartet", "surface": "asphalt", "lit": "yes", "length_m": 4.05, "type_element": "Way", "__fid": 119831}, "geometry": {"type": "LineString", "coordinates": [[2.41302, 48.8399463], [2.4129657, 48.8399529]]}}, {"type": "Feature", "properties": {"highway": "living_street", "footway": null, "name": "Rue Édouard Lartet", "surface": "asphalt", "lit": "yes", "length_m": 7.06, "type_element": "Way", "__fid": 119842}, "geometry": {"type": "LineString", "coordinates": [[2.4130061, 48.8398835], [2.41302, 48.8399463]]}}, {"type": "Feature", "properties": {"highway": "living_street", "footway": null, "name": "Rue Édouard Lartet", "surface": "asphalt", "lit": "yes", "length_m": 65.55, "type_element": "Way", "__fid": 119843}, "geometry": {"type": "LineString", "coordinates": [[2.4130061, 48.8398835], [2.4138833, 48.839772699999976]]}}, {"type": "Feature", "properties": {"highway": "living_street", "footway": null, "name": "Rue Édouard Lartet", "surface": "asphalt", "lit": "yes", "length_m": 31.11, "type_element": "Way", "__fid": 119844}, "geometry": {"type": "LineString", "coordinates": [[2.41302, 48.8399463], [2.4131079, 48.84022]]}}, {"type": "Feature", "properties": {"highway": "footway", "footway": "sidewalk", "name": "Rue Édouard Lartet", "surface": "asphalt", "lit": "yes", "length_m": 80.21, "type_element": "Way", "__fid": 119845}, "geometry": {"type": "LineString", "coordinates": [[2.4140733, 48.8398663], [2.4137983, 48.83989320000001], [2.4137399, 48.83985530000002], [2.41302, 48.8399463]]}}, {"type": "Feature", "properties": {"highway": "footway", "footway": null, "name": null, "surface": "compacted", "lit": "yes", "length_m": 1.9, "type_element": "Way", "__fid": 119854}, "geometry": {"type": "LineString", "coordinates": [[2.413068493041373, 48.84103668350362], [2.413094099999844, 48.841039]]}}, {"type": "Feature", "properties": {"highway": "footway", "footway": null, "name": null, "surface": "metal", "lit": "no", "length_m": 5.33, "type_element": "Way", "__fid": 119861}, "geometry": {"type": "LineString", "coordinates": [[2.413094099999844, 48.841039], [2.413163710466276, 48.841052760895636]]}}, {"type": "Feature", "properties": {"highway": "footway", "footway": null, "name": null, "surface": "concrete:plates", "lit": "yes", "length_m": 46.25, "type_element": "Way", "__fid": 119862}, "geometry": {"type": "LineString", "coordinates": [[2.4131367, 48.837885], [2.4132189, 48.8381575], [2.4134246, 48.8381324]]}}, {"type": "Feature", "properties": {"highway": "footway", "footway": null, "name": null, "surface": "metal", "lit": "no", "length_m": 5.13, "type_element": "Way", "__fid": 119871}, "geometry": {"type": "LineString", "coordinates": [[2.413163710466276, 48.841052760895636], [2.4132307, 48.8410658]]}}, {"type": "Feature", "properties": {"highway": "footway", "footway": null, "name": null, "surface": null, "lit": null, "length_m": 2.72, "type_element": "Way", "__fid": 119880}, "geometry": {"type": "LineString", "coordinates": [[2.4131915, 48.84117039999999], [2.4132182, 48.8411874]]}}, {"type": "Feature", "properties": {"highway": "footway", "footway": null, "name": null, "surface": null, "lit": null, "length_m": 11.98, "type_element": "Way", "__fid": 119881}, "geometry": {"type": "LineString", "coordinates": [[2.4131915, 48.84117039999999], [2.4132307, 48.8410658]]}}, {"type": "Feature", "properties": {"highway": "footway", "footway": null, "name": null, "surface": "concrete", "lit": null, "length_m": 42.38, "type_element": "Way", "__fid": 119888}, "geometry": {"type": "LineString", "coordinates": [[2.4132307, 48.8410658], [2.4132618, 48.8409132], [2.413221, 48.8406876]]}}, {"type": "Feature", "properties": {"highway": "footway", "footway": null, "name": null, "surface": "concrete", "lit": "yes", "length_m": 2.75, "type_element": "Way", "__fid": 119889}, "geometry": {"type": "LineString", "coordinates": [[2.4132493, 48.8406714], [2.413221, 48.8406876]]}}, {"type": "Feature", "properties": {"highway": "footway", "footway": null, "name": null, "surface": "metal", "lit": "no", "length_m": 1.66, "type_element": "Way", "__fid": 119892}, "geometry": {"type": "LineString", "coordinates": [[2.4132307, 48.8410658], [2.4132526, 48.8410697]]}}]}