{"type": "FeatureCollection", "features": [{"type": "Feature", "properties": {"@id": "node/918205922", "amenity": "drinking_water", "man_made": "water_tap", "source": "Eau de Paris", "type_element": "Fontaines à boire", "__fid": 261}, "geometry": {"type": "Point", "coordinates": [2.4115051, 48.8733172]}, "id": "node/918205922"}, {"type": "Feature", "properties": {"@id": "node/10860119305", "amenity": "drinking_water", "survey:date": "2023-04-29", "type_element": "Fontaines à boire", "__fid": 856}, "geometry": {"type": "Point", "coordinates": [2.4129999, 48.8722509]}, "id": "node/10860119305"}, {"type": "Feature", "properties": {"@id": "node/10916363636", "amenity": "drinking_water", "fountain": "drinking", "type_element": "Fontaines à boire", "__fid": 861}, "geometry": {"type": "Point", "coordinates": [2.4103249, 48.8715017]}, "id": "node/10916363636"}, {"type": "Feature", "geometry": {"type": "Point", "coordinates": [2.413097, 48.872688]}, "properties": {"id": 15865, "name": "Jardin Frida Kahlo", "categorie": "Parcs, jardins et bois", "photo_url": "https://cdn.paris.fr/eqpts-prod/2022/05/10/203ca629185b453d10b2a5c7e7c08520.jpg", "photo_credit": "Christophe Noël / Ville de Paris", "photo_alt": null, "address_street": "26, rue de Noisy-le-Sec", "address_postcode": "75020", "address_city": "PARIS", "phone": null, "accessibility": "{\"handicaps\": [{\"name\": \"Personnes à mobilité réduite\", \"status\": \"accessible\"}, {\"name\": \"Personnes déficientes visuelles\", \"status\": \"undefined\"}, {\"name\": \"Personnes déficientes auditives\", \"status\": \"undefined\"}, {\"name\": \"Personnes déficientes mentales\", \"status\": \"undefined\"}, {\"name\": \"Accueil en langue des signes\", \"status\": \"undefined\"}]}", "latitude": 48.872688, "longitude": 2.413097, "url": "https://www.paris.fr/lieux/jardin-frida-kahlo-15865", "type_element": "Parcs, Jardins et Bois", "__fid": 1163}}, {"type": "Feature", "geometry": {"type": "Point", "coordinates": [2.411747, 48.872067]}, "properties": {"id": 2722, "name": "Square Léon Frapié", "categorie": "Parcs, jardins et bois", "photo_url": "https://cdn.paris.fr/eqpts-prod/2022/05/10/72a41172ca1dd649ed22bb1580916ee6.jpg", "photo_credit": "Antoine Polez/Ville de Paris", "photo_alt": null, "address_street": "7bis rue Noisy-Le-Sec", "address_postcode": "75020", "address_city": "PARIS", "phone": null, "accessibility": "{\"handicaps\": [{\"name\": \"Personnes à mobilité réduite\", \"status\": \"accessible\"}, {\"name\": \"Personnes déficientes visuelles\", \"status\": \"undefined\"}, {\"name\": \"Personnes déficientes auditives\", \"status\": \"undefined\"}, {\"name\": \"Personnes déficientes mentales\", \"status\": \"undefined\"}, {\"name\": \"Accueil en langue des signes\", \"status\": \"undefined\"}]}", "latitude": 48.872067, "longitude": 2.411747, "url": "https://www.paris.fr/lieux/square-leon-frapie-2722", "type_element": "Parcs, Jardins et Bois", "__fid": 1563}}, {"type": "Feature", "properties": {"highway": "footway", "footway": "sidewalk", "name": null, "surface": null, "lit": null, "length_m": 143.58, "type_element": "Way", "__fid": 117129}, "geometry": {"type": "LineString", "coordinates": [[2.4061828, 48.8721938], [2.4066295, 48.8723255], [2.4068447, 48.8723371], [2.4079906, 48.8726702]]}}, {"type": "Feature", "properties": {"highway": "footway", "footway": "sidewalk", "name": null, "surface": null, "lit": "yes", "length_m": 73.71, "type_element": "Way", "__fid": 117636}, "geometry": {"type": "LineString", "coordinates": [[2.4073269, 48.8726025], [2.4082462, 48.8728702]]}}, {"type": "Feature", "properties": {"highway": "pedestrian", "footway": null, "name": "Place de l'Adjudant Vincenot", "surface": null, "lit": null, "length_m": 113.9, "type_element": "Way", "__fid": 117661}, "geometry": {"type": "LineString", "coordinates": [[2.4073995, 48.871515400000014], [2.4083623, 48.8707118]]}}, {"type": "Feature", "properties": {"highway": "footway", "footway": "sidewalk", "name": null, "surface": "asphalt", "lit": "yes", "length_m": 93.64, "type_element": "Way", "__fid": 117664}, "geometry": {"type": "LineString", "coordinates": [[2.4084645, 48.8769357], [2.40734656666685, 48.876529033333384]]}}, {"type": "Feature", "properties": {"highway": "service", "footway": null, "name": "Rue Charles Cros", "surface": "asphalt", "lit": "yes", "length_m": 95.28, "type_element": "Way", "__fid": 117704}, "geometry": {"type": "LineString", "coordinates": [[2.4085543, 48.87682680000001], [2.4074107, 48.8764204]]}}, {"type": "Feature", "properties": {"highway": "footway", "footway": "sidewalk", "name": null, "surface": null, "lit": null, "length_m": 103.23, "type_element": "Way", "__fid": 117722}, "geometry": {"type": "LineString", "coordinates": [[2.4085543, 48.87682680000001], [2.4085965, 48.8767722], [2.407569, 48.8764071], [2.4074294, 48.8763757]]}}, {"type": "Feature", "properties": {"highway": "service", "footway": null, "name": "Rue Charles Cros", "surface": null, "lit": null, "length_m": 119.56, "type_element": "Way", "__fid": 117729}, "geometry": {"type": "LineString", "coordinates": [[2.4087257, 48.87688889999998], [2.4087499, 48.8768345], [2.4087435, 48.87679710000001], [2.4087012, 48.8767553], [2.407585, 48.8763659], [2.4074392, 48.8763485]]}}, {"type": "Feature", "properties": {"highway": "footway", "footway": "sidewalk", "name": null, "surface": null, "lit": "yes", "length_m": 58.56, "type_element": "Way", "__fid": 117730}, "geometry": {"type": "LineString", "coordinates": [[2.4074392, 48.8763485], [2.4074596, 48.876275599999985], [2.4076609, 48.875843]]}}, {"type": "Feature", "properties": {"highway": "footway", "footway": "crossing", "name": null, "surface": "asphalt", "lit": "yes", "length_m": 34.48, "type_element": "Way", "__fid": 117734}, "geometry": {"type": "LineString", "coordinates": [[2.4074595, 48.8752376], [2.4079055, 48.8753357]]}}, {"type": "Feature", "properties": {"highway": "footway", "footway": "sidewalk", "name": null, "surface": null, "lit": null, "length_m": 67.98, "type_element": "Way", "__fid": 117735}, "geometry": {"type": "LineString", "coordinates": [[2.4077303, 48.8746529], [2.4074595, 48.8752376]]}}, {"type": "Feature", "properties": {"highway": "service", "footway": null, "name": null, "surface": null, "lit": null, "length_m": 8.9, "type_element": "Way", "__fid": 117771}, "geometry": {"type": "LineString", "coordinates": [[2.4076609, 48.875843], [2.4075454, 48.8758185]]}}, {"type": "Feature", "properties": {"highway": "footway", "footway": "sidewalk", "name": null, "surface": null, "lit": "yes", "length_m": 31.93, "type_element": "Way", "__fid": 117826}, "geometry": {"type": "LineString", "coordinates": [[2.4076609, 48.875843], [2.4077949, 48.8755698]]}}, {"type": "Feature", "properties": {"highway": "service", "footway": null, "name": null, "surface": null, "lit": null, "length_m": 8.84, "type_element": "Way", "__fid": 117833}, "geometry": {"type": "LineString", "coordinates": [[2.4076801, 48.87554570000001], [2.4077949, 48.8755698]]}}, {"type": "Feature", "properties": {"highway": "footway", "footway": "crossing", "name": null, "surface": "asphalt", "lit": "yes", "length_m": 35.4, "type_element": "Way", "__fid": 117844}, "geometry": {"type": "LineString", "coordinates": [[2.4077303, 48.8746529], [2.4081919, 48.8747459]]}}, {"type": "Feature", "properties": {"highway": "footway", "footway": "sidewalk", "name": null, "surface": "asphalt", "lit": null, "length_m": 186.87, "type_element": "Way", "__fid": 117845}, "geometry": {"type": "LineString", "coordinates": [[2.408285671428429, 48.87301597142909], [2.4082349, 48.873298], [2.4080111, 48.8739909], [2.407882, 48.8743502], [2.4077303, 48.8746529]]}}, {"type": "Feature", "properties": {"highway": "footway", "footway": "sidewalk", "name": null, "surface": null, "lit": "yes", "length_m": 27.27, "type_element": "Way", "__fid": 117867}, "geometry": {"type": "LineString", "coordinates": [[2.4077949, 48.8755698], [2.4079055, 48.8753357]]}}, {"type": "Feature", "properties": {"highway": "service", "footway": null, "name": "Villa Sainte-Marie", "surface": "asphalt", "lit": null, "length_m": 78.84, "type_element": "Way", "__fid": 117875}, "geometry": {"type": "LineString", "coordinates": [[2.4078712, 48.8714115], [2.4085552, 48.8708646]]}}, {"type": "Feature", "properties": {"highway": "footway", "footway": "sidewalk", "name": null, "surface": null, "lit": "yes", "length_m": 68.87, "type_element": "Way", "__fid": 117904}, "geometry": {"type": "LineString", "coordinates": [[2.4079055, 48.8753357], [2.4081919, 48.8747459]]}}, {"type": "Feature", "properties": {"highway": "service", "footway": null, "name": null, "surface": null, "lit": null, "length_m": 8.18, "type_element": "Way", "__fid": 117911}, "geometry": {"type": "LineString", "coordinates": [[2.4079906, 48.8726702], [2.4079687, 48.87274230000001]]}}, {"type": "Feature", "properties": {"highway": "footway", "footway": "sidewalk", "name": null, "surface": null, "lit": null, "length_m": 4.79, "type_element": "Way", "__fid": 117920}, "geometry": {"type": "LineString", "coordinates": [[2.4079906, 48.8726702], [2.4080503, 48.87268760000001]]}}, {"type": "Feature", "properties": {"highway": "service", "footway": null, "name": null, "surface": null, "lit": null, "length_m": 9.48, "type_element": "Way", "__fid": 117921}, "geometry": {"type": "LineString", "coordinates": [[2.4080075, 48.8725857], [2.4079906, 48.8726702]]}}, {"type": "Feature", "properties": {"highway": "service", "footway": null, "name": null, "surface": null, "lit": null, "length_m": 8.14, "type_element": "Way", "__fid": 117936}, "geometry": {"type": "LineString", "coordinates": [[2.4080503, 48.87268760000001], [2.4080292, 48.8727595]]}}, {"type": "Feature", "properties": {"highway": "footway", "footway": "sidewalk", "name": null, "surface": null, "lit": null, "length_m": 16.79, "type_element": "Way", "__fid": 117941}, "geometry": {"type": "LineString", "coordinates": [[2.4080503, 48.87268760000001], [2.4082622, 48.8727448]]}}, {"type": "Feature", "properties": {"highway": "service", "footway": null, "name": null, "surface": null, "lit": null, "length_m": 180.62, "type_element": "Way", "__fid": 117942}, "geometry": {"type": "LineString", "coordinates": [[2.4085009, 48.8712499], [2.4082509, 48.8712349], [2.4080503, 48.87268760000001]]}}, {"type": "Feature", "properties": {"highway": "footway", "footway": "sidewalk", "name": null, "surface": null, "lit": "yes", "length_m": 194.02, "type_element": "Way", "__fid": 118034}, "geometry": {"type": "LineString", "coordinates": [[2.4081919, 48.8747459], [2.4083689, 48.8743813], [2.4086747, 48.8734243], [2.4087042, 48.87331310000001], [2.4087483, 48.8730436]]}}, {"type": "Feature", "properties": {"highway": "footway", "footway": "sidewalk", "name": null, "surface": null, "lit": null, "length_m": 18.05, "type_element": "Way", "__fid": 118055}, "geometry": {"type": "LineString", "coordinates": [[2.4082462, 48.8728702], [2.4082748, 48.8729124], [2.4082653, 48.8730148], [2.408285671428429, 48.87301597142909]]}}, {"type": "Feature", "properties": {"highway": "footway", "footway": "crossing", "name": null, "surface": "asphalt", "lit": "yes", "length_m": 13.99, "type_element": "Way", "__fid": 118056}, "geometry": {"type": "LineString", "coordinates": [[2.4082622, 48.8727448], [2.4082462, 48.8728702]]}}, {"type": "Feature", "properties": {"highway": "footway", "footway": "sidewalk", "name": null, "surface": null, "lit": null, "length_m": 5.63, "type_element": "Way", "__fid": 118065}, "geometry": {"type": "LineString", "coordinates": [[2.4082622, 48.8727448], [2.4082823, 48.8727014], [2.408290166666633, 48.87270186666679]]}}, {"type": "Feature", "properties": {"highway": "footway", "footway": "sidewalk", "name": null, "surface": "asphalt", "lit": "yes", "length_m": 34.07, "type_element": "Way", "__fid": 118075}, "geometry": {"type": "LineString", "coordinates": [[2.408285671428429, 48.87301597142909], [2.4087483, 48.8730436]]}}, {"type": "Feature", "properties": {"highway": "footway", "footway": "crossing", "name": null, "surface": null, "lit": "yes", "length_m": 12.98, "type_element": "Way", "__fid": 118076}, "geometry": {"type": "LineString", "coordinates": [[2.408290166666633, 48.87270186666679], [2.4084664, 48.8727127]]}}, {"type": "Feature", "properties": {"highway": "footway", "footway": "sidewalk", "name": null, "surface": "asphalt", "lit": null, "length_m": 70.08, "type_element": "Way", "__fid": 118077}, "geometry": {"type": "LineString", "coordinates": [[2.408290166666633, 48.87270186666679], [2.4083146, 48.872601299999985], [2.4083869, 48.87207509999999]]}}, {"type": "Feature", "properties": {"highway": "footway", "footway": "crossing", "name": null, "surface": "asphalt", "lit": "yes", "length_m": 12.5, "type_element": "Way", "__fid": 118120}, "geometry": {"type": "LineString", "coordinates": [[2.4083869, 48.87207509999999], [2.4085563, 48.8720871]]}}, {"type": "Feature", "properties": {"highway": "footway", "footway": "sidewalk", "name": null, "surface": "asphalt", "lit": null, "length_m": 92.14, "type_element": "Way", "__fid": 118121}, "geometry": {"type": "LineString", "coordinates": [[2.4083869, 48.87207509999999], [2.4085009, 48.8712499]]}}, {"type": "Feature", "properties": {"highway": "footway", "footway": "crossing", "name": null, "surface": null, "lit": "yes", "length_m": 23.64, "type_element": "Way", "__fid": 118170}, "geometry": {"type": "LineString", "coordinates": [[2.4084664, 48.8727127], [2.4087873, 48.8727324]]}}, {"type": "Feature", "properties": {"highway": "footway", "footway": "sidewalk", "name": null, "surface": "asphalt", "lit": "yes", "length_m": 11.56, "type_element": "Way", "__fid": 118171}, "geometry": {"type": "LineString", "coordinates": [[2.4084829, 48.872609300000015], [2.4084664, 48.8727127]]}}, {"type": "Feature", "properties": {"highway": "service", "footway": null, "name": null, "surface": null, "lit": null, "length_m": 10.85, "type_element": "Way", "__fid": 118181}, "geometry": {"type": "LineString", "coordinates": [[2.4086479, 48.871261], [2.4085009, 48.8712499]]}}, {"type": "Feature", "properties": {"highway": "footway", "footway": "sidewalk", "name": null, "surface": "asphalt", "lit": null, "length_m": 43.03, "type_element": "Way", "__fid": 118182}, "geometry": {"type": "LineString", "coordinates": [[2.4085009, 48.8712499], [2.4085552, 48.8708646]]}}, {"type": "Feature", "properties": {"highway": "footway", "footway": "traffic_island", "name": null, "surface": null, "lit": null, "length_m": 13.78, "type_element": "Way", "__fid": 118199}, "geometry": {"type": "LineString", "coordinates": [[2.4084645, 48.8769357], [2.4085543, 48.87682680000001]]}}, {"type": "Feature", "properties": {"highway": "footway", "footway": "sidewalk", "name": null, "surface": "asphalt", "lit": "yes", "length_m": 13.4, "type_element": "Way", "__fid": 118210}, "geometry": {"type": "LineString", "coordinates": [[2.4085381, 48.872207], [2.4085563, 48.8720871]]}}, {"type": "Feature", "properties": {"highway": "footway", "footway": "traffic_island", "name": null, "surface": "asphalt", "lit": "yes", "length_m": 9.92, "type_element": "Way", "__fid": 118231}, "geometry": {"type": "LineString", "coordinates": [[2.4085563, 48.8720871], [2.4086907, 48.8720967]]}}, {"type": "Feature", "properties": {"highway": "service", "footway": null, "name": "Rue Charles Cros", "surface": "asphalt", "lit": "yes", "length_m": 14.34, "type_element": "Way", "__fid": 118271}, "geometry": {"type": "LineString", "coordinates": [[2.4087257, 48.87688889999998], [2.4085543, 48.87682680000001]]}}, {"type": "Feature", "properties": {"highway": "footway", "footway": "crossing", "name": null, "surface": "asphalt", "lit": "yes", "length_m": 9.26, "type_element": "Way", "__fid": 118324}, "geometry": {"type": "LineString", "coordinates": [[2.4086907, 48.8720967], [2.4088162, 48.8721056]]}}, {"type": "Feature", "properties": {"highway": "footway", "footway": "sidewalk", "name": null, "surface": "asphalt", "lit": "yes", "length_m": 11.0, "type_element": "Way", "__fid": 118325}, "geometry": {"type": "LineString", "coordinates": [[2.4087034, 48.8719981], [2.4086907, 48.8720967]]}}, {"type": "Feature", "properties": {"highway": "service", "footway": null, "name": null, "surface": null, "lit": null, "length_m": 4.48, "type_element": "Way", "__fid": 118338}, "geometry": {"type": "LineString", "coordinates": [[2.4087108, 48.8723332], [2.4087715, 48.8723378]]}}, {"type": "Feature", "properties": {"highway": "service", "footway": null, "name": "Rue Charles Cros", "surface": "asphalt", "lit": "yes", "length_m": 9.99, "type_element": "Way", "__fid": 118344}, "geometry": {"type": "LineString", "coordinates": [[2.4086705, 48.876971], [2.4087257, 48.87688889999998]]}}, {"type": "Feature", "properties": {"highway": "footway", "footway": null, "name": null, "surface": "asphalt", "lit": "yes", "length_m": 23.91, "type_element": "Way", "__fid": 118352}, "geometry": {"type": "LineString", "coordinates": [[2.4087586, 48.8715993], [2.4087711, 48.8715045], [2.4089521, 48.8715151]]}}, {"type": "Feature", "properties": {"highway": "footway", "footway": "sidewalk", "name": null, "surface": null, "lit": "yes", "length_m": 5.71, "type_element": "Way", "__fid": 118357}, "geometry": {"type": "LineString", "coordinates": [[2.4087483, 48.8730436], [2.4087565, 48.8729925]]}}, {"type": "Feature", "properties": {"highway": "footway", "footway": "sidewalk", "name": null, "surface": null, "lit": "yes", "length_m": 107.62, "type_element": "Way", "__fid": 118360}, "geometry": {"type": "LineString", "coordinates": [[2.4087565, 48.8729925], [2.4100871, 48.8734004]]}}, {"type": "Feature", "properties": {"highway": "footway", "footway": "crossing", "name": null, "surface": null, "lit": "yes", "length_m": 14.65, "type_element": "Way", "__fid": 118361}, "geometry": {"type": "LineString", "coordinates": [[2.4087565, 48.8729925], [2.4087716, 48.8728611]]}}, {"type": "Feature", "properties": {"highway": "service", "footway": null, "name": null, "surface": null, "lit": null, "length_m": 103.85, "type_element": "Way", "__fid": 118363}, "geometry": {"type": "LineString", "coordinates": [[2.4087715, 48.8723378], [2.4091749, 48.872364900000015], [2.4092653, 48.8719867], [2.4088393, 48.8719484]]}}, {"type": "Feature", "properties": {"highway": "footway", "footway": "sidewalk", "name": null, "surface": null, "lit": "yes", "length_m": 45.21, "type_element": "Way", "__fid": 118364}, "geometry": {"type": "LineString", "coordinates": [[2.4087873, 48.8727324], [2.4088318, 48.8724065], [2.4087715, 48.8723378]]}}, {"type": "Feature", "properties": {"highway": "footway", "footway": "sidewalk", "name": null, "surface": null, "lit": "yes", "length_m": 26.03, "type_element": "Way", "__fid": 118365}, "geometry": {"type": "LineString", "coordinates": [[2.4087715, 48.8723378], [2.4088162, 48.8721056]]}}, {"type": "Feature", "properties": {"highway": "service", "footway": null, "name": null, "surface": null, "lit": null, "length_m": 4.38, "type_element": "Way", "__fid": 118366}, "geometry": {"type": "LineString", "coordinates": [[2.4088393, 48.8719484], [2.4087801, 48.8719431]]}}, {"type": "Feature", "properties": {"highway": "footway", "footway": "sidewalk", "name": null, "surface": "asphalt", "lit": "yes", "length_m": 20.88, "type_element": "Way", "__fid": 118367}, "geometry": {"type": "LineString", "coordinates": [[2.4087716, 48.8728611], [2.4090294, 48.8729407]]}}, {"type": "Feature", "properties": {"highway": "footway", "footway": "sidewalk", "name": null, "surface": null, "lit": "yes", "length_m": 14.36, "type_element": "Way", "__fid": 118368}, "geometry": {"type": "LineString", "coordinates": [[2.4087716, 48.8728611], [2.4087873, 48.8727324]]}}, {"type": "Feature", "properties": {"highway": "footway", "footway": "sidewalk", "name": null, "surface": "asphalt", "lit": "yes", "length_m": 17.56, "type_element": "Way", "__fid": 118378}, "geometry": {"type": "LineString", "coordinates": [[2.4088162, 48.8721056], [2.4088393, 48.8719484]]}}, {"type": "Feature", "properties": {"highway": "pedestrian", "footway": null, "name": "Rue Pierre Foncin", "surface": "asphalt", "lit": null, "length_m": 8.91, "type_element": "Way", "__fid": 118385}, "geometry": {"type": "LineString", "coordinates": [[2.4089631, 48.871412], [2.4088419, 48.8714066]]}}, {"type": "Feature", "properties": {"highway": "footway", "footway": "sidewalk", "name": null, "surface": "asphalt", "lit": "yes", "length_m": 49.84, "type_element": "Way", "__fid": 118388}, "geometry": {"type": "LineString", "coordinates": [[2.4088393, 48.8719484], [2.4089087, 48.8718791], [2.4089521, 48.8715151]]}}, {"type": "Feature", "properties": {"highway": "footway", "footway": "sidewalk", "name": null, "surface": null, "lit": "yes", "length_m": 11.49, "type_element": "Way", "__fid": 118439}, "geometry": {"type": "LineString", "coordinates": [[2.4089521, 48.8715151], [2.4089631, 48.871412]]}}, {"type": "Feature", "properties": {"highway": "pedestrian", "footway": null, "name": "Rue Pierre Foncin", "surface": "asphalt", "lit": null, "length_m": 16.41, "type_element": "Way", "__fid": 118442}, "geometry": {"type": "LineString", "coordinates": [[2.4091863, 48.8714219], [2.4089631, 48.871412]]}}, {"type": "Feature", "properties": {"highway": "footway", "footway": "sidewalk", "name": null, "surface": null, "lit": "yes", "length_m": 79.15, "type_element": "Way", "__fid": 118443}, "geometry": {"type": "LineString", "coordinates": [[2.4089631, 48.871412], [2.4090582, 48.870703]]}}, {"type": "Feature", "properties": {"highway": "footway", "footway": "sidewalk", "name": null, "surface": "paving_stones", "lit": "yes", "length_m": 27.05, "type_element": "Way", "__fid": 118460}, "geometry": {"type": "LineString", "coordinates": [[2.4089393, 48.8769926], [2.4090652, 48.876861], [2.4091836, 48.8769008]]}}, {"type": "Feature", "properties": {"highway": "service", "footway": null, "name": null, "surface": null, "lit": null, "length_m": 5.13, "type_element": "Way", "__fid": 118470}, "geometry": {"type": "LineString", "coordinates": [[2.4089985, 48.8729821], [2.4090294, 48.8729407]]}}, {"type": "Feature", "properties": {"highway": "footway", "footway": "sidewalk", "name": null, "surface": "asphalt", "lit": "yes", "length_m": 59.43, "type_element": "Way", "__fid": 118494}, "geometry": {"type": "LineString", "coordinates": [[2.4090294, 48.8729407], [2.4097686, 48.8731595]]}}, {"type": "Feature", "properties": {"highway": "service", "footway": null, "name": null, "surface": null, "lit": null, "length_m": 26.18, "type_element": "Way", "__fid": 118495}, "geometry": {"type": "LineString", "coordinates": [[2.4090294, 48.8729407], [2.4090402, 48.8729263], [2.409339, 48.87283]]}}, {"type": "Feature", "properties": {"highway": "pedestrian", "footway": null, "name": "Rue Pierre Foncin", "surface": "asphalt", "lit": null, "length_m": 102.46, "type_element": "Way", "__fid": 118571}, "geometry": {"type": "LineString", "coordinates": [[2.4105803, 48.871481], [2.4091863, 48.8714219]]}}, {"type": "Feature", "properties": {"highway": "service", "footway": null, "name": "Rue Pierre Foncin", "surface": "asphalt", "lit": null, "length_m": 80.2, "type_element": "Way", "__fid": 118572}, "geometry": {"type": "LineString", "coordinates": [[2.4097992, 48.8717765], [2.4095155, 48.871878], [2.4092859, 48.8715957], [2.4092413, 48.8714793], [2.4091863, 48.8714219]]}}, {"type": "Feature", "properties": {"highway": "footway", "footway": "sidewalk", "name": null, "surface": "paving_stones", "lit": "yes", "length_m": 6.75, "type_element": "Way", "__fid": 118596}, "geometry": {"type": "LineString", "coordinates": [[2.4091836, 48.8769008], [2.4092655, 48.8769285]]}}, {"type": "Feature", "properties": {"highway": "steps", "footway": null, "name": null, "surface": "concrete", "lit": null, "length_m": 10.72, "type_element": "Way", "__fid": 118597}, "geometry": {"type": "LineString", "coordinates": [[2.4091836, 48.8769008], [2.4092404, 48.876812]]}}, {"type": "Feature", "properties": {"highway": "steps", "footway": null, "name": null, "surface": "concrete", "lit": null, "length_m": 11.52, "type_element": "Way", "__fid": 118668}, "geometry": {"type": "LineString", "coordinates": [[2.4093512, 48.87695739999999], [2.4094127, 48.87686209999998]]}}, {"type": "Feature", "properties": {"highway": "service", "footway": null, "name": null, "surface": null, "lit": null, "length_m": 4.7, "type_element": "Way", "__fid": 118793}, "geometry": {"type": "LineString", "coordinates": [[2.4097435, 48.8731984], [2.4097686, 48.8731595]]}}, {"type": "Feature", "properties": {"highway": "footway", "footway": "sidewalk", "name": null, "surface": "asphalt", "lit": "yes", "length_m": 31.58, "type_element": "Way", "__fid": 118798}, "geometry": {"type": "LineString", "coordinates": [[2.4097686, 48.8731595], [2.4101673, 48.8732666]]}}, {"type": "Feature", "properties": {"highway": "service", "footway": null, "name": null, "surface": null, "lit": null, "length_m": 25.26, "type_element": "Way", "__fid": 118799}, "geometry": {"type": "LineString", "coordinates": [[2.4097686, 48.8731595], [2.4097789, 48.8731434], [2.4100594, 48.87304479999998]]}}, {"type": "Feature", "properties": {"highway": "footway", "footway": "sidewalk", "name": null, "surface": null, "lit": "yes", "length_m": 23.52, "type_element": "Way", "__fid": 118911}, "geometry": {"type": "LineString", "coordinates": [[2.4100871, 48.8734004], [2.4103779, 48.87348959999998]]}}, {"type": "Feature", "properties": {"highway": "footway", "footway": "crossing", "name": null, "surface": null, "lit": null, "length_m": 16.39, "type_element": "Way", "__fid": 118912}, "geometry": {"type": "LineString", "coordinates": [[2.4100871, 48.8734004], [2.410174, 48.8732769], [2.4101673, 48.8732666]]}}, {"type": "Feature", "properties": {"highway": "service", "footway": null, "name": null, "surface": null, "lit": null, "length_m": 24.27, "type_element": "Way", "__fid": 118917}, "geometry": {"type": "LineString", "coordinates": [[2.4103937, 48.87254939999998], [2.410367, 48.87254630000001], [2.4101017, 48.8726439]]}}, {"type": "Feature", "properties": {"highway": "footway", "footway": "sidewalk", "name": null, "surface": "asphalt", "lit": "yes", "length_m": 4.92, "type_element": "Way", "__fid": 118942}, "geometry": {"type": "LineString", "coordinates": [[2.4101673, 48.8732666], [2.4101958, 48.8732265]]}}, {"type": "Feature", "properties": {"highway": "footway", "footway": "sidewalk", "name": null, "surface": "asphalt", "lit": "yes", "length_m": 178.83, "type_element": "Way", "__fid": 118944}, "geometry": {"type": "LineString", "coordinates": [[2.4101303, 48.8770468], [2.411126, 48.8755788]]}}, {"type": "Feature", "properties": {"highway": "service", "footway": null, "name": null, "surface": null, "lit": null, "length_m": 25.65, "type_element": "Way", "__fid": 118947}, "geometry": {"type": "LineString", "coordinates": [[2.4101917, 48.8721172], [2.4104776, 48.8720139], [2.4105013, 48.8720141]]}}, {"type": "Feature", "properties": {"highway": "footway", "footway": "crossing", "name": null, "surface": "asphalt", "lit": "yes", "length_m": 17.43, "type_element": "Way", "__fid": 118952}, "geometry": {"type": "LineString", "coordinates": [[2.4101958, 48.8732265], [2.4104302, 48.8732523]]}}, {"type": "Feature", "properties": {"highway": "footway", "footway": "sidewalk", "name": null, "surface": "asphalt", "lit": "yes", "length_m": 76.68, "type_element": "Way", "__fid": 118953}, "geometry": {"type": "LineString", "coordinates": [[2.4101958, 48.8732265], [2.4103937, 48.87254939999998]]}}, {"type": "Feature", "properties": {"highway": "footway", "footway": "sidewalk", "name": null, "surface": "asphalt", "lit": "yes", "length_m": 165.5, "type_element": "Way", "__fid": 119011}, "geometry": {"type": "LineString", "coordinates": [[2.4112285, 48.8757256], [2.4102945, 48.8770805]]}}, {"type": "Feature", "properties": {"highway": "footway", "footway": "sidewalk", "name": null, "surface": "asphalt", "lit": "yes", "length_m": 105.79, "type_element": "Way", "__fid": 119012}, "geometry": {"type": "LineString", "coordinates": [[2.4116678, 48.87678970000001], [2.4102945, 48.8770805]]}}, {"type": "Feature", "properties": {"highway": "footway", "footway": "sidewalk", "name": null, "surface": null, "lit": "yes", "length_m": 69.56, "type_element": "Way", "__fid": 119030}, "geometry": {"type": "LineString", "coordinates": [[2.4103779, 48.87348959999998], [2.4112586, 48.8737215]]}}, {"type": "Feature", "properties": {"highway": "footway", "footway": "traffic_island", "name": null, "surface": "asphalt", "lit": "yes", "length_m": 16.94, "type_element": "Way", "__fid": 119031}, "geometry": {"type": "LineString", "coordinates": [[2.4103779, 48.87348959999998], [2.4104525, 48.873345399999984]]}}, {"type": "Feature", "properties": {"highway": "service", "footway": null, "name": null, "surface": null, "lit": null, "length_m": 6.35, "type_element": "Way", "__fid": 119034}, "geometry": {"type": "LineString", "coordinates": [[2.4104789, 48.8725595], [2.4103937, 48.87254939999998]]}}, {"type": "Feature", "properties": {"highway": "footway", "footway": "sidewalk", "name": null, "surface": "asphalt", "lit": "yes", "length_m": 60.18, "type_element": "Way", "__fid": 119035}, "geometry": {"type": "LineString", "coordinates": [[2.4103937, 48.87254939999998], [2.4104821, 48.8722447], [2.4105013, 48.8720141]]}}, {"type": "Feature", "properties": {"highway": "footway", "footway": "sidewalk", "name": null, "surface": "asphalt", "lit": "yes", "length_m": 11.2, "type_element": "Way", "__fid": 119053}, "geometry": {"type": "LineString", "coordinates": [[2.4104302, 48.8732523], [2.4104184, 48.873313300000014], [2.4104525, 48.873345399999984]]}}, {"type": "Feature", "properties": {"highway": "footway", "footway": "sidewalk", "name": null, "surface": "asphalt", "lit": "yes", "length_m": 133.06, "type_element": "Way", "__fid": 119054}, "geometry": {"type": "LineString", "coordinates": [[2.4104302, 48.8732523], [2.4107272, 48.8722507], [2.4107403, 48.8720749]]}}, {"type": "Feature", "properties": {"highway": "footway", "footway": "sidewalk", "name": null, "surface": "asphalt", "lit": "yes", "length_m": 71.0, "type_element": "Way", "__fid": 119065}, "geometry": {"type": "LineString", "coordinates": [[2.4113495, 48.8735853], [2.4104525, 48.873345399999984]]}}, {"type": "Feature", "properties": {"highway": "service", "footway": null, "name": null, "surface": null, "lit": null, "length_m": 6.72, "type_element": "Way", "__fid": 119077}, "geometry": {"type": "LineString", "coordinates": [[2.4105013, 48.8720141], [2.4105929, 48.8720161]]}}, {"type": "Feature", "properties": {"highway": "footway", "footway": "sidewalk", "name": null, "surface": "asphalt", "lit": "yes", "length_m": 59.62, "type_element": "Way", "__fid": 119078}, "geometry": {"type": "LineString", "coordinates": [[2.4105013, 48.8720141], [2.4105426, 48.8716246], [2.4105803, 48.871481]]}}, {"type": "Feature", "properties": {"highway": "pedestrian", "footway": null, "name": "Rue Pierre Foncin", "surface": "asphalt", "lit": null, "length_m": 4.84, "type_element": "Way", "__fid": 119118}, "geometry": {"type": "LineString", "coordinates": [[2.4106462, 48.8714838], [2.4105803, 48.871481]]}}, {"type": "Feature", "properties": {"highway": "footway", "footway": "sidewalk", "name": null, "surface": "asphalt", "lit": "yes", "length_m": 15.7, "type_element": "Way", "__fid": 119119}, "geometry": {"type": "LineString", "coordinates": [[2.4105803, 48.871481], [2.4105919, 48.87134]]}}, {"type": "Feature", "properties": {"highway": "footway", "footway": "traffic_island", "name": null, "surface": null, "lit": null, "length_m": 16.58, "type_element": "Way", "__fid": 119125}, "geometry": {"type": "LineString", "coordinates": [[2.4105919, 48.87134], [2.4108175, 48.8713497]]}}, {"type": "Feature", "properties": {"highway": "footway", "footway": "sidewalk", "name": null, "surface": "asphalt", "lit": "yes", "length_m": 53.36, "type_element": "Way", "__fid": 119126}, "geometry": {"type": "LineString", "coordinates": [[2.4105919, 48.87134], [2.4106329, 48.8708609]]}}, {"type": "Feature", "properties": {"highway": "footway", "footway": null, "name": null, "surface": "paving_stones", "lit": null, "length_m": 66.64, "type_element": "Way", "__fid": 119189}, "geometry": {"type": "LineString", "coordinates": [[2.4107403, 48.8720749], [2.4107679, 48.8720768], [2.4113331, 48.8725224]]}}, {"type": "Feature", "properties": {"highway": "footway", "footway": "sidewalk", "name": null, "surface": "asphalt", "lit": "yes", "length_m": 80.84, "type_element": "Way", "__fid": 119190}, "geometry": {"type": "LineString", "coordinates": [[2.4107403, 48.8720749], [2.4108175, 48.8713497]]}}, {"type": "Feature", "properties": {"highway": "footway", "footway": "sidewalk", "name": null, "surface": "asphalt", "lit": "yes", "length_m": 5.3, "type_element": "Way", "__fid": 119218}, "geometry": {"type": "LineString", "coordinates": [[2.4108175, 48.8713497], [2.4108304, 48.8713028]]}}, {"type": "Feature", "properties": {"highway": "footway", "footway": "sidewalk", "name": null, "surface": null, "lit": "yes", "length_m": 48.06, "type_element": "Way", "__fid": 119227}, "geometry": {"type": "LineString", "coordinates": [[2.4108304, 48.8713028], [2.4108975, 48.8713205], [2.4112641, 48.8716195]]}}, {"type": "Feature", "properties": {"highway": "footway", "footway": "crossing", "name": null, "surface": null, "lit": "yes", "length_m": 13.25, "type_element": "Way", "__fid": 119228}, "geometry": {"type": "LineString", "coordinates": [[2.4108582, 48.8711851], [2.4108304, 48.8713028]]}}, {"type": "Feature", "properties": {"highway": "footway", "footway": "sidewalk", "name": null, "surface": "asphalt", "lit": "yes", "length_m": 18.0, "type_element": "Way", "__fid": 119233}, "geometry": {"type": "LineString", "coordinates": [[2.4108482, 48.87087420000001], [2.4108703, 48.8710354]]}}, {"type": "Feature", "properties": {"highway": "footway", "footway": "traffic_island", "name": null, "surface": null, "lit": null, "length_m": 56.67, "type_element": "Way", "__fid": 119244}, "geometry": {"type": "LineString", "coordinates": [[2.4113816, 48.8715499], [2.4109867, 48.8712265], [2.4108582, 48.8711851]]}}, {"type": "Feature", "properties": {"highway": "footway", "footway": "traffic_island", "name": null, "surface": "asphalt", "lit": "yes", "length_m": 16.67, "type_element": "Way", "__fid": 119245}, "geometry": {"type": "LineString", "coordinates": [[2.4108703, 48.8710354], [2.4108582, 48.8711851]]}}, {"type": "Feature", "properties": {"highway": "footway", "footway": "sidewalk", "name": null, "surface": "asphalt", "lit": "yes", "length_m": 68.89, "type_element": "Way", "__fid": 119257}, "geometry": {"type": "LineString", "coordinates": [[2.4108703, 48.8710354], [2.4109897, 48.871066], [2.4110662, 48.87111980000002], [2.4115054, 48.8714787]]}}, {"type": "Feature", "properties": {"highway": "footway", "footway": null, "name": null, "surface": "concrete:plates", "lit": null, "length_m": 80.84, "type_element": "Way", "__fid": 119352}, "geometry": {"type": "LineString", "coordinates": [[2.4119955, 48.87130529999999], [2.411145, 48.8709006], [2.411093, 48.8708928]]}}, {"type": "Feature", "properties": {"highway": "footway", "footway": null, "name": null, "surface": "compacted", "lit": null, "length_m": 18.7, "type_element": "Way", "__fid": 119381}, "geometry": {"type": "LineString", "coordinates": [[2.4111407, 48.8726327], [2.4113331, 48.8725224]]}}, {"type": "Feature", "properties": {"highway": "footway", "footway": "crossing", "name": null, "surface": "asphalt", "lit": "yes", "length_m": 13.61, "type_element": "Way", "__fid": 119391}, "geometry": {"type": "LineString", "coordinates": [[2.411126, 48.8755788], [2.4112966, 48.875627]]}}, {"type": "Feature", "properties": {"highway": "footway", "footway": "sidewalk", "name": null, "surface": "asphalt", "lit": "yes", "length_m": 80.68, "type_element": "Way", "__fid": 119392}, "geometry": {"type": "LineString", "coordinates": [[2.411126, 48.8755788], [2.4115752, 48.8749165]]}}, {"type": "Feature", "properties": {"highway": "footway", "footway": "sidewalk", "name": null, "surface": null, "lit": "yes", "length_m": 33.4, "type_element": "Way", "__fid": 119433}, "geometry": {"type": "LineString", "coordinates": [[2.4112641, 48.8716195], [2.4115515, 48.8718525]]}}, {"type": "Feature", "properties": {"highway": "footway", "footway": "crossing", "name": null, "surface": null, "lit": null, "length_m": 11.58, "type_element": "Way", "__fid": 119434}, "geometry": {"type": "LineString", "coordinates": [[2.4112641, 48.8716195], [2.4113816, 48.8715499]]}}, {"type": "Feature", "properties": {"highway": "footway", "footway": "sidewalk", "name": null, "surface": null, "lit": "yes", "length_m": 88.55, "type_element": "Way", "__fid": 119441}, "geometry": {"type": "LineString", "coordinates": [[2.4123301, 48.8760514], [2.4112285, 48.8757256]]}}, {"type": "Feature", "properties": {"highway": "footway", "footway": "crossing", "name": null, "surface": "asphalt", "lit": "yes", "length_m": 9.3, "type_element": "Way", "__fid": 119442}, "geometry": {"type": "LineString", "coordinates": [[2.4112813, 48.8756496], [2.4112285, 48.8757256]]}}, {"type": "Feature", "properties": {"highway": "footway", "footway": "sidewalk", "name": null, "surface": null, "lit": "yes", "length_m": 43.0, "type_element": "Way", "__fid": 119444}, "geometry": {"type": "LineString", "coordinates": [[2.4112586, 48.8737215], [2.4118022, 48.8738662]]}}, {"type": "Feature", "properties": {"highway": "footway", "footway": "traffic_island", "name": null, "surface": "compacted", "lit": null, "length_m": 16.55, "type_element": "Way", "__fid": 119445}, "geometry": {"type": "LineString", "coordinates": [[2.4112586, 48.8737215], [2.4113495, 48.8735853]]}}, {"type": "Feature", "properties": {"highway": "footway", "footway": "sidewalk", "name": null, "surface": null, "lit": "yes", "length_m": 86.02, "type_element": "Way", "__fid": 119458}, "geometry": {"type": "LineString", "coordinates": [[2.4112813, 48.8756496], [2.412353, 48.8759637]]}}, {"type": "Feature", "properties": {"highway": "footway", "footway": "sidewalk", "name": null, "surface": "asphalt", "lit": "yes", "length_m": 2.75, "type_element": "Way", "__fid": 119459}, "geometry": {"type": "LineString", "coordinates": [[2.4112966, 48.875627], [2.4112813, 48.8756496]]}}, {"type": "Feature", "properties": {"highway": "footway", "footway": "sidewalk", "name": null, "surface": "asphalt", "lit": "yes", "length_m": 80.65, "type_element": "Way", "__fid": 119464}, "geometry": {"type": "LineString", "coordinates": [[2.4117461, 48.8749651], [2.4112966, 48.875627]]}}, {"type": "Feature", "properties": {"highway": "footway", "footway": null, "name": null, "surface": "paving_stones", "lit": null, "length_m": 63.19, "type_element": "Way", "__fid": 119465}, "geometry": {"type": "LineString", "coordinates": [[2.4113331, 48.8725224], [2.4118708, 48.8729664]]}}, {"type": "Feature", "properties": {"highway": "footway", "footway": null, "name": null, "surface": "compacted", "lit": null, "length_m": 36.93, "type_element": "Way", "__fid": 119466}, "geometry": {"type": "LineString", "coordinates": [[2.4113331, 48.8725224], [2.4117269, 48.8723155]]}}, {"type": "Feature", "properties": {"highway": "footway", "footway": "sidewalk", "name": null, "surface": "asphalt", "lit": "yes", "length_m": 42.68, "type_element": "Way", "__fid": 119474}, "geometry": {"type": "LineString", "coordinates": [[2.411892, 48.873724], [2.4113495, 48.8735853]]}}, {"type": "Feature", "properties": {"highway": "footway", "footway": null, "name": null, "surface": "compacted", "lit": null, "length_m": 78.73, "type_element": "Way", "__fid": 119475}, "geometry": {"type": "LineString", "coordinates": [[2.4113495, 48.8735853], [2.4118708, 48.8729664]]}}, {"type": "Feature", "properties": {"highway": "footway", "footway": "traffic_island", "name": null, "surface": null, "lit": null, "length_m": 35.75, "type_element": "Way", "__fid": 119480}, "geometry": {"type": "LineString", "coordinates": [[2.4116871, 48.8718004], [2.4113816, 48.8715499]]}}, {"type": "Feature", "properties": {"highway": "footway", "footway": "crossing", "name": null, "surface": null, "lit": null, "length_m": 12.05, "type_element": "Way", "__fid": 119481}, "geometry": {"type": "LineString", "coordinates": [[2.4113816, 48.8715499], [2.4115054, 48.8714787]]}}, {"type": "Feature", "properties": {"highway": "footway", "footway": "sidewalk", "name": null, "surface": "asphalt", "lit": "yes", "length_m": 37.61, "type_element": "Way", "__fid": 119518}, "geometry": {"type": "LineString", "coordinates": [[2.4115054, 48.8714787], [2.4118274, 48.8717419]]}}, {"type": "Feature", "properties": {"highway": "footway", "footway": "sidewalk", "name": null, "surface": null, "lit": "yes", "length_m": 47.68, "type_element": "Way", "__fid": 119542}, "geometry": {"type": "LineString", "coordinates": [[2.4115515, 48.8718525], [2.4119593, 48.8721864]]}}, {"type": "Feature", "properties": {"highway": "footway", "footway": "crossing", "name": null, "surface": null, "lit": null, "length_m": 11.51, "type_element": "Way", "__fid": 119543}, "geometry": {"type": "LineString", "coordinates": [[2.4115515, 48.8718525], [2.4116871, 48.8718004]]}}, {"type": "Feature", "properties": {"highway": "footway", "footway": "crossing", "name": null, "surface": "asphalt", "lit": "yes", "length_m": 13.65, "type_element": "Way", "__fid": 119553}, "geometry": {"type": "LineString", "coordinates": [[2.4115752, 48.8749165], [2.4117461, 48.8749651]]}}, {"type": "Feature", "properties": {"highway": "footway", "footway": "sidewalk", "name": null, "surface": "asphalt", "lit": "yes", "length_m": 13.89, "type_element": "Way", "__fid": 119554}, "geometry": {"type": "LineString", "coordinates": [[2.4115752, 48.8749165], [2.4116526, 48.8748025]]}}, {"type": "Feature", "properties": {"highway": "footway", "footway": "crossing", "name": null, "surface": "asphalt", "lit": "yes", "length_m": 13.96, "type_element": "Way", "__fid": 119570}, "geometry": {"type": "LineString", "coordinates": [[2.4116526, 48.8748025], [2.4117807, 48.8748389], [2.4118092, 48.8748667]]}}, {"type": "Feature", "properties": {"highway": "footway", "footway": "sidewalk", "name": null, "surface": "asphalt", "lit": "yes", "length_m": 62.71, "type_element": "Way", "__fid": 119571}, "geometry": {"type": "LineString", "coordinates": [[2.4116526, 48.8748025], [2.4120017, 48.87428770000001]]}}, {"type": "Feature", "properties": {"highway": "footway", "footway": "traffic_island", "name": null, "surface": null, "lit": null, "length_m": 53.12, "type_element": "Way", "__fid": 119572}, "geometry": {"type": "LineString", "coordinates": [[2.412136400000191, 48.872175], [2.4116871, 48.8718004]]}}, {"type": "Feature", "properties": {"highway": "footway", "footway": "crossing", "name": null, "surface": null, "lit": null, "length_m": 12.25, "type_element": "Way", "__fid": 119573}, "geometry": {"type": "LineString", "coordinates": [[2.4116871, 48.8718004], [2.4117398, 48.8717852], [2.4118274, 48.8717419]]}}, {"type": "Feature", "properties": {"highway": "footway", "footway": "crossing", "name": null, "surface": "asphalt", "lit": "yes", "length_m": 19.66, "type_element": "Way", "__fid": 119581}, "geometry": {"type": "LineString", "coordinates": [[2.4116678, 48.87678970000001], [2.4117263, 48.8769622]]}}, {"type": "Feature", "properties": {"highway": "footway", "footway": "sidewalk", "name": null, "surface": "asphalt", "lit": "yes", "length_m": 38.59, "type_element": "Way", "__fid": 119582}, "geometry": {"type": "LineString", "coordinates": [[2.4120457, 48.8765814], [2.4119255, 48.87672710000001], [2.4116678, 48.87678970000001]]}}, {"type": "Feature", "properties": {"highway": "footway", "footway": null, "name": null, "surface": "compacted", "lit": null, "length_m": 47.46, "type_element": "Way", "__fid": 119587}, "geometry": {"type": "LineString", "coordinates": [[2.4117269, 48.8723155], [2.4121443, 48.8726416]]}}, {"type": "Feature", "properties": {"highway": "footway", "footway": null, "name": null, "surface": "compacted", "lit": null, "length_m": 9.26, "type_element": "Way", "__fid": 119588}, "geometry": {"type": "LineString", "coordinates": [[2.4117269, 48.8723155], [2.4118233, 48.87226170000001]]}}, {"type": "Feature", "properties": {"highway": "footway", "footway": null, "name": null, "surface": null, "lit": null, "length_m": 11.63, "type_element": "Way", "__fid": 119590}, "geometry": {"type": "LineString", "coordinates": [[2.4118233, 48.87226170000001], [2.4117294, 48.8721774]]}}, {"type": "Feature", "properties": {"highway": "footway", "footway": "sidewalk", "name": null, "surface": "asphalt", "lit": "yes", "length_m": 2.39, "type_element": "Way", "__fid": 119599}, "geometry": {"type": "LineString", "coordinates": [[2.4117588, 48.8749453], [2.4117461, 48.8749651]]}}, {"type": "Feature", "properties": {"highway": "footway", "footway": "sidewalk", "name": null, "surface": null, "lit": "yes", "length_m": 66.52, "type_element": "Way", "__fid": 119602}, "geometry": {"type": "LineString", "coordinates": [[2.4117588, 48.8749453], [2.4125866, 48.8751896]]}}, {"type": "Feature", "properties": {"highway": "footway", "footway": "crossing", "name": null, "surface": "asphalt", "lit": "yes", "length_m": 9.49, "type_element": "Way", "__fid": 119603}, "geometry": {"type": "LineString", "coordinates": [[2.4118092, 48.8748667], [2.4117588, 48.8749453]]}}, {"type": "Feature", "properties": {"highway": "footway", "footway": "sidewalk", "name": null, "surface": null, "lit": "yes", "length_m": 32.52, "type_element": "Way", "__fid": 119614}, "geometry": {"type": "LineString", "coordinates": [[2.4118022, 48.8738662], [2.4122133, 48.87397569999999]]}}, {"type": "Feature", "properties": {"highway": "footway", "footway": "traffic_island", "name": null, "surface": "asphalt", "lit": "yes", "length_m": 17.13, "type_element": "Way", "__fid": 119615}, "geometry": {"type": "LineString", "coordinates": [[2.4118022, 48.8738662], [2.411892, 48.873724]]}}, {"type": "Feature", "properties": {"highway": "footway", "footway": "sidewalk", "name": null, "surface": "asphalt", "lit": "yes", "length_m": 52.06, "type_element": "Way", "__fid": 119616}, "geometry": {"type": "LineString", "coordinates": [[2.4118274, 48.8717419], [2.4122732, 48.8721062]]}}, {"type": "Feature", "properties": {"highway": "footway", "footway": null, "name": null, "surface": "concrete", "lit": null, "length_m": 13.02, "type_element": "Way", "__fid": 119617}, "geometry": {"type": "LineString", "coordinates": [[2.4118233, 48.87226170000001], [2.4119593, 48.8721864]]}}, {"type": "Feature", "properties": {"highway": "footway", "footway": "sidewalk", "name": null, "surface": "asphalt", "lit": "yes", "length_m": 64.01, "type_element": "Way", "__fid": 119624}, "geometry": {"type": "LineString", "coordinates": [[2.4126021, 48.8751071], [2.4118092, 48.8748667]]}}, {"type": "Feature", "properties": {"highway": "footway", "footway": "sidewalk", "name": null, "surface": "asphalt", "lit": "yes", "length_m": 64.55, "type_element": "Way", "__fid": 119625}, "geometry": {"type": "LineString", "coordinates": [[2.4121663, 48.87433609999999], [2.4118092, 48.8748667]]}}, {"type": "Feature", "properties": {"highway": "footway", "footway": null, "name": null, "surface": "paving_stones", "lit": null, "length_m": 46.74, "type_element": "Way", "__fid": 119641}, "geometry": {"type": "LineString", "coordinates": [[2.4118708, 48.8729664], [2.4122564, 48.873301]]}}, {"type": "Feature", "properties": {"highway": "footway", "footway": null, "name": null, "surface": "compacted", "lit": null, "length_m": 41.31, "type_element": "Way", "__fid": 119642}, "geometry": {"type": "LineString", "coordinates": [[2.4118708, 48.8729664], [2.4121443, 48.8726416]]}}, {"type": "Feature", "properties": {"highway": "footway", "footway": "sidewalk", "name": null, "surface": "asphalt", "lit": "yes", "length_m": 80.45, "type_element": "Way", "__fid": 119656}, "geometry": {"type": "LineString", "coordinates": [[2.4129115, 48.873990800000016], [2.411892, 48.873724]]}}, {"type": "Feature", "properties": {"highway": "footway", "footway": null, "name": null, "surface": "concrete:plates", "lit": null, "length_m": 54.1, "type_element": "Way", "__fid": 119657}, "geometry": {"type": "LineString", "coordinates": [[2.4122564, 48.873301], [2.411892, 48.873724]]}}, {"type": "Feature", "properties": {"highway": "footway", "footway": "sidewalk", "name": null, "surface": null, "lit": "yes", "length_m": 139.33, "type_element": "Way", "__fid": 119678}, "geometry": {"type": "LineString", "coordinates": [[2.4119593, 48.8721864], [2.4122561, 48.872347200000014], [2.4127538, 48.87272580000001], [2.4132358, 48.8731098]]}}, {"type": "Feature", "properties": {"highway": "footway", "footway": "link", "name": null, "surface": null, "lit": null, "length_m": 16.56, "type_element": "Way", "__fid": 119679}, "geometry": {"type": "LineString", "coordinates": [[2.4119593, 48.8721864], [2.4119697, 48.872181300000015], [2.4120412, 48.8722217], [2.412136400000191, 48.872175]]}}, {"type": "Feature", "properties": {"highway": "footway", "footway": null, "name": null, "surface": "compacted", "lit": null, "length_m": 36.9, "type_element": "Way", "__fid": 119687}, "geometry": {"type": "LineString", "coordinates": [[2.4124419, 48.8714286], [2.4122804, 48.8714296], [2.4119955, 48.87130529999999]]}}, {"type": "Feature", "properties": {"highway": "footway", "footway": null, "name": null, "surface": "concrete:plates", "lit": null, "length_m": 32.76, "type_element": "Way", "__fid": 119688}, "geometry": {"type": "LineString", "coordinates": [[2.412305, 48.8711343], [2.4122742, 48.8712234], [2.4122018, 48.8712587], [2.4119955, 48.87130529999999]]}}, {"type": "Feature", "properties": {"highway": "footway", "footway": "sidewalk", "name": null, "surface": null, "lit": "yes", "length_m": 33.62, "type_element": "Way", "__fid": 119694}, "geometry": {"type": "LineString", "coordinates": [[2.4122011, 48.87678990000001], [2.4120941, 48.8768457], [2.4119424, 48.877033]]}}, {"type": "Feature", "properties": {"highway": "footway", "footway": "crossing", "name": null, "surface": null, "lit": null, "length_m": 13.22, "type_element": "Way", "__fid": 119705}, "geometry": {"type": "LineString", "coordinates": [[2.4121663, 48.87433609999999], [2.4120017, 48.87428770000001]]}}, {"type": "Feature", "properties": {"highway": "footway", "footway": "sidewalk", "name": null, "surface": "asphalt", "lit": "yes", "length_m": 38.01, "type_element": "Way", "__fid": 119706}, "geometry": {"type": "LineString", "coordinates": [[2.4120017, 48.87428770000001], [2.4122133, 48.87397569999999]]}}, {"type": "Feature", "properties": {"highway": "footway", "footway": "crossing", "name": null, "surface": "asphalt", "lit": "yes", "length_m": 16.57, "type_element": "Way", "__fid": 119717}, "geometry": {"type": "LineString", "coordinates": [[2.4120457, 48.8765814], [2.4122484, 48.8766471]]}}, {"type": "Feature", "properties": {"highway": "footway", "footway": "sidewalk", "name": null, "surface": "asphalt", "lit": "yes", "length_m": 63.34, "type_element": "Way", "__fid": 119718}, "geometry": {"type": "LineString", "coordinates": [[2.4123301, 48.8760514], [2.4122564, 48.8763258], [2.4120457, 48.8765814]]}}, {"type": "Feature", "properties": {"highway": "footway", "footway": "crossing", "name": null, "surface": "asphalt", "lit": null, "length_m": 12.62, "type_element": "Way", "__fid": 119729}, "geometry": {"type": "LineString", "coordinates": [[2.412136400000191, 48.872175], [2.4122732, 48.8721062]]}}, {"type": "Feature", "properties": {"highway": "footway", "footway": null, "name": null, "surface": "compacted", "lit": null, "length_m": 45.6, "type_element": "Way", "__fid": 119730}, "geometry": {"type": "LineString", "coordinates": [[2.4121443, 48.8726416], [2.4125447, 48.872955300000015]]}}, {"type": "Feature", "properties": {"highway": "footway", "footway": null, "name": null, "surface": "compacted", "lit": null, "length_m": 64.13, "type_element": "Way", "__fid": 119731}, "geometry": {"type": "LineString", "coordinates": [[2.4121443, 48.8726416], [2.4122785, 48.8724955], [2.4126795, 48.8728034]]}}, {"type": "Feature", "properties": {"highway": "footway", "footway": null, "name": null, "surface": "concrete:plates", "lit": null, "length_m": 36.78, "type_element": "Way", "__fid": 119735}, "geometry": {"type": "LineString", "coordinates": [[2.4121816, 48.87084850000002], [2.4122541, 48.87087320000001], [2.4123064, 48.870909400000016], [2.4123278, 48.87099229999998], [2.412305, 48.8711343]]}}, {"type": "Feature", "properties": {"highway": "footway", "footway": "sidewalk", "name": null, "surface": "asphalt", "lit": "yes", "length_m": 36.44, "type_element": "Way", "__fid": 119740}, "geometry": {"type": "LineString", "coordinates": [[2.4123678, 48.8740366], [2.4121663, 48.87433609999999]]}}, {"type": "Feature", "properties": {"highway": "footway", "footway": "crossing", "name": null, "surface": null, "lit": "yes", "length_m": 13.34, "type_element": "Way", "__fid": 119747}, "geometry": {"type": "LineString", "coordinates": [[2.4122133, 48.87397569999999], [2.4122826, 48.8740131], [2.4123678, 48.8740366]]}}, {"type": "Feature", "properties": {"highway": "footway", "footway": null, "name": null, "surface": "paving_stones", "lit": null, "length_m": 90.82, "type_element": "Way", "__fid": 119753}, "geometry": {"type": "LineString", "coordinates": [[2.4122564, 48.873301], [2.412981, 48.8738739], [2.4130406, 48.8739326]]}}, {"type": "Feature", "properties": {"highway": "footway", "footway": null, "name": null, "surface": "compacted", "lit": null, "length_m": 43.87, "type_element": "Way", "__fid": 119754}, "geometry": {"type": "LineString", "coordinates": [[2.4125447, 48.872955300000015], [2.4122564, 48.873301]]}}, {"type": "Feature", "properties": {"highway": "footway", "footway": "sidewalk", "name": null, "surface": "asphalt", "lit": null, "length_m": 13.74, "type_element": "Way", "__fid": 119755}, "geometry": {"type": "LineString", "coordinates": [[2.4122732, 48.8721062], [2.4123339, 48.8721554], [2.4124031, 48.8721946]]}}, {"type": "Feature", "properties": {"highway": "footway", "footway": null, "name": null, "surface": "concrete:plates", "lit": null, "length_m": 34.34, "type_element": "Way", "__fid": 119759}, "geometry": {"type": "LineString", "coordinates": [[2.4124419, 48.8714286], [2.4123868, 48.87126840000002], [2.412305, 48.8711343]]}}, {"type": "Feature", "properties": {"highway": "footway", "footway": "sidewalk", "name": null, "surface": "asphalt", "lit": "yes", "length_m": 5.44, "type_element": "Way", "__fid": 119760}, "geometry": {"type": "LineString", "coordinates": [[2.4122484, 48.8766471], [2.4122608, 48.8766953]]}}, {"type": "Feature", "properties": {"highway": "footway", "footway": "sidewalk", "name": null, "surface": "asphalt", "lit": "yes", "length_m": 81.01, "type_element": "Way", "__fid": 119761}, "geometry": {"type": "LineString", "coordinates": [[2.412596, 48.8759652], [2.4124686, 48.8763915], [2.4122484, 48.8766471]]}}, {"type": "Feature", "properties": {"highway": "footway", "footway": "crossing", "name": null, "surface": "asphalt", "lit": "yes", "length_m": 9.9, "type_element": "Way", "__fid": 119771}, "geometry": {"type": "LineString", "coordinates": [[2.412353, 48.8759637], [2.4123301, 48.8760514]]}}, {"type": "Feature", "properties": {"highway": "footway", "footway": "sidewalk", "name": null, "surface": null, "lit": "yes", "length_m": 34.76, "type_element": "Way", "__fid": 119773}, "geometry": {"type": "LineString", "coordinates": [[2.4123678, 48.8740366], [2.4124029, 48.87403329999998], [2.4128078, 48.87414420000001]]}}, {"type": "Feature", "properties": {"highway": "footway", "footway": "sidewalk", "name": null, "surface": "asphalt", "lit": "yes", "length_m": 3.6, "type_element": "Way", "__fid": 119774}, "geometry": {"type": "LineString", "coordinates": [[2.4123628, 48.875932], [2.412353, 48.8759637]]}}, {"type": "Feature", "properties": {"highway": "footway", "footway": "sidewalk", "name": null, "surface": "asphalt", "lit": "yes", "length_m": 103.75, "type_element": "Way", "__fid": 119776}, "geometry": {"type": "LineString", "coordinates": [[2.4124031, 48.8721946], [2.4133062, 48.8729127]]}}, {"type": "Feature", "properties": {"highway": "footway", "footway": null, "name": null, "surface": "compacted", "lit": null, "length_m": 7.87, "type_element": "Way", "__fid": 119777}, "geometry": {"type": "LineString", "coordinates": [[2.4124031, 48.8721946], [2.4124539, 48.8721323]]}}, {"type": "Feature", "properties": {"highway": "footway", "footway": "crossing", "name": null, "surface": "asphalt", "lit": "yes", "length_m": 17.5, "type_element": "Way", "__fid": 119780}, "geometry": {"type": "LineString", "coordinates": [[2.4123628, 48.875932], [2.412596, 48.8759652]]}}, {"type": "Feature", "properties": {"highway": "footway", "footway": "sidewalk", "name": null, "surface": "asphalt", "lit": "yes", "length_m": 80.07, "type_element": "Way", "__fid": 119781}, "geometry": {"type": "LineString", "coordinates": [[2.41258, 48.8752263], [2.4123628, 48.875932]]}}, {"type": "Feature", "properties": {"highway": "footway", "footway": null, "name": null, "surface": "paving_stones", "lit": null, "length_m": 45.11, "type_element": "Way", "__fid": 119786}, "geometry": {"type": "LineString", "coordinates": [[2.4126081, 48.8718085], [2.4125987, 48.8716813], [2.4125558, 48.871541], [2.4124419, 48.8714286]]}}, {"type": "Feature", "properties": {"highway": "footway", "footway": null, "name": null, "surface": "compacted", "lit": null, "length_m": 8.34, "type_element": "Way", "__fid": 119787}, "geometry": {"type": "LineString", "coordinates": [[2.4125451, 48.8713972], [2.4124419, 48.8714286]]}}, {"type": "Feature", "properties": {"highway": "footway", "footway": null, "name": null, "surface": "compacted", "lit": null, "length_m": 37.74, "type_element": "Way", "__fid": 119792}, "geometry": {"type": "LineString", "coordinates": [[2.4124539, 48.8721323], [2.4126081, 48.8718085]]}}, {"type": "Feature", "properties": {"highway": "footway", "footway": null, "name": null, "surface": "compacted", "lit": null, "length_m": 8.96, "type_element": "Way", "__fid": 119793}, "geometry": {"type": "LineString", "coordinates": [[2.4125745, 48.8721195], [2.4124539, 48.8721323]]}}, {"type": "Feature", "properties": {"highway": "footway", "footway": null, "name": null, "surface": "compacted", "lit": null, "length_m": 19.57, "type_element": "Way", "__fid": 119811}, "geometry": {"type": "LineString", "coordinates": [[2.4126795, 48.8728034], [2.4125447, 48.872955300000015]]}}, {"type": "Feature", "properties": {"highway": "footway", "footway": null, "name": null, "surface": "paving_stones", "lit": null, "length_m": 31.12, "type_element": "Way", "__fid": 119814}, "geometry": {"type": "LineString", "coordinates": [[2.4125745, 48.8721195], [2.4126484, 48.8720654], [2.4127396, 48.8720238], [2.4128133, 48.8720018], [2.4129345, 48.8719923]]}}, {"type": "Feature", "properties": {"highway": "footway", "footway": null, "name": null, "surface": "compacted", "lit": null, "length_m": 28.34, "type_element": "Way", "__fid": 119815}, "geometry": {"type": "LineString", "coordinates": [[2.4129014, 48.8722084], [2.4127953, 48.872134], [2.4127358, 48.8721127], [2.4126484, 48.872107600000014], [2.4125745, 48.8721195]]}}, {"type": "Feature", "properties": {"highway": "footway", "footway": null, "name": null, "surface": "paving_stones", "lit": null, "length_m": 32.1, "type_element": "Way", "__fid": 119832}, "geometry": {"type": "LineString", "coordinates": [[2.4126081, 48.8718085], [2.4127181, 48.8718496], [2.4128524, 48.8719623], [2.4129345, 48.8719923]]}}, {"type": "Feature", "properties": {"highway": "footway", "footway": "crossing", "name": null, "surface": null, "lit": "yes", "length_m": 16.92, "type_element": "Way", "__fid": 119833}, "geometry": {"type": "LineString", "coordinates": [[2.41258, 48.8752263], [2.4128048, 48.8752606]]}}, {"type": "Feature", "properties": {"highway": "footway", "footway": "sidewalk", "name": null, "surface": "asphalt", "lit": "yes", "length_m": 4.11, "type_element": "Way", "__fid": 119834}, "geometry": {"type": "LineString", "coordinates": [[2.4125866, 48.8751896], [2.41258, 48.8752263]]}}, {"type": "Feature", "properties": {"highway": "footway", "footway": "crossing", "name": null, "surface": "asphalt", "lit": "yes", "length_m": 9.24, "type_element": "Way", "__fid": 119835}, "geometry": {"type": "LineString", "coordinates": [[2.4126021, 48.8751071], [2.4125866, 48.8751896]]}}, {"type": "Feature", "properties": {"highway": "footway", "footway": "sidewalk", "name": null, "surface": "asphalt", "lit": "yes", "length_m": 11.31, "type_element": "Way", "__fid": 119839}, "geometry": {"type": "LineString", "coordinates": [[2.4126418, 48.8750102], [2.4126155, 48.8750958], [2.4126021, 48.8751071]]}}, {"type": "Feature", "properties": {"highway": "footway", "footway": "sidewalk", "name": null, "surface": "asphalt", "lit": "yes", "length_m": 72.33, "type_element": "Way", "__fid": 119840}, "geometry": {"type": "LineString", "coordinates": [[2.4127852, 48.8753268], [2.412596, 48.8759652]]}}, {"type": "Feature", "properties": {"highway": "footway", "footway": "crossing", "name": null, "surface": "asphalt", "lit": "yes", "length_m": 17.46, "type_element": "Way", "__fid": 119848}, "geometry": {"type": "LineString", "coordinates": [[2.4126418, 48.8750102], [2.4128736, 48.8750459]]}}, {"type": "Feature", "properties": {"highway": "footway", "footway": "sidewalk", "name": null, "surface": "asphalt", "lit": "yes", "length_m": 95.36, "type_element": "Way", "__fid": 119849}, "geometry": {"type": "LineString", "coordinates": [[2.4128914, 48.8741686], [2.4126418, 48.8750102]]}}, {"type": "Feature", "properties": {"highway": "steps", "footway": null, "name": null, "surface": "concrete", "lit": null, "length_m": 6.97, "type_element": "Way", "__fid": 119852}, "geometry": {"type": "LineString", "coordinates": [[2.4126795, 48.8728034], [2.4127306, 48.87275059999999]]}}, {"type": "Feature", "properties": {"highway": "footway", "footway": "sidewalk", "name": null, "surface": null, "lit": null, "length_m": 14.27, "type_element": "Way", "__fid": 119853}, "geometry": {"type": "LineString", "coordinates": [[2.4127852, 48.8753268], [2.4126883, 48.875313800000015], [2.4126692, 48.8753756]]}}, {"type": "Feature", "properties": {"highway": "footway", "footway": "sidewalk", "name": null, "surface": "asphalt", "lit": "yes", "length_m": 7.5, "type_element": "Way", "__fid": 119872}, "geometry": {"type": "LineString", "coordinates": [[2.4128048, 48.8752606], [2.4127852, 48.8753268]]}}, {"type": "Feature", "properties": {"highway": "footway", "footway": "sidewalk", "name": null, "surface": null, "lit": "yes", "length_m": 6.71, "type_element": "Way", "__fid": 119877}, "geometry": {"type": "LineString", "coordinates": [[2.4128078, 48.87414420000001], [2.4128914, 48.8741686]]}}, {"type": "Feature", "properties": {"highway": "footway", "footway": "crossing", "name": null, "surface": null, "lit": "yes", "length_m": 18.68, "type_element": "Way", "__fid": 119878}, "geometry": {"type": "LineString", "coordinates": [[2.4128078, 48.87414420000001], [2.4129115, 48.873990800000016]]}}, {"type": "Feature", "properties": {"highway": "footway", "footway": "sidewalk", "name": null, "surface": "asphalt", "lit": "yes", "length_m": 24.4, "type_element": "Way", "__fid": 119879}, "geometry": {"type": "LineString", "coordinates": [[2.4128736, 48.8750459], [2.4128048, 48.8752606]]}}, {"type": "Feature", "properties": {"highway": "footway", "footway": null, "name": null, "surface": "concrete:plates", "lit": null, "length_m": 35.14, "type_element": "Way", "__fid": 119887}, "geometry": {"type": "LineString", "coordinates": [[2.4128604, 48.8725232], [2.4130034, 48.8722881], [2.4129279, 48.87225]]}}, {"type": "Feature", "properties": {"highway": "footway", "footway": null, "name": null, "surface": "concrete:plates", "lit": null, "length_m": 5.02, "type_element": "Way", "__fid": 119893}, "geometry": {"type": "LineString", "coordinates": [[2.4129279, 48.87225], [2.4129014, 48.8722084]]}}, {"type": "Feature", "properties": {"highway": "footway", "footway": null, "name": null, "surface": "paving_stones", "lit": null, "length_m": 24.99, "type_element": "Way", "__fid": 119894}, "geometry": {"type": "LineString", "coordinates": [[2.4130325, 48.8720028], [2.4129796, 48.8720861], [2.4129474, 48.8721126], [2.4129014, 48.8722084]]}}, {"type": "Feature", "properties": {"highway": "footway", "footway": "sidewalk", "name": null, "surface": "asphalt", "lit": "yes", "length_m": 97.94, "type_element": "Way", "__fid": 119896}, "geometry": {"type": "LineString", "coordinates": [[2.4131273, 48.87418120000001], [2.4128736, 48.8750459]]}}, {"type": "Feature", "properties": {"highway": "footway", "footway": "crossing", "name": null, "surface": null, "lit": "yes", "length_m": 17.36, "type_element": "Way", "__fid": 119898}, "geometry": {"type": "LineString", "coordinates": [[2.4128914, 48.8741686], [2.4131273, 48.87418120000001]]}}, {"type": "Feature", "properties": {"highway": "footway", "footway": null, "name": null, "surface": "compacted", "lit": null, "length_m": 38.83, "type_element": "Way", "__fid": 119899}, "geometry": {"type": "LineString", "coordinates": [[2.4129279, 48.87225], [2.4132764, 48.8719872]]}}, {"type": "Feature", "properties": {"highway": "footway", "footway": "sidewalk", "name": null, "surface": "asphalt", "lit": "yes", "length_m": 6.37, "type_element": "Way", "__fid": 119902}, "geometry": {"type": "LineString", "coordinates": [[2.412998, 48.8739857], [2.4129115, 48.873990800000016]]}}, {"type": "Feature", "properties": {"highway": "footway", "footway": null, "name": null, "surface": "paving_stones", "lit": null, "length_m": 7.28, "type_element": "Way", "__fid": 119903}, "geometry": {"type": "LineString", "coordinates": [[2.4129345, 48.8719923], [2.4130325, 48.8720028]]}}, {"type": "Feature", "properties": {"highway": "footway", "footway": "crossing", "name": null, "surface": null, "lit": "yes", "length_m": 13.55, "type_element": "Way", "__fid": 119919}, "geometry": {"type": "LineString", "coordinates": [[2.4131662666665, 48.87403600000013], [2.412998, 48.8739857]]}}, {"type": "Feature", "properties": {"highway": "footway", "footway": "sidewalk", "name": null, "surface": "asphalt", "lit": "yes", "length_m": 6.84, "type_element": "Way", "__fid": 119920}, "geometry": {"type": "LineString", "coordinates": [[2.4130406, 48.8739326], [2.4130339, 48.8739544], [2.412998, 48.8739857]]}}, {"type": "Feature", "properties": {"highway": "footway", "footway": null, "name": null, "surface": "paving_stones", "lit": null, "length_m": 18.16, "type_element": "Way", "__fid": 119923}, "geometry": {"type": "LineString", "coordinates": [[2.4130325, 48.8720028], [2.4131472, 48.8719838], [2.4132764, 48.8719872]]}}, {"type": "Feature", "properties": {"highway": "footway", "footway": "sidewalk", "name": null, "surface": "asphalt", "lit": "yes", "length_m": 90.27, "type_element": "Way", "__fid": 119926}, "geometry": {"type": "LineString", "coordinates": [[2.4132763, 48.8731358], [2.4130406, 48.8739326]]}}, {"type": "Feature", "properties": {"highway": "footway", "footway": "sidewalk", "name": null, "surface": "asphalt", "lit": "yes", "length_m": 112.44, "type_element": "Way", "__fid": 119941}, "geometry": {"type": "LineString", "coordinates": [[2.413423, 48.8731932], [2.4131742, 48.8740382], [2.4131856, 48.874054399999984], [2.4131273, 48.87418120000001]]}}, {"type": "Feature", "properties": {"highway": "footway", "footway": "sidewalk", "name": null, "surface": null, "lit": "yes", "length_m": 4.15, "type_element": "Way", "__fid": 119953}, "geometry": {"type": "LineString", "coordinates": [[2.4132358, 48.8731098], [2.4132763, 48.8731358]]}}, {"type": "Feature", "properties": {"highway": "footway", "footway": "crossing", "name": null, "surface": "asphalt", "lit": "yes", "length_m": 22.52, "type_element": "Way", "__fid": 119954}, "geometry": {"type": "LineString", "coordinates": [[2.4133062, 48.8729127], [2.4132358, 48.8731098]]}}, {"type": "Feature", "properties": {"highway": "footway", "footway": null, "name": null, "surface": "compacted", "lit": null, "length_m": 32.41, "type_element": "Way", "__fid": 119961}, "geometry": {"type": "LineString", "coordinates": [[2.4132764, 48.8719872], [2.4135624, 48.8717809], [2.4135804, 48.871781800000015]]}}, {"type": "Feature", "properties": {"highway": "footway", "footway": "crossing", "name": null, "surface": "asphalt", "lit": "yes", "length_m": 12.9, "type_element": "Way", "__fid": 119967}, "geometry": {"type": "LineString", "coordinates": [[2.4132763, 48.8731358], [2.4133115, 48.8731367], [2.413423, 48.8731932]]}}, {"type": "Feature", "properties": {"highway": "footway", "footway": "crossing", "name": null, "surface": "asphalt", "lit": "yes", "length_m": 16.48, "type_element": "Way", "__fid": 119968}, "geometry": {"type": "LineString", "coordinates": [[2.4133062, 48.8729127], [2.4134621, 48.8730194]]}}, {"type": "Feature", "properties": {"highway": "footway", "footway": "sidewalk", "name": null, "surface": "asphalt", "lit": "yes", "length_m": 127.56, "type_element": "Way", "__fid": 119969}, "geometry": {"type": "LineString", "coordinates": [[2.4135804, 48.871781800000015], [2.4135355, 48.8721624], [2.4133062, 48.8729127]]}}, {"type": "Feature", "properties": {"highway": "footway", "footway": "sidewalk", "name": null, "surface": null, "lit": "yes", "length_m": 2.61, "type_element": "Way", "__fid": 119985}, "geometry": {"type": "LineString", "coordinates": [[2.413423, 48.8731932], [2.4134554, 48.87318350000001]]}}, {"type": "Feature", "properties": {"highway": "footway", "footway": "sidewalk", "name": null, "surface": "asphalt", "lit": "yes", "length_m": 11.97, "type_element": "Way", "__fid": 119988}, "geometry": {"type": "LineString", "coordinates": [[2.4134748, 48.8731193], [2.4134812, 48.8730975], [2.4134493, 48.8730675], [2.4134621, 48.8730194]]}}, {"type": "Feature", "properties": {"highway": "footway", "footway": "sidewalk", "name": null, "surface": "asphalt", "lit": "yes", "length_m": 45.5, "type_element": "Way", "__fid": 119989}, "geometry": {"type": "LineString", "coordinates": [[2.4134621, 48.8730194], [2.4135791, 48.8726176]]}}, {"type": "Feature", "properties": {"highway": "footway", "footway": "sidewalk", "name": null, "surface": null, "lit": null, "length_m": 458.65, "type_element": "Way", "__fid": 120001}, "geometry": {"type": "LineString", "coordinates": [[2.4135804, 48.871781800000015], [2.4136622, 48.8709359], [2.4136776, 48.8709068], [2.413734, 48.87086749999999], [2.4137451, 48.870826], [2.413938, 48.8689688], [2.4139437, 48.8688865], [2.4139196, 48.8681108], [2.413976, 48.8676822]]}}]}