{"type": "FeatureCollection", "features": [{"type": "Feature", "properties": {"@id": "node/1991752294", "amenity": "drinking_water", "check_date": "2026-06-05", "man_made": "water_tap", "source": "Eau de Paris", "type_element": "Fontaines à boire", "__fid": 332}, "geometry": {"type": "Point", "coordinates": [2.4240851, 48.8420092]}, "id": "node/1991752294"}, {"type": "Feature", "properties": {"@id": "node/11088842792", "access": "yes", "amenity": "drinking_water", "fee": "no", "man_made": "water_tap", "type_element": "Fontaines à boire", "__fid": 875}, "geometry": {"type": "Point", "coordinates": [2.4200327, 48.8432457]}, "id": "node/11088842792"}, {"type": "Feature", "properties": {"highway": "footway", "footway": "sidewalk", "name": null, "surface": null, "lit": "yes", "length_m": 169.0, "type_element": "Way", "__fid": 120166}, "geometry": {"type": "LineString", "coordinates": [[2.4147539, 48.8432517], [2.4157248, 48.8433373], [2.4167394, 48.8434657], [2.4170224, 48.8435076]]}}, {"type": "Feature", "properties": {"highway": "footway", "footway": "sidewalk", "name": null, "surface": null, "lit": "yes", "length_m": 214.1, "type_element": "Way", "__fid": 120169}, "geometry": {"type": "LineString", "coordinates": [[2.4175809, 48.84350650000001], [2.4175823, 48.8434622], [2.416044, 48.8432856], [2.4147666, 48.8431735]]}}, {"type": "Feature", "properties": {"highway": "footway", "footway": "sidewalk", "name": null, "surface": null, "lit": "yes", "length_m": 169.64, "type_element": "Way", "__fid": 120174}, "geometry": {"type": "LineString", "coordinates": [[2.4170224, 48.8435076], [2.4170136, 48.8435328], [2.4169406, 48.8435667], [2.4147739, 48.8437425]]}}, {"type": "Feature", "properties": {"highway": "footway", "footway": "sidewalk", "name": null, "surface": null, "lit": "yes", "length_m": 377.44, "type_element": "Way", "__fid": 120190}, "geometry": {"type": "LineString", "coordinates": [[2.4148526, 48.84399910000003], [2.4174964, 48.8437671], [2.4175223, 48.8438701], [2.4174649, 48.8453796], [2.4174539, 48.84539789999999]]}}, {"type": "Feature", "properties": {"highway": "footway", "footway": "sidewalk", "name": null, "surface": "asphalt", "lit": "yes", "length_m": 133.93, "type_element": "Way", "__fid": 120307}, "geometry": {"type": "LineString", "coordinates": [[2.4156473, 48.845231599999984], [2.4157227, 48.8452458], [2.4174539, 48.84539789999999]]}}, {"type": "Feature", "properties": {"highway": "footway", "footway": "sidewalk", "name": null, "surface": "asphalt", "lit": null, "length_m": 95.99, "type_element": "Way", "__fid": 120314}, "geometry": {"type": "LineString", "coordinates": [[2.4169867, 48.8454382], [2.4157462, 48.845335], [2.41571, 48.845337], [2.4156971, 48.8453482]]}}, {"type": "Feature", "properties": {"highway": "footway", "footway": "sidewalk", "name": null, "surface": null, "lit": "yes", "length_m": 123.03, "type_element": "Way", "__fid": 120321}, "geometry": {"type": "LineString", "coordinates": [[2.415818, 48.8459256], [2.4158594, 48.8459357], [2.4174776, 48.845794699999985]]}}, {"type": "Feature", "properties": {"highway": "footway", "footway": "sidewalk", "name": null, "surface": null, "lit": "yes", "length_m": 122.52, "type_element": "Way", "__fid": 120327}, "geometry": {"type": "LineString", "coordinates": [[2.4158401, 48.8460312], [2.4158704, 48.8460168], [2.4169932, 48.8459152], [2.4174703, 48.845879400000015], [2.417486, 48.845886]]}}, {"type": "Feature", "properties": {"highway": "pedestrian", "footway": null, "name": null, "surface": null, "lit": "yes", "length_m": 122.84, "type_element": "Way", "__fid": 120336}, "geometry": {"type": "LineString", "coordinates": [[2.4158888, 48.8462704], [2.4175488, 48.8461285]]}}, {"type": "Feature", "properties": {"highway": "service", "footway": null, "name": "Avenue Gallieni", "surface": "sett", "lit": "yes", "length_m": 104.91, "type_element": "Way", "__fid": 120342}, "geometry": {"type": "LineString", "coordinates": [[2.4159216, 48.8464215], [2.4173377, 48.8462923]]}}, {"type": "Feature", "properties": {"highway": "footway", "footway": "sidewalk", "name": null, "surface": null, "lit": "yes", "length_m": 242.46, "type_element": "Way", "__fid": 120366}, "geometry": {"type": "LineString", "coordinates": [[2.4161081, 48.84728719999998], [2.4164433, 48.8472588], [2.4164705, 48.8472639], [2.4164802, 48.8472788], [2.4166388, 48.8491824], [2.4166204, 48.849193]]}}, {"type": "Feature", "properties": {"highway": "footway", "footway": "sidewalk", "name": null, "surface": null, "lit": "yes", "length_m": 24.02, "type_element": "Way", "__fid": 120431}, "geometry": {"type": "LineString", "coordinates": [[2.4170224, 48.8435076], [2.4172413, 48.8435568], [2.4172733, 48.8435733], [2.41728, 48.8435961], [2.4173003, 48.8435961]]}}, {"type": "Feature", "properties": {"highway": "footway", "footway": "sidewalk", "name": null, "surface": null, "lit": "yes", "length_m": 2.33, "type_element": "Way", "__fid": 120455}, "geometry": {"type": "LineString", "coordinates": [[2.4174539, 48.84539789999999], [2.4174683, 48.8454166]]}}, {"type": "Feature", "properties": {"highway": "footway", "footway": null, "name": null, "surface": "asphalt", "lit": "no", "length_m": 22.16, "type_element": "Way", "__fid": 120578}, "geometry": {"type": "LineString", "coordinates": [[2.4193963, 48.8426043], [2.4194325, 48.842551500000035], [2.4195532, 48.8424348]]}}, {"type": "Feature", "properties": {"highway": "footway", "footway": null, "name": null, "surface": "compacted", "lit": "no", "length_m": 18.31, "type_element": "Way", "__fid": 120584}, "geometry": {"type": "LineString", "coordinates": [[2.419467, 48.8427017], [2.419617, 48.842671], [2.4197084, 48.8426622]]}}, {"type": "Feature", "properties": {"highway": "footway", "footway": null, "name": null, "surface": "asphalt", "lit": "no", "length_m": 59.58, "type_element": "Way", "__fid": 120597}, "geometry": {"type": "LineString", "coordinates": [[2.4195532, 48.8424348], [2.4197405, 48.8422536], [2.4199957, 48.8419857]]}}, {"type": "Feature", "properties": {"highway": "footway", "footway": null, "name": null, "surface": "asphalt", "lit": "no", "length_m": 48.66, "type_element": "Way", "__fid": 120598}, "geometry": {"type": "LineString", "coordinates": [[2.4195532, 48.8424348], [2.4197278, 48.842358], [2.4198816, 48.8423136], [2.4199633, 48.8423004], [2.4201633, 48.8422862]]}}, {"type": "Feature", "properties": {"highway": "steps", "footway": null, "name": null, "surface": null, "lit": "no", "length_m": 14.19, "type_element": "Way", "__fid": 120602}, "geometry": {"type": "LineString", "coordinates": [[2.4198018, 48.841471], [2.4197636, 48.8414723], [2.4196127, 48.8414485]]}}, {"type": "Feature", "properties": {"highway": "footway", "footway": null, "name": null, "surface": null, "lit": null, "length_m": 31.07, "type_element": "Way", "__fid": 120611}, "geometry": {"type": "LineString", "coordinates": [[2.4200828, 48.84279260000001], [2.4197084, 48.8426622]]}}, {"type": "Feature", "properties": {"highway": "footway", "footway": null, "name": null, "surface": "compacted", "lit": "no", "length_m": 47.99, "type_element": "Way", "__fid": 120612}, "geometry": {"type": "LineString", "coordinates": [[2.4197084, 48.8426622], [2.4203596, 48.842623]]}}, {"type": "Feature", "properties": {"highway": "path", "footway": null, "name": null, "surface": "compacted", "lit": "no", "length_m": 48.92, "type_element": "Way", "__fid": 120620}, "geometry": {"type": "LineString", "coordinates": [[2.4198018, 48.841471], [2.4198105, 48.841508], [2.4198863, 48.8416029], [2.4200056, 48.8418064], [2.4200685, 48.841871300000015]]}}, {"type": "Feature", "properties": {"highway": "path", "footway": null, "name": null, "surface": "compacted", "lit": "no", "length_m": 46.35, "type_element": "Way", "__fid": 120621}, "geometry": {"type": "LineString", "coordinates": [[2.420416, 48.8414238], [2.4203195, 48.8414052], [2.4199309, 48.841442700000016], [2.4198414, 48.8414542], [2.4198018, 48.841471]]}}, {"type": "Feature", "properties": {"highway": "pedestrian", "footway": null, "name": "Avenue Anna Politkovskaïa", "surface": "asphalt", "lit": "yes", "length_m": 18.95, "type_element": "Way", "__fid": 120632}, "geometry": {"type": "LineString", "coordinates": [[2.4198954, 48.8434587], [2.4201506, 48.8434328]]}}, {"type": "Feature", "properties": {"highway": "footway", "footway": null, "name": "Avenue Anna Politkovskaïa", "surface": "compacted", "lit": "yes", "length_m": 2.04, "type_element": "Way", "__fid": 120634}, "geometry": {"type": "LineString", "coordinates": [[2.4199051, 48.8433835], [2.4199328, 48.8433844]]}}, {"type": "Feature", "properties": {"highway": "footway", "footway": null, "name": "Avenue Anna Politkovskaïa", "surface": "compacted", "lit": "yes", "length_m": 15.07, "type_element": "Way", "__fid": 120636}, "geometry": {"type": "LineString", "coordinates": [[2.4199328, 48.8433844], [2.4200477, 48.8433889], [2.4201376, 48.8433835]]}}, {"type": "Feature", "properties": {"highway": "path", "footway": null, "name": null, "surface": null, "lit": null, "length_m": 37.99, "type_element": "Way", "__fid": 120637}, "geometry": {"type": "LineString", "coordinates": [[2.4199328, 48.8433844], [2.4199352, 48.8433667], [2.4201737, 48.8431547], [2.4202449, 48.8431177]]}}, {"type": "Feature", "properties": {"highway": "track", "footway": null, "name": null, "surface": "compacted", "lit": "no", "length_m": 36.89, "type_element": "Way", "__fid": 120644}, "geometry": {"type": "LineString", "coordinates": [[2.4199957, 48.8419857], [2.4199876, 48.8420821], [2.4200772, 48.8422006], [2.4201633, 48.8422862]]}}, {"type": "Feature", "properties": {"highway": "track", "footway": null, "name": null, "surface": "compacted", "lit": "no", "length_m": 13.8, "type_element": "Way", "__fid": 120645}, "geometry": {"type": "LineString", "coordinates": [[2.4200685, 48.841871300000015], [2.4199957, 48.8419857]]}}, {"type": "Feature", "properties": {"highway": "path", "footway": null, "name": null, "surface": null, "lit": "yes", "length_m": 3.58, "type_element": "Way", "__fid": 120650}, "geometry": {"type": "LineString", "coordinates": [[2.4200819, 48.843515], [2.4200338, 48.8435203]]}}, {"type": "Feature", "properties": {"highway": "track", "footway": null, "name": null, "surface": "compacted", "lit": "no", "length_m": 56.34, "type_element": "Way", "__fid": 120653}, "geometry": {"type": "LineString", "coordinates": [[2.420416, 48.8414238], [2.4202913, 48.8416047], [2.420194, 48.8417682], [2.4200685, 48.841871300000015]]}}, {"type": "Feature", "properties": {"highway": "footway", "footway": null, "name": null, "surface": null, "lit": null, "length_m": 3.99, "type_element": "Way", "__fid": 120654}, "geometry": {"type": "LineString", "coordinates": [[2.4200828, 48.84279260000001], [2.4201306, 48.8428097]]}}, {"type": "Feature", "properties": {"highway": "footway", "footway": null, "name": null, "surface": null, "lit": null, "length_m": 39.14, "type_element": "Way", "__fid": 120655}, "geometry": {"type": "LineString", "coordinates": [[2.4202449, 48.8431177], [2.4202199, 48.8430321], [2.4200971, 48.842913], [2.4200828, 48.84279260000001]]}}, {"type": "Feature", "properties": {"highway": "footway", "footway": null, "name": null, "surface": null, "lit": "yes", "length_m": 79.53, "type_element": "Way", "__fid": 120656}, "geometry": {"type": "LineString", "coordinates": [[2.4200819, 48.843515], [2.420174, 48.8435756], [2.420945, 48.843946]]}}, {"type": "Feature", "properties": {"highway": "path", "footway": null, "name": null, "surface": null, "lit": "yes", "length_m": 5.03, "type_element": "Way", "__fid": 120657}, "geometry": {"type": "LineString", "coordinates": [[2.4201482, 48.84350340000002], [2.4200819, 48.843515]]}}, {"type": "Feature", "properties": {"highway": "footway", "footway": null, "name": null, "surface": null, "lit": null, "length_m": 34.59, "type_element": "Way", "__fid": 120663}, "geometry": {"type": "LineString", "coordinates": [[2.4201306, 48.8428097], [2.4205445, 48.8429584]]}}, {"type": "Feature", "properties": {"highway": "footway", "footway": null, "name": null, "surface": "compacted", "lit": "no", "length_m": 26.71, "type_element": "Way", "__fid": 120664}, "geometry": {"type": "LineString", "coordinates": [[2.4201306, 48.8428097], [2.4203596, 48.842623]]}}, {"type": "Feature", "properties": {"highway": "path", "footway": null, "name": null, "surface": null, "lit": null, "length_m": 5.56, "type_element": "Way", "__fid": 120665}, "geometry": {"type": "LineString", "coordinates": [[2.4201376, 48.8433835], [2.4201506, 48.8434328]]}}, {"type": "Feature", "properties": {"highway": "footway", "footway": null, "name": "Avenue Anna Politkovskaïa", "surface": "compacted", "lit": "yes", "length_m": 51.15, "type_element": "Way", "__fid": 120666}, "geometry": {"type": "LineString", "coordinates": [[2.4201376, 48.8433835], [2.4208283, 48.843321799999984]]}}, {"type": "Feature", "properties": {"highway": "footway", "footway": null, "name": null, "surface": null, "lit": null, "length_m": 26.59, "type_element": "Way", "__fid": 120667}, "geometry": {"type": "LineString", "coordinates": [[2.4204857, 48.84357180000002], [2.4203841, 48.8435708], [2.4203118, 48.8435568], [2.4202041, 48.8435332], [2.4201482, 48.84350340000002]]}}, {"type": "Feature", "properties": {"highway": "path", "footway": null, "name": null, "surface": null, "lit": null, "length_m": 2.71, "type_element": "Way", "__fid": 120668}, "geometry": {"type": "LineString", "coordinates": [[2.420163, 48.843481099999984], [2.4201482, 48.84350340000002]]}}, {"type": "Feature", "properties": {"highway": "track", "footway": null, "name": null, "surface": "compacted", "lit": "no", "length_m": 27.07, "type_element": "Way", "__fid": 120669}, "geometry": {"type": "LineString", "coordinates": [[2.4201633, 48.8422862], [2.4202973, 48.8423044], [2.4205201, 48.8423471]]}}, {"type": "Feature", "properties": {"highway": "steps", "footway": null, "name": null, "surface": "asphalt", "lit": "no", "length_m": 41.26, "type_element": "Way", "__fid": 120670}, "geometry": {"type": "LineString", "coordinates": [[2.4201633, 48.8422862], [2.4201723, 48.8423412], [2.4203583, 48.842567400000014], [2.4204106, 48.84261449999998]]}}, {"type": "Feature", "properties": {"highway": "path", "footway": null, "name": null, "surface": null, "lit": null, "length_m": 5.45, "type_element": "Way", "__fid": 120671}, "geometry": {"type": "LineString", "coordinates": [[2.4201506, 48.8434328], [2.420163, 48.843481099999984]]}}, {"type": "Feature", "properties": {"highway": "pedestrian", "footway": null, "name": "Avenue Anna Politkovskaïa", "surface": "asphalt", "lit": "yes", "length_m": 50.99, "type_element": "Way", "__fid": 120672}, "geometry": {"type": "LineString", "coordinates": [[2.4201506, 48.8434328], [2.4208374, 48.8433636]]}}, {"type": "Feature", "properties": {"highway": "footway", "footway": null, "name": null, "surface": "dirt", "lit": null, "length_m": 50.82, "type_element": "Way", "__fid": 120673}, "geometry": {"type": "LineString", "coordinates": [[2.4208486, 48.8434173], [2.420163, 48.843481099999984]]}}, {"type": "Feature", "properties": {"highway": "path", "footway": null, "name": null, "surface": null, "lit": null, "length_m": 28.24, "type_element": "Way", "__fid": 120678}, "geometry": {"type": "LineString", "coordinates": [[2.4202449, 48.8431177], [2.4205445, 48.8429584]]}}, {"type": "Feature", "properties": {"highway": "footway", "footway": null, "name": null, "surface": "compacted", "lit": "no", "length_m": 3.86, "type_element": "Way", "__fid": 120689}, "geometry": {"type": "LineString", "coordinates": [[2.4203596, 48.842623], [2.4204106, 48.84261449999998]]}}, {"type": "Feature", "properties": {"highway": "footway", "footway": null, "name": null, "surface": null, "lit": "no", "length_m": 36.62, "type_element": "Way", "__fid": 120698}, "geometry": {"type": "LineString", "coordinates": [[2.4204106, 48.84261449999998], [2.4206728, 48.8428947]]}}, {"type": "Feature", "properties": {"highway": "footway", "footway": null, "name": null, "surface": null, "lit": "no", "length_m": 57.27, "type_element": "Way", "__fid": 120699}, "geometry": {"type": "LineString", "coordinates": [[2.4204106, 48.84261449999998], [2.4205295, 48.84261], [2.4207203, 48.8426551], [2.4210018, 48.84270329999999], [2.4210836, 48.84272330000001], [2.4211416, 48.8427601]]}}, {"type": "Feature", "properties": {"highway": "footway", "footway": null, "name": null, "surface": null, "lit": null, "length_m": 28.92, "type_element": "Way", "__fid": 120704}, "geometry": {"type": "LineString", "coordinates": [[2.4208796, 48.8435659], [2.4204857, 48.84357180000002]]}}, {"type": "Feature", "properties": {"highway": "footway", "footway": null, "name": null, "surface": "dirt", "lit": null, "length_m": 36.58, "type_element": "Way", "__fid": 120705}, "geometry": {"type": "LineString", "coordinates": [[2.4204857, 48.84357180000002], [2.4206494, 48.8436226], [2.4209124, 48.84374]]}}, {"type": "Feature", "properties": {"highway": "path", "footway": null, "name": null, "surface": "asphalt", "lit": "no", "length_m": 92.82, "type_element": "Way", "__fid": 120706}, "geometry": {"type": "LineString", "coordinates": [[2.4216527, 48.8426798], [2.4215358, 48.842634699999984], [2.4212739, 48.84255580000002], [2.420671, 48.84242610000001], [2.4205349, 48.8423829], [2.4205201, 48.8423471]]}}, {"type": "Feature", "properties": {"highway": "track", "footway": null, "name": null, "surface": "compacted", "lit": "no", "length_m": 121.99, "type_element": "Way", "__fid": 120707}, "geometry": {"type": "LineString", "coordinates": [[2.4205201, 48.8423471], [2.4212631, 48.8423334], [2.4221734, 48.8422512]]}}, {"type": "Feature", "properties": {"highway": "footway", "footway": null, "name": null, "surface": null, "lit": null, "length_m": 62.46, "type_element": "Way", "__fid": 120708}, "geometry": {"type": "LineString", "coordinates": [[2.4205445, 48.8429584], [2.4209162, 48.8430676], [2.4211439, 48.8431917], [2.4212855, 48.843222]]}}, {"type": "Feature", "properties": {"highway": "path", "footway": null, "name": null, "surface": null, "lit": null, "length_m": 11.78, "type_element": "Way", "__fid": 120709}, "geometry": {"type": "LineString", "coordinates": [[2.4205445, 48.8429584], [2.4206728, 48.8428947]]}}, {"type": "Feature", "properties": {"highway": "path", "footway": null, "name": null, "surface": null, "lit": null, "length_m": 37.64, "type_element": "Way", "__fid": 120718}, "geometry": {"type": "LineString", "coordinates": [[2.4206728, 48.8428947], [2.4207204, 48.8428719], [2.4211416, 48.8427601]]}}, {"type": "Feature", "properties": {"highway": "footway", "footway": null, "name": null, "surface": null, "lit": "yes", "length_m": 4.7, "type_element": "Way", "__fid": 120727}, "geometry": {"type": "LineString", "coordinates": [[2.4208283, 48.843321799999984], [2.4208374, 48.8433636]]}}, {"type": "Feature", "properties": {"highway": "footway", "footway": null, "name": "Avenue Anna Politkovskaïa", "surface": "compacted", "lit": "yes", "length_m": 32.26, "type_element": "Way", "__fid": 120728}, "geometry": {"type": "LineString", "coordinates": [[2.4208283, 48.843321799999984], [2.4212647, 48.843287]]}}, {"type": "Feature", "properties": {"highway": "footway", "footway": null, "name": null, "surface": null, "lit": "yes", "length_m": 6.03, "type_element": "Way", "__fid": 120731}, "geometry": {"type": "LineString", "coordinates": [[2.4208374, 48.8433636], [2.4208486, 48.8434173]]}}, {"type": "Feature", "properties": {"highway": "pedestrian", "footway": null, "name": "Avenue Anna Politkovskaïa", "surface": "asphalt", "lit": "yes", "length_m": 32.23, "type_element": "Way", "__fid": 120732}, "geometry": {"type": "LineString", "coordinates": [[2.4208374, 48.8433636], [2.4212729, 48.84332639999999]]}}, {"type": "Feature", "properties": {"highway": "footway", "footway": null, "name": null, "surface": null, "lit": null, "length_m": 16.68, "type_element": "Way", "__fid": 120733}, "geometry": {"type": "LineString", "coordinates": [[2.4208486, 48.8434173], [2.4208796, 48.8435659]]}}, {"type": "Feature", "properties": {"highway": "footway", "footway": null, "name": null, "surface": "dirt", "lit": null, "length_m": 32.15, "type_element": "Way", "__fid": 120734}, "geometry": {"type": "LineString", "coordinates": [[2.4212824, 48.843377], [2.4208486, 48.8434173]]}}, {"type": "Feature", "properties": {"highway": "footway", "footway": null, "name": null, "surface": null, "lit": null, "length_m": 11.23, "type_element": "Way", "__fid": 120738}, "geometry": {"type": "LineString", "coordinates": [[2.4208796, 48.8435659], [2.4208944, 48.8436664]]}}, {"type": "Feature", "properties": {"highway": "footway", "footway": null, "name": null, "surface": null, "lit": null, "length_m": 39.46, "type_element": "Way", "__fid": 120739}, "geometry": {"type": "LineString", "coordinates": [[2.4214098, 48.843507], [2.4208796, 48.8435659]]}}, {"type": "Feature", "properties": {"highway": "footway", "footway": null, "name": null, "surface": "dirt", "lit": null, "length_m": 45.78, "type_element": "Way", "__fid": 120742}, "geometry": {"type": "LineString", "coordinates": [[2.4214941, 48.843667], [2.4213529, 48.8436934], [2.4210957, 48.843716], [2.4210412, 48.8437129], [2.4208944, 48.8436664]]}}, {"type": "Feature", "properties": {"highway": "footway", "footway": null, "name": null, "surface": null, "lit": null, "length_m": 8.29, "type_element": "Way", "__fid": 120743}, "geometry": {"type": "LineString", "coordinates": [[2.4208944, 48.8436664], [2.4209124, 48.84374]]}}, {"type": "Feature", "properties": {"highway": "footway", "footway": null, "name": null, "surface": "dirt", "lit": null, "length_m": 33.51, "type_element": "Way", "__fid": 120744}, "geometry": {"type": "LineString", "coordinates": [[2.4209124, 48.84374], [2.4210474, 48.8437968], [2.4211939, 48.84387969999999], [2.4212852, 48.843912]]}}, {"type": "Feature", "properties": {"highway": "footway", "footway": null, "name": null, "surface": null, "lit": null, "length_m": 23.45, "type_element": "Way", "__fid": 120745}, "geometry": {"type": "LineString", "coordinates": [[2.4209124, 48.84374], [2.4209568, 48.8439363], [2.420945, 48.843946]]}}, {"type": "Feature", "properties": {"highway": "footway", "footway": null, "name": null, "surface": null, "lit": "yes", "length_m": 79.13, "type_element": "Way", "__fid": 120747}, "geometry": {"type": "LineString", "coordinates": [[2.420945, 48.843946], [2.4217162, 48.8443165], [2.4218404, 48.8443198]]}}, {"type": "Feature", "properties": {"highway": "path", "footway": null, "name": null, "surface": null, "lit": null, "length_m": 38.56, "type_element": "Way", "__fid": 120758}, "geometry": {"type": "LineString", "coordinates": [[2.4211416, 48.8427601], [2.4216527, 48.8426798]]}}, {"type": "Feature", "properties": {"highway": "footway", "footway": null, "name": null, "surface": "dirt", "lit": "yes", "length_m": 4.42, "type_element": "Way", "__fid": 120770}, "geometry": {"type": "LineString", "coordinates": [[2.4212647, 48.843287], [2.4212729, 48.84332639999999]]}}, {"type": "Feature", "properties": {"highway": "path", "footway": null, "name": null, "surface": null, "lit": null, "length_m": 7.39, "type_element": "Way", "__fid": 120771}, "geometry": {"type": "LineString", "coordinates": [[2.4212855, 48.843222], [2.4212647, 48.843287]]}}, {"type": "Feature", "properties": {"highway": "footway", "footway": null, "name": "Avenue Anna Politkovskaïa", "surface": "compacted", "lit": "yes", "length_m": 12.36, "type_element": "Way", "__fid": 120772}, "geometry": {"type": "LineString", "coordinates": [[2.4212647, 48.843287], [2.421432, 48.84327409999998]]}}, {"type": "Feature", "properties": {"highway": "footway", "footway": null, "name": null, "surface": "dirt", "lit": "yes", "length_m": 5.67, "type_element": "Way", "__fid": 120773}, "geometry": {"type": "LineString", "coordinates": [[2.4212729, 48.84332639999999], [2.4212824, 48.843377]]}}, {"type": "Feature", "properties": {"highway": "pedestrian", "footway": null, "name": "Avenue Anna Politkovskaïa", "surface": "asphalt", "lit": "yes", "length_m": 12.53, "type_element": "Way", "__fid": 120774}, "geometry": {"type": "LineString", "coordinates": [[2.4212729, 48.84332639999999], [2.4214426, 48.8433138]]}}, {"type": "Feature", "properties": {"highway": "footway", "footway": null, "name": null, "surface": "dirt", "lit": null, "length_m": 3.72, "type_element": "Way", "__fid": 120776}, "geometry": {"type": "LineString", "coordinates": [[2.4212824, 48.843377], [2.4213327, 48.8433726]]}}, {"type": "Feature", "properties": {"highway": "footway", "footway": null, "name": null, "surface": null, "lit": null, "length_m": 12.21, "type_element": "Way", "__fid": 120777}, "geometry": {"type": "LineString", "coordinates": [[2.4212855, 48.843222], [2.421432, 48.84327409999998]]}}, {"type": "Feature", "properties": {"highway": "path", "footway": null, "name": null, "surface": null, "lit": null, "length_m": 66.85, "type_element": "Way", "__fid": 120778}, "geometry": {"type": "LineString", "coordinates": [[2.4216527, 48.8426798], [2.4215194, 48.8428712], [2.4213429, 48.8430428], [2.4212855, 48.843222]]}}, {"type": "Feature", "properties": {"highway": "footway", "footway": null, "name": null, "surface": "compacted", "lit": null, "length_m": 26.71, "type_element": "Way", "__fid": 120779}, "geometry": {"type": "LineString", "coordinates": [[2.421646, 48.84394370000001], [2.4212852, 48.843912]]}}, {"type": "Feature", "properties": {"highway": "footway", "footway": null, "name": null, "surface": "dirt", "lit": null, "length_m": 38.0, "type_element": "Way", "__fid": 120780}, "geometry": {"type": "LineString", "coordinates": [[2.4212852, 48.843912], [2.4214234, 48.8439869], [2.4217413, 48.8440645]]}}, {"type": "Feature", "properties": {"highway": "footway", "footway": null, "name": null, "surface": "dirt", "lit": null, "length_m": 15.98, "type_element": "Way", "__fid": 120783}, "geometry": {"type": "LineString", "coordinates": [[2.4213327, 48.8433726], [2.4214098, 48.843507]]}}, {"type": "Feature", "properties": {"highway": "footway", "footway": null, "name": null, "surface": null, "lit": null, "length_m": 45.7, "type_element": "Way", "__fid": 120784}, "geometry": {"type": "LineString", "coordinates": [[2.4213327, 48.8433726], [2.4219481, 48.84331020000001]]}}, {"type": "Feature", "properties": {"highway": "footway", "footway": null, "name": null, "surface": "dirt", "lit": null, "length_m": 18.84, "type_element": "Way", "__fid": 120799}, "geometry": {"type": "LineString", "coordinates": [[2.4214098, 48.843507], [2.4214941, 48.843667]]}}, {"type": "Feature", "properties": {"highway": "footway", "footway": null, "name": null, "surface": null, "lit": null, "length_m": 38.11, "type_element": "Way", "__fid": 120800}, "geometry": {"type": "LineString", "coordinates": [[2.4219222, 48.8434516], [2.4214098, 48.843507]]}}, {"type": "Feature", "properties": {"highway": "footway", "footway": null, "name": "Avenue Anna Politkovskaïa", "surface": "compacted", "lit": "yes", "length_m": 2.66, "type_element": "Way", "__fid": 120804}, "geometry": {"type": "LineString", "coordinates": [[2.421432, 48.84327409999998], [2.4214679, 48.8432709]]}}, {"type": "Feature", "properties": {"highway": "service", "footway": null, "name": "Avenue Anna Politkovskaïa", "surface": null, "lit": "yes", "length_m": 5.12, "type_element": "Way", "__fid": 120805}, "geometry": {"type": "LineString", "coordinates": [[2.4214426, 48.8433138], [2.4214679, 48.8432709]]}}, {"type": "Feature", "properties": {"highway": "pedestrian", "footway": null, "name": "Avenue Anna Politkovskaïa", "surface": "asphalt", "lit": "yes", "length_m": 38.01, "type_element": "Way", "__fid": 120806}, "geometry": {"type": "LineString", "coordinates": [[2.4214426, 48.8433138], [2.4219558, 48.8432676]]}}, {"type": "Feature", "properties": {"highway": "service", "footway": null, "name": "Avenue Anna Politkovskaïa", "surface": null, "lit": "yes", "length_m": 52.47, "type_element": "Way", "__fid": 120811}, "geometry": {"type": "LineString", "coordinates": [[2.4214679, 48.8432709], [2.4215029, 48.84321840000001], [2.4216818, 48.8431014], [2.4218464, 48.8430161], [2.4220038, 48.8429794]]}}, {"type": "Feature", "properties": {"highway": "footway", "footway": null, "name": "Avenue Anna Politkovskaïa", "surface": "compacted", "lit": "yes", "length_m": 36.98, "type_element": "Way", "__fid": 120812}, "geometry": {"type": "LineString", "coordinates": [[2.4214679, 48.8432709], [2.4219651, 48.843217]]}}, {"type": "Feature", "properties": {"highway": "footway", "footway": null, "name": null, "surface": "dirt", "lit": null, "length_m": 32.72, "type_element": "Way", "__fid": 120817}, "geometry": {"type": "LineString", "coordinates": [[2.4214941, 48.843667], [2.421646, 48.84394370000001]]}}, {"type": "Feature", "properties": {"highway": "footway", "footway": null, "name": null, "surface": "dirt", "lit": null, "length_m": 27.43, "type_element": "Way", "__fid": 120818}, "geometry": {"type": "LineString", "coordinates": [[2.4218476, 48.8436977], [2.4217561, 48.8436566], [2.4216567, 48.84365509999998], [2.4214941, 48.843667]]}}, {"type": "Feature", "properties": {"highway": "footway", "footway": "sidewalk", "name": null, "surface": null, "lit": "yes", "length_m": 41.14, "type_element": "Way", "__fid": 120829}, "geometry": {"type": "LineString", "coordinates": [[2.4215422, 48.8446537], [2.4219932, 48.8444339]]}}, {"type": "Feature", "properties": {"highway": "footway", "footway": null, "name": null, "surface": null, "lit": null, "length_m": 47.2, "type_element": "Way", "__fid": 120833}, "geometry": {"type": "LineString", "coordinates": [[2.4220038, 48.8429794], [2.4218482, 48.8429409], [2.4217521, 48.8429072], [2.4216977, 48.8428451], [2.4217018, 48.8427666], [2.4216527, 48.8426798]]}}, {"type": "Feature", "properties": {"highway": "footway", "footway": null, "name": null, "surface": "ground", "lit": "no", "length_m": 61.51, "type_element": "Way", "__fid": 120834}, "geometry": {"type": "LineString", "coordinates": [[2.4216527, 48.8426798], [2.4216982, 48.842652], [2.4219288, 48.8424109], [2.4221734, 48.8422512]]}}, {"type": "Feature", "properties": {"highway": "footway", "footway": null, "name": null, "surface": "dirt", "lit": null, "length_m": 15.14, "type_element": "Way", "__fid": 120835}, "geometry": {"type": "LineString", "coordinates": [[2.421646, 48.84394370000001], [2.4217413, 48.8440645]]}}, {"type": "Feature", "properties": {"highway": "footway", "footway": null, "name": null, "surface": null, "lit": null, "length_m": 31.1, "type_element": "Way", "__fid": 120836}, "geometry": {"type": "LineString", "coordinates": [[2.4218476, 48.8436977], [2.421646, 48.84394370000001]]}}, {"type": "Feature", "properties": {"highway": "footway", "footway": null, "name": null, "surface": "compacted", "lit": null, "length_m": 38.11, "type_element": "Way", "__fid": 120837}, "geometry": {"type": "LineString", "coordinates": [[2.4221636, 48.8439167], [2.421646, 48.84394370000001]]}}, {"type": "Feature", "properties": {"highway": "footway", "footway": null, "name": null, "surface": "dirt", "lit": null, "length_m": 29.52, "type_element": "Way", "__fid": 120838}, "geometry": {"type": "LineString", "coordinates": [[2.4217413, 48.8440645], [2.4218276, 48.844225], [2.4218404, 48.8443198]]}}, {"type": "Feature", "properties": {"highway": "footway", "footway": null, "name": null, "surface": "dirt", "lit": null, "length_m": 35.08, "type_element": "Way", "__fid": 120839}, "geometry": {"type": "LineString", "coordinates": [[2.4217413, 48.8440645], [2.4221636, 48.8439167]]}}, {"type": "Feature", "properties": {"highway": "footway", "footway": "sidewalk", "name": null, "surface": null, "lit": "yes", "length_m": 5.47, "type_element": "Way", "__fid": 120840}, "geometry": {"type": "LineString", "coordinates": [[2.4218404, 48.8443198], [2.4217826, 48.8443509]]}}, {"type": "Feature", "properties": {"highway": "footway", "footway": "link", "name": null, "surface": "dirt", "lit": "yes", "length_m": 16.4, "type_element": "Way", "__fid": 120841}, "geometry": {"type": "LineString", "coordinates": [[2.4218404, 48.8443198], [2.4217962, 48.844464399999985]]}}, {"type": "Feature", "properties": {"highway": "footway", "footway": "crossing", "name": null, "surface": null, "lit": "yes", "length_m": 17.01, "type_element": "Way", "__fid": 120844}, "geometry": {"type": "LineString", "coordinates": [[2.4218404, 48.8443198], [2.4218886, 48.84434610000001], [2.4219932, 48.8444339]]}}, {"type": "Feature", "properties": {"highway": "footway", "footway": null, "name": null, "surface": "dirt", "lit": null, "length_m": 33.97, "type_element": "Way", "__fid": 120845}, "geometry": {"type": "LineString", "coordinates": [[2.4221636, 48.8439167], [2.4221098, 48.8438543], [2.4220461, 48.84380860000001], [2.4218476, 48.8436977]]}}, {"type": "Feature", "properties": {"highway": "footway", "footway": null, "name": null, "surface": null, "lit": null, "length_m": 27.91, "type_element": "Way", "__fid": 120846}, "geometry": {"type": "LineString", "coordinates": [[2.4219222, 48.8434516], [2.4218476, 48.8436977]]}}, {"type": "Feature", "properties": {"highway": "footway", "footway": null, "name": null, "surface": null, "lit": null, "length_m": 15.84, "type_element": "Way", "__fid": 120852}, "geometry": {"type": "LineString", "coordinates": [[2.4219481, 48.84331020000001], [2.4219222, 48.8434516]]}}, {"type": "Feature", "properties": {"highway": "footway", "footway": null, "name": null, "surface": null, "lit": null, "length_m": 54.36, "type_element": "Way", "__fid": 120853}, "geometry": {"type": "LineString", "coordinates": [[2.422608, 48.8432691], [2.422139, 48.8434079], [2.4219222, 48.8434516]]}}, {"type": "Feature", "properties": {"highway": "footway", "footway": null, "name": null, "surface": null, "lit": null, "length_m": 4.77, "type_element": "Way", "__fid": 120854}, "geometry": {"type": "LineString", "coordinates": [[2.4219558, 48.8432676], [2.4219481, 48.84331020000001]]}}, {"type": "Feature", "properties": {"highway": "footway", "footway": null, "name": null, "surface": null, "lit": null, "length_m": 5.67, "type_element": "Way", "__fid": 120855}, "geometry": {"type": "LineString", "coordinates": [[2.4219651, 48.843217], [2.4219558, 48.8432676]]}}, {"type": "Feature", "properties": {"highway": "pedestrian", "footway": null, "name": "Avenue Anna Politkovskaïa", "surface": "asphalt", "lit": "yes", "length_m": 69.77, "type_element": "Way", "__fid": 120856}, "geometry": {"type": "LineString", "coordinates": [[2.4219558, 48.8432676], [2.4221325, 48.8432417], [2.4224477, 48.8431553], [2.4228212, 48.8430169]]}}, {"type": "Feature", "properties": {"highway": "footway", "footway": null, "name": null, "surface": null, "lit": null, "length_m": 26.57, "type_element": "Way", "__fid": 120858}, "geometry": {"type": "LineString", "coordinates": [[2.4220038, 48.8429794], [2.4219651, 48.843217]]}}, {"type": "Feature", "properties": {"highway": "footway", "footway": null, "name": "Avenue Anna Politkovskaïa", "surface": "compacted", "lit": "yes", "length_m": 61.51, "type_element": "Way", "__fid": 120859}, "geometry": {"type": "LineString", "coordinates": [[2.4219651, 48.843217], [2.4222141, 48.8431768], [2.4223576, 48.8431383], [2.422627, 48.843041], [2.4226921, 48.8430096], [2.4227166, 48.8429895]]}}, {"type": "Feature", "properties": {"highway": "service", "footway": null, "name": "Avenue Anna Politkovskaïa", "surface": null, "lit": "yes", "length_m": 52.81, "type_element": "Way", "__fid": 120861}, "geometry": {"type": "LineString", "coordinates": [[2.4220038, 48.8429794], [2.4220632, 48.8429682], [2.4221817, 48.84296], [2.4225725, 48.84296829999999], [2.4227166, 48.8429895]]}}, {"type": "Feature", "properties": {"highway": "footway", "footway": "sidewalk", "name": null, "surface": null, "lit": "yes", "length_m": 110.1, "type_element": "Way", "__fid": 120862}, "geometry": {"type": "LineString", "coordinates": [[2.4219932, 48.8444339], [2.4222379, 48.84430860000001], [2.4223995, 48.8441974], [2.422712, 48.8438973], [2.422885, 48.84365540000001]]}}, {"type": "Feature", "properties": {"highway": "track", "footway": null, "name": null, "surface": "compacted", "lit": "no", "length_m": 112.22, "type_element": "Way", "__fid": 120865}, "geometry": {"type": "LineString", "coordinates": [[2.4235663, 48.8415837], [2.4231481, 48.8414909], [2.4220931, 48.8413159]]}}, {"type": "Feature", "properties": {"highway": "track", "footway": null, "name": null, "surface": "compacted", "lit": "no", "length_m": 76.36, "type_element": "Way", "__fid": 120878}, "geometry": {"type": "LineString", "coordinates": [[2.4221734, 48.8422512], [2.4232115, 48.8422056]]}}, {"type": "Feature", "properties": {"highway": "footway", "footway": null, "name": null, "surface": "compacted", "lit": null, "length_m": 32.44, "type_element": "Way", "__fid": 120879}, "geometry": {"type": "LineString", "coordinates": [[2.4224604, 48.84370250000001], [2.422416, 48.8437473], [2.4222976, 48.8438388], [2.4221636, 48.8439167]]}}, {"type": "Feature", "properties": {"highway": "footway", "footway": null, "name": null, "surface": "compacted", "lit": null, "length_m": 45.94, "type_element": "Way", "__fid": 120894}, "geometry": {"type": "LineString", "coordinates": [[2.422741, 48.8433335], [2.4224937, 48.8436694], [2.4224604, 48.84370250000001]]}}, {"type": "Feature", "properties": {"highway": "footway", "footway": null, "name": null, "surface": "compacted", "lit": null, "length_m": 37.82, "type_element": "Way", "__fid": 120895}, "geometry": {"type": "LineString", "coordinates": [[2.422885, 48.84365540000001], [2.4227375, 48.84360689999998], [2.4226912, 48.8436757], [2.4226342, 48.843691600000014], [2.4224604, 48.84370250000001]]}}, {"type": "Feature", "properties": {"highway": "footway", "footway": null, "name": null, "surface": "compacted", "lit": null, "length_m": 12.24, "type_element": "Way", "__fid": 120902}, "geometry": {"type": "LineString", "coordinates": [[2.422741, 48.8433335], [2.4226664, 48.843307400000015], [2.422608, 48.8432691]]}}, {"type": "Feature", "properties": {"highway": "footway", "footway": null, "name": null, "surface": null, "lit": null, "length_m": 21.32, "type_element": "Way", "__fid": 120903}, "geometry": {"type": "LineString", "coordinates": [[2.4228623, 48.8431765], [2.422608, 48.8432691]]}}, {"type": "Feature", "properties": {"highway": "service", "footway": null, "name": "Avenue Anna Politkovskaïa", "surface": null, "lit": "yes", "length_m": 8.26, "type_element": "Way", "__fid": 120919}, "geometry": {"type": "LineString", "coordinates": [[2.4227166, 48.8429895], [2.4228212, 48.8430169]]}}, {"type": "Feature", "properties": {"highway": "footway", "footway": null, "name": "Avenue Anna Politkovskaïa", "surface": "compacted", "lit": "yes", "length_m": 44.33, "type_element": "Way", "__fid": 120920}, "geometry": {"type": "LineString", "coordinates": [[2.4227166, 48.8429895], [2.4227398, 48.8429758], [2.422812, 48.84296389999999], [2.4231975, 48.8427553]]}}, {"type": "Feature", "properties": {"highway": "footway", "footway": null, "name": null, "surface": "compacted", "lit": null, "length_m": 13.51, "type_element": "Way", "__fid": 120921}, "geometry": {"type": "LineString", "coordinates": [[2.4229167, 48.8433698], [2.422741, 48.8433335]]}}, {"type": "Feature", "properties": {"highway": "footway", "footway": null, "name": null, "surface": "compacted", "lit": null, "length_m": 19.6, "type_element": "Way", "__fid": 120922}, "geometry": {"type": "LineString", "coordinates": [[2.4228623, 48.8431765], [2.422741, 48.8433335]]}}, {"type": "Feature", "properties": {"highway": "pedestrian", "footway": null, "name": "Avenue Anna Politkovskaïa", "surface": "asphalt", "lit": "yes", "length_m": 28.72, "type_element": "Way", "__fid": 120928}, "geometry": {"type": "LineString", "coordinates": [[2.4228212, 48.8430169], [2.4230753, 48.842911], [2.4231578, 48.8428859]]}}, {"type": "Feature", "properties": {"highway": "steps", "footway": null, "name": null, "surface": null, "lit": null, "length_m": 27.59, "type_element": "Way", "__fid": 120931}, "geometry": {"type": "LineString", "coordinates": [[2.4230875, 48.8429783], [2.422978, 48.84308580000001], [2.4228623, 48.8431765]]}}, {"type": "Feature", "properties": {"highway": "footway", "footway": "sidewalk", "name": null, "surface": "asphalt", "lit": "yes", "length_m": 150.04, "type_element": "Way", "__fid": 120934}, "geometry": {"type": "LineString", "coordinates": [[2.4233687, 48.8448764], [2.4231034, 48.843717300000016], [2.4230862, 48.8436898], [2.4230587, 48.8436718], [2.4229628, 48.8436524], [2.4229162, 48.8436645], [2.422885, 48.84365540000001]]}}, {"type": "Feature", "properties": {"highway": "footway", "footway": null, "name": null, "surface": "compacted", "lit": null, "length_m": 4.4, "type_element": "Way", "__fid": 120937}, "geometry": {"type": "LineString", "coordinates": [[2.4229714, 48.843386], [2.4229167, 48.8433698]]}}, {"type": "Feature", "properties": {"highway": "footway", "footway": "sidewalk", "name": null, "surface": null, "lit": null, "length_m": 42.04, "type_element": "Way", "__fid": 120938}, "geometry": {"type": "LineString", "coordinates": [[2.4231309, 48.8430196], [2.4230882, 48.8431105], [2.4229167, 48.8433698]]}}, {"type": "Feature", "properties": {"highway": "steps", "footway": null, "name": null, "surface": "asphalt", "lit": "no", "length_m": 57.9, "type_element": "Way", "__fid": 120940}, "geometry": {"type": "LineString", "coordinates": [[2.4235663, 48.8415837], [2.4234804, 48.84152610000002], [2.4232806, 48.8414317], [2.422995, 48.8413231], [2.4229437, 48.8412734]]}}, {"type": "Feature", "properties": {"highway": "service", "footway": null, "name": "Avenue Pasteur", "surface": "asphalt", "lit": "yes", "length_m": 14.61, "type_element": "Way", "__fid": 120949}, "geometry": {"type": "LineString", "coordinates": [[2.4229992, 48.8433451], [2.4231203, 48.8433795], [2.4231875, 48.8433812]]}}, {"type": "Feature", "properties": {"highway": "footway", "footway": "sidewalk", "name": null, "surface": null, "lit": null, "length_m": 5.59, "type_element": "Way", "__fid": 120955}, "geometry": {"type": "LineString", "coordinates": [[2.4230875, 48.8429783], [2.4231309, 48.8430196]]}}, {"type": "Feature", "properties": {"highway": "footway", "footway": null, "name": null, "surface": null, "lit": null, "length_m": 11.56, "type_element": "Way", "__fid": 120956}, "geometry": {"type": "LineString", "coordinates": [[2.4230875, 48.8429783], [2.4231356, 48.8429269], [2.4231578, 48.8428859]]}}, {"type": "Feature", "properties": {"highway": "footway", "footway": "crossing", "name": null, "surface": null, "lit": null, "length_m": 11.59, "type_element": "Way", "__fid": 120964}, "geometry": {"type": "LineString", "coordinates": [[2.4231309, 48.8430196], [2.4231634, 48.843019799999986], [2.4232803, 48.8430499]]}}, {"type": "Feature", "properties": {"highway": "pedestrian", "footway": null, "name": "Avenue Anna Politkovskaïa", "surface": "asphalt", "lit": "yes", "length_m": 10.08, "type_element": "Way", "__fid": 120967}, "geometry": {"type": "LineString", "coordinates": [[2.4231578, 48.8428859], [2.42329, 48.8429106]]}}, {"type": "Feature", "properties": {"highway": "footway", "footway": null, "name": null, "surface": null, "lit": null, "length_m": 11.24, "type_element": "Way", "__fid": 120968}, "geometry": {"type": "LineString", "coordinates": [[2.4231578, 48.8428859], [2.4231939, 48.8427877]]}}, {"type": "Feature", "properties": {"highway": "footway", "footway": "crossing", "name": null, "surface": "vegecol", "lit": null, "length_m": 18.1, "type_element": "Way", "__fid": 120969}, "geometry": {"type": "LineString", "coordinates": [[2.4231939, 48.8427877], [2.4234254, 48.8428439]]}}, {"type": "Feature", "properties": {"highway": "footway", "footway": null, "name": null, "surface": "compacted", "lit": "no", "length_m": 3.61, "type_element": "Way", "__fid": 120970}, "geometry": {"type": "LineString", "coordinates": [[2.4231975, 48.8427553], [2.4231939, 48.8427877]]}}, {"type": "Feature", "properties": {"highway": "footway", "footway": "sidewalk", "name": null, "surface": "asphalt", "lit": "yes", "length_m": 90.59, "type_element": "Way", "__fid": 120971}, "geometry": {"type": "LineString", "coordinates": [[2.4231875, 48.8433812], [2.4233732, 48.8441866]]}}, {"type": "Feature", "properties": {"highway": "footway", "footway": "sidewalk", "name": null, "surface": "compacted", "lit": "yes", "length_m": 38.14, "type_element": "Way", "__fid": 120972}, "geometry": {"type": "LineString", "coordinates": [[2.4232803, 48.8430499], [2.4232175, 48.8431409], [2.4231989, 48.84318589999999], [2.4231814, 48.8432507], [2.4231875, 48.8433812]]}}, {"type": "Feature", "properties": {"highway": "service", "footway": null, "name": "Villa André Moynet", "surface": "asphalt", "lit": "yes", "length_m": 81.73, "type_element": "Way", "__fid": 120973}, "geometry": {"type": "LineString", "coordinates": [[2.4231875, 48.8433812], [2.4232574, 48.8433666], [2.4242872, 48.8432696]]}}, {"type": "Feature", "properties": {"highway": "footway", "footway": null, "name": null, "surface": "compacted", "lit": "no", "length_m": 61.21, "type_element": "Way", "__fid": 120974}, "geometry": {"type": "LineString", "coordinates": [[2.4232115, 48.8422056], [2.4232253, 48.8425107], [2.4231975, 48.8427553]]}}, {"type": "Feature", "properties": {"highway": "footway", "footway": null, "name": "Route de la Tourelle", "surface": "compacted", "lit": null, "length_m": 83.56, "type_element": "Way", "__fid": 120975}, "geometry": {"type": "LineString", "coordinates": [[2.4231975, 48.8427553], [2.4234389, 48.8425679], [2.4237965, 48.84225040000001], [2.4239033, 48.8421661]]}}, {"type": "Feature", "properties": {"highway": "track", "footway": null, "name": null, "surface": "compacted", "lit": "no", "length_m": 39.03, "type_element": "Way", "__fid": 120976}, "geometry": {"type": "LineString", "coordinates": [[2.4232115, 48.8422056], [2.4234108, 48.842180200000016], [2.4235341, 48.8421413], [2.4236146, 48.8421051], [2.4236709, 48.8420548]]}}, {"type": "Feature", "properties": {"highway": "footway", "footway": "sidewalk", "name": null, "surface": "compacted", "lit": "yes", "length_m": 25.26, "type_element": "Way", "__fid": 120983}, "geometry": {"type": "LineString", "coordinates": [[2.4234254, 48.8428439], [2.4232803, 48.8430499]]}}, {"type": "Feature", "properties": {"highway": "footway", "footway": "sidewalk", "name": null, "surface": "compacted", "lit": "yes", "length_m": 82.0, "type_element": "Way", "__fid": 120990}, "geometry": {"type": "LineString", "coordinates": [[2.423999300000085, 48.84221260000003], [2.4238807, 48.8423203], [2.4235863, 48.8426325], [2.4234254, 48.8428439]]}}, {"type": "Feature", "properties": {"highway": "track", "footway": null, "name": null, "surface": "compacted", "lit": "no", "length_m": 13.0, "type_element": "Way", "__fid": 121000}, "geometry": {"type": "LineString", "coordinates": [[2.4237297, 48.8416288], [2.4235663, 48.8415837]]}}, {"type": "Feature", "properties": {"highway": "steps", "footway": null, "name": null, "surface": "asphalt", "lit": "no", "length_m": 46.25, "type_element": "Way", "__fid": 121001}, "geometry": {"type": "LineString", "coordinates": [[2.4235663, 48.8415837], [2.4237412, 48.8415305], [2.4239486, 48.8414475], [2.4240344, 48.84140049999998], [2.4240645, 48.841349100000016]]}}, {"type": "Feature", "properties": {"highway": "footway", "footway": null, "name": null, "surface": "compacted", "lit": "no", "length_m": 21.07, "type_element": "Way", "__fid": 121006}, "geometry": {"type": "LineString", "coordinates": [[2.4236709, 48.8420548], [2.4239033, 48.8421661]]}}, {"type": "Feature", "properties": {"highway": "track", "footway": null, "name": null, "surface": "compacted", "lit": "no", "length_m": 49.64, "type_element": "Way", "__fid": 121007}, "geometry": {"type": "LineString", "coordinates": [[2.4236709, 48.8420548], [2.4237514, 48.8419727], [2.4237822, 48.8418606], [2.4237711, 48.8417687], [2.4237297, 48.8416288]]}}, {"type": "Feature", "properties": {"highway": "track", "footway": null, "name": null, "surface": "compacted", "lit": "no", "length_m": 47.45, "type_element": "Way", "__fid": 121016}, "geometry": {"type": "LineString", "coordinates": [[2.4243522, 48.841724], [2.4241955, 48.8416705], [2.4237297, 48.8416288]]}}, {"type": "Feature", "properties": {"highway": "footway", "footway": "crossing", "name": null, "surface": "compacted", "lit": "yes", "length_m": 8.74, "type_element": "Way", "__fid": 121030}, "geometry": {"type": "LineString", "coordinates": [[2.4239033, 48.8421661], [2.423999300000085, 48.84221260000003]]}}, {"type": "Feature", "properties": {"highway": "footway", "footway": null, "name": "Route de la Tourelle", "surface": "compacted", "lit": null, "length_m": 56.15, "type_element": "Way", "__fid": 121031}, "geometry": {"type": "LineString", "coordinates": [[2.4239033, 48.8421661], [2.4242665, 48.8418942], [2.4243784, 48.841843199999985], [2.4244539, 48.841826]]}}, {"type": "Feature", "properties": {"highway": "footway", "footway": "sidewalk", "name": null, "surface": null, "lit": "yes", "length_m": 62.17, "type_element": "Way", "__fid": 121036}, "geometry": {"type": "LineString", "coordinates": [[2.4246968, 48.84190750000001], [2.4245989, 48.841927900000016], [2.4244694, 48.8419661], [2.4243019, 48.84203379999999], [2.423999300000085, 48.84221260000003]]}}, {"type": "Feature", "properties": {"highway": "track", "footway": null, "name": null, "surface": "compacted", "lit": "no", "length_m": 12.83, "type_element": "Way", "__fid": 121048}, "geometry": {"type": "LineString", "coordinates": [[2.4245058, 48.84177910000001], [2.4243522, 48.841724]]}}, {"type": "Feature", "properties": {"highway": "steps", "footway": null, "name": null, "surface": null, "lit": null, "length_m": 38.69, "type_element": "Way", "__fid": 121049}, "geometry": {"type": "LineString", "coordinates": [[2.4243522, 48.841724], [2.4243146, 48.8415941], [2.4243589, 48.84138040000002]]}}, {"type": "Feature", "properties": {"highway": "service", "footway": null, "name": "Route de la Tourelle", "surface": "asphalt", "lit": null, "length_m": 12.22, "type_element": "Way", "__fid": 121056}, "geometry": {"type": "LineString", "coordinates": [[2.4244035, 48.841930699999985], [2.4244539, 48.841826]]}}, {"type": "Feature", "properties": {"highway": "service", "footway": null, "name": "Route de la Tourelle", "surface": "asphalt", "lit": null, "length_m": 6.46, "type_element": "Way", "__fid": 121059}, "geometry": {"type": "LineString", "coordinates": [[2.4244539, 48.841826], [2.4245058, 48.84177910000001]]}}, {"type": "Feature", "properties": {"highway": "footway", "footway": "sidewalk", "name": null, "surface": null, "lit": "yes", "length_m": 13.68, "type_element": "Way", "__fid": 121060}, "geometry": {"type": "LineString", "coordinates": [[2.4244539, 48.841826], [2.424637, 48.8418032]]}}, {"type": "Feature", "properties": {"highway": "service", "footway": null, "name": "Route de la Tourelle", "surface": "asphalt", "lit": null, "length_m": 13.51, "type_element": "Way", "__fid": 121061}, "geometry": {"type": "LineString", "coordinates": [[2.4245058, 48.84177910000001], [2.4246376, 48.8416943]]}}, {"type": "Feature", "properties": {"highway": "service", "footway": null, "name": "Route de la Tourelle", "surface": "asphalt", "lit": null, "length_m": 85.3, "type_element": "Way", "__fid": 121068}, "geometry": {"type": "LineString", "coordinates": [[2.4246376, 48.8416943], [2.4253672, 48.8412948], [2.4255513, 48.8412224]]}}, {"type": "Feature", "properties": {"highway": "track", "footway": null, "name": null, "surface": "compacted", "lit": "no", "length_m": 120.33, "type_element": "Way", "__fid": 121069}, "geometry": {"type": "LineString", "coordinates": [[2.4261607, 48.8413694], [2.4256665, 48.841587], [2.4251436, 48.8416459], [2.42482, 48.841657], [2.4246376, 48.8416943]]}}, {"type": "Feature", "properties": {"highway": "footway", "footway": "crossing", "name": null, "surface": null, "lit": "yes", "length_m": 12.4, "type_element": "Way", "__fid": 121070}, "geometry": {"type": "LineString", "coordinates": [[2.4246968, 48.84190750000001], [2.424637, 48.8418032]]}}, {"type": "Feature", "properties": {"highway": "footway", "footway": "sidewalk", "name": null, "surface": "compacted", "lit": "yes", "length_m": 36.82, "type_element": "Way", "__fid": 121071}, "geometry": {"type": "LineString", "coordinates": [[2.424637, 48.8418032], [2.4249757, 48.841742300000014], [2.4251242, 48.8417256]]}}, {"type": "Feature", "properties": {"highway": "footway", "footway": "sidewalk", "name": null, "surface": null, "lit": "yes", "length_m": 192.65, "type_element": "Way", "__fid": 121074}, "geometry": {"type": "LineString", "coordinates": [[2.4272919, 48.8416572], [2.4248674, 48.8418731], [2.4246968, 48.84190750000001]]}}]}