{"type": "FeatureCollection", "features": [{"type": "Feature", "properties": {"@id": "node/918203940", "amenity": "drinking_water", "check_date": "2022-08-20", "man_made": "water_tap", "source": "Eau de Paris", "type_element": "Fontaines à boire", "__fid": 163}, "geometry": {"type": "Point", "coordinates": [2.4235111, 48.8293979]}, "id": "node/918203940"}, {"type": "Feature", "properties": {"@id": "node/918204930", "FIXME": "verifier la position", "access": "yes", "amenity": "drinking_water", "check_date": "2023-03-02", "fee": "no", "man_made": "water_tap", "operator": "Eau de Paris", "source": "Eau de Paris", "type_element": "Fontaines à boire", "__fid": 202}, "geometry": {"type": "Point", "coordinates": [2.418976, 48.8281116]}, "id": "node/918204930"}, {"type": "Feature", "properties": {"@id": "node/1539271406", "amenity": "drinking_water", "man_made": "water_tap", "type_element": "Fontaines à boire", "__fid": 296}, "geometry": {"type": "Point", "coordinates": [2.4232545, 48.8242644]}, "id": "node/1539271406"}, {"type": "Feature", "properties": {"@id": "node/12976250456", "amenity": "drinking_water", "man_made": "water_tap", "type_element": "Fontaines à boire", "__fid": 1026}, "geometry": {"type": "Point", "coordinates": [2.4191865, 48.8242933]}, "id": "node/12976250456"}, {"type": "Feature", "properties": {"highway": "path", "footway": null, "name": "Avenue de Gravelle", "surface": "asphalt", "lit": "yes", "length_m": 185.73, "type_element": "Way", "__fid": 120245}, "geometry": {"type": "LineString", "coordinates": [[2.4152909, 48.8248519], [2.4158436, 48.8248437], [2.4162066, 48.82482670000001], [2.4165814, 48.8247953], [2.4171856, 48.82471], [2.4177801, 48.8246001]]}}, {"type": "Feature", "properties": {"highway": "path", "footway": null, "name": null, "surface": null, "lit": "no", "length_m": 176.31, "type_element": "Way", "__fid": 120256}, "geometry": {"type": "LineString", "coordinates": [[2.4153716, 48.8249427], [2.4154465, 48.8249268], [2.4161734, 48.8248897], [2.4168708, 48.8248226], [2.4174609, 48.8247431], [2.4177347, 48.8246871]]}}, {"type": "Feature", "properties": {"highway": "path", "footway": null, "name": null, "surface": "dirt", "lit": "no", "length_m": 54.95, "type_element": "Way", "__fid": 120304}, "geometry": {"type": "LineString", "coordinates": [[2.4158579, 48.8261606], [2.4161658, 48.8262131], [2.416596, 48.8262037]]}}, {"type": "Feature", "properties": {"highway": "path", "footway": null, "name": null, "surface": "compacted", "lit": null, "length_m": 49.87, "type_element": "Way", "__fid": 120329}, "geometry": {"type": "LineString", "coordinates": [[2.4160579, 48.8282663], [2.4163714, 48.828303], [2.4165478, 48.8283152], [2.4167306, 48.8283047]]}}, {"type": "Feature", "properties": {"highway": "service", "footway": null, "name": "Route des Îles", "surface": "asphalt", "lit": null, "length_m": 49.53, "type_element": "Way", "__fid": 120330}, "geometry": {"type": "LineString", "coordinates": [[2.4165453, 48.8279583], [2.4160579, 48.8282663]]}}, {"type": "Feature", "properties": {"highway": "path", "footway": null, "name": null, "surface": "dirt", "lit": null, "length_m": 43.51, "type_element": "Way", "__fid": 120345}, "geometry": {"type": "LineString", "coordinates": [[2.4161711, 48.8259319], [2.4162992, 48.82601059999998], [2.416398, 48.8260873], [2.416596, 48.8262037]]}}, {"type": "Feature", "properties": {"highway": "service", "footway": null, "name": "Route du Bac", "surface": "asphalt", "lit": "yes", "length_m": 69.9, "type_element": "Way", "__fid": 120346}, "geometry": {"type": "LineString", "coordinates": [[2.4161711, 48.8259319], [2.4165369, 48.8256648], [2.4168005, 48.8254603]]}}, {"type": "Feature", "properties": {"highway": "path", "footway": null, "name": null, "surface": "compacted", "lit": null, "length_m": 82.46, "type_element": "Way", "__fid": 120377}, "geometry": {"type": "LineString", "coordinates": [[2.4163984, 48.8278169], [2.4172094, 48.82770739999999], [2.4175031, 48.8276862]]}}, {"type": "Feature", "properties": {"highway": "path", "footway": null, "name": null, "surface": "compacted", "lit": null, "length_m": 12.63, "type_element": "Way", "__fid": 120378}, "geometry": {"type": "LineString", "coordinates": [[2.4165453, 48.8279583], [2.4164955, 48.8279305], [2.4164274, 48.8278762]]}}, {"type": "Feature", "properties": {"highway": "pedestrian", "footway": null, "name": "Route de la Ceinture du Lac Daumesnil", "surface": "asphalt", "lit": "yes", "length_m": 20.44, "type_element": "Way", "__fid": 120379}, "geometry": {"type": "LineString", "coordinates": [[2.4164274, 48.8278762], [2.4167005, 48.8278405]]}}, {"type": "Feature", "properties": {"highway": "service", "footway": null, "name": "Route de la Plaine", "surface": "asphalt", "lit": "no", "length_m": 101.93, "type_element": "Way", "__fid": 120380}, "geometry": {"type": "LineString", "coordinates": [[2.4177988, 48.8270804], [2.4172417, 48.82697060000001], [2.4164495, 48.8268692]]}}, {"type": "Feature", "properties": {"highway": "path", "footway": null, "name": null, "surface": "dirt", "lit": "no", "length_m": 59.26, "type_element": "Way", "__fid": 120381}, "geometry": {"type": "LineString", "coordinates": [[2.4164495, 48.8268692], [2.4165499, 48.8268046], [2.4168056, 48.8263979]]}}, {"type": "Feature", "properties": {"highway": "track", "footway": null, "name": "Promenade Maurice-Boitel", "surface": "compacted", "lit": null, "length_m": 24.09, "type_element": "Way", "__fid": 120382}, "geometry": {"type": "LineString", "coordinates": [[2.4166509, 48.828613800000014], [2.416434, 48.82877639999999]]}}, {"type": "Feature", "properties": {"highway": "path", "footway": null, "name": null, "surface": "compacted", "lit": null, "length_m": 41.0, "type_element": "Way", "__fid": 120388}, "geometry": {"type": "LineString", "coordinates": [[2.4167306, 48.8283047], [2.4166684, 48.8281413], [2.4165453, 48.8279583]]}}, {"type": "Feature", "properties": {"highway": "service", "footway": null, "name": "Route des Îles", "surface": "asphalt", "lit": null, "length_m": 17.36, "type_element": "Way", "__fid": 120389}, "geometry": {"type": "LineString", "coordinates": [[2.4167005, 48.8278405], [2.4165453, 48.8279583]]}}, {"type": "Feature", "properties": {"highway": "path", "footway": null, "name": null, "surface": "dirt", "lit": "no", "length_m": 23.44, "type_element": "Way", "__fid": 120393}, "geometry": {"type": "LineString", "coordinates": [[2.416596, 48.8262037], [2.4169135, 48.8262263]]}}, {"type": "Feature", "properties": {"highway": "path", "footway": null, "name": null, "surface": "dirt", "lit": null, "length_m": 26.9, "type_element": "Way", "__fid": 120394}, "geometry": {"type": "LineString", "coordinates": [[2.416596, 48.8262037], [2.4166463, 48.8262787], [2.4167381, 48.8263601], [2.4168056, 48.8263979]]}}, {"type": "Feature", "properties": {"highway": "path", "footway": null, "name": null, "surface": "compacted", "lit": null, "length_m": 34.86, "type_element": "Way", "__fid": 120396}, "geometry": {"type": "LineString", "coordinates": [[2.4166509, 48.828613800000014], [2.4167306, 48.8283047]]}}, {"type": "Feature", "properties": {"highway": "track", "footway": null, "name": "Promenade Maurice-Boitel", "surface": "compacted", "lit": null, "length_m": 58.8, "type_element": "Way", "__fid": 120397}, "geometry": {"type": "LineString", "coordinates": [[2.4172857, 48.828297], [2.4171073, 48.828361], [2.4168175, 48.8285], [2.4166509, 48.828613800000014]]}}, {"type": "Feature", "properties": {"highway": "pedestrian", "footway": null, "name": "Route de la Ceinture du Lac Daumesnil", "surface": "asphalt", "lit": "yes", "length_m": 52.45, "type_element": "Way", "__fid": 120401}, "geometry": {"type": "LineString", "coordinates": [[2.4167005, 48.8278405], [2.4171205, 48.827786], [2.4174049, 48.827763900000015]]}}, {"type": "Feature", "properties": {"highway": "path", "footway": null, "name": null, "surface": "compacted", "lit": null, "length_m": 40.86, "type_element": "Way", "__fid": 120403}, "geometry": {"type": "LineString", "coordinates": [[2.4167306, 48.8283047], [2.417025, 48.82831340000001], [2.4172857, 48.828297]]}}, {"type": "Feature", "properties": {"highway": "path", "footway": null, "name": null, "surface": "compacted", "lit": null, "length_m": 79.39, "type_element": "Way", "__fid": 120404}, "geometry": {"type": "LineString", "coordinates": [[2.4167306, 48.8283047], [2.4168357, 48.8281584], [2.416931, 48.8280558], [2.4170534, 48.8279742], [2.4172721, 48.8278756], [2.4174049, 48.827763900000015]]}}, {"type": "Feature", "properties": {"highway": "path", "footway": null, "name": null, "surface": "dirt", "lit": null, "length_m": 50.17, "type_element": "Way", "__fid": 120405}, "geometry": {"type": "LineString", "coordinates": [[2.4174485, 48.82560360000002], [2.4168005, 48.8254603]]}}, {"type": "Feature", "properties": {"highway": "service", "footway": null, "name": "Route du Bac", "surface": "asphalt", "lit": "yes", "length_m": 109.98, "type_element": "Way", "__fid": 120406}, "geometry": {"type": "LineString", "coordinates": [[2.4168005, 48.8254603], [2.4177347, 48.8246871]]}}, {"type": "Feature", "properties": {"highway": "path", "footway": null, "name": null, "surface": "dirt", "lit": "no", "length_m": 20.66, "type_element": "Way", "__fid": 120408}, "geometry": {"type": "LineString", "coordinates": [[2.4168056, 48.8263979], [2.4169135, 48.8262263]]}}, {"type": "Feature", "properties": {"highway": "path", "footway": null, "name": null, "surface": "dirt", "lit": "no", "length_m": 79.63, "type_element": "Way", "__fid": 120413}, "geometry": {"type": "LineString", "coordinates": [[2.4169135, 48.8262263], [2.4172046, 48.82586890000001], [2.4174485, 48.82560360000002]]}}, {"type": "Feature", "properties": {"highway": "path", "footway": null, "name": null, "surface": "dirt", "lit": "no", "length_m": 72.07, "type_element": "Way", "__fid": 120414}, "geometry": {"type": "LineString", "coordinates": [[2.4169135, 48.8262263], [2.4178817, 48.8261196]]}}, {"type": "Feature", "properties": {"highway": "track", "footway": null, "name": "Promenade Maurice-Boitel", "surface": "compacted", "lit": null, "length_m": 47.51, "type_element": "Way", "__fid": 120434}, "geometry": {"type": "LineString", "coordinates": [[2.4179175, 48.8282296], [2.4177879, 48.8282227], [2.417583, 48.8282362], [2.4172857, 48.828297]]}}, {"type": "Feature", "properties": {"highway": "path", "footway": null, "name": null, "surface": "compacted", "lit": null, "length_m": 11.25, "type_element": "Way", "__fid": 120437}, "geometry": {"type": "LineString", "coordinates": [[2.4174049, 48.827763900000015], [2.4175031, 48.8276862]]}}, {"type": "Feature", "properties": {"highway": "pedestrian", "footway": null, "name": "Route de la Ceinture du Lac Daumesnil", "surface": "asphalt", "lit": "yes", "length_m": 96.63, "type_element": "Way", "__fid": 120438}, "geometry": {"type": "LineString", "coordinates": [[2.4174049, 48.827763900000015], [2.4177504, 48.8277531], [2.4181171, 48.8277674], [2.4184097, 48.8278098], [2.4186924, 48.8278826]]}}, {"type": "Feature", "properties": {"highway": "path", "footway": null, "name": null, "surface": "dirt", "lit": null, "length_m": 49.82, "type_element": "Way", "__fid": 120440}, "geometry": {"type": "LineString", "coordinates": [[2.4180968, 48.8257359], [2.4174485, 48.82560360000002]]}}, {"type": "Feature", "properties": {"highway": "path", "footway": null, "name": null, "surface": "dirt", "lit": "no", "length_m": 88.98, "type_element": "Way", "__fid": 120441}, "geometry": {"type": "LineString", "coordinates": [[2.4174485, 48.82560360000002], [2.4176345, 48.8254013], [2.4181842, 48.8249702]]}}, {"type": "Feature", "properties": {"highway": "path", "footway": null, "name": null, "surface": null, "lit": "no", "length_m": 73.85, "type_element": "Way", "__fid": 120442}, "geometry": {"type": "LineString", "coordinates": [[2.4175031, 48.8276862], [2.4176238, 48.8275988], [2.4177516, 48.8274605], [2.4177724, 48.8274171], [2.4178107, 48.82716330000002], [2.4177988, 48.8270804]]}}, {"type": "Feature", "properties": {"highway": "path", "footway": null, "name": null, "surface": "compacted", "lit": null, "length_m": 94.66, "type_element": "Way", "__fid": 120443}, "geometry": {"type": "LineString", "coordinates": [[2.4175031, 48.8276862], [2.4177794, 48.8276844], [2.4183541, 48.827725], [2.4185117, 48.8277603], [2.4187177, 48.8278206], [2.4187609, 48.82782230000002]]}}, {"type": "Feature", "properties": {"highway": "service", "footway": null, "name": "Route du Bac", "surface": "asphalt", "lit": "yes", "length_m": 10.63, "type_element": "Way", "__fid": 120460}, "geometry": {"type": "LineString", "coordinates": [[2.4177347, 48.8246871], [2.4177814, 48.824636], [2.4177801, 48.8246001]]}}, {"type": "Feature", "properties": {"highway": "service", "footway": null, "name": "Route du Bac", "surface": "asphalt", "lit": "yes", "length_m": 12.51, "type_element": "Way", "__fid": 120466}, "geometry": {"type": "LineString", "coordinates": [[2.4177801, 48.8246001], [2.4178583, 48.8245001]]}}, {"type": "Feature", "properties": {"highway": "path", "footway": null, "name": "Avenue de Gravelle", "surface": "asphalt", "lit": "yes", "length_m": 5.23, "type_element": "Way", "__fid": 120467}, "geometry": {"type": "LineString", "coordinates": [[2.4177801, 48.8246001], [2.417848, 48.824586]]}}, {"type": "Feature", "properties": {"highway": "service", "footway": null, "name": "Route de la Plaine", "surface": "asphalt", "lit": "no", "length_m": 107.69, "type_element": "Way", "__fid": 120468}, "geometry": {"type": "LineString", "coordinates": [[2.4190958, 48.8275198], [2.4186486, 48.8273148], [2.4182577, 48.827188], [2.4177988, 48.8270804]]}}, {"type": "Feature", "properties": {"highway": "path", "footway": null, "name": null, "surface": null, "lit": "no", "length_m": 108.33, "type_element": "Way", "__fid": 120469}, "geometry": {"type": "LineString", "coordinates": [[2.4177988, 48.8270804], [2.4177312, 48.826919400000016], [2.4177267, 48.8268473], [2.4177653, 48.8266156], [2.4178817, 48.8261196]]}}, {"type": "Feature", "properties": {"highway": "path", "footway": null, "name": null, "surface": "dirt", "lit": "no", "length_m": 49.34, "type_element": "Way", "__fid": 120470}, "geometry": {"type": "LineString", "coordinates": [[2.417848, 48.824586], [2.4181842, 48.8249702]]}}, {"type": "Feature", "properties": {"highway": "path", "footway": null, "name": "Avenue de Gravelle", "surface": "asphalt", "lit": "yes", "length_m": 107.84, "type_element": "Way", "__fid": 120471}, "geometry": {"type": "LineString", "coordinates": [[2.417848, 48.824586], [2.4186816, 48.8243691], [2.4192254, 48.82425030000002]]}}, {"type": "Feature", "properties": {"highway": "path", "footway": null, "name": null, "surface": null, "lit": "no", "length_m": 45.49, "type_element": "Way", "__fid": 120474}, "geometry": {"type": "LineString", "coordinates": [[2.4178817, 48.8261196], [2.4180968, 48.8257359]]}}, {"type": "Feature", "properties": {"highway": "path", "footway": null, "name": null, "surface": "dirt", "lit": "no", "length_m": 84.27, "type_element": "Way", "__fid": 120475}, "geometry": {"type": "LineString", "coordinates": [[2.4178817, 48.8261196], [2.4181227, 48.8260864], [2.4187873, 48.826059], [2.4190231, 48.8260592]]}}, {"type": "Feature", "properties": {"highway": "track", "footway": null, "name": "Promenade Maurice-Boitel", "surface": "compacted", "lit": "no", "length_m": 70.03, "type_element": "Way", "__fid": 120477}, "geometry": {"type": "LineString", "coordinates": [[2.4178863, 48.8296359], [2.4181823, 48.8293002], [2.4183992, 48.8291059]]}}, {"type": "Feature", "properties": {"highway": "track", "footway": null, "name": "Promenade Maurice-Boitel", "surface": "compacted", "lit": "no", "length_m": 15.74, "type_element": "Way", "__fid": 120478}, "geometry": {"type": "LineString", "coordinates": [[2.4181141, 48.8282861], [2.4179175, 48.8282296]]}}, {"type": "Feature", "properties": {"highway": "path", "footway": null, "name": null, "surface": "compacted", "lit": null, "length_m": 50.12, "type_element": "Way", "__fid": 120479}, "geometry": {"type": "LineString", "coordinates": [[2.4179175, 48.8282296], [2.4185621, 48.82808110000001]]}}, {"type": "Feature", "properties": {"highway": "path", "footway": null, "name": null, "surface": "compacted", "lit": "no", "length_m": 118.43, "type_element": "Way", "__fid": 120481}, "geometry": {"type": "LineString", "coordinates": [[2.4179087, 48.8300929], [2.4180026, 48.8300098], [2.4181707, 48.8297998], [2.4183154, 48.8295375], [2.4184382, 48.8292322], [2.4183992, 48.8291059]]}}, {"type": "Feature", "properties": {"highway": "pedestrian", "footway": null, "name": "Route de la Ceinture du Lac Daumesnil", "surface": "asphalt", "lit": "no", "length_m": 233.21, "type_element": "Way", "__fid": 120482}, "geometry": {"type": "LineString", "coordinates": [[2.4193184, 48.8286406], [2.4192915, 48.8286543], [2.4192519, 48.8287041], [2.4190259, 48.8291532], [2.4188395, 48.829482699999986], [2.4184849, 48.8299677], [2.4181834, 48.8303052], [2.4179484, 48.830518]]}}, {"type": "Feature", "properties": {"highway": "path", "footway": null, "name": null, "surface": null, "lit": "no", "length_m": 53.95, "type_element": "Way", "__fid": 120486}, "geometry": {"type": "LineString", "coordinates": [[2.4180968, 48.8257359], [2.4181323, 48.8256726], [2.4184603, 48.8253154]]}}, {"type": "Feature", "properties": {"highway": "track", "footway": null, "name": "Promenade Maurice-Boitel", "surface": "compacted", "lit": "no", "length_m": 59.76, "type_element": "Way", "__fid": 120487}, "geometry": {"type": "LineString", "coordinates": [[2.4185057, 48.8287312], [2.418408, 48.8284815], [2.4183352, 48.8284009], [2.4181141, 48.8282861]]}}, {"type": "Feature", "properties": {"highway": "path", "footway": null, "name": null, "surface": "compacted", "lit": null, "length_m": 27.05, "type_element": "Way", "__fid": 120488}, "geometry": {"type": "LineString", "coordinates": [[2.4184502, 48.8283304], [2.4183608, 48.8282822], [2.4182986, 48.8282679], [2.4182082, 48.8282715], [2.4181141, 48.8282861]]}}, {"type": "Feature", "properties": {"highway": "path", "footway": null, "name": null, "surface": "dirt", "lit": "no", "length_m": 43.41, "type_element": "Way", "__fid": 120489}, "geometry": {"type": "LineString", "coordinates": [[2.4181842, 48.8249702], [2.4184603, 48.8253154]]}}, {"type": "Feature", "properties": {"highway": "path", "footway": null, "name": null, "surface": "dirt", "lit": "no", "length_m": 93.39, "type_element": "Way", "__fid": 120490}, "geometry": {"type": "LineString", "coordinates": [[2.4181842, 48.8249702], [2.4186702, 48.8246876], [2.4190132, 48.8245466], [2.4191103, 48.82452149999999], [2.4192044, 48.8244766]]}}, {"type": "Feature", "properties": {"highway": "track", "footway": null, "name": "Promenade Maurice-Boitel", "surface": "compacted", "lit": "no", "length_m": 42.39, "type_element": "Way", "__fid": 120495}, "geometry": {"type": "LineString", "coordinates": [[2.4183992, 48.8291059], [2.4185057, 48.8287312]]}}, {"type": "Feature", "properties": {"highway": "path", "footway": null, "name": null, "surface": "compacted", "lit": "no", "length_m": 87.69, "type_element": "Way", "__fid": 120496}, "geometry": {"type": "LineString", "coordinates": [[2.4183992, 48.8291059], [2.4184579, 48.829104], [2.4187504, 48.82892840000002], [2.4190079, 48.82878620000001], [2.4191106, 48.82875520000001], [2.4192392, 48.8285823]]}}, {"type": "Feature", "properties": {"highway": "path", "footway": null, "name": null, "surface": "dirt", "lit": "no", "length_m": 92.45, "type_element": "Way", "__fid": 120499}, "geometry": {"type": "LineString", "coordinates": [[2.4184603, 48.8253154], [2.4190231, 48.8260592]]}}, {"type": "Feature", "properties": {"highway": "path", "footway": null, "name": null, "surface": null, "lit": "no", "length_m": 104.45, "type_element": "Way", "__fid": 120500}, "geometry": {"type": "LineString", "coordinates": [[2.4184603, 48.8253154], [2.4186513, 48.825116499999986], [2.4191626, 48.82465], [2.4193023, 48.82456130000001]]}}, {"type": "Feature", "properties": {"highway": "path", "footway": null, "name": null, "surface": "compacted", "lit": "no", "length_m": 39.96, "type_element": "Way", "__fid": 120501}, "geometry": {"type": "LineString", "coordinates": [[2.4185916, 48.828655599999976], [2.4186234, 48.8285695], [2.4186142, 48.8285044], [2.418547, 48.8284206], [2.4184502, 48.8283304]]}}, {"type": "Feature", "properties": {"highway": "path", "footway": null, "name": null, "surface": "compacted", "lit": null, "length_m": 28.94, "type_element": "Way", "__fid": 120502}, "geometry": {"type": "LineString", "coordinates": [[2.4184502, 48.8283304], [2.4184699, 48.828269700000014], [2.4185621, 48.82808110000001]]}}, {"type": "Feature", "properties": {"highway": "path", "footway": null, "name": null, "surface": "compacted", "lit": "no", "length_m": 10.51, "type_element": "Way", "__fid": 120503}, "geometry": {"type": "LineString", "coordinates": [[2.4185057, 48.8287312], [2.4185916, 48.828655599999976]]}}, {"type": "Feature", "properties": {"highway": "path", "footway": null, "name": null, "surface": "compacted", "lit": null, "length_m": 14.3, "type_element": "Way", "__fid": 120505}, "geometry": {"type": "LineString", "coordinates": [[2.4185621, 48.82808110000001], [2.418631, 48.8279608]]}}, {"type": "Feature", "properties": {"highway": "path", "footway": null, "name": null, "surface": "compacted", "lit": null, "length_m": 16.72, "type_element": "Way", "__fid": 120506}, "geometry": {"type": "LineString", "coordinates": [[2.4185621, 48.82808110000001], [2.4186672, 48.8280393], [2.4187697, 48.8280239]]}}, {"type": "Feature", "properties": {"highway": "path", "footway": null, "name": null, "surface": "compacted", "lit": "no", "length_m": 57.28, "type_element": "Way", "__fid": 120507}, "geometry": {"type": "LineString", "coordinates": [[2.4185916, 48.828655599999976], [2.4187349, 48.8285706], [2.4190816, 48.828257399999984]]}}, {"type": "Feature", "properties": {"highway": "path", "footway": null, "name": null, "surface": "compacted", "lit": null, "length_m": 12.37, "type_element": "Way", "__fid": 120508}, "geometry": {"type": "LineString", "coordinates": [[2.418631, 48.8279608], [2.4187697, 48.8280239]]}}, {"type": "Feature", "properties": {"highway": "path", "footway": null, "name": null, "surface": "compacted", "lit": null, "length_m": 9.79, "type_element": "Way", "__fid": 120509}, "geometry": {"type": "LineString", "coordinates": [[2.418631, 48.8279608], [2.4186924, 48.8278826]]}}, {"type": "Feature", "properties": {"highway": "pedestrian", "footway": null, "name": "Route de la Ceinture du Lac Daumesnil", "surface": "asphalt", "lit": "yes", "length_m": 47.94, "type_element": "Way", "__fid": 120511}, "geometry": {"type": "LineString", "coordinates": [[2.4186924, 48.8278826], [2.4188467, 48.8279607], [2.4190276, 48.8280998], [2.4191251, 48.8282004]]}}, {"type": "Feature", "properties": {"highway": "track", "footway": null, "name": "Route de Saint-Maurice", "surface": "compacted", "lit": "no", "length_m": 8.38, "type_element": "Way", "__fid": 120512}, "geometry": {"type": "LineString", "coordinates": [[2.4186924, 48.8278826], [2.4187609, 48.82782230000002]]}}, {"type": "Feature", "properties": {"highway": "path", "footway": null, "name": "Carrefour de la Conservation", "surface": "compacted", "lit": null, "length_m": 36.35, "type_element": "Way", "__fid": 120513}, "geometry": {"type": "LineString", "coordinates": [[2.4187609, 48.82782230000002], [2.4192533, 48.8278566]]}}, {"type": "Feature", "properties": {"highway": "track", "footway": null, "name": "Route de Saint-Maurice", "surface": "compacted", "lit": "no", "length_m": 41.69, "type_element": "Way", "__fid": 120514}, "geometry": {"type": "LineString", "coordinates": [[2.4187609, 48.82782230000002], [2.4189154, 48.8276939], [2.4190958, 48.8275198]]}}, {"type": "Feature", "properties": {"highway": "path", "footway": null, "name": null, "surface": "compacted", "lit": null, "length_m": 34.71, "type_element": "Way", "__fid": 120515}, "geometry": {"type": "LineString", "coordinates": [[2.4187697, 48.8280239], [2.4188912, 48.82809850000002], [2.4190816, 48.828257399999984]]}}, {"type": "Feature", "properties": {"highway": "path", "footway": null, "name": null, "surface": "dirt", "lit": "no", "length_m": 7.25, "type_element": "Way", "__fid": 120518}, "geometry": {"type": "LineString", "coordinates": [[2.4190231, 48.8260592], [2.4191145, 48.8260838]]}}, {"type": "Feature", "properties": {"highway": "path", "footway": null, "name": null, "surface": "dirt", "lit": "no", "length_m": 12.69, "type_element": "Way", "__fid": 120519}, "geometry": {"type": "LineString", "coordinates": [[2.4190231, 48.8260592], [2.4191105, 48.82615770000001]]}}, {"type": "Feature", "properties": {"highway": "path", "footway": null, "name": null, "surface": "compacted", "lit": null, "length_m": 38.11, "type_element": "Way", "__fid": 120524}, "geometry": {"type": "LineString", "coordinates": [[2.4190816, 48.828257399999984], [2.4191594, 48.8283669], [2.4192392, 48.8285823]]}}, {"type": "Feature", "properties": {"highway": "path", "footway": null, "name": null, "surface": "compacted", "lit": "no", "length_m": 7.1, "type_element": "Way", "__fid": 120525}, "geometry": {"type": "LineString", "coordinates": [[2.4190816, 48.828257399999984], [2.4191251, 48.8282004]]}}, {"type": "Feature", "properties": {"highway": "path", "footway": null, "name": "Route de Saint-Maurice", "surface": "compacted", "lit": "no", "length_m": 153.19, "type_element": "Way", "__fid": 120526}, "geometry": {"type": "LineString", "coordinates": [[2.4190958, 48.8275198], [2.4191632, 48.8274211], [2.4192054, 48.8273233], [2.419156, 48.8269914], [2.4191105, 48.82615770000001]]}}, {"type": "Feature", "properties": {"highway": "path", "footway": null, "name": "Route de Saint-Maurice", "surface": "compacted", "lit": "no", "length_m": 8.22, "type_element": "Way", "__fid": 120527}, "geometry": {"type": "LineString", "coordinates": [[2.4191105, 48.82615770000001], [2.4191145, 48.8260838]]}}, {"type": "Feature", "properties": {"highway": "path", "footway": null, "name": "Route de la Plaine", "surface": "asphalt", "lit": "no", "length_m": 6.14, "type_element": "Way", "__fid": 120528}, "geometry": {"type": "LineString", "coordinates": [[2.4191521, 48.82756060000002], [2.4190958, 48.8275198]]}}, {"type": "Feature", "properties": {"highway": "path", "footway": null, "name": null, "surface": "dirt", "lit": "no", "length_m": 53.54, "type_element": "Way", "__fid": 120529}, "geometry": {"type": "LineString", "coordinates": [[2.4191145, 48.8260838], [2.4198436, 48.8260958]]}}, {"type": "Feature", "properties": {"highway": "path", "footway": null, "name": "Route de Saint-Maurice", "surface": "compacted", "lit": "no", "length_m": 210.59, "type_element": "Way", "__fid": 120530}, "geometry": {"type": "LineString", "coordinates": [[2.4191145, 48.8260838], [2.4192587, 48.82545630000001], [2.4194752, 48.8249784], [2.4195922, 48.82467889999999], [2.4197974, 48.8242486]]}}, {"type": "Feature", "properties": {"highway": "pedestrian", "footway": null, "name": "Route de la Ceinture du Lac Daumesnil", "surface": "asphalt", "lit": "yes", "length_m": 12.38, "type_element": "Way", "__fid": 120531}, "geometry": {"type": "LineString", "coordinates": [[2.4191251, 48.8282004], [2.4191849, 48.8282044], [2.419293, 48.8281977]]}}, {"type": "Feature", "properties": {"highway": "footway", "footway": "crossing", "name": null, "surface": "compacted", "lit": null, "length_m": 26.39, "type_element": "Way", "__fid": 120535}, "geometry": {"type": "LineString", "coordinates": [[2.4195098, 48.827584], [2.4191521, 48.82756060000002]]}}, {"type": "Feature", "properties": {"highway": "path", "footway": null, "name": "Route de la Plaine", "surface": "asphalt", "lit": "yes", "length_m": 34.21, "type_element": "Way", "__fid": 120536}, "geometry": {"type": "LineString", "coordinates": [[2.4192533, 48.8278566], [2.4192385, 48.8276985], [2.4191521, 48.82756060000002]]}}, {"type": "Feature", "properties": {"highway": "path", "footway": null, "name": null, "surface": null, "lit": null, "length_m": 11.85, "type_element": "Way", "__fid": 120539}, "geometry": {"type": "LineString", "coordinates": [[2.4192044, 48.8244766], [2.4193023, 48.82456130000001]]}}, {"type": "Feature", "properties": {"highway": "path", "footway": null, "name": null, "surface": null, "lit": null, "length_m": 25.32, "type_element": "Way", "__fid": 120540}, "geometry": {"type": "LineString", "coordinates": [[2.4192254, 48.82425030000002], [2.4192316, 48.8243598], [2.4192044, 48.8244766]]}}, {"type": "Feature", "properties": {"highway": "path", "footway": null, "name": null, "surface": "dirt", "lit": "no", "length_m": 50.38, "type_element": "Way", "__fid": 120541}, "geometry": {"type": "LineString", "coordinates": [[2.4192044, 48.8244766], [2.4197974, 48.8242486]]}}, {"type": "Feature", "properties": {"highway": "path", "footway": null, "name": "Avenue de Gravelle", "surface": "asphalt", "lit": "yes", "length_m": 43.0, "type_element": "Way", "__fid": 120542}, "geometry": {"type": "LineString", "coordinates": [[2.4192254, 48.82425030000002], [2.4193257, 48.8242393], [2.4198086, 48.8242173]]}}, {"type": "Feature", "properties": {"highway": "footway", "footway": null, "name": "Carrefour de la Conservation", "surface": "compacted", "lit": null, "length_m": 8.71, "type_element": "Way", "__fid": 120547}, "geometry": {"type": "LineString", "coordinates": [[2.4192392, 48.8285823], [2.4193184, 48.8286406]]}}, {"type": "Feature", "properties": {"highway": "footway", "footway": null, "name": "Carrefour de la Conservation", "surface": "compacted", "lit": null, "length_m": 15.93, "type_element": "Way", "__fid": 120548}, "geometry": {"type": "LineString", "coordinates": [[2.419352, 48.82846580000001], [2.4193525, 48.8284896], [2.4192882, 48.8285496], [2.4192392, 48.8285823]]}}, {"type": "Feature", "properties": {"highway": "service", "footway": null, "name": "Route des Batteries", "surface": "asphalt", "lit": "no", "length_m": 22.54, "type_element": "Way", "__fid": 120549}, "geometry": {"type": "LineString", "coordinates": [[2.4192533, 48.8278566], [2.4194665, 48.827867200000014], [2.4195367, 48.8279077]]}}, {"type": "Feature", "properties": {"highway": "footway", "footway": null, "name": "Carrefour de la Conservation", "surface": "compacted", "lit": "yes", "length_m": 38.06, "type_element": "Way", "__fid": 120550}, "geometry": {"type": "LineString", "coordinates": [[2.4192533, 48.8278566], [2.419264, 48.8280217], [2.419293, 48.8281977]]}}, {"type": "Feature", "properties": {"highway": "path", "footway": null, "name": null, "surface": null, "lit": "no", "length_m": 50.3, "type_element": "Way", "__fid": 120553}, "geometry": {"type": "LineString", "coordinates": [[2.4193023, 48.82456130000001], [2.4197974, 48.8242486]]}}, {"type": "Feature", "properties": {"highway": "footway", "footway": null, "name": "Carrefour de la Conservation", "surface": "compacted", "lit": "yes", "length_m": 30.28, "type_element": "Way", "__fid": 120554}, "geometry": {"type": "LineString", "coordinates": [[2.419293, 48.8281977], [2.4193498, 48.8283629], [2.419352, 48.82846580000001]]}}, {"type": "Feature", "properties": {"highway": "pedestrian", "footway": null, "name": "Route de la Ceinture du Lac Daumesnil", "surface": "asphalt", "lit": "yes", "length_m": 9.8, "type_element": "Way", "__fid": 120555}, "geometry": {"type": "LineString", "coordinates": [[2.419293, 48.8281977], [2.4194265, 48.8281971]]}}, {"type": "Feature", "properties": {"highway": "footway", "footway": null, "name": "Carrefour de la Conservation", "surface": "compacted", "lit": null, "length_m": 37.14, "type_element": "Way", "__fid": 120556}, "geometry": {"type": "LineString", "coordinates": [[2.4193184, 48.8286406], [2.4194793, 48.8287584], [2.4197321, 48.828704600000016]]}}, {"type": "Feature", "properties": {"highway": "pedestrian", "footway": null, "name": "Route de la Ceinture du Lac Daumesnil", "surface": "asphalt", "lit": "no", "length_m": 17.79, "type_element": "Way", "__fid": 120557}, "geometry": {"type": "LineString", "coordinates": [[2.4195385, 48.8285806], [2.4193673, 48.8286132], [2.4193184, 48.8286406]]}}, {"type": "Feature", "properties": {"highway": "footway", "footway": "crossing", "name": null, "surface": "asphalt", "lit": null, "length_m": 20.63, "type_element": "Way", "__fid": 120558}, "geometry": {"type": "LineString", "coordinates": [[2.4196296, 48.82843709999999], [2.419352, 48.82846580000001]]}}, {"type": "Feature", "properties": {"highway": "service", "footway": null, "name": "Route de la Brasserie", "surface": "asphalt", "lit": null, "length_m": 9.16, "type_element": "Way", "__fid": 120561}, "geometry": {"type": "LineString", "coordinates": [[2.419523, 48.827478], [2.4193983, 48.8274754]]}}, {"type": "Feature", "properties": {"highway": "path", "footway": null, "name": null, "surface": null, "lit": null, "length_m": 42.46, "type_element": "Way", "__fid": 120569}, "geometry": {"type": "LineString", "coordinates": [[2.4198957, 48.8278671], [2.4196015, 48.8276698], [2.4195098, 48.827584]]}}, {"type": "Feature", "properties": {"highway": "path", "footway": null, "name": null, "surface": "compacted", "lit": "yes", "length_m": 36.05, "type_element": "Way", "__fid": 120570}, "geometry": {"type": "LineString", "coordinates": [[2.4195098, 48.827584], [2.4195367, 48.8279077]]}}, {"type": "Feature", "properties": {"highway": "path", "footway": null, "name": null, "surface": "dirt", "lit": "no", "length_m": 11.83, "type_element": "Way", "__fid": 120571}, "geometry": {"type": "LineString", "coordinates": [[2.4195098, 48.827584], [2.419523, 48.827478]]}}, {"type": "Feature", "properties": {"highway": "path", "footway": null, "name": null, "surface": null, "lit": null, "length_m": 140.16, "type_element": "Way", "__fid": 120572}, "geometry": {"type": "LineString", "coordinates": [[2.4195098, 48.827584], [2.4195698, 48.8275582], [2.4202886, 48.82744429999998], [2.4204053, 48.8274196], [2.4207634, 48.8272801], [2.4211711, 48.8271406], [2.4212653, 48.8271168]]}}, {"type": "Feature", "properties": {"highway": "path", "footway": null, "name": null, "surface": "dirt", "lit": "no", "length_m": 64.3, "type_element": "Way", "__fid": 120573}, "geometry": {"type": "LineString", "coordinates": [[2.419523, 48.827478], [2.4195416, 48.8273953], [2.4197042, 48.82691239999998]]}}, {"type": "Feature", "properties": {"highway": "service", "footway": null, "name": "Route de la Brasserie", "surface": "asphalt", "lit": null, "length_m": 140.79, "type_element": "Way", "__fid": 120574}, "geometry": {"type": "LineString", "coordinates": [[2.4212833, 48.8270209], [2.4208977, 48.8271394], [2.4205099, 48.8273098], [2.4201732, 48.827404399999985], [2.419616, 48.8274761], [2.419523, 48.827478]]}}, {"type": "Feature", "properties": {"highway": "service", "footway": null, "name": "Route des Batteries", "surface": "asphalt", "lit": "no", "length_m": 13.2, "type_element": "Way", "__fid": 120575}, "geometry": {"type": "LineString", "coordinates": [[2.4196451, 48.8280024], [2.4195367, 48.8279077]]}}, {"type": "Feature", "properties": {"highway": "path", "footway": null, "name": null, "surface": "dirt", "lit": "yes", "length_m": 59.46, "type_element": "Way", "__fid": 120576}, "geometry": {"type": "LineString", "coordinates": [[2.4195367, 48.8279077], [2.4195471, 48.827934099999986], [2.4195622, 48.82817180000002], [2.4195838, 48.8283111], [2.4196296, 48.82843709999999]]}}, {"type": "Feature", "properties": {"highway": "path", "footway": null, "name": null, "surface": null, "lit": "no", "length_m": 27.03, "type_element": "Way", "__fid": 120577}, "geometry": {"type": "LineString", "coordinates": [[2.4195367, 48.8279077], [2.4197043, 48.8278706], [2.4198957, 48.8278671]]}}, {"type": "Feature", "properties": {"highway": "path", "footway": null, "name": null, "surface": "dirt", "lit": "yes", "length_m": 4.84, "type_element": "Way", "__fid": 120585}, "geometry": {"type": "LineString", "coordinates": [[2.4196296, 48.82843709999999], [2.4196449, 48.82847940000001]]}}, {"type": "Feature", "properties": {"highway": "path", "footway": null, "name": null, "surface": "compacted", "lit": "no", "length_m": 102.17, "type_element": "Way", "__fid": 120586}, "geometry": {"type": "LineString", "coordinates": [[2.4196451, 48.8280024], [2.4198018, 48.8280168], [2.4200789, 48.8280827], [2.4202845, 48.8281626], [2.4204489, 48.8282442], [2.420658, 48.828419799999985], [2.4207672, 48.8284937]]}}, {"type": "Feature", "properties": {"highway": "service", "footway": null, "name": "Route des Batteries", "surface": "asphalt", "lit": "no", "length_m": 62.35, "type_element": "Way", "__fid": 120587}, "geometry": {"type": "LineString", "coordinates": [[2.4201981, 48.828426499999985], [2.4198051, 48.8281505], [2.4196451, 48.8280024]]}}, {"type": "Feature", "properties": {"highway": "path", "footway": null, "name": null, "surface": "dirt", "lit": "yes", "length_m": 15.07, "type_element": "Way", "__fid": 120588}, "geometry": {"type": "LineString", "coordinates": [[2.4196449, 48.82847940000001], [2.4196871, 48.828612]]}}, {"type": "Feature", "properties": {"highway": "path", "footway": null, "name": null, "surface": "dirt", "lit": null, "length_m": 23.87, "type_element": "Way", "__fid": 120589}, "geometry": {"type": "LineString", "coordinates": [[2.4199701, 48.8284794], [2.4196449, 48.82847940000001]]}}, {"type": "Feature", "properties": {"highway": "path", "footway": null, "name": null, "surface": "dirt", "lit": "no", "length_m": 84.65, "type_element": "Way", "__fid": 120591}, "geometry": {"type": "LineString", "coordinates": [[2.4197042, 48.82691239999998], [2.4198337, 48.82658690000002], [2.4199658, 48.82617120000001]]}}, {"type": "Feature", "properties": {"highway": "path", "footway": null, "name": null, "surface": null, "lit": null, "length_m": 78.54, "type_element": "Way", "__fid": 120592}, "geometry": {"type": "LineString", "coordinates": [[2.4197042, 48.82691239999998], [2.4198729, 48.8267795], [2.4200137, 48.8266523], [2.420121, 48.8265861], [2.4205359, 48.8265361]]}}, {"type": "Feature", "properties": {"highway": "path", "footway": null, "name": null, "surface": "dirt", "lit": "yes", "length_m": 37.26, "type_element": "Way", "__fid": 120593}, "geometry": {"type": "LineString", "coordinates": [[2.4196871, 48.828612], [2.4199295, 48.8286289], [2.4201932, 48.828632200000015]]}}, {"type": "Feature", "properties": {"highway": "path", "footway": null, "name": null, "surface": "dirt", "lit": null, "length_m": 10.81, "type_element": "Way", "__fid": 120594}, "geometry": {"type": "LineString", "coordinates": [[2.4196871, 48.828612], [2.4197321, 48.828704600000016]]}}, {"type": "Feature", "properties": {"highway": "path", "footway": null, "name": null, "surface": "dirt", "lit": null, "length_m": 84.45, "type_element": "Way", "__fid": 120599}, "geometry": {"type": "LineString", "coordinates": [[2.4207915, 48.82893150000002], [2.4202893, 48.82883039999999], [2.420058, 48.8288105], [2.4197733, 48.8287638], [2.4197321, 48.828704600000016]]}}, {"type": "Feature", "properties": {"highway": "path", "footway": "crossing", "name": null, "surface": "asphalt", "lit": "yes", "length_m": 21.45, "type_element": "Way", "__fid": 120600}, "geometry": {"type": "LineString", "coordinates": [[2.4198086, 48.8242173], [2.419794, 48.8240246]]}}, {"type": "Feature", "properties": {"highway": "path", "footway": null, "name": "Route de Saint-Maurice", "surface": "compacted", "lit": "no", "length_m": 3.58, "type_element": "Way", "__fid": 120601}, "geometry": {"type": "LineString", "coordinates": [[2.4197974, 48.8242486], [2.4198086, 48.8242173]]}}, {"type": "Feature", "properties": {"highway": "footway", "footway": "crossing", "name": "Avenue de Gravelle", "surface": "asphalt", "lit": "yes", "length_m": 21.68, "type_element": "Way", "__fid": 120603}, "geometry": {"type": "LineString", "coordinates": [[2.4198086, 48.8242173], [2.4201036, 48.8242079]]}}, {"type": "Feature", "properties": {"highway": "pedestrian", "footway": null, "name": "Route du Parc", "surface": "asphalt", "lit": "yes", "length_m": 10.0, "type_element": "Way", "__fid": 120606}, "geometry": {"type": "LineString", "coordinates": [[2.4199658, 48.82617120000001], [2.4198379, 48.8261402]]}}, {"type": "Feature", "properties": {"highway": "path", "footway": null, "name": null, "surface": null, "lit": "no", "length_m": 177.62, "type_element": "Way", "__fid": 120614}, "geometry": {"type": "LineString", "coordinates": [[2.4198957, 48.8278671], [2.4201591, 48.8279049], [2.4203991, 48.8279611], [2.4206332, 48.8280807], [2.4208399, 48.8282531], [2.4211516, 48.828573100000014], [2.4213206, 48.828732], [2.4214842, 48.8288097], [2.4216708, 48.8288456]]}}, {"type": "Feature", "properties": {"highway": "path", "footway": null, "name": null, "surface": null, "lit": "no", "length_m": 128.8, "type_element": "Way", "__fid": 120615}, "geometry": {"type": "LineString", "coordinates": [[2.4198957, 48.8278671], [2.4201373, 48.8277932], [2.4204308, 48.8277242], [2.4207507, 48.8276295], [2.4209538, 48.8275591], [2.4211335, 48.8273913], [2.4212708, 48.8272261]]}}, {"type": "Feature", "properties": {"highway": "pedestrian", "footway": null, "name": "Route du Parc", "surface": "asphalt", "lit": "no", "length_m": 6.28, "type_element": "Way", "__fid": 120618}, "geometry": {"type": "LineString", "coordinates": [[2.4200499, 48.8261817], [2.4199658, 48.82617120000001]]}}, {"type": "Feature", "properties": {"highway": "path", "footway": null, "name": null, "surface": null, "lit": "no", "length_m": 209.1, "type_element": "Way", "__fid": 120619}, "geometry": {"type": "LineString", "coordinates": [[2.4199658, 48.82617120000001], [2.4200848, 48.825472099999985], [2.4201171, 48.8249541], [2.4200999, 48.8242956]]}}, {"type": "Feature", "properties": {"highway": "path", "footway": null, "name": null, "surface": "dirt", "lit": null, "length_m": 23.6, "type_element": "Way", "__fid": 120622}, "geometry": {"type": "LineString", "coordinates": [[2.4201932, 48.828632200000015], [2.4199701, 48.8284794]]}}, {"type": "Feature", "properties": {"highway": "path", "footway": null, "name": null, "surface": "dirt", "lit": null, "length_m": 17.74, "type_element": "Way", "__fid": 120623}, "geometry": {"type": "LineString", "coordinates": [[2.4199701, 48.8284794], [2.4201981, 48.828426499999985]]}}, {"type": "Feature", "properties": {"highway": "path", "footway": null, "name": null, "surface": "dirt", "lit": "no", "length_m": 53.16, "type_element": "Way", "__fid": 120624}, "geometry": {"type": "LineString", "coordinates": [[2.4205359, 48.8265361], [2.4200499, 48.8261817]]}}, {"type": "Feature", "properties": {"highway": "pedestrian", "footway": null, "name": "Route du Parc", "surface": "asphalt", "lit": "no", "length_m": 110.02, "type_element": "Way", "__fid": 120625}, "geometry": {"type": "LineString", "coordinates": [[2.4208057, 48.8253291], [2.4205194, 48.8256024], [2.420326, 48.825828], [2.4200499, 48.8261817]]}}, {"type": "Feature", "properties": {"highway": "path", "footway": null, "name": null, "surface": "compacted", "lit": "no", "length_m": 127.49, "type_element": "Way", "__fid": 120627}, "geometry": {"type": "LineString", "coordinates": [[2.4208057, 48.8253291], [2.4207024, 48.82505219999999], [2.4205668, 48.8247871], [2.4203956, 48.824588], [2.4202239, 48.8244256], [2.4201508, 48.8243342], [2.4200999, 48.8242956]]}}, {"type": "Feature", "properties": {"highway": "path", "footway": null, "name": null, "surface": null, "lit": "no", "length_m": 9.76, "type_element": "Way", "__fid": 120628}, "geometry": {"type": "LineString", "coordinates": [[2.4201036, 48.8242079], [2.4200999, 48.8242956]]}}, {"type": "Feature", "properties": {"highway": "path", "footway": null, "name": "Avenue de Gravelle", "surface": "asphalt", "lit": "yes", "length_m": 9.56, "type_element": "Way", "__fid": 120631}, "geometry": {"type": "LineString", "coordinates": [[2.4201036, 48.8242079], [2.420118, 48.824169], [2.4201781, 48.8241458]]}}, {"type": "Feature", "properties": {"highway": "footway", "footway": "crossing", "name": null, "surface": "asphalt", "lit": null, "length_m": 16.68, "type_element": "Way", "__fid": 120638}, "geometry": {"type": "LineString", "coordinates": [[2.4201608, 48.82399619999999], [2.4201781, 48.8241458]]}}, {"type": "Feature", "properties": {"highway": "path", "footway": null, "name": "Avenue de Gravelle", "surface": "asphalt", "lit": "yes", "length_m": 114.53, "type_element": "Way", "__fid": 120640}, "geometry": {"type": "LineString", "coordinates": [[2.4201781, 48.8241458], [2.4202973, 48.82413130000002], [2.4207621, 48.8241189], [2.4212891, 48.824122], [2.4217351, 48.8241356]]}}, {"type": "Feature", "properties": {"highway": "path", "footway": null, "name": null, "surface": "dirt", "lit": "yes", "length_m": 24.01, "type_element": "Way", "__fid": 120647}, "geometry": {"type": "LineString", "coordinates": [[2.4201932, 48.828632200000015], [2.4203729, 48.8286476], [2.4205176, 48.8286354]]}}, {"type": "Feature", "properties": {"highway": "path", "footway": null, "name": null, "surface": "dirt", "lit": null, "length_m": 55.11, "type_element": "Way", "__fid": 120648}, "geometry": {"type": "LineString", "coordinates": [[2.4207915, 48.82893150000002], [2.4201932, 48.828632200000015]]}}, {"type": "Feature", "properties": {"highway": "service", "footway": null, "name": "Route des Batteries", "surface": "asphalt", "lit": "no", "length_m": 33.07, "type_element": "Way", "__fid": 120649}, "geometry": {"type": "LineString", "coordinates": [[2.4205176, 48.8286354], [2.4204235, 48.8285848], [2.4201981, 48.828426499999985]]}}, {"type": "Feature", "properties": {"highway": "path", "footway": null, "name": "Avenue des Tribunes", "surface": "dirt", "lit": "no", "length_m": 101.31, "type_element": "Way", "__fid": 120659}, "geometry": {"type": "LineString", "coordinates": [[2.4215624, 48.8294507], [2.421326, 48.8294873], [2.4203396, 48.8297013], [2.420243, 48.82971540000001]]}}, {"type": "Feature", "properties": {"highway": "path", "footway": null, "name": null, "surface": "dirt", "lit": "no", "length_m": 8.7, "type_element": "Way", "__fid": 120687}, "geometry": {"type": "LineString", "coordinates": [[2.4206154, 48.8265941], [2.4205359, 48.8265361]]}}, {"type": "Feature", "properties": {"highway": "path", "footway": null, "name": null, "surface": null, "lit": null, "length_m": 55.14, "type_element": "Way", "__fid": 120688}, "geometry": {"type": "LineString", "coordinates": [[2.4205359, 48.8265361], [2.4206896, 48.826459], [2.4209994, 48.826277099999984], [2.4210873, 48.8262023]]}}, {"type": "Feature", "properties": {"highway": "service", "footway": null, "name": "Route des Batteries", "surface": "asphalt", "lit": "no", "length_m": 47.54, "type_element": "Way", "__fid": 120690}, "geometry": {"type": "LineString", "coordinates": [[2.4210209, 48.8289045], [2.4205176, 48.8286354]]}}, {"type": "Feature", "properties": {"highway": "path", "footway": null, "name": null, "surface": "dirt", "lit": "yes", "length_m": 24.56, "type_element": "Way", "__fid": 120691}, "geometry": {"type": "LineString", "coordinates": [[2.4205176, 48.8286354], [2.4205877, 48.8285995], [2.420634, 48.828551], [2.4207672, 48.8284937]]}}, {"type": "Feature", "properties": {"highway": "path", "footway": null, "name": null, "surface": "compacted", "lit": "no", "length_m": 62.75, "type_element": "Way", "__fid": 120710}, "geometry": {"type": "LineString", "coordinates": [[2.4207672, 48.8284937], [2.4208298, 48.8285858], [2.4210625, 48.82879219999999], [2.4213079, 48.8289196]]}}, {"type": "Feature", "properties": {"highway": "path", "footway": null, "name": null, "surface": "compacted", "lit": "no", "length_m": 51.04, "type_element": "Way", "__fid": 120711}, "geometry": {"type": "LineString", "coordinates": [[2.4209365, 48.8257796], [2.4208941, 48.8255902], [2.4208057, 48.8253291]]}}, {"type": "Feature", "properties": {"highway": "pedestrian", "footway": null, "name": "Route du Parc", "surface": "asphalt", "lit": "no", "length_m": 93.07, "type_element": "Way", "__fid": 120712}, "geometry": {"type": "LineString", "coordinates": [[2.4216844, 48.82472770000001], [2.4211798, 48.8250388], [2.4208057, 48.8253291]]}}, {"type": "Feature", "properties": {"highway": "path", "footway": null, "name": null, "surface": "dirt", "lit": "no", "length_m": 65.71, "type_element": "Way", "__fid": 120713}, "geometry": {"type": "LineString", "coordinates": [[2.4215466, 48.82924890000001], [2.4207915, 48.82893150000002]]}}, {"type": "Feature", "properties": {"highway": "path", "footway": null, "name": null, "surface": "dirt", "lit": "no", "length_m": 17.11, "type_element": "Way", "__fid": 120714}, "geometry": {"type": "LineString", "coordinates": [[2.4210209, 48.8289045], [2.4207915, 48.82893150000002]]}}, {"type": "Feature", "properties": {"highway": "path", "footway": null, "name": null, "surface": null, "lit": null, "length_m": 43.77, "type_element": "Way", "__fid": 120720}, "geometry": {"type": "LineString", "coordinates": [[2.4215114, 48.8258566], [2.4212616, 48.8258586], [2.4209365, 48.8257796]]}}, {"type": "Feature", "properties": {"highway": "path", "footway": null, "name": null, "surface": "compacted", "lit": "no", "length_m": 48.29, "type_element": "Way", "__fid": 120721}, "geometry": {"type": "LineString", "coordinates": [[2.4210873, 48.8262023], [2.4209365, 48.8257796]]}}, {"type": "Feature", "properties": {"highway": "path", "footway": null, "name": null, "surface": "compacted", "lit": "no", "length_m": 21.14, "type_element": "Way", "__fid": 120735}, "geometry": {"type": "LineString", "coordinates": [[2.4213079, 48.8289196], [2.4210209, 48.8289045]]}}, {"type": "Feature", "properties": {"highway": "service", "footway": null, "name": "Route des Batteries", "surface": "asphalt", "lit": "no", "length_m": 31.43, "type_element": "Way", "__fid": 120736}, "geometry": {"type": "LineString", "coordinates": [[2.4213772, 48.82906120000001], [2.4210209, 48.8289045]]}}, {"type": "Feature", "properties": {"highway": "path", "footway": null, "name": null, "surface": "compacted", "lit": "no", "length_m": 92.26, "type_element": "Way", "__fid": 120740}, "geometry": {"type": "LineString", "coordinates": [[2.4212833, 48.8270209], [2.4211627, 48.826645700000014], [2.4210873, 48.8262023]]}}, {"type": "Feature", "properties": {"highway": "path", "footway": null, "name": null, "surface": null, "lit": null, "length_m": 40.49, "type_element": "Way", "__fid": 120741}, "geometry": {"type": "LineString", "coordinates": [[2.4210873, 48.8262023], [2.421233, 48.8261435], [2.4215163, 48.8260564], [2.4215551, 48.8260193]]}}, {"type": "Feature", "properties": {"highway": "path", "footway": null, "name": null, "surface": "compacted", "lit": "no", "length_m": 12.36, "type_element": "Way", "__fid": 120750}, "geometry": {"type": "LineString", "coordinates": [[2.4212708, 48.8272261], [2.4212534, 48.827180300000016], [2.4212653, 48.8271168]]}}, {"type": "Feature", "properties": {"highway": "path", "footway": null, "name": null, "surface": "compacted", "lit": "no", "length_m": 10.74, "type_element": "Way", "__fid": 120751}, "geometry": {"type": "LineString", "coordinates": [[2.4212653, 48.8271168], [2.4212833, 48.8270209]]}}, {"type": "Feature", "properties": {"highway": "path", "footway": null, "name": null, "surface": "compacted", "lit": "no", "length_m": 109.45, "type_element": "Way", "__fid": 120752}, "geometry": {"type": "LineString", "coordinates": [[2.4217523, 48.82812670000001], [2.421645, 48.8280102], [2.4215324, 48.8279113], [2.4214895, 48.82781240000001], [2.4214822, 48.8276934], [2.4214895, 48.827537], [2.4213124, 48.827335699999985], [2.4212708, 48.8272261]]}}, {"type": "Feature", "properties": {"highway": "service", "footway": null, "name": "Route de la Brasserie", "surface": "asphalt", "lit": null, "length_m": 20.24, "type_element": "Way", "__fid": 120753}, "geometry": {"type": "LineString", "coordinates": [[2.4215545, 48.82698839999998], [2.4212833, 48.8270209]]}}, {"type": "Feature", "properties": {"highway": "path", "footway": null, "name": null, "surface": "compacted", "lit": "no", "length_m": 19.21, "type_element": "Way", "__fid": 120759}, "geometry": {"type": "LineString", "coordinates": [[2.4213079, 48.8289196], [2.4215647, 48.828952600000015]]}}, {"type": "Feature", "properties": {"highway": "service", "footway": null, "name": "Route des Batteries", "surface": "asphalt", "lit": "no", "length_m": 15.59, "type_element": "Way", "__fid": 120765}, "geometry": {"type": "LineString", "coordinates": [[2.421563, 48.8291291], [2.4213772, 48.82906120000001]]}}, {"type": "Feature", "properties": {"highway": "path", "footway": null, "name": null, "surface": null, "lit": "no", "length_m": 18.31, "type_element": "Way", "__fid": 120766}, "geometry": {"type": "LineString", "coordinates": [[2.4213772, 48.82906120000001], [2.4215647, 48.828952600000015]]}}, {"type": "Feature", "properties": {"highway": "path", "footway": null, "name": null, "surface": null, "lit": null, "length_m": 18.82, "type_element": "Way", "__fid": 120781}, "geometry": {"type": "LineString", "coordinates": [[2.4215551, 48.8260193], [2.4215672, 48.8259675], [2.4215114, 48.8258566]]}}, {"type": "Feature", "properties": {"highway": "path", "footway": null, "name": null, "surface": null, "lit": null, "length_m": 93.46, "type_element": "Way", "__fid": 120782}, "geometry": {"type": "LineString", "coordinates": [[2.4215114, 48.8258566], [2.4214807, 48.8257866], [2.4214706, 48.8256994], [2.4214871, 48.8256194], [2.4215837, 48.8255172], [2.4217622, 48.8254182], [2.4219279, 48.82529169999999], [2.422066, 48.82516289999999]]}}, {"type": "Feature", "properties": {"highway": "path", "footway": null, "name": null, "surface": "dirt", "lit": "no", "length_m": 121.21, "type_element": "Way", "__fid": 120785}, "geometry": {"type": "LineString", "coordinates": [[2.4215624, 48.8294507], [2.4215794, 48.8298863], [2.4216324, 48.8301118], [2.4216311, 48.8301975], [2.4215996, 48.8303034], [2.4215131, 48.83048440000001], [2.421485, 48.8305229]]}}, {"type": "Feature", "properties": {"highway": "footway", "footway": null, "name": null, "surface": null, "lit": null, "length_m": 96.34, "type_element": "Way", "__fid": 120788}, "geometry": {"type": "LineString", "coordinates": [[2.4228135, 48.8258528], [2.4226973, 48.825833], [2.4224411, 48.825834800000024], [2.4222292, 48.8258533], [2.4220321, 48.8258825], [2.4218604, 48.8259266], [2.4215551, 48.8260193]]}}, {"type": "Feature", "properties": {"highway": "service", "footway": null, "name": "Route de la Brasserie", "surface": null, "lit": null, "length_m": 155.43, "type_element": "Way", "__fid": 120789}, "geometry": {"type": "LineString", "coordinates": [[2.4215545, 48.82698839999998], [2.4216312, 48.8272955], [2.4222153, 48.827232], [2.4221683, 48.8270093], [2.4225217, 48.8269657], [2.4228611, 48.82703150000002]]}}, {"type": "Feature", "properties": {"highway": "service", "footway": null, "name": null, "surface": null, "lit": null, "length_m": 69.86, "type_element": "Way", "__fid": 120790}, "geometry": {"type": "LineString", "coordinates": [[2.4220123, 48.82659550000001], [2.4217033, 48.826641], [2.4214928, 48.826748], [2.4215545, 48.82698839999998]]}}, {"type": "Feature", "properties": {"highway": "path", "footway": null, "name": null, "surface": "dirt", "lit": "no", "length_m": 42.75, "type_element": "Way", "__fid": 120791}, "geometry": {"type": "LineString", "coordinates": [[2.4221143, 48.82931950000001], [2.4220649, 48.829327], [2.4215466, 48.82924890000001]]}}, {"type": "Feature", "properties": {"highway": "path", "footway": null, "name": null, "surface": "dirt", "lit": "no", "length_m": 22.76, "type_element": "Way", "__fid": 120792}, "geometry": {"type": "LineString", "coordinates": [[2.4215466, 48.82924890000001], [2.4215419, 48.8294197], [2.4215624, 48.8294507]]}}, {"type": "Feature", "properties": {"highway": "path", "footway": null, "name": null, "surface": "dirt", "lit": "no", "length_m": 13.38, "type_element": "Way", "__fid": 120793}, "geometry": {"type": "LineString", "coordinates": [[2.421563, 48.8291291], [2.4215466, 48.82924890000001]]}}, {"type": "Feature", "properties": {"highway": "path", "footway": null, "name": null, "surface": "compacted", "lit": "no", "length_m": 5.48, "type_element": "Way", "__fid": 120794}, "geometry": {"type": "LineString", "coordinates": [[2.4215647, 48.828952600000015], [2.4216378, 48.8289625]]}}, {"type": "Feature", "properties": {"highway": "path", "footway": null, "name": null, "surface": "concrete", "lit": "no", "length_m": 14.36, "type_element": "Way", "__fid": 120795}, "geometry": {"type": "LineString", "coordinates": [[2.4215647, 48.828952600000015], [2.4216002, 48.8289307], [2.4216708, 48.8288456]]}}, {"type": "Feature", "properties": {"highway": "service", "footway": null, "name": "Route des Batteries", "surface": "asphalt", "lit": "no", "length_m": 45.7, "type_element": "Way", "__fid": 120796}, "geometry": {"type": "LineString", "coordinates": [[2.4221143, 48.82931950000001], [2.4219201, 48.8292591], [2.421563, 48.8291291]]}}, {"type": "Feature", "properties": {"highway": "path", "footway": null, "name": null, "surface": "dirt", "lit": "no", "length_m": 19.32, "type_element": "Way", "__fid": 120797}, "geometry": {"type": "LineString", "coordinates": [[2.4216378, 48.8289625], [2.421563, 48.8291291]]}}, {"type": "Feature", "properties": {"highway": "path", "footway": null, "name": "Avenue des Tribunes", "surface": "dirt", "lit": "no", "length_m": 55.16, "type_element": "Way", "__fid": 120798}, "geometry": {"type": "LineString", "coordinates": [[2.4223024, 48.8293653], [2.4220294, 48.8293919], [2.4215624, 48.8294507]]}}, {"type": "Feature", "properties": {"highway": "path", "footway": null, "name": null, "surface": null, "lit": null, "length_m": 55.96, "type_element": "Way", "__fid": 120813}, "geometry": {"type": "LineString", "coordinates": [[2.422066, 48.82516289999999], [2.421892, 48.8249452], [2.4216844, 48.82472770000001]]}}, {"type": "Feature", "properties": {"highway": "path", "footway": null, "name": null, "surface": null, "lit": null, "length_m": 65.41, "type_element": "Way", "__fid": 120814}, "geometry": {"type": "LineString", "coordinates": [[2.4216844, 48.82472770000001], [2.4216204, 48.8246535], [2.421788, 48.8242517], [2.4217504, 48.824169200000014]]}}, {"type": "Feature", "properties": {"highway": "pedestrian", "footway": null, "name": "Route du Parc", "surface": "asphalt", "lit": "no", "length_m": 104.37, "type_element": "Way", "__fid": 120815}, "geometry": {"type": "LineString", "coordinates": [[2.4228606, 48.8242026], [2.4222328, 48.8244548], [2.4216844, 48.82472770000001]]}}, {"type": "Feature", "properties": {"highway": "path", "footway": null, "name": null, "surface": "compacted", "lit": "no", "length_m": 146.1, "type_element": "Way", "__fid": 120816}, "geometry": {"type": "LineString", "coordinates": [[2.4216378, 48.8289625], [2.4217644, 48.8289672], [2.4229322, 48.8289205], [2.42362, 48.8288625]]}}, {"type": "Feature", "properties": {"highway": "path", "footway": null, "name": null, "surface": "compacted", "lit": "no", "length_m": 85.66, "type_element": "Way", "__fid": 120819}, "geometry": {"type": "LineString", "coordinates": [[2.4216708, 48.8288456], [2.4218221, 48.82866349999998], [2.4218864, 48.8285258], [2.4218953, 48.82836790000002], [2.4218381, 48.8282327], [2.4217523, 48.82812670000001]]}}, {"type": "Feature", "properties": {"highway": "path", "footway": null, "name": null, "surface": null, "lit": "no", "length_m": 193.14, "type_element": "Way", "__fid": 120820}, "geometry": {"type": "LineString", "coordinates": [[2.4216708, 48.8288456], [2.4217792, 48.82880439999999], [2.4220394, 48.8287532], [2.4225061, 48.8285519], [2.4228333, 48.828363], [2.4229567, 48.828273], [2.4230533, 48.8282235], [2.4231552, 48.82819], [2.423241, 48.8281494], [2.4238108, 48.8278625]]}}, {"type": "Feature", "properties": {"highway": "path", "footway": null, "name": "Avenue de Gravelle", "surface": "asphalt", "lit": "yes", "length_m": 56.81, "type_element": "Way", "__fid": 120823}, "geometry": {"type": "LineString", "coordinates": [[2.4217351, 48.8241356], [2.422506, 48.8241793]]}}, {"type": "Feature", "properties": {"highway": "path", "footway": null, "name": null, "surface": null, "lit": null, "length_m": 3.9, "type_element": "Way", "__fid": 120824}, "geometry": {"type": "LineString", "coordinates": [[2.4217504, 48.824169200000014], [2.4217351, 48.8241356]]}}, {"type": "Feature", "properties": {"highway": "path", "footway": null, "name": null, "surface": null, "lit": null, "length_m": 7.72, "type_element": "Way", "__fid": 120825}, "geometry": {"type": "LineString", "coordinates": [[2.4217351, 48.8241356], [2.4217377, 48.8240662]]}}, {"type": "Feature", "properties": {"highway": "path", "footway": null, "name": null, "surface": "dirt", "lit": null, "length_m": 58.25, "type_element": "Way", "__fid": 120826}, "geometry": {"type": "LineString", "coordinates": [[2.422506, 48.8241793], [2.422502, 48.8242048], [2.4223392, 48.8242066], [2.4219824, 48.824189], [2.4217504, 48.824169200000014]]}}, {"type": "Feature", "properties": {"highway": "path", "footway": null, "name": null, "surface": null, "lit": null, "length_m": 174.08, "type_element": "Way", "__fid": 120832}, "geometry": {"type": "LineString", "coordinates": [[2.4238108, 48.8278625], [2.423238, 48.827821], [2.4223425, 48.827786], [2.4219426, 48.827849], [2.4217444, 48.8280237], [2.4217523, 48.82812670000001]]}}, {"type": "Feature", "properties": {"highway": "service", "footway": null, "name": null, "surface": null, "lit": null, "length_m": 80.11, "type_element": "Way", "__fid": 120842}, "geometry": {"type": "LineString", "coordinates": [[2.4220123, 48.82659550000001], [2.4220074, 48.8264619], [2.4226696, 48.8263841], [2.4228842, 48.8263667]]}}, {"type": "Feature", "properties": {"highway": "service", "footway": null, "name": null, "surface": null, "lit": null, "length_m": 34.41, "type_element": "Way", "__fid": 120843}, "geometry": {"type": "LineString", "coordinates": [[2.4222091, 48.8267852], [2.4221653, 48.82658], [2.4220123, 48.82659550000001]]}}, {"type": "Feature", "properties": {"highway": "path", "footway": null, "name": null, "surface": null, "lit": null, "length_m": 99.8, "type_element": "Way", "__fid": 120847}, "geometry": {"type": "LineString", "coordinates": [[2.4228135, 48.8258528], [2.4227087, 48.8257849], [2.4224726, 48.8256719], [2.4224297, 48.825608299999985], [2.4224244, 48.82543350000001], [2.4223814, 48.8253805], [2.4221642, 48.825256899999985], [2.422066, 48.82516289999999]]}}, {"type": "Feature", "properties": {"highway": "path", "footway": null, "name": null, "surface": null, "lit": null, "length_m": 126.97, "type_element": "Way", "__fid": 120848}, "geometry": {"type": "LineString", "coordinates": [[2.422066, 48.82516289999999], [2.4222302, 48.8249942], [2.4226299, 48.8247012], [2.4227546, 48.8245599], [2.4228885, 48.824380699999985], [2.4229437, 48.82429490000001], [2.4229574, 48.8242431], [2.4229804, 48.8242084]]}}, {"type": "Feature", "properties": {"highway": "service", "footway": null, "name": "Route des Batteries", "surface": "asphalt", "lit": "no", "length_m": 14.72, "type_element": "Way", "__fid": 120857}, "geometry": {"type": "LineString", "coordinates": [[2.4223024, 48.8293653], [2.4221143, 48.82931950000001]]}}, {"type": "Feature", "properties": {"highway": "service", "footway": null, "name": "Route des Batteries", "surface": "asphalt", "lit": "no", "length_m": 80.08, "type_element": "Way", "__fid": 120876}, "geometry": {"type": "LineString", "coordinates": [[2.4233835, 48.82946050000001], [2.4228478, 48.8294062], [2.4223024, 48.8293653]]}}, {"type": "Feature", "properties": {"highway": "path", "footway": null, "name": "Avenue de Gravelle", "surface": "asphalt", "lit": "yes", "length_m": 26.16, "type_element": "Way", "__fid": 120886}, "geometry": {"type": "LineString", "coordinates": [[2.422506, 48.8241793], [2.4228606, 48.8242026]]}}, {"type": "Feature", "properties": {"highway": "path", "footway": null, "name": null, "surface": "dirt", "lit": null, "length_m": 7.94, "type_element": "Way", "__fid": 120887}, "geometry": {"type": "LineString", "coordinates": [[2.422508, 48.8241079], [2.422506, 48.8241793]]}}, {"type": "Feature", "properties": {"highway": "footway", "footway": null, "name": null, "surface": null, "lit": null, "length_m": 91.29, "type_element": "Way", "__fid": 120908}, "geometry": {"type": "LineString", "coordinates": [[2.4239376, 48.82619440000001], [2.4236636, 48.8260846], [2.4232833, 48.8259549], [2.42293, 48.8258727], [2.4228135, 48.8258528]]}}, {"type": "Feature", "properties": {"highway": "pedestrian", "footway": null, "name": "Route du Parc", "surface": "asphalt", "lit": "no", "length_m": 8.74, "type_element": "Way", "__fid": 120910}, "geometry": {"type": "LineString", "coordinates": [[2.4228841, 48.82412549999999], [2.4228606, 48.8242026]]}}, {"type": "Feature", "properties": {"highway": "service", "footway": null, "name": null, "surface": null, "lit": null, "length_m": 107.67, "type_element": "Way", "__fid": 120913}, "geometry": {"type": "LineString", "coordinates": [[2.4228611, 48.82703150000002], [2.4231211, 48.82709470000002], [2.4234291, 48.82720740000001], [2.4236351, 48.82737119999999], [2.4237955, 48.8275228], [2.4238471, 48.82767410000002]]}}, {"type": "Feature", "properties": {"highway": "service", "footway": null, "name": "Route de la Brasserie", "surface": null, "lit": null, "length_m": 52.7, "type_element": "Way", "__fid": 120914}, "geometry": {"type": "LineString", "coordinates": [[2.4234704, 48.82681520000001], [2.4232458, 48.8268876], [2.4230842, 48.82691590000002], [2.4229527, 48.8269503], [2.4228743, 48.8269975], [2.4228611, 48.82703150000002]]}}, {"type": "Feature", "properties": {"highway": "service", "footway": null, "name": null, "surface": null, "lit": null, "length_m": 26.95, "type_element": "Way", "__fid": 120915}, "geometry": {"type": "LineString", "coordinates": [[2.4228842, 48.8263667], [2.4229427, 48.826606]]}}, {"type": "Feature", "properties": {"highway": "service", "footway": null, "name": null, "surface": null, "lit": null, "length_m": 27.86, "type_element": "Way", "__fid": 120916}, "geometry": {"type": "LineString", "coordinates": [[2.4228842, 48.8263667], [2.4232609, 48.8263362]]}}, {"type": "Feature", "properties": {"highway": "service", "footway": null, "name": "Route de l'Asile National", "surface": "asphalt", "lit": "no", "length_m": 74.46, "type_element": "Way", "__fid": 120952}, "geometry": {"type": "LineString", "coordinates": [[2.4233835, 48.82946050000001], [2.4231505, 48.8301122]]}}, {"type": "Feature", "properties": {"highway": "service", "footway": null, "name": null, "surface": null, "lit": null, "length_m": 56.41, "type_element": "Way", "__fid": 120953}, "geometry": {"type": "LineString", "coordinates": [[2.4234704, 48.82681520000001], [2.4233725, 48.826721200000016], [2.4233443, 48.82667750000001], [2.4232609, 48.8263362]]}}, {"type": "Feature", "properties": {"highway": "service", "footway": null, "name": null, "surface": null, "lit": null, "length_m": 10.9, "type_element": "Way", "__fid": 120954}, "geometry": {"type": "LineString", "coordinates": [[2.4232609, 48.8263362], [2.4234086, 48.8263262]]}}, {"type": "Feature", "properties": {"highway": "service", "footway": null, "name": "Route des Batteries", "surface": "asphalt", "lit": "no", "length_m": 28.02, "type_element": "Way", "__fid": 120977}, "geometry": {"type": "LineString", "coordinates": [[2.4237554, 48.829517], [2.4233835, 48.82946050000001]]}}, {"type": "Feature", "properties": {"highway": "service", "footway": null, "name": "Route de l'Asile National", "surface": "asphalt", "lit": "no", "length_m": 10.49, "type_element": "Way", "__fid": 120978}, "geometry": {"type": "LineString", "coordinates": [[2.4234177, 48.82936890000001], [2.4233835, 48.82946050000001]]}}, {"type": "Feature", "properties": {"highway": "service", "footway": null, "name": "Route de l'Asile National", "surface": "asphalt", "lit": "no", "length_m": 23.97, "type_element": "Way", "__fid": 120981}, "geometry": {"type": "LineString", "coordinates": [[2.423509, 48.8291619], [2.4234177, 48.82936890000001]]}}, {"type": "Feature", "properties": {"highway": "track", "footway": null, "name": "Avenue des Tribunes", "surface": "fine_gravel", "lit": "no", "length_m": 30.62, "type_element": "Way", "__fid": 120982}, "geometry": {"type": "LineString", "coordinates": [[2.4234177, 48.82936890000001], [2.4238336, 48.829347900000016]]}}, {"type": "Feature", "properties": {"highway": "service", "footway": null, "name": "Route de la Brasserie", "surface": null, "lit": null, "length_m": 54.75, "type_element": "Way", "__fid": 120984}, "geometry": {"type": "LineString", "coordinates": [[2.4239521, 48.8264434], [2.4238439, 48.826553], [2.4236575, 48.8267088], [2.4234704, 48.82681520000001]]}}, {"type": "Feature", "properties": {"highway": "service", "footway": null, "name": "Route de l'Asile National", "surface": "asphalt", "lit": "no", "length_m": 34.27, "type_element": "Way", "__fid": 120985}, "geometry": {"type": "LineString", "coordinates": [[2.42362, 48.8288625], [2.423509, 48.8291619]]}}, {"type": "Feature", "properties": {"highway": "path", "footway": null, "name": null, "surface": "dirt", "lit": "no", "length_m": 33.0, "type_element": "Way", "__fid": 120986}, "geometry": {"type": "LineString", "coordinates": [[2.4239582, 48.8291502], [2.423509, 48.8291619]]}}, {"type": "Feature", "properties": {"highway": "service", "footway": null, "name": "Route Saint-Louis", "surface": "asphalt", "lit": "no", "length_m": 129.8, "type_element": "Way", "__fid": 120987}, "geometry": {"type": "LineString", "coordinates": [[2.424387, 48.8255354], [2.4235972, 48.824491]]}}, {"type": "Feature", "properties": {"highway": "service", "footway": null, "name": "Route de l'Asile National", "surface": "asphalt", "lit": "no", "length_m": 178.87, "type_element": "Way", "__fid": 120988}, "geometry": {"type": "LineString", "coordinates": [[2.4235972, 48.824491], [2.4238276, 48.8254541], [2.4239213, 48.8260847]]}}, {"type": "Feature", "properties": {"highway": "service", "footway": null, "name": "Route de l'Asile National", "surface": "asphalt", "lit": "no", "length_m": 49.66, "type_element": "Way", "__fid": 120989}, "geometry": {"type": "LineString", "coordinates": [[2.4236755, 48.8242968], [2.4234475, 48.8242279], [2.4235972, 48.824491]]}}, {"type": "Feature", "properties": {"highway": "service", "footway": null, "name": "Route de l'Asile National", "surface": "asphalt", "lit": "no", "length_m": 37.58, "type_element": "Way", "__fid": 120991}, "geometry": {"type": "LineString", "coordinates": [[2.4237021, 48.8285289], [2.42362, 48.8288625]]}}, {"type": "Feature", "properties": {"highway": "path", "footway": null, "name": null, "surface": "compacted", "lit": "no", "length_m": 39.19, "type_element": "Way", "__fid": 120992}, "geometry": {"type": "LineString", "coordinates": [[2.42362, 48.8288625], [2.4240323, 48.828793], [2.4241137, 48.82874580000002]]}}, {"type": "Feature", "properties": {"highway": "track", "footway": null, "name": "Allée des Buttes", "surface": "compacted", "lit": null, "length_m": 61.94, "type_element": "Way", "__fid": 120993}, "geometry": {"type": "LineString", "coordinates": [[2.4245091, 48.8243073], [2.4241316, 48.824306], [2.4237614, 48.8243236], [2.4236755, 48.8242968]]}}, {"type": "Feature", "properties": {"highway": "path", "footway": null, "name": null, "surface": "dirt", "lit": null, "length_m": 151.56, "type_element": "Way", "__fid": 120994}, "geometry": {"type": "LineString", "coordinates": [[2.4236755, 48.8242968], [2.423748, 48.8244132], [2.4237718, 48.8244858], [2.424549, 48.8255294]]}}, {"type": "Feature", "properties": {"highway": "service", "footway": null, "name": "Route de l'Asile National", "surface": "asphalt", "lit": "no", "length_m": 74.53, "type_element": "Way", "__fid": 120998}, "geometry": {"type": "LineString", "coordinates": [[2.4238108, 48.8278625], [2.4237021, 48.8285289]]}}, {"type": "Feature", "properties": {"highway": "track", "footway": null, "name": "Route Aimable", "surface": "dirt", "lit": "no", "length_m": 145.13, "type_element": "Way", "__fid": 120999}, "geometry": {"type": "LineString", "coordinates": [[2.4247924, 48.8274449], [2.4243238, 48.8278229], [2.4241436, 48.8280376], [2.4237021, 48.8285289]]}}, {"type": "Feature", "properties": {"highway": "service", "footway": null, "name": "Route des Batteries", "surface": "asphalt", "lit": "no", "length_m": 187.42, "type_element": "Way", "__fid": 121002}, "geometry": {"type": "LineString", "coordinates": [[2.4261771, 48.830034300000015], [2.4253605, 48.8298047], [2.4245174, 48.8296284], [2.4238198, 48.8295324], [2.4237554, 48.829517]]}}, {"type": "Feature", "properties": {"highway": "path", "footway": null, "name": null, "surface": null, "lit": "no", "length_m": 19.7, "type_element": "Way", "__fid": 121003}, "geometry": {"type": "LineString", "coordinates": [[2.4237554, 48.829517], [2.4237882, 48.8294276], [2.4238336, 48.829347900000016]]}}, {"type": "Feature", "properties": {"highway": "service", "footway": null, "name": "Route de l'Asile National", "surface": "asphalt", "lit": "no", "length_m": 21.12, "type_element": "Way", "__fid": 121004}, "geometry": {"type": "LineString", "coordinates": [[2.4238471, 48.82767410000002], [2.4238108, 48.8278625]]}}, {"type": "Feature", "properties": {"highway": "path", "footway": null, "name": null, "surface": "dirt", "lit": null, "length_m": 90.21, "type_element": "Way", "__fid": 121005}, "geometry": {"type": "LineString", "coordinates": [[2.4238108, 48.8278625], [2.4241504, 48.8276278], [2.4245586, 48.827434], [2.4247924, 48.8274449]]}}, {"type": "Feature", "properties": {"highway": "service", "footway": null, "name": "Route de l'Asile National", "surface": "asphalt", "lit": "no", "length_m": 123.17, "type_element": "Way", "__fid": 121008}, "geometry": {"type": "LineString", "coordinates": [[2.4239506, 48.8265697], [2.4239457, 48.8269838], [2.4238946, 48.8274273], [2.4238471, 48.82767410000002]]}}, {"type": "Feature", "properties": {"highway": "path", "footway": null, "name": null, "surface": null, "lit": "no", "length_m": 23.81, "type_element": "Way", "__fid": 121009}, "geometry": {"type": "LineString", "coordinates": [[2.4238336, 48.829347900000016], [2.4239582, 48.8291502]]}}, {"type": "Feature", "properties": {"highway": "track", "footway": null, "name": "Avenue des Tribunes", "surface": "fine_gravel", "lit": "no", "length_m": 231.04, "type_element": "Way", "__fid": 121010}, "geometry": {"type": "LineString", "coordinates": [[2.4238336, 48.829347900000016], [2.4245483, 48.8293242], [2.425652, 48.8292016], [2.4260816, 48.8291108], [2.4264917, 48.8289784], [2.4268473, 48.8288508]]}}, {"type": "Feature", "properties": {"highway": "service", "footway": null, "name": "Route de l'Asile National", "surface": "asphalt", "lit": "no", "length_m": 12.26, "type_element": "Way", "__fid": 121017}, "geometry": {"type": "LineString", "coordinates": [[2.4239213, 48.8260847], [2.4239376, 48.82619440000001]]}}, {"type": "Feature", "properties": {"highway": "path", "footway": null, "name": null, "surface": "dirt", "lit": null, "length_m": 57.82, "type_element": "Way", "__fid": 121018}, "geometry": {"type": "LineString", "coordinates": [[2.4245809, 48.8258006], [2.4239213, 48.8260847]]}}, {"type": "Feature", "properties": {"highway": "service", "footway": null, "name": "Route de l'Asile National", "surface": "asphalt", "lit": "no", "length_m": 27.71, "type_element": "Way", "__fid": 121019}, "geometry": {"type": "LineString", "coordinates": [[2.4239376, 48.82619440000001], [2.4239521, 48.8264434]]}}, {"type": "Feature", "properties": {"highway": "path", "footway": null, "name": null, "surface": "dirt", "lit": null, "length_m": 93.92, "type_element": "Way", "__fid": 121020}, "geometry": {"type": "LineString", "coordinates": [[2.4239506, 48.8265697], [2.4247155, 48.826705599999976], [2.424855, 48.82669150000001], [2.4251383, 48.82656030000001]]}}, {"type": "Feature", "properties": {"highway": "service", "footway": null, "name": "Route de l'Asile National", "surface": "asphalt", "lit": "no", "length_m": 14.04, "type_element": "Way", "__fid": 121021}, "geometry": {"type": "LineString", "coordinates": [[2.4239521, 48.8264434], [2.4239506, 48.8265697]]}}, {"type": "Feature", "properties": {"highway": "path", "footway": null, "name": null, "surface": null, "lit": "no", "length_m": 46.39, "type_element": "Way", "__fid": 121024}, "geometry": {"type": "LineString", "coordinates": [[2.4239582, 48.8291502], [2.4241137, 48.82874580000002]]}}, {"type": "Feature", "properties": {"highway": "path", "footway": null, "name": null, "surface": "dirt", "lit": "no", "length_m": 213.4, "type_element": "Way", "__fid": 121025}, "geometry": {"type": "LineString", "coordinates": [[2.4267489, 48.8287107], [2.4262016, 48.828901], [2.4256302, 48.8290096], [2.4249262, 48.8291147], [2.4246351, 48.8291465], [2.4239582, 48.8291502]]}}, {"type": "Feature", "properties": {"highway": "path", "footway": null, "name": null, "surface": null, "lit": "no", "length_m": 133.27, "type_element": "Way", "__fid": 121035}, "geometry": {"type": "LineString", "coordinates": [[2.4241137, 48.82874580000002], [2.424323, 48.8285092], [2.4244437, 48.8283556], [2.4246421, 48.827995399999985], [2.4249317, 48.827680700000016]]}}, {"type": "Feature", "properties": {"highway": "track", "footway": null, "name": "Route Saint-Louis", "surface": "asphalt", "lit": "no", "length_m": 32.74, "type_element": "Way", "__fid": 121044}, "geometry": {"type": "LineString", "coordinates": [[2.4245809, 48.8258006], [2.424387, 48.8255354]]}}, {"type": "Feature", "properties": {"highway": "service", "footway": null, "name": null, "surface": "asphalt", "lit": null, "length_m": 11.91, "type_element": "Way", "__fid": 121045}, "geometry": {"type": "LineString", "coordinates": [[2.424387, 48.8255354], [2.424549, 48.8255294]]}}, {"type": "Feature", "properties": {"highway": "track", "footway": null, "name": "Allée des Buttes", "surface": "compacted", "lit": null, "length_m": 93.86, "type_element": "Way", "__fid": 121046}, "geometry": {"type": "LineString", "coordinates": [[2.4257838, 48.8243307], [2.4254083, 48.8243483], [2.4250864, 48.8243448], [2.4245091, 48.8243073]]}}, {"type": "Feature", "properties": {"highway": "track", "footway": null, "name": "Allée des Buttes", "surface": "ground", "lit": null, "length_m": 195.54, "type_element": "Way", "__fid": 121047}, "geometry": {"type": "LineString", "coordinates": [[2.4266822, 48.825324], [2.4245091, 48.8243073]]}}, {"type": "Feature", "properties": {"highway": "path", "footway": null, "name": null, "surface": "dirt", "lit": null, "length_m": 174.37, "type_element": "Way", "__fid": 121051}, "geometry": {"type": "LineString", "coordinates": [[2.424549, 48.8255294], [2.4249262, 48.8260348], [2.4251273, 48.8263312], [2.4255965, 48.82693649999999]]}}, {"type": "Feature", "properties": {"highway": "service", "footway": null, "name": null, "surface": "asphalt", "lit": null, "length_m": 102.54, "type_element": "Way", "__fid": 121052}, "geometry": {"type": "LineString", "coordinates": [[2.424549, 48.8255294], [2.424955, 48.82548730000001], [2.4250308, 48.8254882], [2.4252527, 48.8255478], [2.4259173, 48.8256057]]}}, {"type": "Feature", "properties": {"highway": "track", "footway": null, "name": "Route Saint-Louis", "surface": "asphalt", "lit": "no", "length_m": 93.86, "type_element": "Way", "__fid": 121055}, "geometry": {"type": "LineString", "coordinates": [[2.4251383, 48.82656030000001], [2.4245809, 48.8258006]]}}, {"type": "Feature", "properties": {"highway": "path", "footway": null, "name": null, "surface": "dirt", "lit": null, "length_m": 29.07, "type_element": "Way", "__fid": 121066}, "geometry": {"type": "LineString", "coordinates": [[2.4247924, 48.8274449], [2.4248497, 48.8274827], [2.4248672, 48.8275882], [2.4249317, 48.827680700000016]]}}, {"type": "Feature", "properties": {"highway": "track", "footway": null, "name": "Route Aimable", "surface": "dirt", "lit": "no", "length_m": 69.44, "type_element": "Way", "__fid": 121067}, "geometry": {"type": "LineString", "coordinates": [[2.4254739, 48.8270131], [2.4252136, 48.8271611], [2.424916, 48.8273506], [2.4247924, 48.8274449]]}}, {"type": "Feature", "properties": {"highway": "path", "footway": null, "name": null, "surface": "dirt", "lit": "no", "length_m": 138.56, "type_element": "Way", "__fid": 121075}, "geometry": {"type": "LineString", "coordinates": [[2.4249317, 48.827680700000016], [2.4250267, 48.8278107], [2.4250549, 48.8279599], [2.4252842, 48.82812890000002], [2.4255846, 48.828241900000016], [2.4259359, 48.8281412], [2.4261854, 48.8280812], [2.4262311, 48.8280202]]}}, {"type": "Feature", "properties": {"highway": "path", "footway": null, "name": null, "surface": null, "lit": "no", "length_m": 79.76, "type_element": "Way", "__fid": 121076}, "geometry": {"type": "LineString", "coordinates": [[2.4249317, 48.827680700000016], [2.4249935, 48.8276175], [2.4252993, 48.82739680000001], [2.4254817, 48.8272361], [2.4255407, 48.8270994]]}}, {"type": "Feature", "properties": {"highway": "track", "footway": null, "name": "Route Saint-Louis", "surface": "asphalt", "lit": "no", "length_m": 56.05, "type_element": "Way", "__fid": 121085}, "geometry": {"type": "LineString", "coordinates": [[2.4254739, 48.8270131], [2.4251383, 48.82656030000001]]}}]}