{"type": "FeatureCollection", "features": [{"type": "Feature", "properties": {"@id": "node/1396325692", "amenity": "drinking_water", "man_made": "water_tap", "type_element": "Fontaines à boire", "__fid": 290}, "geometry": {"type": "Point", "coordinates": [2.4201155, 48.840833]}, "id": "node/1396325692"}, {"type": "Feature", "properties": {"@id": "node/8880366687", "amenity": "drinking_water", "man_made": "water_tap", "type_element": "Fontaines à boire", "__fid": 773}, "geometry": {"type": "Point", "coordinates": [2.4227282, 48.8384839]}, "id": "node/8880366687"}, {"type": "Feature", "geometry": {"type": "Point", "coordinates": [2.422042, 48.839466]}, "properties": {"id": 19202, "name": "Square du Jeu de Boule de Saint-Mandé", "categorie": "Parcs, jardins et bois", "photo_url": "https://cdn.paris.fr/eqpts-prod/2022/11/07/2df073a986d71d56ccb174adcd172473.jpg", "photo_credit": "Sonia Yassa / Ville de Paris", "photo_alt": null, "address_street": "route Lemoine", "address_postcode": "75012", "address_city": "Paris", "phone": null, "accessibility": "{\"handicaps\": [{\"name\": \"Personnes déficientes visuelles\", \"status\": \"undefined\"}, {\"name\": \"Personnes déficientes auditives\", \"status\": \"undefined\"}, {\"name\": \"Personnes déficientes mentales\", \"status\": \"undefined\"}, {\"name\": \"Personnes à mobilité réduite\", \"status\": \"undefined\"}, {\"name\": \"Accueil en langue des signes\", \"status\": \"undefined\"}]}", "latitude": 48.839466, "longitude": 2.422042, "url": "https://www.paris.fr/lieux/square-du-jeu-de-boule-de-saint-mande-19202", "type_element": "Parcs, Jardins et Bois", "__fid": 1152}}, {"type": "Feature", "properties": {"highway": "path", "footway": null, "name": null, "surface": "compacted", "lit": "no", "length_m": 46.35, "type_element": "Way", "__fid": 120621}, "geometry": {"type": "LineString", "coordinates": [[2.420416, 48.8414238], [2.4203195, 48.8414052], [2.4199309, 48.841442700000016], [2.4198414, 48.8414542], [2.4198018, 48.841471]]}}, {"type": "Feature", "properties": {"highway": "track", "footway": null, "name": null, "surface": "compacted", "lit": "no", "length_m": 56.34, "type_element": "Way", "__fid": 120653}, "geometry": {"type": "LineString", "coordinates": [[2.420416, 48.8414238], [2.4202913, 48.8416047], [2.420194, 48.8417682], [2.4200685, 48.841871300000015]]}}, {"type": "Feature", "properties": {"highway": "track", "footway": null, "name": "Route du Lac de Saint-Mandé", "surface": "asphalt", "lit": "no", "length_m": 10.65, "type_element": "Way", "__fid": 120658}, "geometry": {"type": "LineString", "coordinates": [[2.420227, 48.8408655], [2.4201354, 48.840852], [2.4201123, 48.8408218]]}}, {"type": "Feature", "properties": {"highway": "path", "footway": null, "name": "Route de l'Épine", "surface": "fine_gravel", "lit": "no", "length_m": 19.58, "type_element": "Way", "__fid": 120674}, "geometry": {"type": "LineString", "coordinates": [[2.4203519, 48.8410073], [2.420237, 48.84093960000001], [2.420227, 48.8408655]]}}, {"type": "Feature", "properties": {"highway": "path", "footway": null, "name": "Route de l'Épine", "surface": "fine_gravel", "lit": "no", "length_m": 140.83, "type_element": "Way", "__fid": 120675}, "geometry": {"type": "LineString", "coordinates": [[2.420227, 48.8408655], [2.4208201, 48.8403235], [2.4209866, 48.8401004], [2.4211624, 48.839771]]}}, {"type": "Feature", "properties": {"highway": "track", "footway": null, "name": "Route du Lac de Saint-Mandé", "surface": "asphalt", "lit": "no", "length_m": 11.75, "type_element": "Way", "__fid": 120676}, "geometry": {"type": "LineString", "coordinates": [[2.4203832, 48.8408423], [2.420227, 48.8408655]]}}, {"type": "Feature", "properties": {"highway": "path", "footway": null, "name": null, "surface": "compacted", "lit": "no", "length_m": 41.59, "type_element": "Way", "__fid": 120682}, "geometry": {"type": "LineString", "coordinates": [[2.4203519, 48.8410073], [2.4205454, 48.84109990000001], [2.420856, 48.841168799999984]]}}, {"type": "Feature", "properties": {"highway": "path", "footway": null, "name": "Route de l'Épine", "surface": "fine_gravel", "lit": "no", "length_m": 47.25, "type_element": "Way", "__fid": 120683}, "geometry": {"type": "LineString", "coordinates": [[2.420416, 48.8414238], [2.4203718, 48.8413584], [2.42034, 48.841245], [2.4203544, 48.8411029], [2.4203519, 48.8410073]]}}, {"type": "Feature", "properties": {"highway": "path", "footway": null, "name": null, "surface": "compacted", "lit": "no", "length_m": 40.1, "type_element": "Way", "__fid": 120692}, "geometry": {"type": "LineString", "coordinates": [[2.420897, 48.84096490000002], [2.4203832, 48.8408423]]}}, {"type": "Feature", "properties": {"highway": "track", "footway": null, "name": "Route du Lac de Saint-Mandé", "surface": "asphalt", "lit": "no", "length_m": 164.75, "type_element": "Way", "__fid": 120693}, "geometry": {"type": "LineString", "coordinates": [[2.4223267, 48.8401211], [2.4217316, 48.8404158], [2.4211014, 48.8406623], [2.4203832, 48.8408423]]}}, {"type": "Feature", "properties": {"highway": "track", "footway": null, "name": null, "surface": "compacted", "lit": "no", "length_m": 49.77, "type_element": "Way", "__fid": 120697}, "geometry": {"type": "LineString", "coordinates": [[2.4210009, 48.8412004], [2.4207682, 48.8412685], [2.420416, 48.8414238]]}}, {"type": "Feature", "properties": {"highway": "path", "footway": null, "name": null, "surface": null, "lit": null, "length_m": 25.52, "type_element": "Way", "__fid": 120722}, "geometry": {"type": "LineString", "coordinates": [[2.4211624, 48.839771], [2.4208257, 48.8397139]]}}, {"type": "Feature", "properties": {"highway": "path", "footway": null, "name": "Avenue Daumesnil", "surface": "asphalt", "lit": "yes", "length_m": 96.45, "type_element": "Way", "__fid": 120726}, "geometry": {"type": "LineString", "coordinates": [[2.4209166, 48.8352412], [2.4220801, 48.8356443]]}}, {"type": "Feature", "properties": {"highway": "path", "footway": null, "name": null, "surface": "compacted", "lit": "no", "length_m": 11.2, "type_element": "Way", "__fid": 120729}, "geometry": {"type": "LineString", "coordinates": [[2.420856, 48.841168799999984], [2.4210009, 48.8412004]]}}, {"type": "Feature", "properties": {"highway": "steps", "footway": null, "name": null, "surface": null, "lit": "no", "length_m": 22.87, "type_element": "Way", "__fid": 120730}, "geometry": {"type": "LineString", "coordinates": [[2.420856, 48.841168799999984], [2.420897, 48.84096490000002]]}}, {"type": "Feature", "properties": {"highway": "path", "footway": null, "name": null, "surface": "compacted", "lit": "no", "length_m": 77.56, "type_element": "Way", "__fid": 120737}, "geometry": {"type": "LineString", "coordinates": [[2.4219367, 48.8410895], [2.420897, 48.84096490000002]]}}, {"type": "Feature", "properties": {"highway": "path", "footway": null, "name": null, "surface": "fine_gravel", "lit": null, "length_m": 23.22, "type_element": "Way", "__fid": 120746}, "geometry": {"type": "LineString", "coordinates": [[2.4213045, 48.8392766], [2.4211553, 48.839299], [2.4210474, 48.8393034], [2.4209928, 48.83929770000002]]}}, {"type": "Feature", "properties": {"highway": "track", "footway": null, "name": null, "surface": "compacted", "lit": "no", "length_m": 17.36, "type_element": "Way", "__fid": 120748}, "geometry": {"type": "LineString", "coordinates": [[2.4212374, 48.8412024], [2.4210009, 48.8412004]]}}, {"type": "Feature", "properties": {"highway": "path", "footway": null, "name": "Route Lemoine", "surface": "fine_gravel", "lit": null, "length_m": 7.15, "type_element": "Way", "__fid": 120749}, "geometry": {"type": "LineString", "coordinates": [[2.4210831, 48.8388116], [2.4211664, 48.838845]]}}, {"type": "Feature", "properties": {"highway": "path", "footway": null, "name": "Route Lemoine", "surface": "fine_gravel", "lit": null, "length_m": 12.89, "type_element": "Way", "__fid": 120754}, "geometry": {"type": "LineString", "coordinates": [[2.4211664, 48.838845], [2.4211999, 48.8389095], [2.4212495, 48.8389442]]}}, {"type": "Feature", "properties": {"highway": "path", "footway": null, "name": null, "surface": "ground", "lit": null, "length_m": 14.16, "type_element": "Way", "__fid": 120755}, "geometry": {"type": "LineString", "coordinates": [[2.4212955, 48.8387504], [2.4211664, 48.838845]]}}, {"type": "Feature", "properties": {"highway": "path", "footway": null, "name": null, "surface": null, "lit": null, "length_m": 99.3, "type_element": "Way", "__fid": 120756}, "geometry": {"type": "LineString", "coordinates": [[2.4224319, 48.8396143], [2.422209, 48.8397173], [2.4219274, 48.8397976], [2.4216815, 48.8398211], [2.4214299, 48.8398075], [2.4211624, 48.839771]]}}, {"type": "Feature", "properties": {"highway": "path", "footway": null, "name": "Route de l'Épine", "surface": "fine_gravel", "lit": "no", "length_m": 36.34, "type_element": "Way", "__fid": 120757}, "geometry": {"type": "LineString", "coordinates": [[2.4211624, 48.839771], [2.4213215, 48.8394615]]}}, {"type": "Feature", "properties": {"highway": "path", "footway": null, "name": "Route Lemoine", "surface": "asphalt", "lit": "no", "length_m": 40.2, "type_element": "Way", "__fid": 120760}, "geometry": {"type": "LineString", "coordinates": [[2.4212495, 48.8389442], [2.4213454, 48.8390547], [2.4215649, 48.8392387]]}}, {"type": "Feature", "properties": {"highway": "path", "footway": null, "name": null, "surface": "fine_gravel", "lit": null, "length_m": 37.18, "type_element": "Way", "__fid": 120761}, "geometry": {"type": "LineString", "coordinates": [[2.4213045, 48.8392766], [2.4212495, 48.8389442]]}}, {"type": "Feature", "properties": {"highway": "path", "footway": null, "name": null, "surface": "compacted", "lit": null, "length_m": 21.81, "type_element": "Way", "__fid": 120762}, "geometry": {"type": "LineString", "coordinates": [[2.4212495, 48.8389442], [2.4212955, 48.8387504]]}}, {"type": "Feature", "properties": {"highway": "track", "footway": null, "name": null, "surface": "compacted", "lit": "no", "length_m": 64.06, "type_element": "Way", "__fid": 120763}, "geometry": {"type": "LineString", "coordinates": [[2.4220931, 48.8413159], [2.4212374, 48.8412024]]}}, {"type": "Feature", "properties": {"highway": "steps", "footway": null, "name": null, "surface": "asphalt", "lit": "no", "length_m": 53.43, "type_element": "Way", "__fid": 120764}, "geometry": {"type": "LineString", "coordinates": [[2.4212374, 48.8412024], [2.4217062, 48.841136], [2.4218865, 48.8411179], [2.4219367, 48.8410895]]}}, {"type": "Feature", "properties": {"highway": "path", "footway": null, "name": null, "surface": "compacted", "lit": null, "length_m": 18.5, "type_element": "Way", "__fid": 120767}, "geometry": {"type": "LineString", "coordinates": [[2.4212955, 48.8387504], [2.4214052, 48.838600599999985]]}}, {"type": "Feature", "properties": {"highway": "path", "footway": null, "name": null, "surface": "fine_gravel", "lit": null, "length_m": 20.6, "type_element": "Way", "__fid": 120768}, "geometry": {"type": "LineString", "coordinates": [[2.4213215, 48.8394615], [2.4213045, 48.8392766]]}}, {"type": "Feature", "properties": {"highway": "path", "footway": null, "name": null, "surface": "fine_gravel", "lit": null, "length_m": 20.02, "type_element": "Way", "__fid": 120769}, "geometry": {"type": "LineString", "coordinates": [[2.4215649, 48.8392387], [2.4214453, 48.83923690000002], [2.4213045, 48.8392766]]}}, {"type": "Feature", "properties": {"highway": "path", "footway": null, "name": "Route de l'Épine", "surface": "fine_gravel", "lit": "no", "length_m": 30.54, "type_element": "Way", "__fid": 120775}, "geometry": {"type": "LineString", "coordinates": [[2.4213215, 48.8394615], [2.4215649, 48.8392387]]}}, {"type": "Feature", "properties": {"highway": "path", "footway": null, "name": null, "surface": "compacted", "lit": null, "length_m": 150.12, "type_element": "Way", "__fid": 120786}, "geometry": {"type": "LineString", "coordinates": [[2.4214052, 48.838600599999985], [2.4215382, 48.8382833], [2.4215632, 48.838148], [2.4215848, 48.8379185], [2.4215873, 48.8377059], [2.4215728, 48.83748910000001], [2.4215288, 48.837266]]}}, {"type": "Feature", "properties": {"highway": "path", "footway": null, "name": null, "surface": "compacted", "lit": "no", "length_m": 104.25, "type_element": "Way", "__fid": 120787}, "geometry": {"type": "LineString", "coordinates": [[2.4214052, 48.838600599999985], [2.4218631, 48.8383944], [2.422252, 48.838352100000016], [2.4223854, 48.8383494], [2.4225363, 48.83836710000001], [2.4226652, 48.8384548]]}}, {"type": "Feature", "properties": {"highway": "footway", "footway": null, "name": null, "surface": "compacted", "lit": null, "length_m": 63.12, "type_element": "Way", "__fid": 120801}, "geometry": {"type": "LineString", "coordinates": [[2.4222181, 48.8356347], [2.421503, 48.8353195]]}}, {"type": "Feature", "properties": {"highway": "footway", "footway": null, "name": null, "surface": null, "lit": "yes", "length_m": 2.42, "type_element": "Way", "__fid": 120803}, "geometry": {"type": "LineString", "coordinates": [[2.4215241, 48.8372338], [2.4214916, 48.8372304]]}}, {"type": "Feature", "properties": {"highway": "footway", "footway": null, "name": null, "surface": "compacted", "lit": "no", "length_m": 3.6, "type_element": "Way", "__fid": 120807}, "geometry": {"type": "LineString", "coordinates": [[2.4215241, 48.8372338], [2.4215288, 48.837266]]}}, {"type": "Feature", "properties": {"highway": "footway", "footway": null, "name": null, "surface": "compacted", "lit": "no", "length_m": 16.0, "type_element": "Way", "__fid": 120808}, "geometry": {"type": "LineString", "coordinates": [[2.4216192, 48.83710809999999], [2.4215379, 48.837182], [2.4215241, 48.8372338]]}}, {"type": "Feature", "properties": {"highway": "footway", "footway": null, "name": null, "surface": "compacted", "lit": "no", "length_m": 105.17, "type_element": "Way", "__fid": 120809}, "geometry": {"type": "LineString", "coordinates": [[2.4215288, 48.837266], [2.4219406, 48.8374304], [2.4225337, 48.8375791], [2.4228409, 48.83763119999998]]}}, {"type": "Feature", "properties": {"highway": "path", "footway": null, "name": null, "surface": "compacted", "lit": "no", "length_m": 144.22, "type_element": "Way", "__fid": 120810}, "geometry": {"type": "LineString", "coordinates": [[2.4215288, 48.837266], [2.4216028, 48.83735280000001], [2.4216558, 48.8374375], [2.422079, 48.8378574], [2.4224558, 48.83820840000001], [2.4226824, 48.8382918]]}}, {"type": "Feature", "properties": {"highway": "path", "footway": null, "name": "Route Lemoine", "surface": "asphalt", "lit": "no", "length_m": 74.48, "type_element": "Way", "__fid": 120821}, "geometry": {"type": "LineString", "coordinates": [[2.4215649, 48.8392387], [2.4218109, 48.8393644], [2.4223924, 48.8395492], [2.4224398, 48.8395715]]}}, {"type": "Feature", "properties": {"highway": "path", "footway": null, "name": "Route de l'Épine", "surface": "fine_gravel", "lit": "no", "length_m": 119.47, "type_element": "Way", "__fid": 120822}, "geometry": {"type": "LineString", "coordinates": [[2.4215649, 48.8392387], [2.4224466, 48.8385508], [2.4226652, 48.8384548]]}}, {"type": "Feature", "properties": {"highway": "path", "footway": null, "name": null, "surface": "compacted", "lit": "no", "length_m": 73.01, "type_element": "Way", "__fid": 120827}, "geometry": {"type": "LineString", "coordinates": [[2.4216192, 48.83710809999999], [2.4222625, 48.83717619999998], [2.4226049, 48.8371918]]}}, {"type": "Feature", "properties": {"highway": "path", "footway": null, "name": null, "surface": "compacted", "lit": "no", "length_m": 97.78, "type_element": "Way", "__fid": 120828}, "geometry": {"type": "LineString", "coordinates": [[2.4216192, 48.83710809999999], [2.4219784, 48.8366455], [2.4221009, 48.8363965], [2.4221772, 48.8363127]]}}, {"type": "Feature", "properties": {"highway": "footway", "footway": "crossing", "name": null, "surface": "asphalt", "lit": "yes", "length_m": 17.39, "type_element": "Way", "__fid": 120849}, "geometry": {"type": "LineString", "coordinates": [[2.4220801, 48.8356443], [2.4219668, 48.83578159999998]]}}, {"type": "Feature", "properties": {"highway": "path", "footway": null, "name": null, "surface": "compacted", "lit": "no", "length_m": 15.59, "type_element": "Way", "__fid": 120850}, "geometry": {"type": "LineString", "coordinates": [[2.4219367, 48.8410895], [2.422145175207045, 48.841116138726626]]}}, {"type": "Feature", "properties": {"highway": "footway", "footway": null, "name": null, "surface": "dirt", "lit": "no", "length_m": 20.91, "type_element": "Way", "__fid": 120851}, "geometry": {"type": "LineString", "coordinates": [[2.4219367, 48.8410895], [2.4221279, 48.8409983], [2.4221754, 48.8409902]]}}, {"type": "Feature", "properties": {"highway": "path", "footway": null, "name": "Avenue Daumesnil", "surface": "asphalt", "lit": "yes", "length_m": 9.55, "type_element": "Way", "__fid": 120860}, "geometry": {"type": "LineString", "coordinates": [[2.4220801, 48.8356443], [2.4221909, 48.8356893]]}}, {"type": "Feature", "properties": {"highway": "path", "footway": null, "name": null, "surface": "compacted", "lit": "no", "length_m": 7.58, "type_element": "Way", "__fid": 120863}, "geometry": {"type": "LineString", "coordinates": [[2.4221853, 48.835961], [2.4221187, 48.8359089]]}}, {"type": "Feature", "properties": {"highway": "service", "footway": null, "name": "Route de l'Asile National", "surface": "asphalt", "lit": "no", "length_m": 13.22, "type_element": "Way", "__fid": 120864}, "geometry": {"type": "LineString", "coordinates": [[2.4221909, 48.8356893], [2.4221205, 48.8357987]]}}, {"type": "Feature", "properties": {"highway": "track", "footway": null, "name": null, "surface": "compacted", "lit": "no", "length_m": 112.22, "type_element": "Way", "__fid": 120865}, "geometry": {"type": "LineString", "coordinates": [[2.4235663, 48.8415837], [2.4231481, 48.8414909], [2.4220931, 48.8413159]]}}, {"type": "Feature", "properties": {"highway": "steps", "footway": null, "name": null, "surface": "asphalt", "lit": "no", "length_m": 22.54, "type_element": "Way", "__fid": 120866}, "geometry": {"type": "LineString", "coordinates": [[2.4220931, 48.8413159], [2.422145175207045, 48.841116138726626]]}}, {"type": "Feature", "properties": {"highway": "path", "footway": null, "name": null, "surface": "compacted", "lit": "no", "length_m": 102.67, "type_element": "Way", "__fid": 120867}, "geometry": {"type": "LineString", "coordinates": [[2.4221772, 48.8363127], [2.4226049, 48.8371918]]}}, {"type": "Feature", "properties": {"highway": "path", "footway": null, "name": null, "surface": "compacted", "lit": "no", "length_m": 39.11, "type_element": "Way", "__fid": 120868}, "geometry": {"type": "LineString", "coordinates": [[2.4221772, 48.8363127], [2.4221853, 48.835961]]}}, {"type": "Feature", "properties": {"highway": "path", "footway": null, "name": null, "surface": "compacted", "lit": "yes", "length_m": 69.66, "type_element": "Way", "__fid": 120869}, "geometry": {"type": "LineString", "coordinates": [[2.4221853, 48.835961], [2.4227901, 48.8362183], [2.4229761, 48.836307]]}}, {"type": "Feature", "properties": {"highway": "path", "footway": null, "name": "Avenue Daumesnil", "surface": "asphalt", "lit": "yes", "length_m": 77.87, "type_element": "Way", "__fid": 120870}, "geometry": {"type": "LineString", "coordinates": [[2.4221909, 48.8356893], [2.4225896, 48.8358425], [2.4230841, 48.8360662]]}}, {"type": "Feature", "properties": {"highway": "service", "footway": null, "name": "Route de l'Asile National", "surface": "asphalt", "lit": "no", "length_m": 6.39, "type_element": "Way", "__fid": 120871}, "geometry": {"type": "LineString", "coordinates": [[2.4222181, 48.8356347], [2.4221909, 48.8356893]]}}, {"type": "Feature", "properties": {"highway": "path", "footway": null, "name": null, "surface": "concrete", "lit": "no", "length_m": 8.63, "type_element": "Way", "__fid": 120872}, "geometry": {"type": "LineString", "coordinates": [[2.422145175207045, 48.841116138726626], [2.4222605, 48.8411312]]}}, {"type": "Feature", "properties": {"highway": "steps", "footway": null, "name": null, "surface": "asphalt", "lit": "no", "length_m": 14.18, "type_element": "Way", "__fid": 120873}, "geometry": {"type": "LineString", "coordinates": [[2.422145175207045, 48.841116138726626], [2.4221754, 48.8409902]]}}, {"type": "Feature", "properties": {"highway": "service", "footway": null, "name": "Route de l'Asile National", "surface": "asphalt", "lit": "no", "length_m": 38.3, "type_element": "Way", "__fid": 120874}, "geometry": {"type": "LineString", "coordinates": [[2.4223304, 48.8352983], [2.4222181, 48.8356347]]}}, {"type": "Feature", "properties": {"highway": "track", "footway": null, "name": "Allée des Lapins", "surface": "compacted", "lit": "no", "length_m": 50.95, "type_element": "Way", "__fid": 120875}, "geometry": {"type": "LineString", "coordinates": [[2.4227029, 48.8353108], [2.4223472, 48.8355785], [2.4222181, 48.8356347]]}}, {"type": "Feature", "properties": {"highway": "path", "footway": null, "name": null, "surface": "fine_gravel", "lit": "no", "length_m": 97.27, "type_element": "Way", "__fid": 120877}, "geometry": {"type": "LineString", "coordinates": [[2.4223267, 48.8401211], [2.4221754, 48.8409902]]}}, {"type": "Feature", "properties": {"highway": "path", "footway": null, "name": null, "surface": null, "lit": "no", "length_m": 52.58, "type_element": "Way", "__fid": 120880}, "geometry": {"type": "LineString", "coordinates": [[2.4222605, 48.8411312], [2.4229437, 48.8412734]]}}, {"type": "Feature", "properties": {"highway": "path", "footway": null, "name": null, "surface": "compacted", "lit": "no", "length_m": 66.77, "type_element": "Way", "__fid": 120881}, "geometry": {"type": "LineString", "coordinates": [[2.4231595, 48.8410528], [2.4229326, 48.84108979999998], [2.4227932, 48.8411037], [2.4225402, 48.8411075], [2.4222605, 48.8411312]]}}, {"type": "Feature", "properties": {"highway": "path", "footway": null, "name": null, "surface": "fine_gravel", "lit": "no", "length_m": 56.93, "type_element": "Way", "__fid": 120884}, "geometry": {"type": "LineString", "coordinates": [[2.4224319, 48.8396143], [2.422406, 48.83968269999998], [2.4223267, 48.8401211]]}}, {"type": "Feature", "properties": {"highway": "track", "footway": null, "name": "Route du Lac de Saint-Mandé", "surface": "asphalt", "lit": "no", "length_m": 66.33, "type_element": "Way", "__fid": 120885}, "geometry": {"type": "LineString", "coordinates": [[2.422985, 48.8397124], [2.4223267, 48.8401211]]}}, {"type": "Feature", "properties": {"highway": "path", "footway": null, "name": null, "surface": "fine_gravel", "lit": "no", "length_m": 4.79, "type_element": "Way", "__fid": 120889}, "geometry": {"type": "LineString", "coordinates": [[2.4224398, 48.8395715], [2.4224319, 48.8396143]]}}, {"type": "Feature", "properties": {"highway": "path", "footway": null, "name": "Route Lemoine", "surface": "asphalt", "lit": "no", "length_m": 42.97, "type_element": "Way", "__fid": 120890}, "geometry": {"type": "LineString", "coordinates": [[2.4224398, 48.8395715], [2.422985, 48.8397124]]}}, {"type": "Feature", "properties": {"highway": "footway", "footway": null, "name": null, "surface": "fine_gravel", "lit": "no", "length_m": 125.27, "type_element": "Way", "__fid": 120891}, "geometry": {"type": "LineString", "coordinates": [[2.4224398, 48.8395715], [2.4226652, 48.8384548]]}}, {"type": "Feature", "properties": {"highway": "path", "footway": null, "name": null, "surface": "compacted", "lit": "no", "length_m": 22.41, "type_element": "Way", "__fid": 120896}, "geometry": {"type": "LineString", "coordinates": [[2.4226049, 48.8371918], [2.4229102, 48.8371961]]}}, {"type": "Feature", "properties": {"highway": "path", "footway": null, "name": null, "surface": "compacted", "lit": "no", "length_m": 36.06, "type_element": "Way", "__fid": 120897}, "geometry": {"type": "LineString", "coordinates": [[2.4228716, 48.8374641], [2.4226049, 48.8371918]]}}, {"type": "Feature", "properties": {"highway": "path", "footway": null, "name": null, "surface": "compacted", "lit": "no", "length_m": 145.02, "type_element": "Way", "__fid": 120904}, "geometry": {"type": "LineString", "coordinates": [[2.422985, 48.8397124], [2.4229724, 48.839385], [2.4229979, 48.83914750000001], [2.4229993, 48.8390187], [2.4229711, 48.838911], [2.4228705, 48.8387115], [2.4226652, 48.8384548]]}}, {"type": "Feature", "properties": {"highway": "path", "footway": null, "name": "Route de l'Épine", "surface": "fine_gravel", "lit": "no", "length_m": 18.17, "type_element": "Way", "__fid": 120905}, "geometry": {"type": "LineString", "coordinates": [[2.4226652, 48.8384548], [2.4226824, 48.8382918]]}}, {"type": "Feature", "properties": {"highway": "path", "footway": null, "name": "Route de l'Épine", "surface": "fine_gravel", "lit": "no", "length_m": 74.4, "type_element": "Way", "__fid": 120909}, "geometry": {"type": "LineString", "coordinates": [[2.4226824, 48.8382918], [2.4227643, 48.8380122], [2.4228409, 48.83763119999998]]}}, {"type": "Feature", "properties": {"highway": "footway", "footway": null, "name": null, "surface": "compacted", "lit": "no", "length_m": 155.86, "type_element": "Way", "__fid": 120925}, "geometry": {"type": "LineString", "coordinates": [[2.4228409, 48.83763119999998], [2.4230065, 48.8376556], [2.4238959, 48.8380059], [2.4244378, 48.8382001], [2.4247116, 48.8382834]]}}, {"type": "Feature", "properties": {"highway": "path", "footway": null, "name": "Route de l'Épine", "surface": "fine_gravel", "lit": "no", "length_m": 18.75, "type_element": "Way", "__fid": 120926}, "geometry": {"type": "LineString", "coordinates": [[2.4228409, 48.83763119999998], [2.4228515, 48.8375302], [2.4228716, 48.8374641]]}}, {"type": "Feature", "properties": {"highway": "path", "footway": null, "name": "Route de l'Épine", "surface": "fine_gravel", "lit": "no", "length_m": 29.93, "type_element": "Way", "__fid": 120927}, "geometry": {"type": "LineString", "coordinates": [[2.4228716, 48.8374641], [2.4229102, 48.8371961]]}}, {"type": "Feature", "properties": {"highway": "path", "footway": null, "name": "Route de l'Épine", "surface": "fine_gravel", "lit": "no", "length_m": 95.59, "type_element": "Way", "__fid": 120929}, "geometry": {"type": "LineString", "coordinates": [[2.4229102, 48.8371961], [2.4229681, 48.8370086], [2.4230151, 48.836657199999976], [2.4230513, 48.8365548], [2.4230546, 48.8363444]]}}, {"type": "Feature", "properties": {"highway": "path", "footway": null, "name": null, "surface": "compacted", "lit": "no", "length_m": 100.07, "type_element": "Way", "__fid": 120930}, "geometry": {"type": "LineString", "coordinates": [[2.4229102, 48.8371961], [2.4232544, 48.8371675], [2.4235355, 48.8371333], [2.4242347, 48.8369936]]}}, {"type": "Feature", "properties": {"highway": "path", "footway": null, "name": null, "surface": "compacted", "lit": "yes", "length_m": 7.11, "type_element": "Way", "__fid": 120935}, "geometry": {"type": "LineString", "coordinates": [[2.4229761, 48.836307], [2.4230546, 48.8363444]]}}, {"type": "Feature", "properties": {"highway": "path", "footway": "crossing", "name": null, "surface": null, "lit": null, "length_m": 25.97, "type_element": "Way", "__fid": 120936}, "geometry": {"type": "LineString", "coordinates": [[2.4229761, 48.836307], [2.4231929, 48.8361224]]}}, {"type": "Feature", "properties": {"highway": "path", "footway": null, "name": null, "surface": null, "lit": "no", "length_m": 4.04, "type_element": "Way", "__fid": 120939}, "geometry": {"type": "LineString", "coordinates": [[2.4229437, 48.8412734], [2.4229982, 48.8412783]]}}, {"type": "Feature", "properties": {"highway": "steps", "footway": null, "name": null, "surface": "asphalt", "lit": "no", "length_m": 57.9, "type_element": "Way", "__fid": 120940}, "geometry": {"type": "LineString", "coordinates": [[2.4235663, 48.8415837], [2.4234804, 48.84152610000002], [2.4232806, 48.8414317], [2.422995, 48.8413231], [2.4229437, 48.8412734]]}}, {"type": "Feature", "properties": {"highway": "path", "footway": null, "name": "Route Lemoine", "surface": "asphalt", "lit": "no", "length_m": 111.15, "type_element": "Way", "__fid": 120941}, "geometry": {"type": "LineString", "coordinates": [[2.422985, 48.8397124], [2.4233398, 48.8398362], [2.4236908, 48.8399368], [2.4239922, 48.8400123], [2.4242605, 48.8400491], [2.4243944, 48.8400455]]}}, {"type": "Feature", "properties": {"highway": "path", "footway": null, "name": null, "surface": "compacted", "lit": "no", "length_m": 151.16, "type_element": "Way", "__fid": 120942}, "geometry": {"type": "LineString", "coordinates": [[2.4231595, 48.8410528], [2.423124, 48.8408846], [2.423116, 48.8406922], [2.4231522, 48.8403612], [2.4231468, 48.8400594], [2.4231052, 48.8399446], [2.422985, 48.8397124]]}}, {"type": "Feature", "properties": {"highway": "track", "footway": null, "name": "Route du Lac de Saint-Mandé", "surface": "asphalt", "lit": "no", "length_m": 36.04, "type_element": "Way", "__fid": 120943}, "geometry": {"type": "LineString", "coordinates": [[2.423304, 48.839466], [2.422985, 48.8397124]]}}, {"type": "Feature", "properties": {"highway": "path", "footway": null, "name": null, "surface": null, "lit": "no", "length_m": 78.75, "type_element": "Way", "__fid": 120944}, "geometry": {"type": "LineString", "coordinates": [[2.4229982, 48.8412783], [2.4234132, 48.8413154], [2.4238169, 48.8413251], [2.4240645, 48.841349100000016]]}}, {"type": "Feature", "properties": {"highway": "path", "footway": null, "name": null, "surface": "compacted", "lit": "no", "length_m": 27.76, "type_element": "Way", "__fid": 120945}, "geometry": {"type": "LineString", "coordinates": [[2.4231595, 48.8410528], [2.4230844, 48.8411724], [2.4229982, 48.8412783]]}}, {"type": "Feature", "properties": {"highway": "path", "footway": null, "name": null, "surface": "compacted", "lit": "yes", "length_m": 112.81, "type_element": "Way", "__fid": 120946}, "geometry": {"type": "LineString", "coordinates": [[2.4230546, 48.8363444], [2.4232353, 48.8364306], [2.4238187, 48.8367528], [2.4242347, 48.8369936]]}}, {"type": "Feature", "properties": {"highway": "track", "footway": null, "name": "Route Brûlée", "surface": "asphalt", "lit": "no", "length_m": 35.48, "type_element": "Way", "__fid": 120950}, "geometry": {"type": "LineString", "coordinates": [[2.4235674, 48.8360693], [2.4230841, 48.8360662]]}}, {"type": "Feature", "properties": {"highway": "path", "footway": null, "name": "Avenue Daumesnil", "surface": "asphalt", "lit": "yes", "length_m": 10.14, "type_element": "Way", "__fid": 120951}, "geometry": {"type": "LineString", "coordinates": [[2.4230841, 48.8360662], [2.4231929, 48.8361224]]}}, {"type": "Feature", "properties": {"highway": "path", "footway": null, "name": "Avenue Daumesnil", "surface": "asphalt", "lit": "yes", "length_m": 62.52, "type_element": "Way", "__fid": 120961}, "geometry": {"type": "LineString", "coordinates": [[2.4231929, 48.8361224], [2.4238635, 48.836469]]}}, {"type": "Feature", "properties": {"highway": "path", "footway": null, "name": null, "surface": null, "lit": "no", "length_m": 144.41, "type_element": "Way", "__fid": 120965}, "geometry": {"type": "LineString", "coordinates": [[2.4243944, 48.8400455], [2.4240158, 48.8404009], [2.4236752, 48.8406984], [2.4231595, 48.8410528]]}}, {"type": "Feature", "properties": {"highway": "path", "footway": null, "name": null, "surface": null, "lit": null, "length_m": 110.94, "type_element": "Way", "__fid": 120966}, "geometry": {"type": "LineString", "coordinates": [[2.4246019, 48.840799], [2.424496, 48.8408193], [2.4242626, 48.8408988], [2.4240521, 48.8409544], [2.4237396, 48.841010900000015], [2.4235237, 48.84104880000001], [2.4233319, 48.8410462], [2.4231595, 48.8410528]]}}, {"type": "Feature", "properties": {"highway": "path", "footway": null, "name": "Route Lemoine", "surface": null, "lit": "no", "length_m": 96.94, "type_element": "Way", "__fid": 120979}, "geometry": {"type": "LineString", "coordinates": [[2.424447, 48.839891199999975], [2.4243302, 48.839833900000016], [2.4240625, 48.8397725], [2.4237795, 48.83968090000001], [2.4234194, 48.8395256], [2.423304, 48.839466]]}}, {"type": "Feature", "properties": {"highway": "track", "footway": null, "name": "Route du Lac de Saint-Mandé", "surface": "asphalt", "lit": "no", "length_m": 157.96, "type_element": "Way", "__fid": 120980}, "geometry": {"type": "LineString", "coordinates": [[2.4246346, 48.8383521], [2.4236614, 48.8392196], [2.423304, 48.839466]]}}, {"type": "Feature", "properties": {"highway": "path", "footway": null, "name": "Parcours Santé", "surface": "dirt", "lit": "no", "length_m": 65.62, "type_element": "Way", "__fid": 120995}, "geometry": {"type": "LineString", "coordinates": [[2.4235674, 48.8360693], [2.423704, 48.8359521], [2.4238318, 48.8358152], [2.4239015, 48.8355998], [2.4239015, 48.8355386]]}}, {"type": "Feature", "properties": {"highway": "track", "footway": null, "name": "Route Brûlée", "surface": "asphalt", "lit": "no", "length_m": 150.37, "type_element": "Way", "__fid": 120996}, "geometry": {"type": "LineString", "coordinates": [[2.4255699, 48.835808], [2.4246569, 48.83597769999999], [2.4241258, 48.8360413], [2.4236739, 48.8360687], [2.4235674, 48.8360693]]}}, {"type": "Feature", "properties": {"highway": "steps", "footway": null, "name": null, "surface": "asphalt", "lit": "no", "length_m": 46.25, "type_element": "Way", "__fid": 121001}, "geometry": {"type": "LineString", "coordinates": [[2.4235663, 48.8415837], [2.4237412, 48.8415305], [2.4239486, 48.8414475], [2.4240344, 48.84140049999998], [2.4240645, 48.841349100000016]]}}, {"type": "Feature", "properties": {"highway": "path", "footway": null, "name": "Avenue Daumesnil", "surface": "asphalt", "lit": "yes", "length_m": 157.23, "type_element": "Way", "__fid": 121022}, "geometry": {"type": "LineString", "coordinates": [[2.4238635, 48.836469], [2.4241252, 48.8366042], [2.4248152, 48.8370101], [2.4254492, 48.8374182]]}}, {"type": "Feature", "properties": {"highway": "path", "footway": null, "name": null, "surface": "compacted", "lit": "no", "length_m": 200.51, "type_element": "Way", "__fid": 121023}, "geometry": {"type": "LineString", "coordinates": [[2.4265463, 48.83612940000002], [2.4238635, 48.836469]]}}, {"type": "Feature", "properties": {"highway": "path", "footway": null, "name": "Parcours Santé", "surface": "dirt", "lit": "no", "length_m": 20.7, "type_element": "Way", "__fid": 121026}, "geometry": {"type": "LineString", "coordinates": [[2.4239015, 48.8355386], [2.4239215, 48.83535290000001]]}}, {"type": "Feature", "properties": {"highway": "path", "footway": null, "name": null, "surface": "dirt", "lit": "no", "length_m": 129.1, "type_element": "Way", "__fid": 121027}, "geometry": {"type": "LineString", "coordinates": [[2.4239015, 48.8355386], [2.4245597, 48.8355211], [2.4248842, 48.835604], [2.4255699, 48.835808]]}}, {"type": "Feature", "properties": {"highway": "path", "footway": null, "name": null, "surface": null, "lit": "no", "length_m": 21.89, "type_element": "Way", "__fid": 121037}, "geometry": {"type": "LineString", "coordinates": [[2.4240645, 48.841349100000016], [2.4243589, 48.84138040000002]]}}, {"type": "Feature", "properties": {"highway": "path", "footway": null, "name": null, "surface": null, "lit": null, "length_m": 73.5, "type_element": "Way", "__fid": 121038}, "geometry": {"type": "LineString", "coordinates": [[2.4246019, 48.840799], [2.4243404, 48.8410073], [2.4241942, 48.8411397], [2.4241124, 48.8412544], [2.4240645, 48.841349100000016]]}}, {"type": "Feature", "properties": {"highway": "path", "footway": null, "name": null, "surface": "compacted", "lit": "no", "length_m": 104.96, "type_element": "Way", "__fid": 121043}, "geometry": {"type": "LineString", "coordinates": [[2.4242347, 48.8369936], [2.4247773, 48.8373193], [2.4252561, 48.8376533]]}}, {"type": "Feature", "properties": {"highway": "steps", "footway": null, "name": null, "surface": null, "lit": null, "length_m": 38.69, "type_element": "Way", "__fid": 121049}, "geometry": {"type": "LineString", "coordinates": [[2.4243522, 48.841724], [2.4243146, 48.8415941], [2.4243589, 48.84138040000002]]}}, {"type": "Feature", "properties": {"highway": "path", "footway": null, "name": null, "surface": null, "lit": "no", "length_m": 97.74, "type_element": "Way", "__fid": 121050}, "geometry": {"type": "LineString", "coordinates": [[2.4243589, 48.84138040000002], [2.4247188, 48.8414109], [2.4249181, 48.841380499999985], [2.4252152, 48.841195099999986], [2.4255561, 48.8411286]]}}, {"type": "Feature", "properties": {"highway": "path", "footway": null, "name": "Route Lemoine", "surface": "compacted", "lit": "no", "length_m": 18.24, "type_element": "Way", "__fid": 121053}, "geometry": {"type": "LineString", "coordinates": [[2.4243944, 48.8400455], [2.4246427, 48.840052]]}}, {"type": "Feature", "properties": {"highway": "path", "footway": null, "name": null, "surface": null, "lit": "no", "length_m": 17.96, "type_element": "Way", "__fid": 121054}, "geometry": {"type": "LineString", "coordinates": [[2.424447, 48.839891199999975], [2.4244356, 48.8399958], [2.4243944, 48.8400455]]}}, {"type": "Feature", "properties": {"highway": "path", "footway": null, "name": "Route Lemoine", "surface": null, "lit": "no", "length_m": 23.09, "type_element": "Way", "__fid": 121057}, "geometry": {"type": "LineString", "coordinates": [[2.4246427, 48.840052], [2.4245858, 48.8400214], [2.424447, 48.839891199999975]]}}, {"type": "Feature", "properties": {"highway": "path", "footway": null, "name": null, "surface": null, "lit": "no", "length_m": 172.92, "type_element": "Way", "__fid": 121058}, "geometry": {"type": "LineString", "coordinates": [[2.4246346, 48.8383521], [2.4246944, 48.8385968], [2.4247052, 48.8387442], [2.4244986, 48.8396286], [2.424447, 48.839891199999975]]}}, {"type": "Feature", "properties": {"highway": "path", "footway": null, "name": null, "surface": null, "lit": null, "length_m": 60.26, "type_element": "Way", "__fid": 121063}, "geometry": {"type": "LineString", "coordinates": [[2.4249459, 48.8403432], [2.4249291, 48.84049189999999], [2.4248715, 48.8406216], [2.4248151, 48.8406887], [2.4247441, 48.8407425], [2.4246019, 48.840799]]}}, {"type": "Feature", "properties": {"highway": "track", "footway": null, "name": "Route du Lac de Saint-Mandé", "surface": "asphalt", "lit": "no", "length_m": 9.5, "type_element": "Way", "__fid": 121064}, "geometry": {"type": "LineString", "coordinates": [[2.4247116, 48.8382834], [2.4246346, 48.8383521]]}}, {"type": "Feature", "properties": {"highway": "path", "footway": null, "name": "Route Lemoine", "surface": "compacted", "lit": "no", "length_m": 14.62, "type_element": "Way", "__fid": 121065}, "geometry": {"type": "LineString", "coordinates": [[2.4246427, 48.840052], [2.4248408, 48.8400655]]}}, {"type": "Feature", "properties": {"highway": "service", "footway": null, "name": "Route de la Tourelle", "surface": "asphalt", "lit": null, "length_m": 85.3, "type_element": "Way", "__fid": 121068}, "geometry": {"type": "LineString", "coordinates": [[2.4246376, 48.8416943], [2.4253672, 48.8412948], [2.4255513, 48.8412224]]}}, {"type": "Feature", "properties": {"highway": "track", "footway": null, "name": null, "surface": "compacted", "lit": "no", "length_m": 120.33, "type_element": "Way", "__fid": 121069}, "geometry": {"type": "LineString", "coordinates": [[2.4261607, 48.8413694], [2.4256665, 48.841587], [2.4251436, 48.8416459], [2.42482, 48.841657], [2.4246376, 48.8416943]]}}, {"type": "Feature", "properties": {"highway": "footway", "footway": null, "name": null, "surface": "compacted", "lit": "no", "length_m": 28.76, "type_element": "Way", "__fid": 121072}, "geometry": {"type": "LineString", "coordinates": [[2.4247116, 48.8382834], [2.4250681, 48.8383908]]}}, {"type": "Feature", "properties": {"highway": "track", "footway": null, "name": "Route du Lac de Saint-Mandé", "surface": "asphalt", "lit": "no", "length_m": 80.66, "type_element": "Way", "__fid": 121073}, "geometry": {"type": "LineString", "coordinates": [[2.4252561, 48.8376533], [2.4247116, 48.8382834]]}}, {"type": "Feature", "properties": {"highway": "path", "footway": null, "name": "Route Lemoine", "surface": "compacted", "lit": "no", "length_m": 146.27, "type_element": "Way", "__fid": 121079}, "geometry": {"type": "LineString", "coordinates": [[2.4248408, 48.8400655], [2.4249746, 48.840104299999986], [2.4250919, 48.8401509], [2.4252438, 48.8402223], [2.4254225, 48.8403365], [2.4258412, 48.8406246], [2.4259967, 48.8407417], [2.4260743, 48.840820600000015], [2.4261997, 48.84099420000001]]}}, {"type": "Feature", "properties": {"highway": "path", "footway": null, "name": null, "surface": "compacted", "lit": "no", "length_m": 31.83, "type_element": "Way", "__fid": 121080}, "geometry": {"type": "LineString", "coordinates": [[2.4249459, 48.8403432], [2.4248408, 48.8400655]]}}, {"type": "Feature", "properties": {"highway": "track", "footway": null, "name": "Route Lemoine", "surface": "concrete", "lit": "no", "length_m": 26.67, "type_element": "Way", "__fid": 121081}, "geometry": {"type": "LineString", "coordinates": [[2.4251038, 48.8399013], [2.4250271, 48.8399388], [2.4249719, 48.8399828], [2.4248408, 48.8400655]]}}, {"type": "Feature", "properties": {"highway": "path", "footway": null, "name": null, "surface": "compacted", "lit": "no", "length_m": 99.85, "type_element": "Way", "__fid": 121082}, "geometry": {"type": "LineString", "coordinates": [[2.4255561, 48.8411286], [2.4255394, 48.8410181], [2.4254963, 48.84093389999999], [2.4254331, 48.84084830000001], [2.4251562, 48.8406214], [2.4250898, 48.84055220000001], [2.4249459, 48.8403432]]}}, {"type": "Feature", "properties": {"highway": "footway", "footway": null, "name": null, "surface": null, "lit": null, "length_m": 16.9, "type_element": "Way", "__fid": 121086}, "geometry": {"type": "LineString", "coordinates": [[2.4250681, 48.8383908], [2.4252773, 48.838454300000016]]}}, {"type": "Feature", "properties": {"highway": "path", "footway": null, "name": null, "surface": null, "lit": "no", "length_m": 172.33, "type_element": "Way", "__fid": 121087}, "geometry": {"type": "LineString", "coordinates": [[2.4251436, 48.8398542], [2.4250376, 48.8397817], [2.4248858, 48.8396123], [2.4248023, 48.8392818], [2.4248134, 48.8390173], [2.4248613, 48.8387649], [2.4250681, 48.8383908]]}}, {"type": "Feature", "properties": {"highway": "path", "footway": null, "name": null, "surface": null, "lit": "no", "length_m": 70.72, "type_element": "Way", "__fid": 121088}, "geometry": {"type": "LineString", "coordinates": [[2.4250681, 48.8383908], [2.4253391, 48.8380396], [2.4255514, 48.8378425]]}}, {"type": "Feature", "properties": {"highway": "track", "footway": null, "name": null, "surface": "compacted", "lit": "no", "length_m": 155.78, "type_element": "Way", "__fid": 121089}, "geometry": {"type": "LineString", "coordinates": [[2.4263944, 48.8409398], [2.4262918, 48.8407522], [2.4260801, 48.840435], [2.4260169, 48.84037759999999], [2.4259269, 48.8403201], [2.4258592, 48.8402964], [2.4256952, 48.8402582], [2.4255809, 48.8402202], [2.4254668, 48.84016539999999], [2.425364, 48.8401078], [2.4252023, 48.8399938], [2.4251038, 48.8399013]]}}, {"type": "Feature", "properties": {"highway": "track", "footway": null, "name": "Route Lemoine", "surface": "compacted", "lit": "no", "length_m": 6.0, "type_element": "Way", "__fid": 121090}, "geometry": {"type": "LineString", "coordinates": [[2.4251436, 48.8398542], [2.4251038, 48.8399013]]}}, {"type": "Feature", "properties": {"highway": "track", "footway": null, "name": "Route Lemoine", "surface": "compacted", "lit": "no", "length_m": 183.21, "type_element": "Way", "__fid": 121091}, "geometry": {"type": "LineString", "coordinates": [[2.4275356, 48.8403155], [2.4273943, 48.84027189999998], [2.4270846, 48.840203899999985], [2.4265905, 48.8401263], [2.4261518, 48.8400341], [2.4257351, 48.8399758], [2.4251436, 48.8398542]]}}, {"type": "Feature", "properties": {"highway": "path", "footway": null, "name": null, "surface": "compacted", "lit": "no", "length_m": 125.79, "type_element": "Way", "__fid": 121092}, "geometry": {"type": "LineString", "coordinates": [[2.4257998, 48.8388301], [2.425446, 48.8391768], [2.4253051, 48.83934030000001], [2.4251808, 48.8396978], [2.4251436, 48.8398542]]}}, {"type": "Feature", "properties": {"highway": "path", "footway": null, "name": null, "surface": "compacted", "lit": null, "length_m": 30.21, "type_element": "Way", "__fid": 121093}, "geometry": {"type": "LineString", "coordinates": [[2.4255514, 48.8378425], [2.4252561, 48.8376533]]}}, {"type": "Feature", "properties": {"highway": "track", "footway": "crossing", "name": "Route du Lac de Saint-Mandé", "surface": null, "lit": "no", "length_m": 29.74, "type_element": "Way", "__fid": 121094}, "geometry": {"type": "LineString", "coordinates": [[2.4252561, 48.8376533], [2.4254492, 48.8374182]]}}, {"type": "Feature", "properties": {"highway": "footway", "footway": null, "name": null, "surface": null, "lit": null, "length_m": 144.52, "type_element": "Way", "__fid": 121095}, "geometry": {"type": "LineString", "coordinates": [[2.4252773, 48.838454300000016], [2.4260042, 48.8386114], [2.426554, 48.83872090000001], [2.427174, 48.8387939]]}}, {"type": "Feature", "properties": {"highway": "footway", "footway": null, "name": null, "surface": "compacted", "lit": "no", "length_m": 56.96, "type_element": "Way", "__fid": 121096}, "geometry": {"type": "LineString", "coordinates": [[2.4252773, 48.838454300000016], [2.4253524, 48.838510800000016], [2.4254704, 48.8386185], [2.4256394, 48.8387421], [2.4257998, 48.8388301]]}}, {"type": "Feature", "properties": {"highway": "path", "footway": null, "name": "Avenue Daumesnil", "surface": "asphalt", "lit": null, "length_m": 35.85, "type_element": "Way", "__fid": 121103}, "geometry": {"type": "LineString", "coordinates": [[2.4254492, 48.8374182], [2.4257871, 48.837651]]}}, {"type": "Feature", "properties": {"highway": "track", "footway": null, "name": "Route du Lac de Saint-Mandé", "surface": "asphalt", "lit": "no", "length_m": 164.38, "type_element": "Way", "__fid": 121104}, "geometry": {"type": "LineString", "coordinates": [[2.4254492, 48.8374182], [2.4265463, 48.83612940000002]]}}]}