{"type": "FeatureCollection", "features": [{"type": "Feature", "properties": {"highway": "footway", "footway": "sidewalk", "name": null, "surface": null, "lit": "yes", "length_m": 207.22, "type_element": "Way", "__fid": 120359}, "geometry": {"type": "LineString", "coordinates": [[2.417491, 48.8493773], [2.4160565, 48.8509415], [2.4160032, 48.8509436]]}}, {"type": "Feature", "properties": {"highway": "footway", "footway": "sidewalk", "name": null, "surface": null, "lit": "yes", "length_m": 242.46, "type_element": "Way", "__fid": 120366}, "geometry": {"type": "LineString", "coordinates": [[2.4161081, 48.84728719999998], [2.4164433, 48.8472588], [2.4164705, 48.8472639], [2.4164802, 48.8472788], [2.4166388, 48.8491824], [2.4166204, 48.849193]]}}, {"type": "Feature", "properties": {"highway": "footway", "footway": "sidewalk", "name": null, "surface": null, "lit": "yes", "length_m": 87.89, "type_element": "Way", "__fid": 120386}, "geometry": {"type": "LineString", "coordinates": [[2.4174982, 48.8493445], [2.4169731, 48.849324], [2.4163015, 48.8493265]]}}, {"type": "Feature", "properties": {"highway": "footway", "footway": "sidewalk", "name": null, "surface": null, "lit": "yes", "length_m": 22.24, "type_element": "Way", "__fid": 120391}, "geometry": {"type": "LineString", "coordinates": [[2.41632203333352, 48.84919550000004], [2.4165995, 48.84920249999998], [2.4166204, 48.849193]]}}, {"type": "Feature", "properties": {"highway": "footway", "footway": "sidewalk", "name": null, "surface": null, "lit": "yes", "length_m": 1.04, "type_element": "Way", "__fid": 120411}, "geometry": {"type": "LineString", "coordinates": [[2.4166204, 48.849193], [2.4166338, 48.849196099999986]]}}]}