{"type": "FeatureCollection", "features": [{"type": "Feature", "properties": {"@id": "node/482775498", "amenity": "drinking_water", "man_made": "water_tap", "source": "cadastre-dgi-fr source : Direction Générale des Impôts - Cadastre ; mise à jour : 2009", "type_element": "Fontaines à boire", "__fid": 59}, "geometry": {"type": "Point", "coordinates": [2.4193483, 48.8346793]}, "id": "node/482775498"}, {"type": "Feature", "properties": {"@id": "node/2846149319", "amenity": "drinking_water", "type_element": "Fontaines à boire", "__fid": 382}, "geometry": {"type": "Point", "coordinates": [2.4167426, 48.8324901]}, "id": "node/2846149319"}, {"type": "Feature", "properties": {"@id": "node/2846149321", "amenity": "drinking_water", "type_element": "Fontaines à boire", "__fid": 383}, "geometry": {"type": "Point", "coordinates": [2.4171377, 48.8325371]}, "id": "node/2846149321"}, {"type": "Feature", "properties": {"@id": "node/2976357800", "amenity": "drinking_water", "type_element": "Fontaines à boire", "__fid": 410}, "geometry": {"type": "Point", "coordinates": [2.4193421, 48.8307541]}, "id": "node/2976357800"}, {"type": "Feature", "properties": {"@id": "node/12928013327", "access": "yes", "amenity": "drinking_water", "fee": "no", "operator": "Eau de Paris", "operator:wikidata": "Q3046689", "type_element": "Fontaines à boire", "__fid": 1023}, "geometry": {"type": "Point", "coordinates": [2.41686, 48.8314238]}, "id": "node/12928013327"}, {"type": "Feature", "properties": {"@id": "node/13990544352", "amenity": "drinking_water", "type_element": "Fontaines à boire", "__fid": 1082}, "geometry": {"type": "Point", "coordinates": [2.4170896, 48.8311842]}, "id": "node/13990544352"}, {"type": "Feature", "properties": {"highway": "pedestrian", "footway": null, "name": "Route de la Ceinture du Lac Daumesnil", "surface": "asphalt", "lit": "no", "length_m": 333.06, "type_element": "Way", "__fid": 120156}, "geometry": {"type": "LineString", "coordinates": [[2.4179484, 48.830518], [2.4175935, 48.83083929999999], [2.4171956, 48.831164], [2.4167532, 48.83150649999998], [2.4157188, 48.83220989999999], [2.4150959, 48.8325695], [2.4148495, 48.8326914]]}}, {"type": "Feature", "properties": {"highway": "footway", "footway": null, "name": null, "surface": "concrete", "lit": null, "length_m": 162.9, "type_element": "Way", "__fid": 120199}, "geometry": {"type": "LineString", "coordinates": [[2.4150026, 48.8330285], [2.415105, 48.8329671], [2.4151384, 48.8328615], [2.4151914, 48.8327818], [2.4152852, 48.83270020000001], [2.4153886, 48.8326412], [2.4156106, 48.8325549], [2.4157677, 48.8324297], [2.4158381, 48.8324252], [2.4161207, 48.8325041], [2.4163524, 48.8323752], [2.4166005, 48.83233350000001], [2.4166433, 48.8323126]]}}, {"type": "Feature", "properties": {"highway": "service", "footway": null, "name": null, "surface": null, "lit": null, "length_m": 362.06, "type_element": "Way", "__fid": 120247}, "geometry": {"type": "LineString", "coordinates": [[2.4152167, 48.83325510000002], [2.4152923, 48.833284], [2.4154173, 48.83331670000001], [2.4154062, 48.8334999], [2.4155349, 48.8335353], [2.4157994, 48.83356], [2.4170955, 48.83382850000002], [2.4180749, 48.834099500000015], [2.419145, 48.834434], [2.41927, 48.8344618], [2.4193565, 48.8344568], [2.4195477, 48.83441160000001]]}}, {"type": "Feature", "properties": {"highway": "path", "footway": null, "name": null, "surface": "gravel", "lit": "no", "length_m": 124.19, "type_element": "Way", "__fid": 120257}, "geometry": {"type": "LineString", "coordinates": [[2.4165486, 48.831264], [2.4160712, 48.8315023], [2.4156743, 48.8317283], [2.4155177, 48.8318696], [2.4154167, 48.8319484], [2.4153007, 48.8320086]]}}, {"type": "Feature", "properties": {"highway": "track", "footway": null, "name": "Promenade Maurice-Boitel", "surface": "compacted", "lit": "no", "length_m": 92.37, "type_element": "Way", "__fid": 120269}, "geometry": {"type": "LineString", "coordinates": [[2.4155145, 48.8312174], [2.4164984, 48.8306996]]}}, {"type": "Feature", "properties": {"highway": "path", "footway": null, "name": null, "surface": "compacted", "lit": "no", "length_m": 76.76, "type_element": "Way", "__fid": 120270}, "geometry": {"type": "LineString", "coordinates": [[2.4165486, 48.831264], [2.4160373, 48.8311954], [2.4155145, 48.8312174]]}}, {"type": "Feature", "properties": {"highway": "path", "footway": null, "name": null, "surface": "compacted", "lit": "yes", "length_m": 293.37, "type_element": "Way", "__fid": 120316}, "geometry": {"type": "LineString", "coordinates": [[2.4158312, 48.8336653], [2.4164839, 48.8337749], [2.4177168, 48.8341073], [2.4193632, 48.8346341], [2.4195014, 48.8346896]]}}, {"type": "Feature", "properties": {"highway": "footway", "footway": null, "name": null, "surface": null, "lit": null, "length_m": 39.4, "type_element": "Way", "__fid": 120352}, "geometry": {"type": "LineString", "coordinates": [[2.4166697, 48.832909100000016], [2.4164434, 48.8329318], [2.4162926, 48.8329857], [2.4161931, 48.8330473]]}}, {"type": "Feature", "properties": {"highway": "footway", "footway": null, "name": null, "surface": "concrete:plates", "lit": null, "length_m": 20.24, "type_element": "Way", "__fid": 120363}, "geometry": {"type": "LineString", "coordinates": [[2.416504, 48.8327846], [2.4163506, 48.8327901], [2.4162371, 48.8328199]]}}, {"type": "Feature", "properties": {"highway": "footway", "footway": null, "name": null, "surface": null, "lit": null, "length_m": 23.87, "type_element": "Way", "__fid": 120371}, "geometry": {"type": "LineString", "coordinates": [[2.416504, 48.8327846], [2.4164812, 48.832727200000015], [2.4164061, 48.8326875], [2.4163645, 48.8326451], [2.4163205, 48.8326157]]}}, {"type": "Feature", "properties": {"highway": "path", "footway": null, "name": null, "surface": "compacted", "lit": "no", "length_m": 64.14, "type_element": "Way", "__fid": 120383}, "geometry": {"type": "LineString", "coordinates": [[2.4165486, 48.831264], [2.4165053, 48.8311861], [2.4164539, 48.831058], [2.4164461, 48.8309053], [2.4164984, 48.8306996]]}}, {"type": "Feature", "properties": {"highway": "track", "footway": null, "name": "Promenade Maurice-Boitel", "surface": "compacted", "lit": "no", "length_m": 156.67, "type_element": "Way", "__fid": 120384}, "geometry": {"type": "LineString", "coordinates": [[2.4164984, 48.8306996], [2.4166114, 48.8306401], [2.4171888, 48.830229], [2.4177514, 48.82978880000001], [2.4178863, 48.8296359]]}}, {"type": "Feature", "properties": {"highway": "footway", "footway": null, "name": null, "surface": "concrete:plates", "lit": null, "length_m": 21.62, "type_element": "Way", "__fid": 120390}, "geometry": {"type": "LineString", "coordinates": [[2.4166697, 48.832909100000016], [2.4166519, 48.8328655], [2.4165763, 48.8327776], [2.416504, 48.8327846]]}}, {"type": "Feature", "properties": {"highway": "path", "footway": null, "name": null, "surface": "compacted", "lit": "no", "length_m": 164.28, "type_element": "Way", "__fid": 120395}, "geometry": {"type": "LineString", "coordinates": [[2.4165486, 48.831264], [2.4166889, 48.8311656], [2.4170718, 48.8308531], [2.4173193, 48.830602], [2.4179087, 48.8300929]]}}, {"type": "Feature", "properties": {"highway": "footway", "footway": null, "name": null, "surface": null, "lit": null, "length_m": 39.52, "type_element": "Way", "__fid": 120398}, "geometry": {"type": "LineString", "coordinates": [[2.4171307, 48.832543500000014], [2.4168734, 48.832527099999986], [2.4166622, 48.832478399999985], [2.4166184, 48.8325016]]}}, {"type": "Feature", "properties": {"highway": "footway", "footway": null, "name": null, "surface": null, "lit": null, "length_m": 84.19, "type_element": "Way", "__fid": 120399}, "geometry": {"type": "LineString", "coordinates": [[2.4166433, 48.8323126], [2.4168888, 48.83235629999999], [2.4170674, 48.8323381], [2.417324, 48.8322727], [2.4173608, 48.832235400000016], [2.417431, 48.832251800000016], [2.4175079, 48.8324398]]}}, {"type": "Feature", "properties": {"highway": "footway", "footway": null, "name": null, "surface": null, "lit": null, "length_m": 11.95, "type_element": "Way", "__fid": 120400}, "geometry": {"type": "LineString", "coordinates": [[2.4166433, 48.8323126], [2.4167853, 48.83226]]}}, {"type": "Feature", "properties": {"highway": "footway", "footway": null, "name": null, "surface": "concrete:plates", "lit": null, "length_m": 4.29, "type_element": "Way", "__fid": 120402}, "geometry": {"type": "LineString", "coordinates": [[2.4167236, 48.8329241], [2.4166697, 48.832909100000016]]}}, {"type": "Feature", "properties": {"highway": "footway", "footway": null, "name": null, "surface": null, "lit": null, "length_m": 9.88, "type_element": "Way", "__fid": 120407}, "geometry": {"type": "LineString", "coordinates": [[2.416814, 48.8329486], [2.4167937, 48.83291029999999], [2.4167236, 48.8329241]]}}, {"type": "Feature", "properties": {"highway": "footway", "footway": null, "name": null, "surface": null, "lit": null, "length_m": 34.23, "type_element": "Way", "__fid": 120409}, "geometry": {"type": "LineString", "coordinates": [[2.4167853, 48.83226], [2.4169475, 48.8322798], [2.4169778, 48.8322766], [2.4171384, 48.8321328]]}}, {"type": "Feature", "properties": {"highway": "footway", "footway": null, "name": null, "surface": null, "lit": null, "length_m": 22.09, "type_element": "Way", "__fid": 120410}, "geometry": {"type": "LineString", "coordinates": [[2.4167853, 48.83226], [2.4168322, 48.8322346], [2.4169894, 48.8321147]]}}, {"type": "Feature", "properties": {"highway": "footway", "footway": null, "name": null, "surface": "concrete:plates", "lit": null, "length_m": 10.11, "type_element": "Way", "__fid": 120412}, "geometry": {"type": "LineString", "coordinates": [[2.4169458, 48.8329722], [2.4168806, 48.832966700000014], [2.416814, 48.8329486]]}}, {"type": "Feature", "properties": {"highway": "footway", "footway": null, "name": null, "surface": "concrete:plates", "lit": null, "length_m": 4.9, "type_element": "Way", "__fid": 120415}, "geometry": {"type": "LineString", "coordinates": [[2.4170115, 48.83298], [2.4169458, 48.8329722]]}}, {"type": "Feature", "properties": {"highway": "footway", "footway": null, "name": null, "surface": null, "lit": null, "length_m": 4.6, "type_element": "Way", "__fid": 120416}, "geometry": {"type": "LineString", "coordinates": [[2.4169458, 48.8329722], [2.4169692, 48.8329338]]}}, {"type": "Feature", "properties": {"highway": "footway", "footway": null, "name": null, "surface": null, "lit": null, "length_m": 4.7, "type_element": "Way", "__fid": 120417}, "geometry": {"type": "LineString", "coordinates": [[2.4169692, 48.8329338], [2.4170296, 48.832947899999986]]}}, {"type": "Feature", "properties": {"highway": "footway", "footway": null, "name": null, "surface": null, "lit": null, "length_m": 9.89, "type_element": "Way", "__fid": 120418}, "geometry": {"type": "LineString", "coordinates": [[2.4169692, 48.8329338], [2.417033, 48.8328555]]}}, {"type": "Feature", "properties": {"highway": "steps", "footway": null, "name": null, "surface": null, "lit": null, "length_m": 11.12, "type_element": "Way", "__fid": 120419}, "geometry": {"type": "LineString", "coordinates": [[2.4169894, 48.8321147], [2.4171384, 48.8321328]]}}, {"type": "Feature", "properties": {"highway": "footway", "footway": null, "name": null, "surface": null, "lit": null, "length_m": 27.59, "type_element": "Way", "__fid": 120420}, "geometry": {"type": "LineString", "coordinates": [[2.4169894, 48.8321147], [2.4170363, 48.832078399999986], [2.4169976, 48.8319332], [2.417039, 48.8318878]]}}, {"type": "Feature", "properties": {"highway": "footway", "footway": null, "name": null, "surface": "concrete:plates", "lit": null, "length_m": 39.18, "type_element": "Way", "__fid": 120421}, "geometry": {"type": "LineString", "coordinates": [[2.4172843, 48.8332092], [2.4172459, 48.83319190000001], [2.4172501, 48.8331414], [2.417237, 48.8330663], [2.4171812, 48.8329921], [2.4170115, 48.83298]]}}, {"type": "Feature", "properties": {"highway": "footway", "footway": null, "name": null, "surface": null, "lit": null, "length_m": 3.81, "type_element": "Way", "__fid": 120422}, "geometry": {"type": "LineString", "coordinates": [[2.4170296, 48.832947899999986], [2.4170115, 48.83298]]}}, {"type": "Feature", "properties": {"highway": "footway", "footway": null, "name": null, "surface": null, "lit": null, "length_m": 3.86, "type_element": "Way", "__fid": 120423}, "geometry": {"type": "LineString", "coordinates": [[2.417033, 48.8328555], [2.4170146, 48.832823]]}}, {"type": "Feature", "properties": {"highway": "steps", "footway": null, "name": null, "surface": null, "lit": null, "length_m": 10.5, "type_element": "Way", "__fid": 120424}, "geometry": {"type": "LineString", "coordinates": [[2.4171814, 48.8318969], [2.417039, 48.8318878]]}}, {"type": "Feature", "properties": {"highway": "footway", "footway": null, "name": null, "surface": null, "lit": null, "length_m": 57.15, "type_element": "Way", "__fid": 120425}, "geometry": {"type": "LineString", "coordinates": [[2.417039, 48.8318878], [2.4170955, 48.8318443], [2.4172045, 48.83171179999999], [2.4173741, 48.8317054], [2.4174692, 48.8315221]]}}, {"type": "Feature", "properties": {"highway": "footway", "footway": null, "name": null, "surface": null, "lit": null, "length_m": 13.01, "type_element": "Way", "__fid": 120426}, "geometry": {"type": "LineString", "coordinates": [[2.4170296, 48.832947899999986], [2.4171736, 48.83287970000002]]}}, {"type": "Feature", "properties": {"highway": "footway", "footway": null, "name": null, "surface": null, "lit": null, "length_m": 4.6, "type_element": "Way", "__fid": 120427}, "geometry": {"type": "LineString", "coordinates": [[2.417033, 48.8328555], [2.4170627, 48.83281909999999]]}}, {"type": "Feature", "properties": {"highway": "footway", "footway": null, "name": null, "surface": null, "lit": null, "length_m": 42.01, "type_element": "Way", "__fid": 120428}, "geometry": {"type": "LineString", "coordinates": [[2.4176015, 48.832715], [2.4174136, 48.83270909999999], [2.4172408, 48.83258009999999], [2.4171307, 48.832543500000014]]}}, {"type": "Feature", "properties": {"highway": "footway", "footway": null, "name": null, "surface": null, "lit": null, "length_m": 32.99, "type_element": "Way", "__fid": 120429}, "geometry": {"type": "LineString", "coordinates": [[2.4171307, 48.832543500000014], [2.4172398, 48.8324572], [2.4174301, 48.8324673], [2.4175079, 48.8324398]]}}, {"type": "Feature", "properties": {"highway": "footway", "footway": null, "name": null, "surface": null, "lit": null, "length_m": 28.31, "type_element": "Way", "__fid": 120430}, "geometry": {"type": "LineString", "coordinates": [[2.4171384, 48.8321328], [2.4171787, 48.8321039], [2.4171846, 48.83204830000002], [2.4171465, 48.8319462], [2.4171814, 48.8318969]]}}, {"type": "Feature", "properties": {"highway": "footway", "footway": null, "name": null, "surface": null, "lit": null, "length_m": 23.0, "type_element": "Way", "__fid": 120432}, "geometry": {"type": "LineString", "coordinates": [[2.4171814, 48.8318969], [2.4173626, 48.8317281]]}}, {"type": "Feature", "properties": {"highway": "footway", "footway": null, "name": null, "surface": null, "lit": null, "length_m": 17.78, "type_element": "Way", "__fid": 120433}, "geometry": {"type": "LineString", "coordinates": [[2.4172843, 48.8332092], [2.4172195, 48.8332847], [2.4171791, 48.8333528]]}}, {"type": "Feature", "properties": {"highway": "steps", "footway": null, "name": null, "surface": null, "lit": null, "length_m": 8.18, "type_element": "Way", "__fid": 120435}, "geometry": {"type": "LineString", "coordinates": [[2.4173626, 48.8317281], [2.4172522, 48.8317178]]}}, {"type": "Feature", "properties": {"highway": "footway", "footway": null, "name": null, "surface": "concrete:plates", "lit": null, "length_m": 32.67, "type_element": "Way", "__fid": 120436}, "geometry": {"type": "LineString", "coordinates": [[2.4175975, 48.8332144], [2.4175681, 48.8331312], [2.4174817, 48.83313219999999], [2.4172843, 48.8332092]]}}, {"type": "Feature", "properties": {"highway": "footway", "footway": null, "name": null, "surface": null, "lit": null, "length_m": 26.02, "type_element": "Way", "__fid": 120439}, "geometry": {"type": "LineString", "coordinates": [[2.4173626, 48.8317281], [2.4174284, 48.8317537], [2.4174773, 48.8317237], [2.4175073, 48.8316361], [2.4174675, 48.8315939]]}}, {"type": "Feature", "properties": {"highway": "footway", "footway": null, "name": null, "surface": null, "lit": null, "length_m": 27.76, "type_element": "Way", "__fid": 120444}, "geometry": {"type": "LineString", "coordinates": [[2.4174692, 48.8315221], [2.4176907, 48.8315577], [2.4177566, 48.8315191], [2.4177853, 48.83148280000001]]}}, {"type": "Feature", "properties": {"highway": "footway", "footway": null, "name": null, "surface": null, "lit": null, "length_m": 24.15, "type_element": "Way", "__fid": 120445}, "geometry": {"type": "LineString", "coordinates": [[2.4174692, 48.8315221], [2.4174968, 48.83148670000001], [2.417574, 48.8314277], [2.4177008, 48.8313741]]}}, {"type": "Feature", "properties": {"highway": "footway", "footway": null, "name": null, "surface": null, "lit": null, "length_m": 6.86, "type_element": "Way", "__fid": 120446}, "geometry": {"type": "LineString", "coordinates": [[2.4175484, 48.8328628], [2.4175117, 48.832880399999986], [2.4174832, 48.832906]]}}, {"type": "Feature", "properties": {"highway": "footway", "footway": null, "name": null, "surface": null, "lit": null, "length_m": 8.79, "type_element": "Way", "__fid": 120447}, "geometry": {"type": "LineString", "coordinates": [[2.4175079, 48.8324398], [2.4175663, 48.8325088]]}}, {"type": "Feature", "properties": {"highway": "footway", "footway": null, "name": null, "surface": null, "lit": null, "length_m": 11.1, "type_element": "Way", "__fid": 120448}, "geometry": {"type": "LineString", "coordinates": [[2.4175079, 48.8324398], [2.4175331, 48.832424299999985], [2.4175815, 48.83243190000001], [2.4175961, 48.8323887]]}}, {"type": "Feature", "properties": {"highway": "footway", "footway": null, "name": null, "surface": null, "lit": null, "length_m": 45.07, "type_element": "Way", "__fid": 120449}, "geometry": {"type": "LineString", "coordinates": [[2.4175975, 48.8332144], [2.4177012, 48.833124799999986], [2.4177052, 48.8330228], [2.4175484, 48.8328628]]}}, {"type": "Feature", "properties": {"highway": "footway", "footway": null, "name": null, "surface": null, "lit": null, "length_m": 12.67, "type_element": "Way", "__fid": 120450}, "geometry": {"type": "LineString", "coordinates": [[2.4175484, 48.8328628], [2.4176337, 48.8327637]]}}, {"type": "Feature", "properties": {"highway": "footway", "footway": null, "name": null, "surface": null, "lit": null, "length_m": 13.86, "type_element": "Way", "__fid": 120451}, "geometry": {"type": "LineString", "coordinates": [[2.4175551, 48.8325956], [2.4175622, 48.83265129999999], [2.4176015, 48.832715]]}}, {"type": "Feature", "properties": {"highway": "footway", "footway": null, "name": null, "surface": null, "lit": null, "length_m": 9.69, "type_element": "Way", "__fid": 120452}, "geometry": {"type": "LineString", "coordinates": [[2.4175663, 48.8325088], [2.4175551, 48.8325956]]}}, {"type": "Feature", "properties": {"highway": "footway", "footway": null, "name": null, "surface": null, "lit": null, "length_m": 25.18, "type_element": "Way", "__fid": 120453}, "geometry": {"type": "LineString", "coordinates": [[2.4175961, 48.8323887], [2.4179389, 48.832397200000024]]}}, {"type": "Feature", "properties": {"highway": "footway", "footway": null, "name": null, "surface": null, "lit": null, "length_m": 24.57, "type_element": "Way", "__fid": 120454}, "geometry": {"type": "LineString", "coordinates": [[2.4175961, 48.8323887], [2.4176135, 48.832168]]}}, {"type": "Feature", "properties": {"highway": "footway", "footway": null, "name": null, "surface": null, "lit": null, "length_m": 5.91, "type_element": "Way", "__fid": 120456}, "geometry": {"type": "LineString", "coordinates": [[2.4176015, 48.832715], [2.4176337, 48.8327637]]}}, {"type": "Feature", "properties": {"highway": "footway", "footway": null, "name": null, "surface": null, "lit": null, "length_m": 43.59, "type_element": "Way", "__fid": 120457}, "geometry": {"type": "LineString", "coordinates": [[2.4179389, 48.832397200000024], [2.4177314, 48.8325488], [2.4176476, 48.8326384], [2.4176015, 48.832715]]}}, {"type": "Feature", "properties": {"highway": "footway", "footway": null, "name": null, "surface": "concrete:plates", "lit": null, "length_m": 46.88, "type_element": "Way", "__fid": 120458}, "geometry": {"type": "LineString", "coordinates": [[2.4179847, 48.8335198], [2.4179801, 48.8334927], [2.4178418, 48.8334223], [2.4177824, 48.833356], [2.4177059, 48.8333435], [2.4176174, 48.8332641], [2.4175975, 48.8332144]]}}, {"type": "Feature", "properties": {"highway": "footway", "footway": null, "name": null, "surface": null, "lit": null, "length_m": 5.78, "type_element": "Way", "__fid": 120459}, "geometry": {"type": "LineString", "coordinates": [[2.4176337, 48.8327637], [2.4176823, 48.83280460000001]]}}, {"type": "Feature", "properties": {"highway": "path", "footway": null, "name": null, "surface": null, "lit": null, "length_m": 98.93, "type_element": "Way", "__fid": 120461}, "geometry": {"type": "LineString", "coordinates": [[2.4184978, 48.8311154], [2.4184794, 48.8311467], [2.4183407, 48.83120479999999], [2.4181247, 48.831427], [2.4180375, 48.831533], [2.4178492, 48.8316617], [2.4176857, 48.8318108]]}}, {"type": "Feature", "properties": {"highway": "footway", "footway": null, "name": null, "surface": null, "lit": null, "length_m": 240.93, "type_element": "Way", "__fid": 120462}, "geometry": {"type": "LineString", "coordinates": [[2.4176823, 48.83280460000001], [2.4177567, 48.8328807], [2.4179235, 48.832927699999985], [2.4180074, 48.83305510000001], [2.4182543, 48.8331121], [2.4183953, 48.83328439999999], [2.4185426, 48.8332875], [2.4187441, 48.8332351], [2.4190028, 48.8333048], [2.4190256, 48.83330549999999], [2.4190602, 48.8332772], [2.4189435, 48.83319070000001], [2.4189996, 48.8330396], [2.4192928, 48.8328575], [2.4194149, 48.8328667], [2.4194889, 48.832906500000014], [2.4196153, 48.8329046], [2.4196436, 48.8329738], [2.4195939, 48.8330503], [2.4196191, 48.83310080000001]]}}, {"type": "Feature", "properties": {"highway": "footway", "footway": null, "name": null, "surface": null, "lit": null, "length_m": 163.89, "type_element": "Way", "__fid": 120463}, "geometry": {"type": "LineString", "coordinates": [[2.4176823, 48.83280460000001], [2.4176594, 48.8328602], [2.4177569, 48.8329733], [2.4178661, 48.8330352], [2.4179263, 48.8331207], [2.4181033, 48.83318710000001], [2.4181798, 48.8332425], [2.4181911, 48.8333357], [2.4183029, 48.8333467], [2.4184328, 48.8334155], [2.4185189, 48.83341290000002], [2.4185641, 48.8334562], [2.4185579, 48.833497], [2.4186488, 48.8336124], [2.418769, 48.8336313], [2.4189064, 48.8336958], [2.4189306, 48.8337325], [2.4190637, 48.8337712]]}}, {"type": "Feature", "properties": {"highway": "footway", "footway": null, "name": null, "surface": null, "lit": null, "length_m": 13.59, "type_element": "Way", "__fid": 120464}, "geometry": {"type": "LineString", "coordinates": [[2.4177853, 48.83148280000001], [2.4177008, 48.8313741]]}}, {"type": "Feature", "properties": {"highway": "footway", "footway": null, "name": null, "surface": null, "lit": null, "length_m": 25.25, "type_element": "Way", "__fid": 120465}, "geometry": {"type": "LineString", "coordinates": [[2.4177008, 48.8313741], [2.4178084, 48.8313324], [2.4177794, 48.831189]]}}, {"type": "Feature", "properties": {"highway": "footway", "footway": null, "name": null, "surface": null, "lit": null, "length_m": 28.28, "type_element": "Way", "__fid": 120472}, "geometry": {"type": "LineString", "coordinates": [[2.4177794, 48.831189], [2.4181365, 48.83109369999998]]}}, {"type": "Feature", "properties": {"highway": "footway", "footway": null, "name": null, "surface": null, "lit": null, "length_m": 5.04, "type_element": "Way", "__fid": 120473}, "geometry": {"type": "LineString", "coordinates": [[2.4178318, 48.8314495], [2.4177853, 48.83148280000001]]}}, {"type": "Feature", "properties": {"highway": "path", "footway": null, "name": null, "surface": "compacted", "lit": "no", "length_m": 50.84, "type_element": "Way", "__fid": 120476}, "geometry": {"type": "LineString", "coordinates": [[2.4179087, 48.8300929], [2.4178863, 48.8296359]]}}, {"type": "Feature", "properties": {"highway": "track", "footway": null, "name": "Promenade Maurice-Boitel", "surface": "compacted", "lit": "no", "length_m": 70.03, "type_element": "Way", "__fid": 120477}, "geometry": {"type": "LineString", "coordinates": [[2.4178863, 48.8296359], [2.4181823, 48.8293002], [2.4183992, 48.8291059]]}}, {"type": "Feature", "properties": {"highway": "path", "footway": null, "name": null, "surface": "compacted", "lit": "no", "length_m": 47.36, "type_element": "Way", "__fid": 120480}, "geometry": {"type": "LineString", "coordinates": [[2.4179484, 48.830518], [2.4179087, 48.8300929]]}}, {"type": "Feature", "properties": {"highway": "path", "footway": null, "name": null, "surface": "compacted", "lit": "no", "length_m": 118.43, "type_element": "Way", "__fid": 120481}, "geometry": {"type": "LineString", "coordinates": [[2.4179087, 48.8300929], [2.4180026, 48.8300098], [2.4181707, 48.8297998], [2.4183154, 48.8295375], [2.4184382, 48.8292322], [2.4183992, 48.8291059]]}}, {"type": "Feature", "properties": {"highway": "pedestrian", "footway": null, "name": "Route de la Ceinture du Lac Daumesnil", "surface": "asphalt", "lit": "no", "length_m": 233.21, "type_element": "Way", "__fid": 120482}, "geometry": {"type": "LineString", "coordinates": [[2.4193184, 48.8286406], [2.4192915, 48.8286543], [2.4192519, 48.8287041], [2.4190259, 48.8291532], [2.4188395, 48.829482699999986], [2.4184849, 48.8299677], [2.4181834, 48.8303052], [2.4179484, 48.830518]]}}, {"type": "Feature", "properties": {"highway": "footway", "footway": null, "name": null, "surface": null, "lit": null, "length_m": 114.16, "type_element": "Way", "__fid": 120483}, "geometry": {"type": "LineString", "coordinates": [[2.4190926, 48.8319292], [2.419111, 48.831962], [2.4190547, 48.83212529999999], [2.4189394, 48.8322233], [2.4186591, 48.832287700000016], [2.4182232, 48.8322895], [2.4179389, 48.832397200000024]]}}, {"type": "Feature", "properties": {"highway": "footway", "footway": null, "name": null, "surface": "concrete:plates", "lit": null, "length_m": 145.0, "type_element": "Way", "__fid": 120484}, "geometry": {"type": "LineString", "coordinates": [[2.4188061, 48.8339113], [2.4185904, 48.833862900000014], [2.4184808, 48.83382490000001], [2.4184099, 48.8337941], [2.4183624, 48.8337368], [2.4183185, 48.8337194], [2.4182108, 48.833699400000015], [2.4179798, 48.8337078], [2.4178486, 48.8337901], [2.4177642, 48.833797099999984], [2.4176743, 48.83375250000001], [2.4176218, 48.8337392], [2.417586, 48.833698700000014], [2.4175912, 48.83365830000001], [2.4176228, 48.8336295], [2.4179113, 48.8335906], [2.4179847, 48.8335198]]}}, {"type": "Feature", "properties": {"highway": "footway", "footway": null, "name": null, "surface": "concrete:plates", "lit": null, "length_m": 7.49, "type_element": "Way", "__fid": 120485}, "geometry": {"type": "LineString", "coordinates": [[2.4179847, 48.8335198], [2.4180864, 48.8335146]]}}, {"type": "Feature", "properties": {"highway": "footway", "footway": null, "name": null, "surface": null, "lit": null, "length_m": 14.33, "type_element": "Way", "__fid": 120491}, "geometry": {"type": "LineString", "coordinates": [[2.4181365, 48.83109369999998], [2.4181751, 48.8310846], [2.4183274, 48.8311005]]}}, {"type": "Feature", "properties": {"highway": "footway", "footway": null, "name": null, "surface": null, "lit": null, "length_m": 14.74, "type_element": "Way", "__fid": 120492}, "geometry": {"type": "LineString", "coordinates": [[2.4182107, 48.830918], [2.4182693, 48.8309486], [2.4183227, 48.8309629], [2.418391, 48.830966300000014]]}}, {"type": "Feature", "properties": {"highway": "footway", "footway": null, "name": "Parcours Biodiversité", "surface": "ground", "lit": null, "length_m": 121.92, "type_element": "Way", "__fid": 120493}, "geometry": {"type": "LineString", "coordinates": [[2.4182107, 48.830918], [2.4181378, 48.8308848], [2.4181153, 48.8308012], [2.4181739, 48.8306914], [2.4184414, 48.830548], [2.4185601, 48.830505500000015], [2.4185836, 48.8305346], [2.4184947, 48.8305658], [2.4183767, 48.8306346], [2.4182505, 48.8307468], [2.4182257, 48.8308141], [2.4182175, 48.8308754], [2.4182267, 48.8308993], [2.4182107, 48.830918]]}}, {"type": "Feature", "properties": {"highway": "footway", "footway": null, "name": null, "surface": null, "lit": null, "length_m": 12.62, "type_element": "Way", "__fid": 120494}, "geometry": {"type": "LineString", "coordinates": [[2.4183274, 48.8311005], [2.4184978, 48.8311154]]}}, {"type": "Feature", "properties": {"highway": "footway", "footway": null, "name": null, "surface": null, "lit": null, "length_m": 18.46, "type_element": "Way", "__fid": 120497}, "geometry": {"type": "LineString", "coordinates": [[2.4184978, 48.8311154], [2.4184608, 48.8310419], [2.418391, 48.830966300000014]]}}, {"type": "Feature", "properties": {"highway": "footway", "footway": null, "name": null, "surface": null, "lit": null, "length_m": 103.42, "type_element": "Way", "__fid": 120498}, "geometry": {"type": "LineString", "coordinates": [[2.418391, 48.830966300000014], [2.4183641, 48.8309372], [2.4183317, 48.8308741], [2.4183316, 48.8307883], [2.4183858, 48.83068440000001], [2.4184446, 48.830636], [2.4185147, 48.8305988], [2.4187639, 48.8305213], [2.418864, 48.8305123], [2.4189753, 48.8305231], [2.4190808, 48.8305495], [2.4192298, 48.8306089]]}}, {"type": "Feature", "properties": {"highway": "footway", "footway": null, "name": null, "surface": "concrete", "lit": null, "length_m": 47.64, "type_element": "Way", "__fid": 120504}, "geometry": {"type": "LineString", "coordinates": [[2.4184978, 48.8311154], [2.4186157, 48.8311377], [2.4188927, 48.8310672], [2.4191165, 48.831034]]}}, {"type": "Feature", "properties": {"highway": "footway", "footway": null, "name": null, "surface": null, "lit": null, "length_m": 41.38, "type_element": "Way", "__fid": 120510}, "geometry": {"type": "LineString", "coordinates": [[2.418642, 48.8311553], [2.4187029, 48.8311748], [2.4188201, 48.8311863], [2.4189458, 48.83117150000001], [2.4191575, 48.831084]]}}, {"type": "Feature", "properties": {"highway": "footway", "footway": null, "name": null, "surface": "concrete:plates", "lit": null, "length_m": 13.97, "type_element": "Way", "__fid": 120516}, "geometry": {"type": "LineString", "coordinates": [[2.4188061, 48.8339113], [2.4189956, 48.8339229]]}}, {"type": "Feature", "properties": {"highway": "footway", "footway": null, "name": null, "surface": "concrete:plates", "lit": null, "length_m": 13.88, "type_element": "Way", "__fid": 120517}, "geometry": {"type": "LineString", "coordinates": [[2.4189782, 48.83385950000001], [2.4188061, 48.8339113]]}}, {"type": "Feature", "properties": {"highway": "footway", "footway": null, "name": null, "surface": null, "lit": null, "length_m": 7.16, "type_element": "Way", "__fid": 120520}, "geometry": {"type": "LineString", "coordinates": [[2.4189782, 48.83385950000001], [2.4189956, 48.8339229]]}}, {"type": "Feature", "properties": {"highway": "footway", "footway": null, "name": null, "surface": "concrete:plates", "lit": null, "length_m": 11.65, "type_element": "Way", "__fid": 120521}, "geometry": {"type": "LineString", "coordinates": [[2.4190637, 48.8337712], [2.4189782, 48.83385950000001]]}}, {"type": "Feature", "properties": {"highway": "footway", "footway": null, "name": null, "surface": null, "lit": null, "length_m": 20.16, "type_element": "Way", "__fid": 120522}, "geometry": {"type": "LineString", "coordinates": [[2.4191409, 48.833599100000015], [2.41911, 48.8335626], [2.4189779, 48.8334708], [2.4189893, 48.8334604]]}}, {"type": "Feature", "properties": {"highway": "footway", "footway": null, "name": null, "surface": "concrete:plates", "lit": null, "length_m": 38.98, "type_element": "Way", "__fid": 120523}, "geometry": {"type": "LineString", "coordinates": [[2.4189956, 48.8339229], [2.4194181, 48.8341352]]}}, {"type": "Feature", "properties": {"highway": "footway", "footway": null, "name": null, "surface": "concrete:plates", "lit": null, "length_m": 19.96, "type_element": "Way", "__fid": 120532}, "geometry": {"type": "LineString", "coordinates": [[2.4191409, 48.833599100000015], [2.4190637, 48.8337712]]}}, {"type": "Feature", "properties": {"highway": "footway", "footway": null, "name": null, "surface": "concrete", "lit": null, "length_m": 78.78, "type_element": "Way", "__fid": 120533}, "geometry": {"type": "LineString", "coordinates": [[2.4194344, 48.8313752], [2.4194271, 48.8313864], [2.4191528, 48.831483099999986], [2.4191033, 48.8316153], [2.4189812, 48.8317609], [2.4189767, 48.8317929], [2.4190926, 48.8319292]]}}, {"type": "Feature", "properties": {"highway": "footway", "footway": null, "name": null, "surface": "concrete", "lit": null, "length_m": 201.45, "type_element": "Way", "__fid": 120534}, "geometry": {"type": "LineString", "coordinates": [[2.4190926, 48.8319292], [2.4192588, 48.8318394], [2.4194514, 48.83181530000002], [2.419536, 48.8318581], [2.4196397, 48.8319364], [2.4197562, 48.8319998], [2.419917, 48.8320482], [2.4200875, 48.8321145], [2.4201205, 48.832169], [2.4200957, 48.832225600000015], [2.4201002, 48.8323242], [2.4200913, 48.8323915], [2.4200056, 48.8328676], [2.4200419, 48.8329996], [2.4201022, 48.8330525], [2.4201114, 48.8331077]]}}, {"type": "Feature", "properties": {"highway": "footway", "footway": null, "name": null, "surface": "concrete", "lit": null, "length_m": 6.32, "type_element": "Way", "__fid": 120537}, "geometry": {"type": "LineString", "coordinates": [[2.4191165, 48.831034], [2.4191575, 48.831084]]}}, {"type": "Feature", "properties": {"highway": "footway", "footway": null, "name": null, "surface": null, "lit": null, "length_m": 7.92, "type_element": "Way", "__fid": 120538}, "geometry": {"type": "LineString", "coordinates": [[2.4191842, 48.8309785], [2.4191165, 48.831034]]}}, {"type": "Feature", "properties": {"highway": "footway", "footway": null, "name": null, "surface": "concrete", "lit": null, "length_m": 34.88, "type_element": "Way", "__fid": 120543}, "geometry": {"type": "LineString", "coordinates": [[2.4191575, 48.831084], [2.4192501, 48.8311971], [2.4194324, 48.8312606], [2.4194581, 48.8313066]]}}, {"type": "Feature", "properties": {"highway": "footway", "footway": null, "name": null, "surface": null, "lit": null, "length_m": 53.35, "type_element": "Way", "__fid": 120544}, "geometry": {"type": "LineString", "coordinates": [[2.4194066, 48.8332479], [2.4194585, 48.8332787], [2.4195059, 48.8333577], [2.4194398, 48.8334477], [2.4191409, 48.833599100000015]]}}, {"type": "Feature", "properties": {"highway": "footway", "footway": null, "name": null, "surface": null, "lit": null, "length_m": 43.3, "type_element": "Way", "__fid": 120545}, "geometry": {"type": "LineString", "coordinates": [[2.4192298, 48.8306089], [2.4192894, 48.8307389], [2.4192793, 48.830842], [2.4191842, 48.8309785]]}}, {"type": "Feature", "properties": {"highway": "path", "footway": null, "name": null, "surface": null, "lit": null, "length_m": 70.76, "type_element": "Way", "__fid": 120546}, "geometry": {"type": "LineString", "coordinates": [[2.4199876, 48.8306314], [2.4195085, 48.830871199999976], [2.4191842, 48.8309785]]}}, {"type": "Feature", "properties": {"highway": "footway", "footway": null, "name": null, "surface": null, "lit": "no", "length_m": 13.36, "type_element": "Way", "__fid": 120551}, "geometry": {"type": "LineString", "coordinates": [[2.419197, 48.83309850000001], [2.4193184, 48.833188]]}}, {"type": "Feature", "properties": {"highway": "footway", "footway": null, "name": null, "surface": null, "lit": null, "length_m": 57.85, "type_element": "Way", "__fid": 120552}, "geometry": {"type": "LineString", "coordinates": [[2.4192298, 48.8306089], [2.4194559, 48.8305614], [2.4195268, 48.8305375], [2.4195946, 48.8304959], [2.4196368, 48.8304098], [2.4196193, 48.8303602], [2.4195859, 48.8303184], [2.4195814, 48.83025720000001]]}}, {"type": "Feature", "properties": {"highway": "footway", "footway": null, "name": null, "surface": null, "lit": null, "length_m": 9.29, "type_element": "Way", "__fid": 120559}, "geometry": {"type": "LineString", "coordinates": [[2.4193184, 48.833188], [2.4194066, 48.8332479]]}}, {"type": "Feature", "properties": {"highway": "footway", "footway": null, "name": null, "surface": "concrete:plates", "lit": "no", "length_m": 9.97, "type_element": "Way", "__fid": 120560}, "geometry": {"type": "LineString", "coordinates": [[2.4194374, 48.8331447], [2.4193184, 48.833188]]}}, {"type": "Feature", "properties": {"highway": "footway", "footway": null, "name": null, "surface": null, "lit": null, "length_m": 12.1, "type_element": "Way", "__fid": 120562}, "geometry": {"type": "LineString", "coordinates": [[2.4194374, 48.8331447], [2.4194477, 48.8331756], [2.4194066, 48.8332479]]}}, {"type": "Feature", "properties": {"highway": "footway", "footway": null, "name": null, "surface": null, "lit": null, "length_m": 39.41, "type_element": "Way", "__fid": 120563}, "geometry": {"type": "LineString", "coordinates": [[2.4198823, 48.8315389], [2.4197492, 48.8314338], [2.419531, 48.8314057], [2.4194344, 48.8313752]]}}, {"type": "Feature", "properties": {"highway": "footway", "footway": null, "name": null, "surface": "concrete", "lit": null, "length_m": 7.82, "type_element": "Way", "__fid": 120564}, "geometry": {"type": "LineString", "coordinates": [[2.4194581, 48.8313066], [2.4194344, 48.8313752]]}}, {"type": "Feature", "properties": {"highway": "footway", "footway": null, "name": null, "surface": null, "lit": null, "length_m": 37.42, "type_element": "Way", "__fid": 120565}, "geometry": {"type": "LineString", "coordinates": [[2.4194181, 48.8341352], [2.4196643, 48.83426260000001], [2.4197167, 48.83438790000001]]}}, {"type": "Feature", "properties": {"highway": "footway", "footway": null, "name": null, "surface": "concrete:plates", "lit": null, "length_m": 33.73, "type_element": "Way", "__fid": 120566}, "geometry": {"type": "LineString", "coordinates": [[2.4194181, 48.8341352], [2.4194246, 48.83429140000001], [2.4195189, 48.8343629], [2.4195477, 48.83441160000001]]}}, {"type": "Feature", "properties": {"highway": "footway", "footway": null, "name": null, "surface": "concrete:plates", "lit": "no", "length_m": 14.32, "type_element": "Way", "__fid": 120567}, "geometry": {"type": "LineString", "coordinates": [[2.4196191, 48.83310080000001], [2.419468, 48.8331435], [2.4194374, 48.8331447]]}}, {"type": "Feature", "properties": {"highway": "footway", "footway": null, "name": null, "surface": null, "lit": null, "length_m": 46.81, "type_element": "Way", "__fid": 120568}, "geometry": {"type": "LineString", "coordinates": [[2.4194581, 48.8313066], [2.4195993, 48.8313543], [2.4198185, 48.8313561], [2.4199409, 48.8315074]]}}, {"type": "Feature", "properties": {"highway": "path", "footway": null, "name": null, "surface": "compacted", "lit": "yes", "length_m": 21.08, "type_element": "Way", "__fid": 120579}, "geometry": {"type": "LineString", "coordinates": [[2.4195014, 48.8346896], [2.4197467, 48.8347881]]}}, {"type": "Feature", "properties": {"highway": "path", "footway": null, "name": null, "surface": "compacted", "lit": "yes", "length_m": 18.4, "type_element": "Way", "__fid": 120580}, "geometry": {"type": "LineString", "coordinates": [[2.4195014, 48.8346896], [2.4197436, 48.8346468]]}}, {"type": "Feature", "properties": {"highway": "footway", "footway": null, "name": null, "surface": null, "lit": null, "length_m": 17.78, "type_element": "Way", "__fid": 120581}, "geometry": {"type": "LineString", "coordinates": [[2.4195814, 48.83025720000001], [2.419591, 48.8302014], [2.4196691, 48.8301114]]}}, {"type": "Feature", "properties": {"highway": "footway", "footway": null, "name": null, "surface": null, "lit": null, "length_m": 11.18, "type_element": "Way", "__fid": 120582}, "geometry": {"type": "LineString", "coordinates": [[2.4195814, 48.83025720000001], [2.4197337, 48.8302563]]}}, {"type": "Feature", "properties": {"highway": "footway", "footway": null, "name": null, "surface": "concrete:plates", "lit": null, "length_m": 6.75, "type_element": "Way", "__fid": 120583}, "geometry": {"type": "LineString", "coordinates": [[2.4195477, 48.83441160000001], [2.4196383, 48.8344012]]}}, {"type": "Feature", "properties": {"highway": "footway", "footway": null, "name": null, "surface": "concrete:plates", "lit": "no", "length_m": 19.6, "type_element": "Way", "__fid": 120590}, "geometry": {"type": "LineString", "coordinates": [[2.4198703, 48.8330411], [2.4196191, 48.83310080000001]]}}, {"type": "Feature", "properties": {"highway": "footway", "footway": null, "name": null, "surface": "concrete:plates", "lit": "yes", "length_m": 28.65, "type_element": "Way", "__fid": 120595}, "geometry": {"type": "LineString", "coordinates": [[2.4197436, 48.8346468], [2.4197424, 48.834591], [2.4196383, 48.8344012]]}}, {"type": "Feature", "properties": {"highway": "footway", "footway": null, "name": null, "surface": null, "lit": null, "length_m": 5.94, "type_element": "Way", "__fid": 120596}, "geometry": {"type": "LineString", "coordinates": [[2.4196383, 48.8344012], [2.4197167, 48.83438790000001]]}}, {"type": "Feature", "properties": {"highway": "footway", "footway": null, "name": null, "surface": null, "lit": null, "length_m": 66.56, "type_element": "Way", "__fid": 120604}, "geometry": {"type": "LineString", "coordinates": [[2.4197167, 48.83438790000001], [2.4198711, 48.83438790000001], [2.4199953, 48.8343622], [2.4200734, 48.8342665], [2.4200067, 48.8341115], [2.4200096, 48.83397059999999]]}}, {"type": "Feature", "properties": {"highway": "path", "footway": null, "name": null, "surface": "compacted", "lit": "yes", "length_m": 6.01, "type_element": "Way", "__fid": 120605}, "geometry": {"type": "LineString", "coordinates": [[2.4197467, 48.8347881], [2.4197155, 48.83483810000001]]}}, {"type": "Feature", "properties": {"highway": "footway", "footway": null, "name": null, "surface": null, "lit": "yes", "length_m": 15.71, "type_element": "Way", "__fid": 120607}, "geometry": {"type": "LineString", "coordinates": [[2.4197467, 48.8347881], [2.4197436, 48.8346468]]}}, {"type": "Feature", "properties": {"highway": "path", "footway": null, "name": null, "surface": "compacted", "lit": "yes", "length_m": 41.64, "type_element": "Way", "__fid": 120608}, "geometry": {"type": "LineString", "coordinates": [[2.4197436, 48.8346468], [2.4199351, 48.8346086], [2.4197923, 48.8348319]]}}, {"type": "Feature", "properties": {"highway": "footway", "footway": null, "name": null, "surface": null, "lit": "yes", "length_m": 5.91, "type_element": "Way", "__fid": 120609}, "geometry": {"type": "LineString", "coordinates": [[2.4197467, 48.8347881], [2.4197923, 48.8348319]]}}, {"type": "Feature", "properties": {"highway": "footway", "footway": "crossing", "name": null, "surface": null, "lit": "yes", "length_m": 17.23, "type_element": "Way", "__fid": 120610}, "geometry": {"type": "LineString", "coordinates": [[2.4197923, 48.8348319], [2.4200018, 48.83490170000001]]}}, {"type": "Feature", "properties": {"highway": "path", "footway": null, "name": null, "surface": null, "lit": null, "length_m": 49.0, "type_element": "Way", "__fid": 120613}, "geometry": {"type": "LineString", "coordinates": [[2.4198359, 48.8326041], [2.4198114, 48.83278940000001], [2.4198703, 48.8330411]]}}, {"type": "Feature", "properties": {"highway": "footway", "footway": null, "name": null, "surface": null, "lit": null, "length_m": 5.55, "type_element": "Way", "__fid": 120616}, "geometry": {"type": "LineString", "coordinates": [[2.4199409, 48.8315074], [2.4198823, 48.8315389]]}}, {"type": "Feature", "properties": {"highway": "footway", "footway": null, "name": null, "surface": "concrete:plates", "lit": "no", "length_m": 19.19, "type_element": "Way", "__fid": 120617}, "geometry": {"type": "LineString", "coordinates": [[2.4198703, 48.8330411], [2.4201114, 48.8331077]]}}, {"type": "Feature", "properties": {"highway": "footway", "footway": "sidewalk", "name": null, "surface": null, "lit": "yes", "length_m": 2.88, "type_element": "Way", "__fid": 120626}, "geometry": {"type": "LineString", "coordinates": [[2.4199709, 48.834958600000014], [2.419983, 48.834934]]}}, {"type": "Feature", "properties": {"highway": "path", "footway": null, "name": "Avenue Daumesnil", "surface": "asphalt", "lit": "yes", "length_m": 76.57, "type_element": "Way", "__fid": 120629}, "geometry": {"type": "LineString", "coordinates": [[2.419983, 48.834934], [2.4209166, 48.8352412]]}}, {"type": "Feature", "properties": {"highway": "path", "footway": null, "name": null, "surface": null, "lit": "yes", "length_m": 3.85, "type_element": "Way", "__fid": 120630}, "geometry": {"type": "LineString", "coordinates": [[2.4200018, 48.83490170000001], [2.419983, 48.834934]]}}, {"type": "Feature", "properties": {"highway": "footway", "footway": null, "name": null, "surface": null, "lit": null, "length_m": 36.64, "type_element": "Way", "__fid": 120633}, "geometry": {"type": "LineString", "coordinates": [[2.4200096, 48.83397059999999], [2.4200946, 48.8339303], [2.4201371, 48.8337933], [2.4201514, 48.8336731]]}}, {"type": "Feature", "properties": {"highway": "path", "footway": null, "name": null, "surface": null, "lit": null, "length_m": 12.04, "type_element": "Way", "__fid": 120635}, "geometry": {"type": "LineString", "coordinates": [[2.4200608, 48.8348007], [2.4200018, 48.83490170000001]]}}, {"type": "Feature", "properties": {"highway": "service", "footway": null, "name": null, "surface": null, "lit": null, "length_m": 73.31, "type_element": "Way", "__fid": 120639}, "geometry": {"type": "LineString", "coordinates": [[2.4201093, 48.8301441], [2.4202313, 48.8307985]]}}, {"type": "Feature", "properties": {"highway": "path", "footway": null, "name": null, "surface": null, "lit": null, "length_m": 36.26, "type_element": "Way", "__fid": 120641}, "geometry": {"type": "LineString", "coordinates": [[2.4205117, 48.8349339], [2.4200608, 48.8348007]]}}, {"type": "Feature", "properties": {"highway": "path", "footway": null, "name": null, "surface": null, "lit": null, "length_m": 20.64, "type_element": "Way", "__fid": 120642}, "geometry": {"type": "LineString", "coordinates": [[2.4202048, 48.8346429], [2.4201238, 48.834709799999985], [2.4200608, 48.8348007]]}}, {"type": "Feature", "properties": {"highway": "footway", "footway": null, "name": null, "surface": null, "lit": null, "length_m": 11.45, "type_element": "Way", "__fid": 120643}, "geometry": {"type": "LineString", "coordinates": [[2.4202048, 48.8346429], [2.4200639, 48.8345987]]}}, {"type": "Feature", "properties": {"highway": "footway", "footway": null, "name": null, "surface": "concrete:plates", "lit": "no", "length_m": 2.94, "type_element": "Way", "__fid": 120646}, "geometry": {"type": "LineString", "coordinates": [[2.4201114, 48.8331077], [2.4201498, 48.83311530000001]]}}, {"type": "Feature", "properties": {"highway": "footway", "footway": null, "name": null, "surface": null, "lit": null, "length_m": 63.95, "type_element": "Way", "__fid": 120651}, "geometry": {"type": "LineString", "coordinates": [[2.4201514, 48.8336731], [2.4201568, 48.833583200000014], [2.4200876, 48.83350609999999], [2.4200752, 48.8334185], [2.420116, 48.833297], [2.4201498, 48.83311530000001]]}}, {"type": "Feature", "properties": {"highway": "path", "footway": null, "name": null, "surface": null, "lit": null, "length_m": 259.21, "type_element": "Way", "__fid": 120652}, "geometry": {"type": "LineString", "coordinates": [[2.4201498, 48.83311530000001], [2.4201568, 48.8326254], [2.4202438, 48.8320799], [2.4202349, 48.8320028], [2.4201763, 48.8319374], [2.4202313, 48.8307985]]}}, {"type": "Feature", "properties": {"highway": "path", "footway": null, "name": "Avenue des Tribunes", "surface": "dirt", "lit": "no", "length_m": 101.31, "type_element": "Way", "__fid": 120659}, "geometry": {"type": "LineString", "coordinates": [[2.4215624, 48.8294507], [2.421326, 48.8294873], [2.4203396, 48.8297013], [2.420243, 48.82971540000001]]}}, {"type": "Feature", "properties": {"highway": "service", "footway": null, "name": null, "surface": null, "lit": null, "length_m": 23.88, "type_element": "Way", "__fid": 120660}, "geometry": {"type": "LineString", "coordinates": [[2.4205548, 48.83077560000002], [2.4202313, 48.8307985]]}}, {"type": "Feature", "properties": {"highway": "footway", "footway": null, "name": null, "surface": null, "lit": null, "length_m": 39.43, "type_element": "Way", "__fid": 120661}, "geometry": {"type": "LineString", "coordinates": [[2.4205117, 48.8349339], [2.4202048, 48.8346429]]}}, {"type": "Feature", "properties": {"highway": "path", "footway": null, "name": null, "surface": null, "lit": null, "length_m": 65.62, "type_element": "Way", "__fid": 120662}, "geometry": {"type": "LineString", "coordinates": [[2.4204724, 48.8340805], [2.4204469, 48.83416], [2.4203283, 48.83442070000001], [2.4202048, 48.8346429]]}}, {"type": "Feature", "properties": {"highway": "path", "footway": null, "name": null, "surface": null, "lit": null, "length_m": 35.42, "type_element": "Way", "__fid": 120677}, "geometry": {"type": "LineString", "coordinates": [[2.4203584, 48.832243], [2.4205682, 48.8322646], [2.4205374, 48.8324418]]}}, {"type": "Feature", "properties": {"highway": "footway", "footway": "link", "name": null, "surface": null, "lit": null, "length_m": 6.85, "type_element": "Way", "__fid": 120679}, "geometry": {"type": "LineString", "coordinates": [[2.4204483, 48.833381199999984], [2.420355, 48.8333819]]}}, {"type": "Feature", "properties": {"highway": "service", "footway": null, "name": null, "surface": null, "lit": null, "length_m": 8.39, "type_element": "Way", "__fid": 120680}, "geometry": {"type": "LineString", "coordinates": [[2.4203596, 48.8340681], [2.4204724, 48.8340805]]}}, {"type": "Feature", "properties": {"highway": "path", "footway": null, "name": null, "surface": null, "lit": null, "length_m": 88.76, "type_element": "Way", "__fid": 120681}, "geometry": {"type": "LineString", "coordinates": [[2.420416, 48.8301532], [2.420905, 48.8303501], [2.421485, 48.8305229]]}}, {"type": "Feature", "properties": {"highway": "path", "footway": null, "name": null, "surface": null, "lit": null, "length_m": 61.35, "type_element": "Way", "__fid": 120684}, "geometry": {"type": "LineString", "coordinates": [[2.4204483, 48.833381199999984], [2.4205027, 48.8337454], [2.4204984, 48.8339312]]}}, {"type": "Feature", "properties": {"highway": "path", "footway": null, "name": null, "surface": null, "lit": null, "length_m": 104.77, "type_element": "Way", "__fid": 120685}, "geometry": {"type": "LineString", "coordinates": [[2.4205374, 48.8324418], [2.4204737, 48.8327943], [2.4204536, 48.8330432], [2.4204483, 48.833381199999984]]}}, {"type": "Feature", "properties": {"highway": "path", "footway": null, "name": null, "surface": null, "lit": null, "length_m": 58.66, "type_element": "Way", "__fid": 120686}, "geometry": {"type": "LineString", "coordinates": [[2.4208418, 48.832922], [2.4204483, 48.833381199999984]]}}, {"type": "Feature", "properties": {"highway": "path", "footway": null, "name": null, "surface": null, "lit": null, "length_m": 16.71, "type_element": "Way", "__fid": 120694}, "geometry": {"type": "LineString", "coordinates": [[2.4204984, 48.8339312], [2.4204724, 48.8340805]]}}, {"type": "Feature", "properties": {"highway": "service", "footway": null, "name": null, "surface": null, "lit": null, "length_m": 8.16, "type_element": "Way", "__fid": 120695}, "geometry": {"type": "LineString", "coordinates": [[2.4204724, 48.8340805], [2.4205832, 48.8340743]]}}, {"type": "Feature", "properties": {"highway": "footway", "footway": null, "name": null, "surface": null, "lit": null, "length_m": 19.04, "type_element": "Way", "__fid": 120696}, "geometry": {"type": "LineString", "coordinates": [[2.4204984, 48.8339312], [2.4205394, 48.83393310000001], [2.4205832, 48.8340743]]}}, {"type": "Feature", "properties": {"highway": "path", "footway": null, "name": "Route Aimable", "surface": null, "lit": "no", "length_m": 24.25, "type_element": "Way", "__fid": 120700}, "geometry": {"type": "LineString", "coordinates": [[2.4205374, 48.8324418], [2.4207782, 48.832292500000015]]}}, {"type": "Feature", "properties": {"highway": "footway", "footway": null, "name": null, "surface": null, "lit": null, "length_m": 31.38, "type_element": "Way", "__fid": 120701}, "geometry": {"type": "LineString", "coordinates": [[2.4208971, 48.8350524], [2.4205218, 48.8349432], [2.4205117, 48.8349339]]}}, {"type": "Feature", "properties": {"highway": "footway", "footway": null, "name": null, "surface": null, "lit": null, "length_m": 111.17, "type_element": "Way", "__fid": 120702}, "geometry": {"type": "LineString", "coordinates": [[2.4205832, 48.8340743], [2.4208971, 48.8350524]]}}, {"type": "Feature", "properties": {"highway": "service", "footway": null, "name": null, "surface": null, "lit": null, "length_m": 6.5, "type_element": "Way", "__fid": 120703}, "geometry": {"type": "LineString", "coordinates": [[2.4205832, 48.8340743], [2.4206715, 48.83406950000001]]}}, {"type": "Feature", "properties": {"highway": "path", "footway": null, "name": "Parcours Santé", "surface": "ground", "lit": null, "length_m": 72.32, "type_element": "Way", "__fid": 120715}, "geometry": {"type": "LineString", "coordinates": [[2.4208418, 48.832922], [2.4207683, 48.8327911], [2.4208367, 48.83261110000002], [2.4208511, 48.832525], [2.4208385, 48.8324395], [2.420789, 48.83233889999999], [2.4207782, 48.832292500000015]]}}, {"type": "Feature", "properties": {"highway": "path", "footway": null, "name": null, "surface": null, "lit": null, "length_m": 206.81, "type_element": "Way", "__fid": 120716}, "geometry": {"type": "LineString", "coordinates": [[2.421485, 48.8305229], [2.4214038, 48.830634], [2.4212428, 48.83082430000001], [2.421167, 48.83095629999998], [2.4210678, 48.8310905], [2.4210168, 48.831198600000015], [2.4209397, 48.8315619], [2.4207426, 48.8321666], [2.4207506, 48.8322453], [2.4207782, 48.832292500000015]]}}, {"type": "Feature", "properties": {"highway": "track", "footway": null, "name": "Route Aimable", "surface": null, "lit": "no", "length_m": 105.87, "type_element": "Way", "__fid": 120717}, "geometry": {"type": "LineString", "coordinates": [[2.4207782, 48.832292500000015], [2.4216955, 48.8315578]]}}, {"type": "Feature", "properties": {"highway": "path", "footway": null, "name": "Parcours Santé", "surface": "ground", "lit": "no", "length_m": 174.53, "type_element": "Way", "__fid": 120719}, "geometry": {"type": "LineString", "coordinates": [[2.4227821, 48.8336077], [2.4227106, 48.8336012], [2.4225183, 48.8335533], [2.4223713, 48.83348280000001], [2.4222502, 48.833413], [2.4221547, 48.8333715], [2.4218919, 48.8334218], [2.4217455, 48.8334156], [2.421568, 48.8333788], [2.4214661, 48.8333152], [2.4213856, 48.833209300000014], [2.4212998, 48.8331528], [2.4211711, 48.8331069], [2.4210812, 48.8330912], [2.4209565, 48.8330292], [2.4208664, 48.83295850000001], [2.4208418, 48.832922]]}}, {"type": "Feature", "properties": {"highway": "footway", "footway": null, "name": null, "surface": "compacted", "lit": null, "length_m": 53.48, "type_element": "Way", "__fid": 120723}, "geometry": {"type": "LineString", "coordinates": [[2.421503, 48.8353195], [2.4208971, 48.8350524]]}}, {"type": "Feature", "properties": {"highway": "footway", "footway": null, "name": null, "surface": null, "lit": null, "length_m": 21.04, "type_element": "Way", "__fid": 120724}, "geometry": {"type": "LineString", "coordinates": [[2.4208971, 48.8350524], [2.4209166, 48.8352412]]}}, {"type": "Feature", "properties": {"highway": "path", "footway": null, "name": null, "surface": null, "lit": "no", "length_m": 117.99, "type_element": "Way", "__fid": 120725}, "geometry": {"type": "LineString", "coordinates": [[2.4208971, 48.8350524], [2.421606, 48.834928300000016], [2.4221292, 48.8349283], [2.4224795, 48.8349163]]}}, {"type": "Feature", "properties": {"highway": "path", "footway": null, "name": "Avenue Daumesnil", "surface": "asphalt", "lit": "yes", "length_m": 96.45, "type_element": "Way", "__fid": 120726}, "geometry": {"type": "LineString", "coordinates": [[2.4209166, 48.8352412], [2.4220801, 48.8356443]]}}, {"type": "Feature", "properties": {"highway": "path", "footway": null, "name": null, "surface": "dirt", "lit": "no", "length_m": 121.21, "type_element": "Way", "__fid": 120785}, "geometry": {"type": "LineString", "coordinates": [[2.4215624, 48.8294507], [2.4215794, 48.8298863], [2.4216324, 48.8301118], [2.4216311, 48.8301975], [2.4215996, 48.8303034], [2.4215131, 48.83048440000001], [2.421485, 48.8305229]]}}, {"type": "Feature", "properties": {"highway": "footway", "footway": null, "name": null, "surface": "compacted", "lit": null, "length_m": 63.12, "type_element": "Way", "__fid": 120801}, "geometry": {"type": "LineString", "coordinates": [[2.4222181, 48.8356347], [2.421503, 48.8353195]]}}, {"type": "Feature", "properties": {"highway": "path", "footway": null, "name": null, "surface": null, "lit": "no", "length_m": 60.78, "type_element": "Way", "__fid": 120802}, "geometry": {"type": "LineString", "coordinates": [[2.4223304, 48.8352983], [2.421503, 48.8353195]]}}, {"type": "Feature", "properties": {"highway": "path", "footway": null, "name": "Parcours Santé", "surface": "dirt", "lit": "no", "length_m": 115.64, "type_element": "Way", "__fid": 120830}, "geometry": {"type": "LineString", "coordinates": [[2.4228246, 48.83225070000001], [2.4226814, 48.8322401], [2.4222281, 48.8318834], [2.4216955, 48.8315578]]}}, {"type": "Feature", "properties": {"highway": "track", "footway": null, "name": "Route Aimable", "surface": null, "lit": "no", "length_m": 193.27, "type_element": "Way", "__fid": 120831}, "geometry": {"type": "LineString", "coordinates": [[2.4216955, 48.8315578], [2.4222395, 48.8310661], [2.4229366, 48.830302], [2.4230711, 48.8301688], [2.4231505, 48.8301122]]}}, {"type": "Feature", "properties": {"highway": "service", "footway": null, "name": "Route de l'Asile National", "surface": "asphalt", "lit": "no", "length_m": 38.3, "type_element": "Way", "__fid": 120874}, "geometry": {"type": "LineString", "coordinates": [[2.4223304, 48.8352983], [2.4222181, 48.8356347]]}}, {"type": "Feature", "properties": {"highway": "track", "footway": null, "name": "Allée des Lapins", "surface": "compacted", "lit": "no", "length_m": 50.95, "type_element": "Way", "__fid": 120875}, "geometry": {"type": "LineString", "coordinates": [[2.4227029, 48.8353108], [2.4223472, 48.8355785], [2.4222181, 48.8356347]]}}, {"type": "Feature", "properties": {"highway": "path", "footway": null, "name": null, "surface": null, "lit": "no", "length_m": 21.84, "type_element": "Way", "__fid": 120882}, "geometry": {"type": "LineString", "coordinates": [[2.4226275, 48.8353083], [2.4223304, 48.8352983]]}}, {"type": "Feature", "properties": {"highway": "service", "footway": null, "name": "Route de l'Asile National", "surface": "asphalt", "lit": "no", "length_m": 43.86, "type_element": "Way", "__fid": 120883}, "geometry": {"type": "LineString", "coordinates": [[2.4224795, 48.8349163], [2.4223304, 48.8352983]]}}, {"type": "Feature", "properties": {"highway": "service", "footway": null, "name": "Route de l'Asile National", "surface": "asphalt", "lit": "no", "length_m": 13.69, "type_element": "Way", "__fid": 120888}, "geometry": {"type": "LineString", "coordinates": [[2.4225347, 48.8347987], [2.4224795, 48.8349163]]}}, {"type": "Feature", "properties": {"highway": "path", "footway": null, "name": null, "surface": "compacted", "lit": "no", "length_m": 12.63, "type_element": "Way", "__fid": 120892}, "geometry": {"type": "LineString", "coordinates": [[2.4227014, 48.8348267], [2.4225347, 48.8347987]]}}, {"type": "Feature", "properties": {"highway": "service", "footway": null, "name": "Route de l'Asile National", "surface": "asphalt", "lit": "no", "length_m": 133.77, "type_element": "Way", "__fid": 120893}, "geometry": {"type": "LineString", "coordinates": [[2.4227821, 48.8336077], [2.4227804, 48.8336696], [2.4227043, 48.8341247], [2.4225347, 48.8347987]]}}, {"type": "Feature", "properties": {"highway": "path", "footway": null, "name": null, "surface": null, "lit": "no", "length_m": 5.54, "type_element": "Way", "__fid": 120898}, "geometry": {"type": "LineString", "coordinates": [[2.4227029, 48.8353108], [2.4226275, 48.8353083]]}}, {"type": "Feature", "properties": {"highway": "path", "footway": null, "name": null, "surface": "compacted", "lit": "no", "length_m": 53.82, "type_element": "Way", "__fid": 120899}, "geometry": {"type": "LineString", "coordinates": [[2.4227014, 48.8348267], [2.4226275, 48.8353083]]}}, {"type": "Feature", "properties": {"highway": "path", "footway": null, "name": null, "surface": null, "lit": "no", "length_m": 39.2, "type_element": "Way", "__fid": 120900}, "geometry": {"type": "LineString", "coordinates": [[2.4227014, 48.8348267], [2.4229693, 48.8348825], [2.4230576, 48.8349108], [2.4231854, 48.8349687]]}}, {"type": "Feature", "properties": {"highway": "path", "footway": null, "name": null, "surface": "compacted", "lit": "no", "length_m": 78.59, "type_element": "Way", "__fid": 120901}, "geometry": {"type": "LineString", "coordinates": [[2.4228575, 48.83412749999999], [2.4227014, 48.8348267]]}}, {"type": "Feature", "properties": {"highway": "path", "footway": null, "name": null, "surface": null, "lit": "no", "length_m": 92.54, "type_element": "Way", "__fid": 120906}, "geometry": {"type": "LineString", "coordinates": [[2.4239215, 48.83535290000001], [2.4237638, 48.8353475], [2.4235088, 48.835407], [2.4233514, 48.83538], [2.4229706, 48.8353825], [2.4227029, 48.8353108]]}}, {"type": "Feature", "properties": {"highway": "track", "footway": null, "name": "Allée des Lapins", "surface": "compacted", "lit": "no", "length_m": 51.97, "type_element": "Way", "__fid": 120907}, "geometry": {"type": "LineString", "coordinates": [[2.4231854, 48.8349687], [2.4227029, 48.8353108]]}}, {"type": "Feature", "properties": {"highway": "path", "footway": null, "name": "Parcours Santé", "surface": "ground", "lit": "no", "length_m": 14.21, "type_element": "Way", "__fid": 120911}, "geometry": {"type": "LineString", "coordinates": [[2.4229749, 48.8336191], [2.4227821, 48.8336077]]}}, {"type": "Feature", "properties": {"highway": "service", "footway": null, "name": "Route de l'Asile National", "surface": "asphalt", "lit": "no", "length_m": 150.99, "type_element": "Way", "__fid": 120912}, "geometry": {"type": "LineString", "coordinates": [[2.4228246, 48.83225070000001], [2.4228282, 48.8331062], [2.4227821, 48.8336077]]}}, {"type": "Feature", "properties": {"highway": "path", "footway": null, "name": "Parcours Santé", "surface": "dirt", "lit": "no", "length_m": 30.33, "type_element": "Way", "__fid": 120917}, "geometry": {"type": "LineString", "coordinates": [[2.4232373, 48.832263], [2.4228246, 48.83225070000001]]}}, {"type": "Feature", "properties": {"highway": "service", "footway": null, "name": "Route de l'Asile National", "surface": "asphalt", "lit": "no", "length_m": 226.8, "type_element": "Way", "__fid": 120918}, "geometry": {"type": "LineString", "coordinates": [[2.4231242, 48.8302238], [2.4229055, 48.8311513], [2.4228282, 48.8319423], [2.4228246, 48.83225070000001]]}}, {"type": "Feature", "properties": {"highway": "path", "footway": null, "name": null, "surface": null, "lit": "no", "length_m": 85.82, "type_element": "Way", "__fid": 120923}, "geometry": {"type": "LineString", "coordinates": [[2.4228575, 48.83412749999999], [2.4232967, 48.8342254], [2.4233566, 48.8342513], [2.4234735, 48.8343158], [2.4236242, 48.83438169999999], [2.4237859, 48.83454920000001]]}}, {"type": "Feature", "properties": {"highway": "path", "footway": null, "name": null, "surface": "compacted", "lit": "no", "length_m": 57.2, "type_element": "Way", "__fid": 120924}, "geometry": {"type": "LineString", "coordinates": [[2.4229749, 48.8336191], [2.422898, 48.8339929], [2.4228575, 48.83412749999999]]}}, {"type": "Feature", "properties": {"highway": "path", "footway": null, "name": "Parcours Santé", "surface": "ground", "lit": "no", "length_m": 76.36, "type_element": "Way", "__fid": 120932}, "geometry": {"type": "LineString", "coordinates": [[2.423942, 48.8337903], [2.4238157, 48.8337036], [2.4234724, 48.8337001], [2.42329, 48.833686], [2.4229749, 48.8336191]]}}, {"type": "Feature", "properties": {"highway": "path", "footway": null, "name": null, "surface": "compacted", "lit": "no", "length_m": 152.06, "type_element": "Way", "__fid": 120933}, "geometry": {"type": "LineString", "coordinates": [[2.4232373, 48.832263], [2.4231958, 48.8325911], [2.4229749, 48.8336191]]}}, {"type": "Feature", "properties": {"highway": "path", "footway": null, "name": null, "surface": "dirt", "lit": "no", "length_m": 15.43, "type_element": "Way", "__fid": 120947}, "geometry": {"type": "LineString", "coordinates": [[2.4232336, 48.8303423], [2.4231242, 48.8302238]]}}, {"type": "Feature", "properties": {"highway": "service", "footway": null, "name": "Route de l'Asile National", "surface": "asphalt", "lit": "no", "length_m": 12.56, "type_element": "Way", "__fid": 120948}, "geometry": {"type": "LineString", "coordinates": [[2.4231505, 48.8301122], [2.4231242, 48.8302238]]}}, {"type": "Feature", "properties": {"highway": "service", "footway": null, "name": "Route de l'Asile National", "surface": "asphalt", "lit": "no", "length_m": 74.46, "type_element": "Way", "__fid": 120952}, "geometry": {"type": "LineString", "coordinates": [[2.4233835, 48.82946050000001], [2.4231505, 48.8301122]]}}, {"type": "Feature", "properties": {"highway": "path", "footway": null, "name": null, "surface": "dirt", "lit": "no", "length_m": 190.43, "type_element": "Way", "__fid": 120957}, "geometry": {"type": "LineString", "coordinates": [[2.4232336, 48.8303423], [2.42367, 48.8303798], [2.4237844, 48.8303807], [2.4239965, 48.83036859999998], [2.4241049, 48.8303857], [2.4247783, 48.8305252], [2.4257278, 48.83075129999998]]}}, {"type": "Feature", "properties": {"highway": "path", "footway": null, "name": null, "surface": "dirt", "lit": "no", "length_m": 37.85, "type_element": "Way", "__fid": 120958}, "geometry": {"type": "LineString", "coordinates": [[2.4236657, 48.8304393], [2.4235455, 48.830476], [2.4234724, 48.8304654], [2.4233712, 48.83043629999999], [2.4232336, 48.8303423]]}}, {"type": "Feature", "properties": {"highway": "path", "footway": null, "name": null, "surface": "dirt", "lit": "no", "length_m": 70.6, "type_element": "Way", "__fid": 120959}, "geometry": {"type": "LineString", "coordinates": [[2.4231854, 48.8349687], [2.4233109, 48.8350218], [2.4234485, 48.83505209999998], [2.4235698, 48.8351063], [2.4236855, 48.83517680000001], [2.4237538, 48.835264], [2.4239215, 48.83535290000001]]}}, {"type": "Feature", "properties": {"highway": "track", "footway": null, "name": "Allée des Lapins", "surface": "compacted", "lit": "no", "length_m": 64.18, "type_element": "Way", "__fid": 120960}, "geometry": {"type": "LineString", "coordinates": [[2.4237859, 48.83454920000001], [2.4231854, 48.8349687]]}}, {"type": "Feature", "properties": {"highway": "path", "footway": null, "name": "Parcours Santé", "surface": "dirt", "lit": "no", "length_m": 61.36, "type_element": "Way", "__fid": 120962}, "geometry": {"type": "LineString", "coordinates": [[2.4237972, 48.83267270000001], [2.4232373, 48.832263]]}}, {"type": "Feature", "properties": {"highway": "path", "footway": null, "name": null, "surface": "compacted", "lit": "no", "length_m": 205.25, "type_element": "Way", "__fid": 120963}, "geometry": {"type": "LineString", "coordinates": [[2.4236657, 48.8304393], [2.4234586, 48.831201499999985], [2.4232373, 48.832263]]}}, {"type": "Feature", "properties": {"highway": "path", "footway": null, "name": null, "surface": "dirt", "lit": "no", "length_m": 138.52, "type_element": "Way", "__fid": 120997}, "geometry": {"type": "LineString", "coordinates": [[2.4248969, 48.8313654], [2.4246545, 48.8311178], [2.4243097, 48.8309458], [2.4239888, 48.8307517], [2.4236657, 48.8304393]]}}, {"type": "Feature", "properties": {"highway": "service", "footway": null, "name": "Route des Batteries", "surface": "asphalt", "lit": "no", "length_m": 187.42, "type_element": "Way", "__fid": 121002}, "geometry": {"type": "LineString", "coordinates": [[2.4261771, 48.830034300000015], [2.4253605, 48.8298047], [2.4245174, 48.8296284], [2.4238198, 48.8295324], [2.4237554, 48.829517]]}}, {"type": "Feature", "properties": {"highway": "path", "footway": null, "name": null, "surface": "dirt", "lit": "no", "length_m": 46.14, "type_element": "Way", "__fid": 121011}, "geometry": {"type": "LineString", "coordinates": [[2.4237972, 48.83267270000001], [2.4238026, 48.8328386], [2.4237811, 48.8330152], [2.4238099, 48.8330845]]}}, {"type": "Feature", "properties": {"highway": "path", "footway": null, "name": null, "surface": "dirt", "lit": "no", "length_m": 182.7, "type_element": "Way", "__fid": 121012}, "geometry": {"type": "LineString", "coordinates": [[2.4248969, 48.8313654], [2.424677, 48.8313838], [2.4244222, 48.831466800000015], [2.4241154, 48.8317087], [2.4240065, 48.8318817], [2.4239233, 48.8320459], [2.4238294, 48.8323884], [2.4237972, 48.83267270000001]]}}, {"type": "Feature", "properties": {"highway": "track", "footway": null, "name": "Allée des Lapins", "surface": "compacted", "lit": "no", "length_m": 25.41, "type_element": "Way", "__fid": 121013}, "geometry": {"type": "LineString", "coordinates": [[2.4240237, 48.83438309999998], [2.4237859, 48.83454920000001]]}}, {"type": "Feature", "properties": {"highway": "path", "footway": null, "name": null, "surface": "dirt", "lit": "no", "length_m": 119.66, "type_element": "Way", "__fid": 121014}, "geometry": {"type": "LineString", "coordinates": [[2.4238099, 48.8330845], [2.4240829, 48.8332543], [2.4243345, 48.8334287], [2.4244868, 48.83359], [2.4245994, 48.83398060000001]]}}, {"type": "Feature", "properties": {"highway": "path", "footway": null, "name": null, "surface": "dirt", "lit": "no", "length_m": 79.38, "type_element": "Way", "__fid": 121015}, "geometry": {"type": "LineString", "coordinates": [[2.4238099, 48.8330845], [2.4238536, 48.83319], [2.4239448, 48.8336208], [2.423942, 48.8337903]]}}, {"type": "Feature", "properties": {"highway": "path", "footway": null, "name": "Parcours Santé", "surface": "dirt", "lit": "no", "length_m": 20.7, "type_element": "Way", "__fid": 121026}, "geometry": {"type": "LineString", "coordinates": [[2.4239015, 48.8355386], [2.4239215, 48.83535290000001]]}}, {"type": "Feature", "properties": {"highway": "path", "footway": null, "name": null, "surface": "dirt", "lit": "no", "length_m": 129.1, "type_element": "Way", "__fid": 121027}, "geometry": {"type": "LineString", "coordinates": [[2.4239015, 48.8355386], [2.4245597, 48.8355211], [2.4248842, 48.835604], [2.4255699, 48.835808]]}}, {"type": "Feature", "properties": {"highway": "path", "footway": null, "name": "Parcours Santé", "surface": "dirt", "lit": "no", "length_m": 118.3, "type_element": "Way", "__fid": 121028}, "geometry": {"type": "LineString", "coordinates": [[2.4239215, 48.83535290000001], [2.4239981, 48.8353138], [2.4240575, 48.8352518], [2.4241397, 48.83518819999998], [2.4242127, 48.8350243], [2.4242392, 48.8349288], [2.4242395, 48.8348548], [2.4241805, 48.834763], [2.4241177, 48.8347029], [2.4240768, 48.8346267], [2.42403, 48.8345046], [2.4240237, 48.83438309999998]]}}, {"type": "Feature", "properties": {"highway": "path", "footway": null, "name": null, "surface": "dirt", "lit": "no", "length_m": 46.84, "type_element": "Way", "__fid": 121029}, "geometry": {"type": "LineString", "coordinates": [[2.423942, 48.8337903], [2.4239407, 48.8338715], [2.4239635, 48.8340392], [2.4239957, 48.8341363], [2.4240481, 48.8341998]]}}, {"type": "Feature", "properties": {"highway": "path", "footway": null, "name": "Parcours Santé", "surface": "dirt", "lit": "no", "length_m": 20.46, "type_element": "Way", "__fid": 121032}, "geometry": {"type": "LineString", "coordinates": [[2.4240237, 48.83438309999998], [2.4240481, 48.8341998]]}}, {"type": "Feature", "properties": {"highway": "track", "footway": null, "name": "Allée des Lapins", "surface": "compacted", "lit": "no", "length_m": 14.66, "type_element": "Way", "__fid": 121033}, "geometry": {"type": "LineString", "coordinates": [[2.4241609, 48.834287300000014], [2.4240237, 48.83438309999998]]}}, {"type": "Feature", "properties": {"highway": "path", "footway": null, "name": null, "surface": "dirt", "lit": "no", "length_m": 12.88, "type_element": "Way", "__fid": 121034}, "geometry": {"type": "LineString", "coordinates": [[2.4240481, 48.8341998], [2.4240708, 48.8342273], [2.4241609, 48.834287300000014]]}}, {"type": "Feature", "properties": {"highway": "path", "footway": null, "name": null, "surface": "dirt", "lit": "no", "length_m": 4.09, "type_element": "Way", "__fid": 121039}, "geometry": {"type": "LineString", "coordinates": [[2.4241609, 48.834287300000014], [2.4241996, 48.8343138]]}}, {"type": "Feature", "properties": {"highway": "track", "footway": null, "name": "Allée des Lapins", "surface": "compacted", "lit": "no", "length_m": 46.89, "type_element": "Way", "__fid": 121040}, "geometry": {"type": "LineString", "coordinates": [[2.4245994, 48.83398060000001], [2.4241609, 48.834287300000014]]}}, {"type": "Feature", "properties": {"highway": "path", "footway": null, "name": null, "surface": "dirt", "lit": "no", "length_m": 169.72, "type_element": "Way", "__fid": 121041}, "geometry": {"type": "LineString", "coordinates": [[2.4241996, 48.8343138], [2.4243028, 48.8344859], [2.4245644, 48.8346695], [2.4246327, 48.83483639999998], [2.4247789, 48.834937], [2.4248822, 48.8349864], [2.4249868, 48.8351012], [2.425082, 48.8351674], [2.4251518, 48.8352539], [2.4252336, 48.8353236], [2.4253958, 48.835426], [2.4255675, 48.8354958]]}}, {"type": "Feature", "properties": {"highway": "path", "footway": null, "name": null, "surface": "dirt", "lit": "no", "length_m": 150.57, "type_element": "Way", "__fid": 121042}, "geometry": {"type": "LineString", "coordinates": [[2.4241996, 48.8343138], [2.424563, 48.83428460000001], [2.4247534, 48.8342776], [2.4249117, 48.8342908], [2.4249975, 48.8343305], [2.4251343, 48.8344259], [2.4251906, 48.8344938], [2.4252537, 48.8347022], [2.4253248, 48.8347419], [2.4254227, 48.8347543], [2.4256077, 48.8347966], [2.4257915, 48.834854]]}}, {"type": "Feature", "properties": {"highway": "track", "footway": null, "name": "Allée des Lapins", "surface": "compacted", "lit": "no", "length_m": 45.57, "type_element": "Way", "__fid": 121062}, "geometry": {"type": "LineString", "coordinates": [[2.425053, 48.8337012], [2.4249801, 48.8337535], [2.4245994, 48.83398060000001]]}}, {"type": "Feature", "properties": {"highway": "footway", "footway": null, "name": "Parcours Santé", "surface": null, "lit": "no", "length_m": 232.48, "type_element": "Way", "__fid": 121077}, "geometry": {"type": "LineString", "coordinates": [[2.4248969, 48.8313654], [2.4249852, 48.8313801], [2.4250187, 48.8314209], [2.4250562, 48.8315374], [2.4250549, 48.8316803], [2.4250388, 48.831765], [2.4250656, 48.8318639], [2.4250388, 48.8319592], [2.4251313, 48.83237430000001], [2.4252333, 48.8324556], [2.4253768, 48.8324854], [2.4255699, 48.8325031], [2.4258917, 48.8324889], [2.4260956, 48.8325596], [2.4263812, 48.8327239], [2.4264891, 48.8327247]]}}, {"type": "Feature", "properties": {"highway": "path", "footway": null, "name": null, "surface": "fine_gravel", "lit": "no", "length_m": 54.26, "type_element": "Way", "__fid": 121078}, "geometry": {"type": "LineString", "coordinates": [[2.4256319, 48.8313149], [2.4251786, 48.8313414], [2.4248969, 48.8313654]]}}, {"type": "Feature", "properties": {"highway": "path", "footway": null, "name": null, "surface": null, "lit": "no", "length_m": 144.5, "type_element": "Way", "__fid": 121083}, "geometry": {"type": "LineString", "coordinates": [[2.425053, 48.8337012], [2.4253743, 48.83390820000002], [2.4255531, 48.8340739], [2.4256591, 48.8342657], [2.4257518, 48.8345708], [2.4257915, 48.834854]]}}, {"type": "Feature", "properties": {"highway": "track", "footway": null, "name": "Allée des Lapins", "surface": "compacted", "lit": "no", "length_m": 151.38, "type_element": "Way", "__fid": 121084}, "geometry": {"type": "LineString", "coordinates": [[2.425053, 48.8337012], [2.4253795, 48.8334802], [2.4255143, 48.8334021], [2.4264891, 48.8327247]]}}, {"type": "Feature", "properties": {"highway": "service", "footway": null, "name": null, "surface": null, "lit": "no", "length_m": 123.77, "type_element": "Way", "__fid": 121099}, "geometry": {"type": "LineString", "coordinates": [[2.4256319, 48.8313149], [2.425818, 48.8321675], [2.4254414, 48.8322066]]}}]}