{"type": "FeatureCollection", "features": [{"type": "Feature", "properties": {"@id": "node/918205059", "amenity": "drinking_water", "check_date": "2025-03-07", "man_made": "water_tap", "source": "survey", "type_element": "Fontaines à boire", "__fid": 208}, "geometry": {"type": "Point", "coordinates": [2.430654, 48.8272306]}, "id": "node/918205059"}, {"type": "Feature", "properties": {"@id": "node/918205173", "amenity": "drinking_water", "check_date": "2022-11-12", "man_made": "water_tap", "source": "Eau de Paris", "type_element": "Fontaines à boire", "__fid": 213}, "geometry": {"type": "Point", "coordinates": [2.4256131, 48.827028]}, "id": "node/918205173"}, {"type": "Feature", "properties": {"@id": "node/1872454137", "amenity": "drinking_water", "type_element": "Fontaines à boire", "__fid": 323}, "geometry": {"type": "Point", "coordinates": [2.432756, 48.8264004]}, "id": "node/1872454137"}, {"type": "Feature", "properties": {"highway": "service", "footway": null, "name": "Route des Batteries", "surface": "asphalt", "lit": "no", "length_m": 187.42, "type_element": "Way", "__fid": 121002}, "geometry": {"type": "LineString", "coordinates": [[2.4261771, 48.830034300000015], [2.4253605, 48.8298047], [2.4245174, 48.8296284], [2.4238198, 48.8295324], [2.4237554, 48.829517]]}}, {"type": "Feature", "properties": {"highway": "track", "footway": null, "name": "Avenue des Tribunes", "surface": "fine_gravel", "lit": "no", "length_m": 231.04, "type_element": "Way", "__fid": 121010}, "geometry": {"type": "LineString", "coordinates": [[2.4238336, 48.829347900000016], [2.4245483, 48.8293242], [2.425652, 48.8292016], [2.4260816, 48.8291108], [2.4264917, 48.8289784], [2.4268473, 48.8288508]]}}, {"type": "Feature", "properties": {"highway": "path", "footway": null, "name": null, "surface": "dirt", "lit": "no", "length_m": 213.4, "type_element": "Way", "__fid": 121025}, "geometry": {"type": "LineString", "coordinates": [[2.4267489, 48.8287107], [2.4262016, 48.828901], [2.4256302, 48.8290096], [2.4249262, 48.8291147], [2.4246351, 48.8291465], [2.4239582, 48.8291502]]}}, {"type": "Feature", "properties": {"highway": "track", "footway": null, "name": "Allée des Buttes", "surface": "compacted", "lit": null, "length_m": 93.86, "type_element": "Way", "__fid": 121046}, "geometry": {"type": "LineString", "coordinates": [[2.4257838, 48.8243307], [2.4254083, 48.8243483], [2.4250864, 48.8243448], [2.4245091, 48.8243073]]}}, {"type": "Feature", "properties": {"highway": "track", "footway": null, "name": "Allée des Buttes", "surface": "ground", "lit": null, "length_m": 195.54, "type_element": "Way", "__fid": 121047}, "geometry": {"type": "LineString", "coordinates": [[2.4266822, 48.825324], [2.4245091, 48.8243073]]}}, {"type": "Feature", "properties": {"highway": "path", "footway": null, "name": null, "surface": "dirt", "lit": null, "length_m": 174.37, "type_element": "Way", "__fid": 121051}, "geometry": {"type": "LineString", "coordinates": [[2.424549, 48.8255294], [2.4249262, 48.8260348], [2.4251273, 48.8263312], [2.4255965, 48.82693649999999]]}}, {"type": "Feature", "properties": {"highway": "service", "footway": null, "name": null, "surface": "asphalt", "lit": null, "length_m": 102.54, "type_element": "Way", "__fid": 121052}, "geometry": {"type": "LineString", "coordinates": [[2.424549, 48.8255294], [2.424955, 48.82548730000001], [2.4250308, 48.8254882], [2.4252527, 48.8255478], [2.4259173, 48.8256057]]}}, {"type": "Feature", "properties": {"highway": "track", "footway": null, "name": "Route Aimable", "surface": "dirt", "lit": "no", "length_m": 69.44, "type_element": "Way", "__fid": 121067}, "geometry": {"type": "LineString", "coordinates": [[2.4254739, 48.8270131], [2.4252136, 48.8271611], [2.424916, 48.8273506], [2.4247924, 48.8274449]]}}, {"type": "Feature", "properties": {"highway": "path", "footway": null, "name": null, "surface": "dirt", "lit": "no", "length_m": 138.56, "type_element": "Way", "__fid": 121075}, "geometry": {"type": "LineString", "coordinates": [[2.4249317, 48.827680700000016], [2.4250267, 48.8278107], [2.4250549, 48.8279599], [2.4252842, 48.82812890000002], [2.4255846, 48.828241900000016], [2.4259359, 48.8281412], [2.4261854, 48.8280812], [2.4262311, 48.8280202]]}}, {"type": "Feature", "properties": {"highway": "path", "footway": null, "name": null, "surface": null, "lit": "no", "length_m": 79.76, "type_element": "Way", "__fid": 121076}, "geometry": {"type": "LineString", "coordinates": [[2.4249317, 48.827680700000016], [2.4249935, 48.8276175], [2.4252993, 48.82739680000001], [2.4254817, 48.8272361], [2.4255407, 48.8270994]]}}, {"type": "Feature", "properties": {"highway": "track", "footway": null, "name": "Route Saint-Louis", "surface": "asphalt", "lit": "no", "length_m": 56.05, "type_element": "Way", "__fid": 121085}, "geometry": {"type": "LineString", "coordinates": [[2.4254739, 48.8270131], [2.4251383, 48.82656030000001]]}}, {"type": "Feature", "properties": {"highway": "track", "footway": null, "name": "Route Saint-Louis", "surface": "asphalt", "lit": "no", "length_m": 10.78, "type_element": "Way", "__fid": 121097}, "geometry": {"type": "LineString", "coordinates": [[2.4255407, 48.8270994], [2.4254739, 48.8270131]]}}, {"type": "Feature", "properties": {"highway": "track", "footway": null, "name": "Route Aimable", "surface": "asphalt", "lit": "no", "length_m": 12.39, "type_element": "Way", "__fid": 121098}, "geometry": {"type": "LineString", "coordinates": [[2.4254739, 48.8270131], [2.4255965, 48.82693649999999]]}}, {"type": "Feature", "properties": {"highway": "track", "footway": null, "name": null, "surface": "compacted", "lit": null, "length_m": 27.73, "type_element": "Way", "__fid": 121100}, "geometry": {"type": "LineString", "coordinates": [[2.4255424, 48.8241717], [2.4255451, 48.8242384], [2.4257838, 48.8243307]]}}, {"type": "Feature", "properties": {"highway": "track", "footway": null, "name": "Route Saint-Louis", "surface": "asphalt", "lit": "no", "length_m": 114.24, "type_element": "Way", "__fid": 121101}, "geometry": {"type": "LineString", "coordinates": [[2.4262311, 48.8280202], [2.4255407, 48.8270994]]}}, {"type": "Feature", "properties": {"highway": "path", "footway": null, "name": null, "surface": "compacted", "lit": "no", "length_m": 12.7, "type_element": "Way", "__fid": 121102}, "geometry": {"type": "LineString", "coordinates": [[2.4256914, 48.8270433], [2.4255407, 48.8270994]]}}, {"type": "Feature", "properties": {"highway": "path", "footway": null, "name": null, "surface": "dirt", "lit": null, "length_m": 13.77, "type_element": "Way", "__fid": 121105}, "geometry": {"type": "LineString", "coordinates": [[2.4255965, 48.82693649999999], [2.4256914, 48.8270433]]}}, {"type": "Feature", "properties": {"highway": "track", "footway": null, "name": "Route Aimable", "surface": "asphalt", "lit": "no", "length_m": 200.34, "type_element": "Way", "__fid": 121106}, "geometry": {"type": "LineString", "coordinates": [[2.4255965, 48.82693649999999], [2.4277162, 48.8258018]]}}, {"type": "Feature", "properties": {"highway": "path", "footway": null, "name": null, "surface": "compacted", "lit": null, "length_m": 41.83, "type_element": "Way", "__fid": 121114}, "geometry": {"type": "LineString", "coordinates": [[2.4256914, 48.8270433], [2.4259332, 48.8273839]]}}, {"type": "Feature", "properties": {"highway": "path", "footway": null, "name": null, "surface": "compacted", "lit": "no", "length_m": 14.6, "type_element": "Way", "__fid": 121115}, "geometry": {"type": "LineString", "coordinates": [[2.4258624, 48.8269762], [2.4256914, 48.8270433]]}}, {"type": "Feature", "properties": {"highway": "track", "footway": null, "name": null, "surface": "compacted", "lit": null, "length_m": 115.04, "type_element": "Way", "__fid": 121118}, "geometry": {"type": "LineString", "coordinates": [[2.4257838, 48.8243307], [2.4262787, 48.82446750000001], [2.4265402, 48.8245585], [2.4271356, 48.8248428]]}}, {"type": "Feature", "properties": {"highway": "track", "footway": null, "name": "Allée des Buttes", "surface": "compacted", "lit": null, "length_m": 114.6, "type_element": "Way", "__fid": 121119}, "geometry": {"type": "LineString", "coordinates": [[2.4273133, 48.8241762], [2.4270324, 48.8241898], [2.426805, 48.824260500000015], [2.4260688, 48.8242967], [2.4257838, 48.8243307]]}}, {"type": "Feature", "properties": {"highway": "path", "footway": null, "name": null, "surface": "compacted", "lit": "no", "length_m": 225.69, "type_element": "Way", "__fid": 121122}, "geometry": {"type": "LineString", "coordinates": [[2.4286218, 48.8262291], [2.4285707, 48.8262837], [2.4284681, 48.8263423], [2.4282519, 48.82641810000001], [2.4279527, 48.82646110000002], [2.4277633, 48.8264738], [2.4274267, 48.82646639999998], [2.4272827, 48.8264805], [2.4269361, 48.8265598], [2.4266886, 48.8266266], [2.4261372, 48.826839], [2.4259913, 48.82690449999998], [2.4258624, 48.8269762]]}}, {"type": "Feature", "properties": {"highway": "path", "footway": null, "name": null, "surface": "compacted", "lit": null, "length_m": 127.13, "type_element": "Way", "__fid": 121123}, "geometry": {"type": "LineString", "coordinates": [[2.4258624, 48.8269762], [2.4261934, 48.8269776], [2.4265153, 48.8270076], [2.4266253, 48.82713120000002], [2.4266118, 48.8272018], [2.4262846, 48.8273078], [2.426011, 48.8273325], [2.4259332, 48.8273839]]}}, {"type": "Feature", "properties": {"highway": "service", "footway": null, "name": null, "surface": "asphalt", "lit": null, "length_m": 27.2, "type_element": "Way", "__fid": 121125}, "geometry": {"type": "LineString", "coordinates": [[2.4259173, 48.8256057], [2.4262847, 48.825637]]}}, {"type": "Feature", "properties": {"highway": "path", "footway": null, "name": null, "surface": "dirt", "lit": null, "length_m": 64.33, "type_element": "Way", "__fid": 121126}, "geometry": {"type": "LineString", "coordinates": [[2.4266822, 48.825324], [2.4263266, 48.8254654], [2.4259173, 48.8256057]]}}, {"type": "Feature", "properties": {"highway": "path", "footway": null, "name": null, "surface": "compacted", "lit": null, "length_m": 46.72, "type_element": "Way", "__fid": 121130}, "geometry": {"type": "LineString", "coordinates": [[2.4259332, 48.8273839], [2.4262036, 48.8277643]]}}, {"type": "Feature", "properties": {"highway": "path", "footway": null, "name": null, "surface": "compacted", "lit": null, "length_m": 109.09, "type_element": "Way", "__fid": 121134}, "geometry": {"type": "LineString", "coordinates": [[2.4262036, 48.8277643], [2.4268607, 48.8286443]]}}, {"type": "Feature", "properties": {"highway": "path", "footway": null, "name": null, "surface": "dirt", "lit": "no", "length_m": 28.53, "type_element": "Way", "__fid": 121135}, "geometry": {"type": "LineString", "coordinates": [[2.4262311, 48.8280202], [2.4262036, 48.8277643]]}}, {"type": "Feature", "properties": {"highway": "track", "footway": null, "name": "Route Saint-Louis", "surface": "asphalt", "lit": "no", "length_m": 85.67, "type_element": "Way", "__fid": 121136}, "geometry": {"type": "LineString", "coordinates": [[2.4267489, 48.8287107], [2.4262311, 48.8280202]]}}, {"type": "Feature", "properties": {"highway": "track", "footway": null, "name": "Allée des Buttes", "surface": "ground", "lit": null, "length_m": 92.66, "type_element": "Way", "__fid": 121148}, "geometry": {"type": "LineString", "coordinates": [[2.4277162, 48.8258018], [2.4266822, 48.825324]]}}, {"type": "Feature", "properties": {"highway": "path", "footway": null, "name": null, "surface": "dirt", "lit": null, "length_m": 284.64, "type_element": "Way", "__fid": 121149}, "geometry": {"type": "LineString", "coordinates": [[2.4296955, 48.824640299999984], [2.429388, 48.824573], [2.4291261, 48.824566], [2.4286519, 48.82434230000002], [2.4282236, 48.8243609], [2.4278378, 48.8245473], [2.42776, 48.82479670000002], [2.4276326, 48.8249085], [2.4273415, 48.8249655], [2.426946, 48.82506], [2.4266822, 48.825324]]}}, {"type": "Feature", "properties": {"highway": "path", "footway": null, "name": null, "surface": "dirt", "lit": null, "length_m": 88.11, "type_element": "Way", "__fid": 121151}, "geometry": {"type": "LineString", "coordinates": [[2.4266773, 48.8301992], [2.4268959, 48.8298993], [2.4270389, 48.8297327], [2.4272149, 48.8296144], [2.4273564, 48.8295728]]}}, {"type": "Feature", "properties": {"highway": "track", "footway": null, "name": "Route Saint-Louis", "surface": "asphalt", "lit": "no", "length_m": 17.17, "type_element": "Way", "__fid": 121154}, "geometry": {"type": "LineString", "coordinates": [[2.4268473, 48.8288508], [2.4267489, 48.8287107]]}}, {"type": "Feature", "properties": {"highway": "path", "footway": null, "name": null, "surface": "dirt", "lit": "no", "length_m": 11.04, "type_element": "Way", "__fid": 121155}, "geometry": {"type": "LineString", "coordinates": [[2.4268607, 48.8286443], [2.4267489, 48.8287107]]}}, {"type": "Feature", "properties": {"highway": "track", "footway": null, "name": "Route Saint-Louis", "surface": "asphalt", "lit": "no", "length_m": 88.55, "type_element": "Way", "__fid": 121156}, "geometry": {"type": "LineString", "coordinates": [[2.4273564, 48.8295728], [2.4268473, 48.8288508]]}}, {"type": "Feature", "properties": {"highway": "track", "footway": null, "name": "Avenue des Tribunes", "surface": "fine_gravel", "lit": "no", "length_m": 9.95, "type_element": "Way", "__fid": 121157}, "geometry": {"type": "LineString", "coordinates": [[2.4268473, 48.8288508], [2.4269619, 48.8288031]]}}, {"type": "Feature", "properties": {"highway": "path", "footway": null, "name": null, "surface": "compacted", "lit": null, "length_m": 19.16, "type_element": "Way", "__fid": 121158}, "geometry": {"type": "LineString", "coordinates": [[2.4268607, 48.8286443], [2.4269619, 48.8288031]]}}, {"type": "Feature", "properties": {"highway": "path", "footway": null, "name": null, "surface": "dirt", "lit": "no", "length_m": 314.81, "type_element": "Way", "__fid": 121159}, "geometry": {"type": "LineString", "coordinates": [[2.4303578, 48.8270226], [2.4292894, 48.8274368], [2.428802, 48.82761639999999], [2.4279584, 48.8280173], [2.427206, 48.8284393], [2.4268607, 48.8286443]]}}, {"type": "Feature", "properties": {"highway": "path", "footway": null, "name": null, "surface": "compacted", "lit": null, "length_m": 296.93, "type_element": "Way", "__fid": 121160}, "geometry": {"type": "LineString", "coordinates": [[2.4269619, 48.8288031], [2.4277546, 48.8298598], [2.4280442, 48.8302672], [2.4287359, 48.8312029]]}}, {"type": "Feature", "properties": {"highway": "track", "footway": null, "name": "Avenue des Tribunes", "surface": "fine_gravel", "lit": "no", "length_m": 324.03, "type_element": "Way", "__fid": 121161}, "geometry": {"type": "LineString", "coordinates": [[2.4269619, 48.8288031], [2.4280872, 48.8282301], [2.4293557, 48.827643399999985], [2.4302289, 48.8272578], [2.4305642, 48.827122]]}}, {"type": "Feature", "properties": {"highway": "track", "footway": null, "name": "Route Saint-Louis", "surface": "asphalt", "lit": "no", "length_m": 199.83, "type_element": "Way", "__fid": 121171}, "geometry": {"type": "LineString", "coordinates": [[2.428511, 48.8311993], [2.4284734, 48.8311178], [2.4273564, 48.8295728]]}}, {"type": "Feature", "properties": {"highway": "track", "footway": null, "name": "Allée des Buttes", "surface": "ground", "lit": null, "length_m": 81.78, "type_element": "Way", "__fid": 121179}, "geometry": {"type": "LineString", "coordinates": [[2.4286218, 48.8262291], [2.4285183, 48.82616860000002], [2.4277162, 48.8258018]]}}, {"type": "Feature", "properties": {"highway": "track", "footway": null, "name": "Route Aimable", "surface": "asphalt", "lit": "no", "length_m": 194.57, "type_element": "Way", "__fid": 121180}, "geometry": {"type": "LineString", "coordinates": [[2.4277162, 48.8258018], [2.4293878, 48.8248563], [2.4296955, 48.824640299999984]]}}, {"type": "Feature", "properties": {"highway": "track", "footway": null, "name": "Allée des Buttes", "surface": "ground", "lit": null, "length_m": 155.03, "type_element": "Way", "__fid": 121201}, "geometry": {"type": "LineString", "coordinates": [[2.4303578, 48.8270226], [2.4287885, 48.8262966], [2.4286218, 48.8262291]]}}, {"type": "Feature", "properties": {"highway": "path", "footway": null, "name": null, "surface": "dirt", "lit": null, "length_m": 82.34, "type_element": "Way", "__fid": 121202}, "geometry": {"type": "LineString", "coordinates": [[2.4286218, 48.8262291], [2.4287578, 48.8261541], [2.4290226, 48.82586139999999], [2.4292062, 48.8256061]]}}, {"type": "Feature", "properties": {"highway": "path", "footway": null, "name": null, "surface": null, "lit": null, "length_m": 155.0, "type_element": "Way", "__fid": 121220}, "geometry": {"type": "LineString", "coordinates": [[2.4310244, 48.8261956], [2.4308806, 48.82617], [2.430796, 48.8261858], [2.4305542, 48.826161], [2.4304511, 48.8261206], [2.430376, 48.8261048], [2.4303501, 48.8261161], [2.4303111, 48.8261147], [2.4300537, 48.8260032], [2.4299683, 48.825919200000016], [2.4296228, 48.8258014], [2.4292062, 48.8256061]]}}, {"type": "Feature", "properties": {"highway": "path", "footway": null, "name": null, "surface": "dirt", "lit": null, "length_m": 110.48, "type_element": "Way", "__fid": 121221}, "geometry": {"type": "LineString", "coordinates": [[2.4292062, 48.8256061], [2.4293013, 48.8254738], [2.4294586, 48.8252983], [2.4296325, 48.8251661], [2.4299311, 48.8247415]]}}, {"type": "Feature", "properties": {"highway": "path", "footway": null, "name": null, "surface": "compacted", "lit": "no", "length_m": 477.63, "type_element": "Way", "__fid": 121222}, "geometry": {"type": "LineString", "coordinates": [[2.4291627, 48.8309479], [2.4293409, 48.830524], [2.4294107, 48.8300614], [2.429459, 48.82951580000001], [2.4294563, 48.8293639], [2.4294026, 48.82918909999998], [2.4292229, 48.8289525], [2.4291103, 48.8287759], [2.4290921, 48.8287427], [2.4290915, 48.8286761], [2.4291612, 48.8284934], [2.4292658, 48.8284562], [2.4293711, 48.8284312], [2.4296158, 48.8283828], [2.4297194, 48.8283693], [2.4297842, 48.8283252], [2.4298608, 48.8282482], [2.4299981, 48.8280131], [2.4300893, 48.8278171], [2.4303704, 48.8273239], [2.4305642, 48.827122]]}}, {"type": "Feature", "properties": {"highway": "service", "footway": null, "name": "Route de la Tourelle", "surface": "asphalt", "lit": "no", "length_m": 405.14, "type_element": "Way", "__fid": 121233}, "geometry": {"type": "LineString", "coordinates": [[2.4295334, 48.83082249999999], [2.4295701, 48.83065240000001], [2.4298872, 48.8294731], [2.4302535, 48.82845649999998], [2.4307867, 48.82727890000002]]}}, {"type": "Feature", "properties": {"highway": "track", "footway": null, "name": "Route Aimable", "surface": "asphalt", "lit": "no", "length_m": 14.15, "type_element": "Way", "__fid": 121236}, "geometry": {"type": "LineString", "coordinates": [[2.4296955, 48.824640299999984], [2.4298276, 48.8245476]]}}, {"type": "Feature", "properties": {"highway": "path", "footway": null, "name": null, "surface": "rock", "lit": null, "length_m": 19.42, "type_element": "Way", "__fid": 121240}, "geometry": {"type": "LineString", "coordinates": [[2.4300346, 48.82465639999999], [2.4298276, 48.8245476]]}}, {"type": "Feature", "properties": {"highway": "track", "footway": null, "name": "Route Aimable", "surface": "asphalt", "lit": "no", "length_m": 117.85, "type_element": "Way", "__fid": 121241}, "geometry": {"type": "LineString", "coordinates": [[2.4298276, 48.8245476], [2.4300158, 48.8244155], [2.4304961, 48.8238811], [2.4305982, 48.823633]]}}, {"type": "Feature", "properties": {"highway": "path", "footway": null, "name": null, "surface": "dirt", "lit": null, "length_m": 134.24, "type_element": "Way", "__fid": 121245}, "geometry": {"type": "LineString", "coordinates": [[2.4315166, 48.82532040000001], [2.4312412, 48.8251451], [2.4303224, 48.8248533], [2.4299311, 48.8247415]]}}, {"type": "Feature", "properties": {"highway": "path", "footway": null, "name": null, "surface": "dirt", "lit": null, "length_m": 12.14, "type_element": "Way", "__fid": 121246}, "geometry": {"type": "LineString", "coordinates": [[2.4299311, 48.8247415], [2.4300346, 48.82465639999999]]}}, {"type": "Feature", "properties": {"highway": "path", "footway": null, "name": null, "surface": "dirt", "lit": null, "length_m": 138.42, "type_element": "Way", "__fid": 121249}, "geometry": {"type": "LineString", "coordinates": [[2.4300346, 48.82465639999999], [2.4302685, 48.8244991], [2.4305382, 48.82436340000001], [2.4307543, 48.8242801], [2.4309482, 48.8242347], [2.4313073, 48.8242341], [2.4317009, 48.8242699]]}}, {"type": "Feature", "properties": {"highway": "track", "footway": null, "name": "Allée des Buttes", "surface": "ground", "lit": null, "length_m": 18.76, "type_element": "Way", "__fid": 121260}, "geometry": {"type": "LineString", "coordinates": [[2.4305642, 48.827122], [2.4303578, 48.8270226]]}}, {"type": "Feature", "properties": {"highway": "path", "footway": null, "name": null, "surface": "dirt", "lit": "no", "length_m": 27.1, "type_element": "Way", "__fid": 121261}, "geometry": {"type": "LineString", "coordinates": [[2.4306691, 48.8268916], [2.4303578, 48.8270226]]}}, {"type": "Feature", "properties": {"highway": "track", "footway": null, "name": null, "surface": "compacted", "lit": "no", "length_m": 23.98, "type_element": "Way", "__fid": 121271}, "geometry": {"type": "LineString", "coordinates": [[2.4305642, 48.827122], [2.4306625, 48.827178799999984], [2.4307867, 48.82727890000002]]}}, {"type": "Feature", "properties": {"highway": "path", "footway": null, "name": null, "surface": "dirt", "lit": "no", "length_m": 26.75, "type_element": "Way", "__fid": 121272}, "geometry": {"type": "LineString", "coordinates": [[2.4305642, 48.827122], [2.4306691, 48.8268916]]}}, {"type": "Feature", "properties": {"highway": "track", "footway": null, "name": "Avenue des Tribunes", "surface": "fine_gravel", "lit": "no", "length_m": 27.92, "type_element": "Way", "__fid": 121273}, "geometry": {"type": "LineString", "coordinates": [[2.4305642, 48.827122], [2.4309074, 48.8270139]]}}, {"type": "Feature", "properties": {"highway": "track", "footway": null, "name": null, "surface": "compacted", "lit": "no", "length_m": 192.9, "type_element": "Way", "__fid": 121276}, "geometry": {"type": "LineString", "coordinates": [[2.4305482, 48.8301185], [2.4323043, 48.8289124], [2.4323585, 48.828862]]}}, {"type": "Feature", "properties": {"highway": "path", "footway": null, "name": null, "surface": "dirt", "lit": "no", "length_m": 81.68, "type_element": "Way", "__fid": 121280}, "geometry": {"type": "LineString", "coordinates": [[2.4306691, 48.8268916], [2.4307518, 48.82671], [2.4310244, 48.8261956]]}}, {"type": "Feature", "properties": {"highway": "track", "footway": null, "name": null, "surface": "compacted", "lit": "no", "length_m": 117.69, "type_element": "Way", "__fid": 121281}, "geometry": {"type": "LineString", "coordinates": [[2.4307867, 48.82727890000002], [2.4309369, 48.8273658], [2.4320845, 48.8278992]]}}, {"type": "Feature", "properties": {"highway": "service", "footway": null, "name": "Route de la Tourelle", "surface": "asphalt", "lit": "no", "length_m": 18.81, "type_element": "Way", "__fid": 121282}, "geometry": {"type": "LineString", "coordinates": [[2.4307867, 48.82727890000002], [2.4308591, 48.8271166]]}}, {"type": "Feature", "properties": {"highway": "footway", "footway": null, "name": null, "surface": null, "lit": null, "length_m": 148.21, "type_element": "Way", "__fid": 121290}, "geometry": {"type": "LineString", "coordinates": [[2.4308591, 48.8271166], [2.4314041, 48.8272193], [2.4317682, 48.82730580000001], [2.4320714, 48.8273668], [2.4326363, 48.8275241], [2.432752, 48.82757]]}}, {"type": "Feature", "properties": {"highway": "service", "footway": null, "name": "Route de la Tourelle", "surface": "asphalt", "lit": "no", "length_m": 11.96, "type_element": "Way", "__fid": 121291}, "geometry": {"type": "LineString", "coordinates": [[2.4308591, 48.8271166], [2.4309074, 48.8270139]]}}, {"type": "Feature", "properties": {"highway": "service", "footway": null, "name": "Route de la Tourelle", "surface": "asphalt", "lit": "no", "length_m": 297.99, "type_element": "Way", "__fid": 121292}, "geometry": {"type": "LineString", "coordinates": [[2.4309074, 48.8270139], [2.4313401, 48.826141], [2.4318146, 48.8252668], [2.4322803, 48.8244928]]}}, {"type": "Feature", "properties": {"highway": "track", "footway": null, "name": "Avenue des Tribunes", "surface": "compacted", "lit": "no", "length_m": 150.17, "type_element": "Way", "__fid": 121293}, "geometry": {"type": "LineString", "coordinates": [[2.4309074, 48.8270139], [2.4315732, 48.8268136], [2.4327588, 48.8264399]]}}, {"type": "Feature", "properties": {"highway": "path", "footway": null, "name": null, "surface": "dirt", "lit": "no", "length_m": 103.99, "type_element": "Way", "__fid": 121297}, "geometry": {"type": "LineString", "coordinates": [[2.4310244, 48.8261956], [2.4311139, 48.8260266], [2.4312426, 48.82573170000001], [2.4315166, 48.82532040000001]]}}, {"type": "Feature", "properties": {"highway": "path", "footway": null, "name": null, "surface": "dirt", "lit": "no", "length_m": 121.06, "type_element": "Way", "__fid": 121325}, "geometry": {"type": "LineString", "coordinates": [[2.4315166, 48.82532040000001], [2.4317737, 48.8249018], [2.4317818, 48.8248011], [2.4317308, 48.82461390000001], [2.4316879, 48.824349], [2.4317009, 48.8242699]]}}, {"type": "Feature", "properties": {"highway": "path", "footway": null, "name": null, "surface": null, "lit": null, "length_m": 57.91, "type_element": "Way", "__fid": 121337}, "geometry": {"type": "LineString", "coordinates": [[2.4316719, 48.82368040000002], [2.4318, 48.823823], [2.4319026, 48.8238605], [2.4320555, 48.8239011], [2.432267, 48.8239958]]}}, {"type": "Feature", "properties": {"highway": "path", "footway": null, "name": null, "surface": null, "lit": null, "length_m": 54.49, "type_element": "Way", "__fid": 121338}, "geometry": {"type": "LineString", "coordinates": [[2.4317443, 48.8241553], [2.4317979, 48.8240277], [2.4317388, 48.8238246], [2.4316719, 48.82368040000002]]}}, {"type": "Feature", "properties": {"highway": "path", "footway": null, "name": null, "surface": "wood", "lit": null, "length_m": 13.13, "type_element": "Way", "__fid": 121339}, "geometry": {"type": "LineString", "coordinates": [[2.4317009, 48.8242699], [2.4317443, 48.8241553]]}}, {"type": "Feature", "properties": {"highway": "path", "footway": null, "name": null, "surface": null, "lit": null, "length_m": 24.69, "type_element": "Way", "__fid": 121343}, "geometry": {"type": "LineString", "coordinates": [[2.4317443, 48.8241553], [2.4320753, 48.824116]]}}, {"type": "Feature", "properties": {"highway": "path", "footway": null, "name": null, "surface": "dirt", "lit": null, "length_m": 19.41, "type_element": "Way", "__fid": 121358}, "geometry": {"type": "LineString", "coordinates": [[2.4320753, 48.824116], [2.432267, 48.8239958]]}}, {"type": "Feature", "properties": {"highway": "path", "footway": null, "name": null, "surface": null, "lit": null, "length_m": 29.48, "type_element": "Way", "__fid": 121359}, "geometry": {"type": "LineString", "coordinates": [[2.4320753, 48.824116], [2.4323465, 48.8240693], [2.4324677, 48.8240678]]}}, {"type": "Feature", "properties": {"highway": "path", "footway": null, "name": null, "surface": "ground", "lit": "no", "length_m": 81.41, "type_element": "Way", "__fid": 121360}, "geometry": {"type": "LineString", "coordinates": [[2.4320845, 48.8278992], [2.4324793, 48.8280113], [2.4330395, 48.8282648]]}}, {"type": "Feature", "properties": {"highway": "track", "footway": null, "name": null, "surface": "compacted", "lit": "no", "length_m": 117.1, "type_element": "Way", "__fid": 121361}, "geometry": {"type": "LineString", "coordinates": [[2.4320845, 48.8278992], [2.4320018, 48.828049], [2.4319677, 48.8281709], [2.4319784, 48.8284542], [2.4321193, 48.8286864], [2.4323585, 48.828862]]}}, {"type": "Feature", "properties": {"highway": "track", "footway": null, "name": null, "surface": "compacted", "lit": "no", "length_m": 62.2, "type_element": "Way", "__fid": 121362}, "geometry": {"type": "LineString", "coordinates": [[2.432752, 48.82757], [2.4326803, 48.8275805], [2.4324793, 48.8276587], [2.4322626, 48.8277636], [2.4320845, 48.8278992]]}}, {"type": "Feature", "properties": {"highway": "path", "footway": null, "name": null, "surface": null, "lit": null, "length_m": 16.77, "type_element": "Way", "__fid": 121372}, "geometry": {"type": "LineString", "coordinates": [[2.432267, 48.8239958], [2.4324677, 48.8240678]]}}, {"type": "Feature", "properties": {"highway": "path", "footway": null, "name": null, "surface": "dirt", "lit": null, "length_m": 51.15, "type_element": "Way", "__fid": 121373}, "geometry": {"type": "LineString", "coordinates": [[2.432267, 48.8239958], [2.4325728, 48.8238137], [2.4328023, 48.8237023]]}}, {"type": "Feature", "properties": {"highway": "path", "footway": null, "name": null, "surface": "compacted", "lit": null, "length_m": 22.73, "type_element": "Way", "__fid": 121375}, "geometry": {"type": "LineString", "coordinates": [[2.4323796, 48.8246864], [2.4322803, 48.8244928]]}}, {"type": "Feature", "properties": {"highway": "service", "footway": null, "name": "Route de la Tourelle", "surface": "asphalt", "lit": "no", "length_m": 49.9, "type_element": "Way", "__fid": 121376}, "geometry": {"type": "LineString", "coordinates": [[2.4322803, 48.8244928], [2.4325304, 48.8240755]]}}, {"type": "Feature", "properties": {"highway": "track", "footway": null, "name": null, "surface": null, "lit": null, "length_m": 197.79, "type_element": "Way", "__fid": 121378}, "geometry": {"type": "LineString", "coordinates": [[2.4327588, 48.8264399], [2.4324687, 48.8255625], [2.4324159, 48.8253289], [2.4324116, 48.8247958], [2.4323796, 48.8246864]]}}, {"type": "Feature", "properties": {"highway": "track", "footway": null, "name": null, "surface": null, "lit": null, "length_m": 32.11, "type_element": "Way", "__fid": 121379}, "geometry": {"type": "LineString", "coordinates": [[2.4323796, 48.8246864], [2.4324033, 48.8246185], [2.4325882, 48.8244366]]}}, {"type": "Feature", "properties": {"highway": "track", "footway": null, "name": null, "surface": "compacted", "lit": "no", "length_m": 27.23, "type_element": "Way", "__fid": 121383}, "geometry": {"type": "LineString", "coordinates": [[2.4323585, 48.828862], [2.4324826, 48.8289201], [2.4326784, 48.8289845]]}}, {"type": "Feature", "properties": {"highway": "path", "footway": null, "name": null, "surface": "ground", "lit": "no", "length_m": 78.34, "type_element": "Way", "__fid": 121384}, "geometry": {"type": "LineString", "coordinates": [[2.4323585, 48.828862], [2.4324803, 48.828769], [2.4325795, 48.828656500000015], [2.4330546, 48.82833189999998]]}}, {"type": "Feature", "properties": {"highway": "path", "footway": null, "name": null, "surface": null, "lit": null, "length_m": 4.68, "type_element": "Way", "__fid": 121385}, "geometry": {"type": "LineString", "coordinates": [[2.4324677, 48.8240678], [2.4325304, 48.8240755]]}}, {"type": "Feature", "properties": {"highway": "track", "footway": null, "name": null, "surface": "compacted", "lit": null, "length_m": 27.54, "type_element": "Way", "__fid": 121393}, "geometry": {"type": "LineString", "coordinates": [[2.4325304, 48.8240755], [2.4327998, 48.8240915], [2.4329042, 48.82408739999998]]}}, {"type": "Feature", "properties": {"highway": "path", "footway": null, "name": null, "surface": "compacted", "lit": null, "length_m": 40.64, "type_element": "Way", "__fid": 121394}, "geometry": {"type": "LineString", "coordinates": [[2.4325882, 48.8244366], [2.4325799, 48.82419609999999], [2.4325304, 48.8240755]]}}, {"type": "Feature", "properties": {"highway": "service", "footway": null, "name": "Route de la Tourelle", "surface": "asphalt", "lit": "no", "length_m": 46.05, "type_element": "Way", "__fid": 121395}, "geometry": {"type": "LineString", "coordinates": [[2.4325304, 48.8240755], [2.4328023, 48.8237023]]}}, {"type": "Feature", "properties": {"highway": "track", "footway": null, "name": null, "surface": null, "lit": null, "length_m": 45.23, "type_element": "Way", "__fid": 121398}, "geometry": {"type": "LineString", "coordinates": [[2.4325882, 48.8244366], [2.4329042, 48.82408739999998]]}}, {"type": "Feature", "properties": {"highway": "track", "footway": null, "name": null, "surface": "compacted", "lit": "no", "length_m": 36.08, "type_element": "Way", "__fid": 121401}, "geometry": {"type": "LineString", "coordinates": [[2.4326784, 48.8289845], [2.4328508, 48.82901969999999], [2.433075, 48.8290379], [2.4331598, 48.8290334]]}}, {"type": "Feature", "properties": {"highway": "track", "footway": null, "name": "Allée Royale", "surface": null, "lit": "no", "length_m": 147.63, "type_element": "Way", "__fid": 121402}, "geometry": {"type": "LineString", "coordinates": [[2.4326784, 48.8289845], [2.4329143, 48.830303]]}}, {"type": "Feature", "properties": {"highway": "track", "footway": null, "name": null, "surface": null, "lit": null, "length_m": 124.29, "type_element": "Way", "__fid": 121403}, "geometry": {"type": "LineString", "coordinates": [[2.4328779, 48.82755169999999], [2.4328675, 48.8274148], [2.4328807, 48.8272849], [2.4328185, 48.82666540000001], [2.4327984, 48.8265349], [2.4327588, 48.8264399]]}}, {"type": "Feature", "properties": {"highway": "track", "footway": null, "name": "Avenue des Tribunes", "surface": "compacted", "lit": "no", "length_m": 126.29, "type_element": "Way", "__fid": 121404}, "geometry": {"type": "LineString", "coordinates": [[2.4327588, 48.8264399], [2.4343424, 48.8259963]]}}, {"type": "Feature", "properties": {"highway": "track", "footway": null, "name": null, "surface": "compacted", "lit": "no", "length_m": 9.46, "type_element": "Way", "__fid": 121405}, "geometry": {"type": "LineString", "coordinates": [[2.4328779, 48.82755169999999], [2.432752, 48.82757]]}}, {"type": "Feature", "properties": {"highway": "service", "footway": null, "name": "Route de la Tourelle", "surface": "asphalt", "lit": "no", "length_m": 12.21, "type_element": "Way", "__fid": 121406}, "geometry": {"type": "LineString", "coordinates": [[2.4328023, 48.8237023], [2.4328877, 48.8236081]]}}, {"type": "Feature", "properties": {"highway": "path", "footway": null, "name": null, "surface": "dirt", "lit": null, "length_m": 33.78, "type_element": "Way", "__fid": 121413}, "geometry": {"type": "LineString", "coordinates": [[2.4329042, 48.82408739999998], [2.4331763, 48.82384239999998]]}}, {"type": "Feature", "properties": {"highway": "path", "footway": null, "name": "Allée Royale", "surface": null, "lit": null, "length_m": 80.51, "type_element": "Way", "__fid": 121414}, "geometry": {"type": "LineString", "coordinates": [[2.4328779, 48.82755169999999], [2.4328932, 48.8277399], [2.4329329, 48.8278014], [2.4330395, 48.8282648]]}}, {"type": "Feature", "properties": {"highway": "track", "footway": null, "name": null, "surface": "compacted", "lit": "no", "length_m": 84.6, "type_element": "Way", "__fid": 121415}, "geometry": {"type": "LineString", "coordinates": [[2.4339236, 48.827790600000014], [2.4338232, 48.8277271], [2.4336928, 48.8276648], [2.4334947, 48.827594], [2.4332838, 48.82755489999998], [2.4331576, 48.8275448], [2.432927, 48.8275445], [2.4328779, 48.82755169999999]]}}, {"type": "Feature", "properties": {"highway": "path", "footway": null, "name": null, "surface": "ground", "lit": "no", "length_m": 6.06, "type_element": "Way", "__fid": 121429}, "geometry": {"type": "LineString", "coordinates": [[2.4330395, 48.8282648], [2.4331076, 48.8282956]]}}, {"type": "Feature", "properties": {"highway": "path", "footway": null, "name": "Allée Royale", "surface": null, "lit": null, "length_m": 7.54, "type_element": "Way", "__fid": 121430}, "geometry": {"type": "LineString", "coordinates": [[2.4330395, 48.8282648], [2.4330546, 48.82833189999998]]}}, {"type": "Feature", "properties": {"highway": "path", "footway": null, "name": "Allée Royale", "surface": null, "lit": null, "length_m": 78.38, "type_element": "Way", "__fid": 121431}, "geometry": {"type": "LineString", "coordinates": [[2.4330546, 48.82833189999998], [2.4331598, 48.8290334]]}}, {"type": "Feature", "properties": {"highway": "path", "footway": null, "name": null, "surface": "ground", "lit": "no", "length_m": 5.61, "type_element": "Way", "__fid": 121432}, "geometry": {"type": "LineString", "coordinates": [[2.4330546, 48.82833189999998], [2.4331076, 48.8282956]]}}, {"type": "Feature", "properties": {"highway": "path", "footway": null, "name": null, "surface": "ground", "lit": "no", "length_m": 82.76, "type_element": "Way", "__fid": 121435}, "geometry": {"type": "LineString", "coordinates": [[2.4331076, 48.8282956], [2.4337104, 48.828577], [2.433967, 48.8287701]]}}, {"type": "Feature", "properties": {"highway": "path", "footway": null, "name": null, "surface": "ground", "lit": "no", "length_m": 82.29, "type_element": "Way", "__fid": 121436}, "geometry": {"type": "LineString", "coordinates": [[2.4331076, 48.8282956], [2.4336092, 48.8279525], [2.4339236, 48.827790600000014]]}}, {"type": "Feature", "properties": {"highway": "track", "footway": null, "name": "Route de la Belle-Étoile", "surface": null, "lit": null, "length_m": 221.85, "type_element": "Way", "__fid": 121437}, "geometry": {"type": "LineString", "coordinates": [[2.4358358, 48.824789], [2.4353263, 48.8245971], [2.4336132, 48.8240036], [2.4331763, 48.82384239999998]]}}, {"type": "Feature", "properties": {"highway": "path", "footway": null, "name": null, "surface": "dirt", "lit": null, "length_m": 177.97, "type_element": "Way", "__fid": 121438}, "geometry": {"type": "LineString", "coordinates": [[2.4331763, 48.82384239999998], [2.433516, 48.82348179999999], [2.433836, 48.8232073], [2.4340243, 48.8230864], [2.434878, 48.8227507]]}}, {"type": "Feature", "properties": {"highway": "path", "footway": null, "name": "Allée Royale", "surface": null, "lit": null, "length_m": 146.86, "type_element": "Way", "__fid": 121439}, "geometry": {"type": "LineString", "coordinates": [[2.4331598, 48.8290334], [2.4333288, 48.82979930000001], [2.4334685, 48.830338300000015]]}}, {"type": "Feature", "properties": {"highway": "track", "footway": null, "name": null, "surface": "compacted", "lit": "no", "length_m": 49.72, "type_element": "Way", "__fid": 121440}, "geometry": {"type": "LineString", "coordinates": [[2.4331598, 48.8290334], [2.4333001, 48.829026], [2.433517, 48.8289846], [2.4337865, 48.8288825]]}}, {"type": "Feature", "properties": {"highway": "track", "footway": null, "name": "Allée Royale", "surface": "compacted", "lit": "no", "length_m": 155.89, "type_element": "Way", "__fid": 121450}, "geometry": {"type": "LineString", "coordinates": [[2.434068, 48.8302721], [2.4337865, 48.8288825]]}}, {"type": "Feature", "properties": {"highway": "track", "footway": null, "name": null, "surface": "compacted", "lit": "no", "length_m": 18.22, "type_element": "Way", "__fid": 121451}, "geometry": {"type": "LineString", "coordinates": [[2.4337865, 48.8288825], [2.433967, 48.8287701]]}}, {"type": "Feature", "properties": {"highway": "track", "footway": null, "name": null, "surface": "compacted", "lit": "no", "length_m": 59.51, "type_element": "Way", "__fid": 121454}, "geometry": {"type": "LineString", "coordinates": [[2.4342142, 48.8282815], [2.4341899, 48.8281496], [2.4341298, 48.8280226], [2.434036, 48.8279049], [2.4339236, 48.827790600000014]]}}, {"type": "Feature", "properties": {"highway": "track", "footway": null, "name": "Route de la Demi-Lune", "surface": "compacted", "lit": null, "length_m": 204.33, "type_element": "Way", "__fid": 121455}, "geometry": {"type": "LineString", "coordinates": [[2.4358481, 48.8264631], [2.4339236, 48.827790600000014]]}}, {"type": "Feature", "properties": {"highway": "track", "footway": null, "name": "Route de la Faluère", "surface": "compacted", "lit": "no", "length_m": 221.75, "type_element": "Way", "__fid": 121459}, "geometry": {"type": "LineString", "coordinates": [[2.433967, 48.8287701], [2.4364366, 48.8299185]]}}, {"type": "Feature", "properties": {"highway": "track", "footway": null, "name": null, "surface": "compacted", "lit": "no", "length_m": 58.15, "type_element": "Way", "__fid": 121460}, "geometry": {"type": "LineString", "coordinates": [[2.433967, 48.8287701], [2.4341605, 48.8285297], [2.4342142, 48.8282815]]}}, {"type": "Feature", "properties": {"highway": "path", "footway": null, "name": "Route Saint-Hubert", "surface": null, "lit": null, "length_m": 136.04, "type_element": "Way", "__fid": 121475}, "geometry": {"type": "LineString", "coordinates": [[2.4342142, 48.8282815], [2.4360587, 48.8281639]]}}, {"type": "Feature", "properties": {"highway": "path", "footway": null, "name": "Allée des Quatre Carrefours", "surface": null, "lit": null, "length_m": 122.12, "type_element": "Way", "__fid": 121490}, "geometry": {"type": "LineString", "coordinates": [[2.4358481, 48.8264631], [2.4343424, 48.8259963]]}}, {"type": "Feature", "properties": {"highway": "track", "footway": null, "name": "Avenue des Tribunes", "surface": "compacted", "lit": "no", "length_m": 236.75, "type_element": "Way", "__fid": 121491}, "geometry": {"type": "LineString", "coordinates": [[2.4343424, 48.8259963], [2.4365872, 48.825474499999984], [2.4374114, 48.825351799999986]]}}]}