{"type": "FeatureCollection", "features": [{"type": "Feature", "properties": {"@id": "node/482775496", "amenity": "drinking_water", "man_made": "water_tap", "source": "cadastre-dgi-fr source : Direction Générale des Impôts - Cadastre ; mise à jour : 2009", "type_element": "Fontaines à boire", "__fid": 57}, "geometry": {"type": "Point", "coordinates": [2.430625, 48.8356789]}, "id": "node/482775496"}, {"type": "Feature", "properties": {"@id": "node/482775497", "access": "yes", "amenity": "drinking_water", "bottle": "yes", "fee": "no", "man_made": "water_tap", "operator": "Eau de Paris", "source": "cadastre-dgi-fr source : Direction Générale des Impôts - Cadastre;mise à jour : 2009;local knowledge", "wheelchair": "yes", "type_element": "Fontaines à boire", "__fid": 58}, "geometry": {"type": "Point", "coordinates": [2.4255552, 48.8375477]}, "id": "node/482775497"}, {"type": "Feature", "properties": {"@id": "node/918205066", "FIXME": "verifier la position", "amenity": "drinking_water", "source": "Eau de Paris", "type_element": "Fontaines à boire", "__fid": 209}, "geometry": {"type": "Point", "coordinates": [2.4302364, 48.8404327]}, "id": "node/918205066"}, {"type": "Feature", "properties": {"@id": "node/4064412202", "amenity": "drinking_water", "type_element": "Fontaines à boire", "__fid": 468}, "geometry": {"type": "Point", "coordinates": [2.4327209, 48.8398039]}, "id": "node/4064412202"}, {"type": "Feature", "properties": {"@id": "node/5829752785", "amenity": "drinking_water", "check_date": "2025-03-07", "man_made": "water_tap", "name": "Fontaine à eau", "name:en": "Water disposal", "type_element": "Fontaines à boire", "__fid": 573}, "geometry": {"type": "Point", "coordinates": [2.4282641, 48.8403888]}, "id": "node/5829752785"}, {"type": "Feature", "properties": {"highway": "track", "footway": null, "name": "Route Brûlée", "surface": "asphalt", "lit": "no", "length_m": 150.37, "type_element": "Way", "__fid": 120996}, "geometry": {"type": "LineString", "coordinates": [[2.4255699, 48.835808], [2.4246569, 48.83597769999999], [2.4241258, 48.8360413], [2.4236739, 48.8360687], [2.4235674, 48.8360693]]}}, {"type": "Feature", "properties": {"highway": "path", "footway": null, "name": null, "surface": "compacted", "lit": "no", "length_m": 200.51, "type_element": "Way", "__fid": 121023}, "geometry": {"type": "LineString", "coordinates": [[2.4265463, 48.83612940000002], [2.4238635, 48.836469]]}}, {"type": "Feature", "properties": {"highway": "path", "footway": null, "name": null, "surface": "dirt", "lit": "no", "length_m": 129.1, "type_element": "Way", "__fid": 121027}, "geometry": {"type": "LineString", "coordinates": [[2.4239015, 48.8355386], [2.4245597, 48.8355211], [2.4248842, 48.835604], [2.4255699, 48.835808]]}}, {"type": "Feature", "properties": {"highway": "path", "footway": null, "name": null, "surface": null, "lit": "no", "length_m": 97.74, "type_element": "Way", "__fid": 121050}, "geometry": {"type": "LineString", "coordinates": [[2.4243589, 48.84138040000002], [2.4247188, 48.8414109], [2.4249181, 48.841380499999985], [2.4252152, 48.841195099999986], [2.4255561, 48.8411286]]}}, {"type": "Feature", "properties": {"highway": "service", "footway": null, "name": "Route de la Tourelle", "surface": "asphalt", "lit": null, "length_m": 85.3, "type_element": "Way", "__fid": 121068}, "geometry": {"type": "LineString", "coordinates": [[2.4246376, 48.8416943], [2.4253672, 48.8412948], [2.4255513, 48.8412224]]}}, {"type": "Feature", "properties": {"highway": "track", "footway": null, "name": null, "surface": "compacted", "lit": "no", "length_m": 120.33, "type_element": "Way", "__fid": 121069}, "geometry": {"type": "LineString", "coordinates": [[2.4261607, 48.8413694], [2.4256665, 48.841587], [2.4251436, 48.8416459], [2.42482, 48.841657], [2.4246376, 48.8416943]]}}, {"type": "Feature", "properties": {"highway": "path", "footway": null, "name": "Route Lemoine", "surface": "compacted", "lit": "no", "length_m": 146.27, "type_element": "Way", "__fid": 121079}, "geometry": {"type": "LineString", "coordinates": [[2.4248408, 48.8400655], [2.4249746, 48.840104299999986], [2.4250919, 48.8401509], [2.4252438, 48.8402223], [2.4254225, 48.8403365], [2.4258412, 48.8406246], [2.4259967, 48.8407417], [2.4260743, 48.840820600000015], [2.4261997, 48.84099420000001]]}}, {"type": "Feature", "properties": {"highway": "path", "footway": null, "name": null, "surface": "compacted", "lit": "no", "length_m": 99.85, "type_element": "Way", "__fid": 121082}, "geometry": {"type": "LineString", "coordinates": [[2.4255561, 48.8411286], [2.4255394, 48.8410181], [2.4254963, 48.84093389999999], [2.4254331, 48.84084830000001], [2.4251562, 48.8406214], [2.4250898, 48.84055220000001], [2.4249459, 48.8403432]]}}, {"type": "Feature", "properties": {"highway": "path", "footway": null, "name": null, "surface": null, "lit": "no", "length_m": 70.72, "type_element": "Way", "__fid": 121088}, "geometry": {"type": "LineString", "coordinates": [[2.4250681, 48.8383908], [2.4253391, 48.8380396], [2.4255514, 48.8378425]]}}, {"type": "Feature", "properties": {"highway": "track", "footway": null, "name": null, "surface": "compacted", "lit": "no", "length_m": 155.78, "type_element": "Way", "__fid": 121089}, "geometry": {"type": "LineString", "coordinates": [[2.4263944, 48.8409398], [2.4262918, 48.8407522], [2.4260801, 48.840435], [2.4260169, 48.84037759999999], [2.4259269, 48.8403201], [2.4258592, 48.8402964], [2.4256952, 48.8402582], [2.4255809, 48.8402202], [2.4254668, 48.84016539999999], [2.425364, 48.8401078], [2.4252023, 48.8399938], [2.4251038, 48.8399013]]}}, {"type": "Feature", "properties": {"highway": "track", "footway": null, "name": "Route Lemoine", "surface": "compacted", "lit": "no", "length_m": 183.21, "type_element": "Way", "__fid": 121091}, "geometry": {"type": "LineString", "coordinates": [[2.4275356, 48.8403155], [2.4273943, 48.84027189999998], [2.4270846, 48.840203899999985], [2.4265905, 48.8401263], [2.4261518, 48.8400341], [2.4257351, 48.8399758], [2.4251436, 48.8398542]]}}, {"type": "Feature", "properties": {"highway": "path", "footway": null, "name": null, "surface": "compacted", "lit": "no", "length_m": 125.79, "type_element": "Way", "__fid": 121092}, "geometry": {"type": "LineString", "coordinates": [[2.4257998, 48.8388301], [2.425446, 48.8391768], [2.4253051, 48.83934030000001], [2.4251808, 48.8396978], [2.4251436, 48.8398542]]}}, {"type": "Feature", "properties": {"highway": "path", "footway": null, "name": null, "surface": "compacted", "lit": null, "length_m": 30.21, "type_element": "Way", "__fid": 121093}, "geometry": {"type": "LineString", "coordinates": [[2.4255514, 48.8378425], [2.4252561, 48.8376533]]}}, {"type": "Feature", "properties": {"highway": "footway", "footway": null, "name": null, "surface": null, "lit": null, "length_m": 144.52, "type_element": "Way", "__fid": 121095}, "geometry": {"type": "LineString", "coordinates": [[2.4252773, 48.838454300000016], [2.4260042, 48.8386114], [2.426554, 48.83872090000001], [2.427174, 48.8387939]]}}, {"type": "Feature", "properties": {"highway": "footway", "footway": null, "name": null, "surface": "compacted", "lit": "no", "length_m": 56.96, "type_element": "Way", "__fid": 121096}, "geometry": {"type": "LineString", "coordinates": [[2.4252773, 48.838454300000016], [2.4253524, 48.838510800000016], [2.4254704, 48.8386185], [2.4256394, 48.8387421], [2.4257998, 48.8388301]]}}, {"type": "Feature", "properties": {"highway": "path", "footway": null, "name": "Avenue Daumesnil", "surface": "asphalt", "lit": null, "length_m": 35.85, "type_element": "Way", "__fid": 121103}, "geometry": {"type": "LineString", "coordinates": [[2.4254492, 48.8374182], [2.4257871, 48.837651]]}}, {"type": "Feature", "properties": {"highway": "track", "footway": null, "name": "Route du Lac de Saint-Mandé", "surface": "asphalt", "lit": "no", "length_m": 164.38, "type_element": "Way", "__fid": 121104}, "geometry": {"type": "LineString", "coordinates": [[2.4254492, 48.8374182], [2.4265463, 48.83612940000002]]}}, {"type": "Feature", "properties": {"highway": "path", "footway": null, "name": "Parcours Santé", "surface": "ground", "lit": "no", "length_m": 33.35, "type_element": "Way", "__fid": 121107}, "geometry": {"type": "LineString", "coordinates": [[2.425713, 48.8357796], [2.4256426, 48.835621099999976], [2.4255675, 48.8354958]]}}, {"type": "Feature", "properties": {"highway": "track", "footway": null, "name": "Route Brûlée", "surface": "asphalt", "lit": "no", "length_m": 10.97, "type_element": "Way", "__fid": 121109}, "geometry": {"type": "LineString", "coordinates": [[2.425713, 48.8357796], [2.4255699, 48.835808]]}}, {"type": "Feature", "properties": {"highway": "path", "footway": null, "name": null, "surface": "compacted", "lit": null, "length_m": 198.44, "type_element": "Way", "__fid": 121110}, "geometry": {"type": "LineString", "coordinates": [[2.4277614, 48.8388646], [2.4270351, 48.8385713], [2.4263723, 48.8382834], [2.4259474, 48.8380681], [2.4255514, 48.8378425]]}}, {"type": "Feature", "properties": {"highway": "footway", "footway": "crossing", "name": null, "surface": "asphalt", "lit": "yes", "length_m": 27.48, "type_element": "Way", "__fid": 121111}, "geometry": {"type": "LineString", "coordinates": [[2.4255514, 48.8378425], [2.4256202, 48.837796], [2.4257871, 48.837651]]}}, {"type": "Feature", "properties": {"highway": "path", "footway": null, "name": null, "surface": "compacted", "lit": "no", "length_m": 10.44, "type_element": "Way", "__fid": 121116}, "geometry": {"type": "LineString", "coordinates": [[2.4255513, 48.8412224], [2.4255561, 48.8411286]]}}, {"type": "Feature", "properties": {"highway": "service", "footway": null, "name": "Route de la Tourelle", "surface": "asphalt", "lit": null, "length_m": 53.93, "type_element": "Way", "__fid": 121117}, "geometry": {"type": "LineString", "coordinates": [[2.4255513, 48.8412224], [2.4261997, 48.84099420000001]]}}, {"type": "Feature", "properties": {"highway": "track", "footway": null, "name": "Route Brûlée", "surface": "asphalt", "lit": "no", "length_m": 16.91, "type_element": "Way", "__fid": 121121}, "geometry": {"type": "LineString", "coordinates": [[2.4259321, 48.8357327], [2.425713, 48.8357796]]}}, {"type": "Feature", "properties": {"highway": "path", "footway": null, "name": "Avenue Daumesnil", "surface": "asphalt", "lit": null, "length_m": 350.08, "type_element": "Way", "__fid": 121127}, "geometry": {"type": "LineString", "coordinates": [[2.4257871, 48.837651], [2.4263735, 48.8380044], [2.4266316, 48.8381267], [2.4274289, 48.8384553], [2.4280412, 48.8386942], [2.4286467, 48.8388974], [2.4292359, 48.8390633], [2.4298758, 48.839228]]}}, {"type": "Feature", "properties": {"highway": "path", "footway": null, "name": null, "surface": "fine_gravel", "lit": null, "length_m": 91.56, "type_element": "Way", "__fid": 121128}, "geometry": {"type": "LineString", "coordinates": [[2.4266364, 48.8370481], [2.4260687, 48.8374608], [2.4257871, 48.837651]]}}, {"type": "Feature", "properties": {"highway": "footway", "footway": null, "name": null, "surface": "compacted", "lit": "no", "length_m": 211.28, "type_element": "Way", "__fid": 121129}, "geometry": {"type": "LineString", "coordinates": [[2.4257998, 48.8388301], [2.4259934, 48.83892390000001], [2.4261678, 48.83904219999999], [2.4264253, 48.8392964], [2.4267659, 48.8395241], [2.4268893, 48.8397236], [2.4271709, 48.8399919], [2.4273211, 48.8400802], [2.4274526, 48.8401967], [2.4275356, 48.8403155]]}}, {"type": "Feature", "properties": {"highway": "path", "footway": null, "name": null, "surface": "dirt", "lit": "no", "length_m": 63.15, "type_element": "Way", "__fid": 121131}, "geometry": {"type": "LineString", "coordinates": [[2.4259321, 48.8357327], [2.426407, 48.8360554], [2.4265463, 48.83612940000002]]}}, {"type": "Feature", "properties": {"highway": "track", "footway": null, "name": "Route Brûlée", "surface": "asphalt", "lit": "no", "length_m": 87.67, "type_element": "Way", "__fid": 121132}, "geometry": {"type": "LineString", "coordinates": [[2.4270434, 48.835445], [2.4264727, 48.8356061], [2.4259321, 48.8357327]]}}, {"type": "Feature", "properties": {"highway": "track", "footway": null, "name": null, "surface": "compacted", "lit": "no", "length_m": 143.01, "type_element": "Way", "__fid": 121137}, "geometry": {"type": "LineString", "coordinates": [[2.4280384, 48.8413217], [2.4265623, 48.8414917], [2.4264027, 48.8414723], [2.4261607, 48.8413694]]}}, {"type": "Feature", "properties": {"highway": "footway", "footway": null, "name": null, "surface": "dirt", "lit": "no", "length_m": 54.58, "type_element": "Way", "__fid": 121138}, "geometry": {"type": "LineString", "coordinates": [[2.4263944, 48.8409398], [2.4263972, 48.8411393], [2.426376, 48.841198], [2.4263229, 48.841279], [2.4262226, 48.84135149999999], [2.4261607, 48.8413694]]}}, {"type": "Feature", "properties": {"highway": "service", "footway": null, "name": "Route de la Tourelle", "surface": "asphalt", "lit": null, "length_m": 15.52, "type_element": "Way", "__fid": 121139}, "geometry": {"type": "LineString", "coordinates": [[2.4261997, 48.84099420000001], [2.4263944, 48.8409398]]}}, {"type": "Feature", "properties": {"highway": "path", "footway": null, "name": null, "surface": "dirt", "lit": "no", "length_m": 123.03, "type_element": "Way", "__fid": 121142}, "geometry": {"type": "LineString", "coordinates": [[2.4279889, 48.84125009999999], [2.4276656, 48.8411462], [2.4274059, 48.8410891], [2.4271698, 48.8410483], [2.4266662, 48.84099650000001], [2.4265563, 48.8409567], [2.4263944, 48.8409398]]}}, {"type": "Feature", "properties": {"highway": "service", "footway": null, "name": "Route de la Tourelle", "surface": "asphalt", "lit": "no", "length_m": 102.41, "type_element": "Way", "__fid": 121143}, "geometry": {"type": "LineString", "coordinates": [[2.4263944, 48.8409398], [2.4269191, 48.840803], [2.4277028, 48.8406203]]}}, {"type": "Feature", "properties": {"highway": "track", "footway": null, "name": "Route du Lac de Saint-Mandé", "surface": "asphalt", "lit": "no", "length_m": 75.68, "type_element": "Way", "__fid": 121146}, "geometry": {"type": "LineString", "coordinates": [[2.4265463, 48.83612940000002], [2.4271714, 48.8355881]]}}, {"type": "Feature", "properties": {"highway": "path", "footway": null, "name": "Allée Royale", "surface": "compacted", "lit": "no", "length_m": 71.95, "type_element": "Way", "__fid": 121147}, "geometry": {"type": "LineString", "coordinates": [[2.4265463, 48.83612940000002], [2.4275126, 48.836021]]}}, {"type": "Feature", "properties": {"highway": "path", "footway": null, "name": null, "surface": null, "lit": null, "length_m": 78.84, "type_element": "Way", "__fid": 121152}, "geometry": {"type": "LineString", "coordinates": [[2.4266364, 48.8370481], [2.4272188, 48.83735820000002], [2.4273234, 48.8374636], [2.4274569, 48.8374504]]}}, {"type": "Feature", "properties": {"highway": "path", "footway": null, "name": null, "surface": "fine_gravel", "lit": null, "length_m": 130.11, "type_element": "Way", "__fid": 121153}, "geometry": {"type": "LineString", "coordinates": [[2.4276808, 48.8361078], [2.4273749, 48.8364598], [2.4268384, 48.8369012], [2.4266364, 48.8370481]]}}, {"type": "Feature", "properties": {"highway": "path", "footway": null, "name": null, "surface": "dirt", "lit": "no", "length_m": 18.48, "type_element": "Way", "__fid": 121162}, "geometry": {"type": "LineString", "coordinates": [[2.4270434, 48.835445], [2.4271714, 48.8355881]]}}, {"type": "Feature", "properties": {"highway": "path", "footway": null, "name": null, "surface": "dirt", "lit": null, "length_m": 54.26, "type_element": "Way", "__fid": 121164}, "geometry": {"type": "LineString", "coordinates": [[2.4271714, 48.8355881], [2.4275126, 48.836021]]}}, {"type": "Feature", "properties": {"highway": "track", "footway": null, "name": "Route du Lac de Saint-Mandé", "surface": "asphalt", "lit": "no", "length_m": 47.58, "type_element": "Way", "__fid": 121165}, "geometry": {"type": "LineString", "coordinates": [[2.4271714, 48.8355881], [2.4274406, 48.8353962], [2.4275977, 48.8352661]]}}, {"type": "Feature", "properties": {"highway": "footway", "footway": null, "name": null, "surface": null, "lit": null, "length_m": 43.83, "type_element": "Way", "__fid": 121166}, "geometry": {"type": "LineString", "coordinates": [[2.427174, 48.8387939], [2.4277614, 48.8388646]]}}, {"type": "Feature", "properties": {"highway": "path", "footway": null, "name": null, "surface": "compacted", "lit": null, "length_m": 198.98, "type_element": "Way", "__fid": 121167}, "geometry": {"type": "LineString", "coordinates": [[2.4288429, 48.840169], [2.4286182, 48.8400464], [2.4284184, 48.8399073], [2.4281066, 48.8397436], [2.4277546, 48.839387], [2.427719, 48.8392912], [2.4276754, 48.8392149], [2.427438, 48.839034800000015], [2.4272919, 48.8388861], [2.427174, 48.8387939]]}}, {"type": "Feature", "properties": {"highway": "path", "footway": null, "name": null, "surface": null, "lit": null, "length_m": 147.47, "type_element": "Way", "__fid": 121172}, "geometry": {"type": "LineString", "coordinates": [[2.4293472, 48.8378747], [2.4278699, 48.8376093], [2.4274569, 48.8374504]]}}, {"type": "Feature", "properties": {"highway": "path", "footway": null, "name": null, "surface": null, "lit": null, "length_m": 130.7, "type_element": "Way", "__fid": 121173}, "geometry": {"type": "LineString", "coordinates": [[2.4274569, 48.8374504], [2.4277639, 48.8374433], [2.4282454, 48.837492800000014], [2.4291691, 48.8372648]]}}, {"type": "Feature", "properties": {"highway": "path", "footway": null, "name": "Allée Royale", "surface": "wood", "lit": null, "length_m": 19.88, "type_element": "Way", "__fid": 121174}, "geometry": {"type": "LineString", "coordinates": [[2.4275126, 48.836021], [2.4277802, 48.8359935]]}}, {"type": "Feature", "properties": {"highway": "track", "footway": null, "name": "Route Lemoine", "surface": "compacted", "lit": "no", "length_m": 46.58, "type_element": "Way", "__fid": 121176}, "geometry": {"type": "LineString", "coordinates": [[2.4281012, 48.84050170000001], [2.4279188, 48.8404236], [2.4277494, 48.8403687], [2.4275356, 48.8403155]]}}, {"type": "Feature", "properties": {"highway": "footway", "footway": null, "name": null, "surface": "compacted", "lit": "no", "length_m": 36.18, "type_element": "Way", "__fid": 121177}, "geometry": {"type": "LineString", "coordinates": [[2.4275356, 48.8403155], [2.4276698, 48.8405215], [2.4277028, 48.8406203]]}}, {"type": "Feature", "properties": {"highway": "path", "footway": null, "name": null, "surface": null, "lit": null, "length_m": 94.72, "type_element": "Way", "__fid": 121181}, "geometry": {"type": "LineString", "coordinates": [[2.4276808, 48.8361078], [2.4284737, 48.8363276], [2.428837, 48.83648]]}}, {"type": "Feature", "properties": {"highway": "path", "footway": null, "name": null, "surface": "fine_gravel", "lit": null, "length_m": 14.65, "type_element": "Way", "__fid": 121182}, "geometry": {"type": "LineString", "coordinates": [[2.4277802, 48.8359935], [2.4276808, 48.8361078]]}}, {"type": "Feature", "properties": {"highway": "path", "footway": null, "name": null, "surface": "dirt", "lit": "no", "length_m": 73.9, "type_element": "Way", "__fid": 121183}, "geometry": {"type": "LineString", "coordinates": [[2.4277028, 48.8406203], [2.4277016, 48.8407481], [2.427941, 48.84118070000001], [2.4279889, 48.84125009999999]]}}, {"type": "Feature", "properties": {"highway": "service", "footway": null, "name": "Route de la Tourelle", "surface": "asphalt", "lit": "no", "length_m": 10.32, "type_element": "Way", "__fid": 121184}, "geometry": {"type": "LineString", "coordinates": [[2.4277028, 48.8406203], [2.4278354, 48.8405895]]}}, {"type": "Feature", "properties": {"highway": "path", "footway": null, "name": null, "surface": "fine_gravel", "lit": null, "length_m": 225.19, "type_element": "Way", "__fid": 121185}, "geometry": {"type": "LineString", "coordinates": [[2.4292709, 48.8342259], [2.428657, 48.8350492], [2.4277802, 48.8359935]]}}, {"type": "Feature", "properties": {"highway": "path", "footway": null, "name": "Allée Royale", "surface": "compacted", "lit": null, "length_m": 131.86, "type_element": "Way", "__fid": 121186}, "geometry": {"type": "LineString", "coordinates": [[2.4277802, 48.8359935], [2.4295462, 48.8357765]]}}, {"type": "Feature", "properties": {"highway": "path", "footway": null, "name": null, "surface": "compacted", "lit": null, "length_m": 159.34, "type_element": "Way", "__fid": 121187}, "geometry": {"type": "LineString", "coordinates": [[2.4297408, 48.8394512], [2.4292967, 48.8393392], [2.4290867, 48.8392791], [2.4277614, 48.8388646]]}}, {"type": "Feature", "properties": {"highway": "service", "footway": null, "name": "Route de la Tourelle", "surface": "asphalt", "lit": "no", "length_m": 21.82, "type_element": "Way", "__fid": 121189}, "geometry": {"type": "LineString", "coordinates": [[2.4278354, 48.8405895], [2.4281012, 48.84050170000001]]}}, {"type": "Feature", "properties": {"highway": "track", "footway": null, "name": "Route de l'Esplanade", "surface": "compacted", "lit": "no", "length_m": 34.81, "type_element": "Way", "__fid": 121190}, "geometry": {"type": "LineString", "coordinates": [[2.4278354, 48.8405895], [2.4283092, 48.84057560000002]]}}, {"type": "Feature", "properties": {"highway": "path", "footway": null, "name": null, "surface": "dirt", "lit": "no", "length_m": 8.75, "type_element": "Way", "__fid": 121191}, "geometry": {"type": "LineString", "coordinates": [[2.4279889, 48.84125009999999], [2.4280384, 48.8413217]]}}, {"type": "Feature", "properties": {"highway": "track", "footway": null, "name": null, "surface": "compacted", "lit": "no", "length_m": 11.61, "type_element": "Way", "__fid": 121192}, "geometry": {"type": "LineString", "coordinates": [[2.4281953, 48.8413086], [2.4280384, 48.8413217]]}}, {"type": "Feature", "properties": {"highway": "service", "footway": null, "name": "Route de la Tourelle", "surface": "asphalt", "lit": "no", "length_m": 4.32, "type_element": "Way", "__fid": 121193}, "geometry": {"type": "LineString", "coordinates": [[2.4281012, 48.84050170000001], [2.4281505, 48.8404805]]}}, {"type": "Feature", "properties": {"highway": "path", "footway": null, "name": null, "surface": "compacted", "lit": "no", "length_m": 15.73, "type_element": "Way", "__fid": 121194}, "geometry": {"type": "LineString", "coordinates": [[2.4283092, 48.84057560000002], [2.4281505, 48.8404805]]}}, {"type": "Feature", "properties": {"highway": "service", "footway": null, "name": "Route de la Tourelle", "surface": "asphalt", "lit": "no", "length_m": 61.56, "type_element": "Way", "__fid": 121195}, "geometry": {"type": "LineString", "coordinates": [[2.4281505, 48.8404805], [2.4287167, 48.8402372], [2.4288429, 48.840169]]}}, {"type": "Feature", "properties": {"highway": "path", "footway": null, "name": null, "surface": "compacted", "lit": "no", "length_m": 74.82, "type_element": "Way", "__fid": 121196}, "geometry": {"type": "LineString", "coordinates": [[2.4281953, 48.8413086], [2.4283568, 48.8412436], [2.4287052, 48.8409149], [2.4288199, 48.84078909999999]]}}, {"type": "Feature", "properties": {"highway": "track", "footway": null, "name": null, "surface": "compacted", "lit": "no", "length_m": 149.99, "type_element": "Way", "__fid": 121197}, "geometry": {"type": "LineString", "coordinates": [[2.4302225, 48.8411391], [2.4289138, 48.8412396], [2.4281953, 48.8413086]]}}, {"type": "Feature", "properties": {"highway": "path", "footway": null, "name": null, "surface": "compacted", "lit": "no", "length_m": 44.45, "type_element": "Way", "__fid": 121198}, "geometry": {"type": "LineString", "coordinates": [[2.4288199, 48.84078909999999], [2.4284541, 48.8406497], [2.4283092, 48.84057560000002]]}}, {"type": "Feature", "properties": {"highway": "track", "footway": null, "name": "Route de l'Esplanade", "surface": "compacted", "lit": "no", "length_m": 48.41, "type_element": "Way", "__fid": 121199}, "geometry": {"type": "LineString", "coordinates": [[2.4283092, 48.84057560000002], [2.4289633, 48.8405194]]}}, {"type": "Feature", "properties": {"highway": "path", "footway": null, "name": null, "surface": null, "lit": null, "length_m": 81.58, "type_element": "Way", "__fid": 121207}, "geometry": {"type": "LineString", "coordinates": [[2.428837, 48.83648], [2.4290035, 48.8365499], [2.4295002, 48.8367897], [2.4296923, 48.83694069999998]]}}, {"type": "Feature", "properties": {"highway": "path", "footway": null, "name": null, "surface": "dirt", "lit": null, "length_m": 96.99, "type_element": "Way", "__fid": 121208}, "geometry": {"type": "LineString", "coordinates": [[2.428837, 48.83648], [2.4290363, 48.836423], [2.4295462, 48.8357765]]}}, {"type": "Feature", "properties": {"highway": "path", "footway": null, "name": null, "surface": "compacted", "lit": "no", "length_m": 110.16, "type_element": "Way", "__fid": 121212}, "geometry": {"type": "LineString", "coordinates": [[2.4302225, 48.8411391], [2.4295298, 48.8409845], [2.4290699, 48.8408673], [2.4288199, 48.84078909999999]]}}, {"type": "Feature", "properties": {"highway": "path", "footway": null, "name": null, "surface": "compacted", "lit": "no", "length_m": 31.88, "type_element": "Way", "__fid": 121213}, "geometry": {"type": "LineString", "coordinates": [[2.4288199, 48.84078909999999], [2.4289065, 48.840659500000015], [2.4289633, 48.8405194]]}}, {"type": "Feature", "properties": {"highway": "path", "footway": null, "name": null, "surface": "compacted", "lit": null, "length_m": 40.46, "type_element": "Way", "__fid": 121214}, "geometry": {"type": "LineString", "coordinates": [[2.4289633, 48.8405194], [2.4289414, 48.8403266], [2.4288429, 48.840169]]}}, {"type": "Feature", "properties": {"highway": "service", "footway": null, "name": "Route de la Tourelle", "surface": "asphalt", "lit": "no", "length_m": 107.97, "type_element": "Way", "__fid": 121215}, "geometry": {"type": "LineString", "coordinates": [[2.4288429, 48.840169], [2.4293701, 48.83988429999999], [2.4296913, 48.8396519], [2.4298775, 48.83948560000002]]}}, {"type": "Feature", "properties": {"highway": "path", "footway": null, "name": null, "surface": null, "lit": null, "length_m": 163.05, "type_element": "Way", "__fid": 121217}, "geometry": {"type": "LineString", "coordinates": [[2.4306778, 48.839714], [2.4302169, 48.8400182], [2.4300962, 48.840129400000016], [2.429989, 48.8402653], [2.4299621, 48.8403183], [2.429592, 48.8404048], [2.4292782, 48.8404507], [2.4289633, 48.8405194]]}}, {"type": "Feature", "properties": {"highway": "track", "footway": null, "name": "Route de l'Esplanade", "surface": "compacted", "lit": "yes", "length_m": 181.06, "type_element": "Way", "__fid": 121218}, "geometry": {"type": "LineString", "coordinates": [[2.4289633, 48.8405194], [2.4306801, 48.8404066], [2.4314213, 48.840392]]}}, {"type": "Feature", "properties": {"highway": "path", "footway": null, "name": null, "surface": null, "lit": null, "length_m": 69.29, "type_element": "Way", "__fid": 121224}, "geometry": {"type": "LineString", "coordinates": [[2.4291691, 48.8372648], [2.4292155, 48.8375568], [2.4293472, 48.8378747]]}}, {"type": "Feature", "properties": {"highway": "path", "footway": null, "name": null, "surface": null, "lit": null, "length_m": 56.66, "type_element": "Way", "__fid": 121225}, "geometry": {"type": "LineString", "coordinates": [[2.4296923, 48.83694069999998], [2.429189, 48.83714710000001], [2.4291691, 48.8372648]]}}, {"type": "Feature", "properties": {"highway": "path", "footway": null, "name": null, "surface": null, "lit": null, "length_m": 165.56, "type_element": "Way", "__fid": 121229}, "geometry": {"type": "LineString", "coordinates": [[2.4293472, 48.8378747], [2.4294936, 48.8382281], [2.4300788, 48.839282099999984]]}}, {"type": "Feature", "properties": {"highway": "path", "footway": null, "name": "Allée Royale", "surface": "compacted", "lit": null, "length_m": 75.13, "type_element": "Way", "__fid": 121235}, "geometry": {"type": "LineString", "coordinates": [[2.4295462, 48.8357765], [2.4305524, 48.8356529]]}}, {"type": "Feature", "properties": {"highway": "path", "footway": null, "name": null, "surface": null, "lit": null, "length_m": 79.32, "type_element": "Way", "__fid": 121242}, "geometry": {"type": "LineString", "coordinates": [[2.4296923, 48.83694069999998], [2.4297718, 48.8370032], [2.4299506, 48.8370512], [2.4307132, 48.8370208]]}}, {"type": "Feature", "properties": {"highway": "path", "footway": null, "name": null, "surface": "compacted", "lit": null, "length_m": 10.74, "type_element": "Way", "__fid": 121243}, "geometry": {"type": "LineString", "coordinates": [[2.4298775, 48.83948560000002], [2.4297408, 48.8394512]]}}, {"type": "Feature", "properties": {"highway": "footway", "footway": "crossing", "name": null, "surface": null, "lit": null, "length_m": 26.72, "type_element": "Way", "__fid": 121244}, "geometry": {"type": "LineString", "coordinates": [[2.4297408, 48.8394512], [2.4298758, 48.839228]]}}, {"type": "Feature", "properties": {"highway": "path", "footway": null, "name": "Avenue Daumesnil", "surface": "asphalt", "lit": null, "length_m": 16.07, "type_element": "Way", "__fid": 121250}, "geometry": {"type": "LineString", "coordinates": [[2.4298758, 48.839228], [2.4300788, 48.839282099999984]]}}, {"type": "Feature", "properties": {"highway": "path", "footway": null, "name": null, "surface": "compacted", "lit": null, "length_m": 13.41, "type_element": "Way", "__fid": 121251}, "geometry": {"type": "LineString", "coordinates": [[2.430047, 48.83953060000002], [2.4298775, 48.83948560000002]]}}, {"type": "Feature", "properties": {"highway": "service", "footway": null, "name": "Route de la Tourelle", "surface": "asphalt", "lit": null, "length_m": 27.02, "type_element": "Way", "__fid": 121252}, "geometry": {"type": "LineString", "coordinates": [[2.4298775, 48.83948560000002], [2.4300788, 48.839282099999984]]}}, {"type": "Feature", "properties": {"highway": "path", "footway": null, "name": null, "surface": "compacted", "lit": null, "length_m": 48.47, "type_element": "Way", "__fid": 121253}, "geometry": {"type": "LineString", "coordinates": [[2.4306598, 48.8396931], [2.430047, 48.83953060000002]]}}, {"type": "Feature", "properties": {"highway": "footway", "footway": "crossing", "name": null, "surface": null, "lit": null, "length_m": 26.55, "type_element": "Way", "__fid": 121254}, "geometry": {"type": "LineString", "coordinates": [[2.4301864, 48.8393103], [2.430047, 48.83953060000002]]}}, {"type": "Feature", "properties": {"highway": "path", "footway": null, "name": "Avenue Daumesnil", "surface": "asphalt", "lit": null, "length_m": 8.5, "type_element": "Way", "__fid": 121256}, "geometry": {"type": "LineString", "coordinates": [[2.4300788, 48.839282099999984], [2.4301864, 48.8393103]]}}, {"type": "Feature", "properties": {"highway": "service", "footway": null, "name": "Route de la Tourelle", "surface": "asphalt", "lit": "yes", "length_m": 133.38, "type_element": "Way", "__fid": 121257}, "geometry": {"type": "LineString", "coordinates": [[2.4300788, 48.839282099999984], [2.4303834, 48.8388363], [2.4305226, 48.8385737], [2.4306909, 48.8381559]]}}, {"type": "Feature", "properties": {"highway": "path", "footway": null, "name": "Avenue Daumesnil", "surface": "asphalt", "lit": null, "length_m": 144.82, "type_element": "Way", "__fid": 121259}, "geometry": {"type": "LineString", "coordinates": [[2.4301864, 48.8393103], [2.4320202, 48.8397909]]}}, {"type": "Feature", "properties": {"highway": "track", "footway": null, "name": null, "surface": "compacted", "lit": "no", "length_m": 48.21, "type_element": "Way", "__fid": 121262}, "geometry": {"type": "LineString", "coordinates": [[2.4308679, 48.8410583], [2.4302225, 48.8411391]]}}, {"type": "Feature", "properties": {"highway": "service", "footway": null, "name": "Route de la Tourelle", "surface": "asphalt", "lit": "yes", "length_m": 100.92, "type_element": "Way", "__fid": 121265}, "geometry": {"type": "LineString", "coordinates": [[2.4305524, 48.8356529], [2.4303244, 48.8347579]]}}, {"type": "Feature", "properties": {"highway": "service", "footway": null, "name": "Route de la Tourelle", "surface": "asphalt", "lit": "yes", "length_m": 152.73, "type_element": "Way", "__fid": 121277}, "geometry": {"type": "LineString", "coordinates": [[2.4307132, 48.8370208], [2.4307059, 48.8365608], [2.4305524, 48.8356529]]}}, {"type": "Feature", "properties": {"highway": "path", "footway": null, "name": null, "surface": "compacted", "lit": null, "length_m": 48.9, "type_element": "Way", "__fid": 121278}, "geometry": {"type": "LineString", "coordinates": [[2.4305524, 48.8356529], [2.4310054, 48.8355971], [2.4311987, 48.8355514]]}}, {"type": "Feature", "properties": {"highway": "path", "footway": null, "name": null, "surface": "compacted", "lit": null, "length_m": 109.98, "type_element": "Way", "__fid": 121283}, "geometry": {"type": "LineString", "coordinates": [[2.432056, 48.8400505], [2.4319567, 48.8400347], [2.4306598, 48.8396931]]}}, {"type": "Feature", "properties": {"highway": "footway", "footway": null, "name": null, "surface": null, "lit": null, "length_m": 2.67, "type_element": "Way", "__fid": 121284}, "geometry": {"type": "LineString", "coordinates": [[2.4306778, 48.839714], [2.4306598, 48.8396931]]}}, {"type": "Feature", "properties": {"highway": "service", "footway": null, "name": "Route de la Tourelle", "surface": "asphalt", "lit": "yes", "length_m": 118.69, "type_element": "Way", "__fid": 121285}, "geometry": {"type": "LineString", "coordinates": [[2.4306909, 48.8381559], [2.430723, 48.8376398], [2.4307143, 48.8370889]]}}, {"type": "Feature", "properties": {"highway": "path", "footway": null, "name": "Route de l'Étang", "surface": "ground", "lit": null, "length_m": 58.47, "type_element": "Way", "__fid": 121286}, "geometry": {"type": "LineString", "coordinates": [[2.4312515, 48.83778559999999], [2.4310443, 48.837954], [2.4308695, 48.83806389999998], [2.4306909, 48.8381559]]}}, {"type": "Feature", "properties": {"highway": "footway", "footway": null, "name": null, "surface": null, "lit": null, "length_m": 93.61, "type_element": "Way", "__fid": 121287}, "geometry": {"type": "LineString", "coordinates": [[2.4314213, 48.840392], [2.4309947, 48.84008050000001], [2.4306778, 48.839714]]}}, {"type": "Feature", "properties": {"highway": "service", "footway": null, "name": "Route de la Tourelle", "surface": "asphalt", "lit": "yes", "length_m": 7.57, "type_element": "Way", "__fid": 121288}, "geometry": {"type": "LineString", "coordinates": [[2.4307143, 48.8370889], [2.4307132, 48.8370208]]}}, {"type": "Feature", "properties": {"highway": "path", "footway": null, "name": null, "surface": "dirt", "lit": null, "length_m": 57.28, "type_element": "Way", "__fid": 121289}, "geometry": {"type": "LineString", "coordinates": [[2.4314929, 48.8370836], [2.4312562, 48.837081], [2.431055, 48.8370951], [2.4308056, 48.837096], [2.4307143, 48.8370889]]}}, {"type": "Feature", "properties": {"highway": "path", "footway": null, "name": null, "surface": "compacted", "lit": null, "length_m": 62.7, "type_element": "Way", "__fid": 121296}, "geometry": {"type": "LineString", "coordinates": [[2.4311987, 48.8355514], [2.4311214, 48.8353689], [2.4310302, 48.8352113], [2.4308726, 48.8350339]]}}, {"type": "Feature", "properties": {"highway": "path", "footway": null, "name": null, "surface": "dirt", "lit": "no", "length_m": 82.34, "type_element": "Way", "__fid": 121298}, "geometry": {"type": "LineString", "coordinates": [[2.4308679, 48.8410583], [2.4309615, 48.8409756], [2.4310576, 48.840863], [2.4311465, 48.840738800000025], [2.4314428, 48.8404239]]}}, {"type": "Feature", "properties": {"highway": "track", "footway": null, "name": null, "surface": "compacted", "lit": "no", "length_m": 68.29, "type_element": "Way", "__fid": 121299}, "geometry": {"type": "LineString", "coordinates": [[2.4317941, 48.8410009], [2.4315466, 48.84101059999998], [2.4308679, 48.8410583]]}}, {"type": "Feature", "properties": {"highway": "pedestrian", "footway": null, "name": "Avenue du Polygone", "surface": "asphalt", "lit": "yes", "length_m": 42.9, "type_element": "Way", "__fid": 121304}, "geometry": {"type": "LineString", "coordinates": [[2.4312758, 48.8355358], [2.4311462, 48.8352153], [2.4311447, 48.8351612]]}}, {"type": "Feature", "properties": {"highway": "path", "footway": null, "name": null, "surface": "compacted", "lit": null, "length_m": 171.73, "type_element": "Way", "__fid": 121309}, "geometry": {"type": "LineString", "coordinates": [[2.4314929, 48.8370836], [2.4311987, 48.8355514]]}}, {"type": "Feature", "properties": {"highway": "path", "footway": null, "name": null, "surface": "compacted", "lit": null, "length_m": 5.92, "type_element": "Way", "__fid": 121310}, "geometry": {"type": "LineString", "coordinates": [[2.4311987, 48.8355514], [2.4312758, 48.8355358]]}}, {"type": "Feature", "properties": {"highway": "pedestrian", "footway": null, "name": "Avenue du Polygone", "surface": "asphalt", "lit": "yes", "length_m": 12.88, "type_element": "Way", "__fid": 121311}, "geometry": {"type": "LineString", "coordinates": [[2.4313458, 48.835642], [2.4312758, 48.8355358]]}}, {"type": "Feature", "properties": {"highway": "path", "footway": null, "name": null, "surface": "compacted", "lit": null, "length_m": 7.34, "type_element": "Way", "__fid": 121312}, "geometry": {"type": "LineString", "coordinates": [[2.4312758, 48.8355358], [2.4313714, 48.8355164]]}}, {"type": "Feature", "properties": {"highway": "path", "footway": null, "name": null, "surface": null, "lit": null, "length_m": 85.3, "type_element": "Way", "__fid": 121313}, "geometry": {"type": "LineString", "coordinates": [[2.4312515, 48.83778559999999], [2.4311599, 48.8377859], [2.4310719, 48.8377706], [2.4310463, 48.8377159], [2.431034, 48.8376476], [2.4310365, 48.83757030000001], [2.4310548, 48.83749550000002], [2.4311062, 48.83745049999999], [2.4311783, 48.837434400000014], [2.4314007, 48.837444], [2.4315674, 48.8374727]]}}, {"type": "Feature", "properties": {"highway": "path", "footway": null, "name": "Route de l'Étang", "surface": "ground", "lit": null, "length_m": 33.75, "type_element": "Way", "__fid": 121314}, "geometry": {"type": "LineString", "coordinates": [[2.4315888, 48.83758409999998], [2.4315324, 48.8376], [2.4314426, 48.837646800000016], [2.4312515, 48.83778559999999]]}}, {"type": "Feature", "properties": {"highway": "pedestrian", "footway": null, "name": "Avenue du Polygone", "surface": "asphalt", "lit": "yes", "length_m": 216.05, "type_element": "Way", "__fid": 121319}, "geometry": {"type": "LineString", "coordinates": [[2.4313458, 48.835642], [2.4317299, 48.837568400000016]]}}, {"type": "Feature", "properties": {"highway": "pedestrian", "footway": null, "name": "Avenue du Polygone", "surface": "asphalt", "lit": "yes", "length_m": 14.09, "type_element": "Way", "__fid": 121320}, "geometry": {"type": "LineString", "coordinates": [[2.4313714, 48.8355164], [2.4313458, 48.835642]]}}, {"type": "Feature", "properties": {"highway": "path", "footway": null, "name": null, "surface": "compacted", "lit": null, "length_m": 191.13, "type_element": "Way", "__fid": 121321}, "geometry": {"type": "LineString", "coordinates": [[2.4313458, 48.835642], [2.4314806, 48.835609199999986], [2.4339041, 48.83532970000001]]}}, {"type": "Feature", "properties": {"highway": "footway", "footway": null, "name": null, "surface": null, "lit": null, "length_m": 3.88, "type_element": "Way", "__fid": 121326}, "geometry": {"type": "LineString", "coordinates": [[2.4314428, 48.8404239], [2.4314213, 48.840392]]}}, {"type": "Feature", "properties": {"highway": "track", "footway": null, "name": "Route de l'Esplanade", "surface": "compacted", "lit": "yes", "length_m": 29.25, "type_element": "Way", "__fid": 121327}, "geometry": {"type": "LineString", "coordinates": [[2.4314213, 48.840392], [2.4318197, 48.84038540000002]]}}, {"type": "Feature", "properties": {"highway": "footway", "footway": null, "name": null, "surface": null, "lit": null, "length_m": 63.44, "type_element": "Way", "__fid": 121333}, "geometry": {"type": "LineString", "coordinates": [[2.4318492, 48.8409239], [2.4316777, 48.840772600000015], [2.4314428, 48.8404239]]}}, {"type": "Feature", "properties": {"highway": "path", "footway": null, "name": null, "surface": "compacted", "lit": null, "length_m": 43.61, "type_element": "Way", "__fid": 121334}, "geometry": {"type": "LineString", "coordinates": [[2.4315674, 48.8374727], [2.4314929, 48.8370836]]}}, {"type": "Feature", "properties": {"highway": "path", "footway": null, "name": null, "surface": "compacted", "lit": null, "length_m": 12.49, "type_element": "Way", "__fid": 121340}, "geometry": {"type": "LineString", "coordinates": [[2.4315888, 48.83758409999998], [2.4315674, 48.8374727]]}}, {"type": "Feature", "properties": {"highway": "path", "footway": null, "name": null, "surface": "compacted", "lit": null, "length_m": 247.43, "type_element": "Way", "__fid": 121341}, "geometry": {"type": "LineString", "coordinates": [[2.4320202, 48.8397909], [2.4319777, 48.8395335], [2.4317832, 48.8386199], [2.4315888, 48.83758409999998]]}}, {"type": "Feature", "properties": {"highway": "path", "footway": null, "name": "Route de l'Étang", "surface": "ground", "lit": null, "length_m": 10.5, "type_element": "Way", "__fid": 121342}, "geometry": {"type": "LineString", "coordinates": [[2.4317299, 48.837568400000016], [2.4315888, 48.83758409999998]]}}, {"type": "Feature", "properties": {"highway": "path", "footway": null, "name": null, "surface": null, "lit": "no", "length_m": 22.07, "type_element": "Way", "__fid": 121345}, "geometry": {"type": "LineString", "coordinates": [[2.4317941, 48.8410009], [2.4317083, 48.8410574], [2.4316717, 48.8411124], [2.431677, 48.8411707]]}}, {"type": "Feature", "properties": {"highway": "pedestrian", "footway": null, "name": "Avenue du Polygone", "surface": "asphalt", "lit": "yes", "length_m": 148.87, "type_element": "Way", "__fid": 121346}, "geometry": {"type": "LineString", "coordinates": [[2.4317299, 48.837568400000016], [2.4319808, 48.838897]]}}, {"type": "Feature", "properties": {"highway": "path", "footway": null, "name": null, "surface": null, "lit": null, "length_m": 9.47, "type_element": "Way", "__fid": 121349}, "geometry": {"type": "LineString", "coordinates": [[2.4317941, 48.8410009], [2.4318492, 48.8409239]]}}, {"type": "Feature", "properties": {"highway": "track", "footway": null, "name": null, "surface": "compacted", "lit": "no", "length_m": 12.46, "type_element": "Way", "__fid": 121350}, "geometry": {"type": "LineString", "coordinates": [[2.4319635, 48.84099420000001], [2.4317941, 48.8410009]]}}, {"type": "Feature", "properties": {"highway": "track", "footway": null, "name": "Route de l'Esplanade", "surface": "compacted", "lit": "yes", "length_m": 40.88, "type_element": "Way", "__fid": 121351}, "geometry": {"type": "LineString", "coordinates": [[2.4318197, 48.84038540000002], [2.4321061, 48.8404238], [2.4323394, 48.8405063]]}}, {"type": "Feature", "properties": {"highway": "footway", "footway": null, "name": null, "surface": "compacted", "lit": null, "length_m": 31.3, "type_element": "Way", "__fid": 121352}, "geometry": {"type": "LineString", "coordinates": [[2.4318197, 48.84038540000002], [2.431839, 48.8404288], [2.4320369, 48.8406257]]}}, {"type": "Feature", "properties": {"highway": "footway", "footway": null, "name": null, "surface": "compacted", "lit": null, "length_m": 32.99, "type_element": "Way", "__fid": 121353}, "geometry": {"type": "LineString", "coordinates": [[2.4321087, 48.8401582], [2.4318197, 48.84038540000002]]}}, {"type": "Feature", "properties": {"highway": "footway", "footway": null, "name": null, "surface": null, "lit": null, "length_m": 11.47, "type_element": "Way", "__fid": 121355}, "geometry": {"type": "LineString", "coordinates": [[2.4319635, 48.84099420000001], [2.4318492, 48.8409239]]}}, {"type": "Feature", "properties": {"highway": "pedestrian", "footway": null, "name": "Avenue du Polygone", "surface": "asphalt", "lit": "yes", "length_m": 118.15, "type_element": "Way", "__fid": 121363}, "geometry": {"type": "LineString", "coordinates": [[2.4319808, 48.838897], [2.4321477, 48.839827], [2.4321621, 48.8399527]]}}, {"type": "Feature", "properties": {"highway": "service", "footway": null, "name": null, "surface": "asphalt", "lit": null, "length_m": 49.69, "type_element": "Way", "__fid": 121364}, "geometry": {"type": "LineString", "coordinates": [[2.4319808, 48.838897], [2.4326498, 48.8388283]]}}, {"type": "Feature", "properties": {"highway": "footway", "footway": null, "name": null, "surface": null, "lit": "no", "length_m": 22.78, "type_element": "Way", "__fid": 121365}, "geometry": {"type": "LineString", "coordinates": [[2.4322065, 48.841121], [2.4321178, 48.8410825], [2.4319635, 48.84099420000001]]}}, {"type": "Feature", "properties": {"highway": "footway", "footway": null, "name": null, "surface": "compacted", "lit": null, "length_m": 13.27, "type_element": "Way", "__fid": 121366}, "geometry": {"type": "LineString", "coordinates": [[2.4321438, 48.8409854], [2.4319635, 48.84099420000001]]}}, {"type": "Feature", "properties": {"highway": "path", "footway": null, "name": "Avenue Daumesnil", "surface": "asphalt", "lit": null, "length_m": 4.4, "type_element": "Way", "__fid": 121367}, "geometry": {"type": "LineString", "coordinates": [[2.4320202, 48.8397909], [2.4320748, 48.8398072]]}}, {"type": "Feature", "properties": {"highway": "footway", "footway": null, "name": null, "surface": null, "lit": null, "length_m": 47.0, "type_element": "Way", "__fid": 121368}, "geometry": {"type": "LineString", "coordinates": [[2.4321438, 48.8409854], [2.4321299, 48.840944], [2.4320964, 48.840903], [2.4319564, 48.8408299], [2.4319457, 48.8407822], [2.4320369, 48.8406257]]}}, {"type": "Feature", "properties": {"highway": "footway", "footway": null, "name": null, "surface": null, "lit": null, "length_m": 26.24, "type_element": "Way", "__fid": 121369}, "geometry": {"type": "LineString", "coordinates": [[2.4320369, 48.8406257], [2.4320908, 48.84062080000001], [2.4323394, 48.8405063]]}}, {"type": "Feature", "properties": {"highway": "path", "footway": null, "name": null, "surface": "compacted", "lit": null, "length_m": 18.73, "type_element": "Way", "__fid": 121370}, "geometry": {"type": "LineString", "coordinates": [[2.4323051, 48.8400871], [2.432056, 48.8400505]]}}, {"type": "Feature", "properties": {"highway": "footway", "footway": null, "name": null, "surface": "compacted", "lit": null, "length_m": 12.58, "type_element": "Way", "__fid": 121371}, "geometry": {"type": "LineString", "coordinates": [[2.432056, 48.8400505], [2.4321087, 48.8401582]]}}, {"type": "Feature", "properties": {"highway": "footway", "footway": null, "name": null, "surface": "compacted", "lit": null, "length_m": 14.02, "type_element": "Way", "__fid": 121374}, "geometry": {"type": "LineString", "coordinates": [[2.4322996, 48.8401536], [2.4321087, 48.8401582]]}}, {"type": "Feature", "properties": {"highway": "footway", "footway": null, "name": null, "surface": "compacted", "lit": null, "length_m": 12.33, "type_element": "Way", "__fid": 121377}, "geometry": {"type": "LineString", "coordinates": [[2.4323094, 48.8409667], [2.4321438, 48.8409854]]}}, {"type": "Feature", "properties": {"highway": "footway", "footway": "sidewalk", "name": null, "surface": "compacted", "lit": "yes", "length_m": 55.48, "type_element": "Way", "__fid": 121380}, "geometry": {"type": "LineString", "coordinates": [[2.4322065, 48.841121], [2.4322196, 48.841135], [2.432236, 48.8411216], [2.4325572, 48.841088099999986], [2.4326995, 48.841058699999984], [2.4328245, 48.841026599999985], [2.4328448, 48.8410005], [2.4328391, 48.8409664]]}}, {"type": "Feature", "properties": {"highway": "footway", "footway": null, "name": null, "surface": null, "lit": "no", "length_m": 18.75, "type_element": "Way", "__fid": 121381}, "geometry": {"type": "LineString", "coordinates": [[2.4322065, 48.841121], [2.4323094, 48.8409667]]}}, {"type": "Feature", "properties": {"highway": "path", "footway": null, "name": "Avenue Daumesnil", "surface": "asphalt", "lit": null, "length_m": 13.07, "type_element": "Way", "__fid": 121382}, "geometry": {"type": "LineString", "coordinates": [[2.4322259, 48.83985269999999], [2.4323853, 48.83990510000002]]}}, {"type": "Feature", "properties": {"highway": "footway", "footway": null, "name": null, "surface": "compacted", "lit": null, "length_m": 33.41, "type_element": "Way", "__fid": 121386}, "geometry": {"type": "LineString", "coordinates": [[2.4322996, 48.8401536], [2.4323712, 48.84025], [2.4324191, 48.840440499999985]]}}, {"type": "Feature", "properties": {"highway": "footway", "footway": null, "name": null, "surface": "compacted", "lit": null, "length_m": 7.41, "type_element": "Way", "__fid": 121387}, "geometry": {"type": "LineString", "coordinates": [[2.4323051, 48.8400871], [2.4322996, 48.8401536]]}}, {"type": "Feature", "properties": {"highway": "path", "footway": null, "name": null, "surface": "compacted", "lit": null, "length_m": 137.79, "type_element": "Way", "__fid": 121388}, "geometry": {"type": "LineString", "coordinates": [[2.4340547, 48.84053529999998], [2.4324234, 48.84010880000001], [2.4323051, 48.8400871]]}}, {"type": "Feature", "properties": {"highway": "footway", "footway": "crossing", "name": null, "surface": "asphalt", "lit": "yes", "length_m": 21.12, "type_element": "Way", "__fid": 121389}, "geometry": {"type": "LineString", "coordinates": [[2.4323853, 48.83990510000002], [2.4323335, 48.8399997], [2.4323051, 48.8400871]]}}, {"type": "Feature", "properties": {"highway": "footway", "footway": null, "name": null, "surface": "compacted", "lit": null, "length_m": 36.37, "type_element": "Way", "__fid": 121390}, "geometry": {"type": "LineString", "coordinates": [[2.4327881, 48.8408852], [2.4325958, 48.8409293], [2.4323094, 48.8409667]]}}, {"type": "Feature", "properties": {"highway": "track", "footway": null, "name": "Route de l'Esplanade", "surface": "compacted", "lit": "yes", "length_m": 10.52, "type_element": "Way", "__fid": 121391}, "geometry": {"type": "LineString", "coordinates": [[2.4323394, 48.8405063], [2.4324597, 48.8405577]]}}, {"type": "Feature", "properties": {"highway": "footway", "footway": null, "name": null, "surface": null, "lit": null, "length_m": 9.37, "type_element": "Way", "__fid": 121392}, "geometry": {"type": "LineString", "coordinates": [[2.4323394, 48.8405063], [2.4324191, 48.840440499999985]]}}, {"type": "Feature", "properties": {"highway": "path", "footway": null, "name": "Avenue Daumesnil", "surface": "asphalt", "lit": null, "length_m": 139.27, "type_element": "Way", "__fid": 121396}, "geometry": {"type": "LineString", "coordinates": [[2.4323853, 48.83990510000002], [2.4341561, 48.840355]]}}, {"type": "Feature", "properties": {"highway": "footway", "footway": null, "name": null, "surface": null, "lit": null, "length_m": 24.4, "type_element": "Way", "__fid": 121397}, "geometry": {"type": "LineString", "coordinates": [[2.4326852, 48.83981049999998], [2.4323853, 48.83990510000002]]}}, {"type": "Feature", "properties": {"highway": "footway", "footway": null, "name": null, "surface": "compacted", "lit": null, "length_m": 13.37, "type_element": "Way", "__fid": 121399}, "geometry": {"type": "LineString", "coordinates": [[2.4324191, 48.840440499999985], [2.4324597, 48.8405577]]}}, {"type": "Feature", "properties": {"highway": "track", "footway": null, "name": "Route de l'Esplanade", "surface": "compacted", "lit": "yes", "length_m": 44.59, "type_element": "Way", "__fid": 121400}, "geometry": {"type": "LineString", "coordinates": [[2.4324597, 48.8405577], [2.4327421, 48.8407732], [2.4327881, 48.8408852]]}}, {"type": "Feature", "properties": {"highway": "service", "footway": null, "name": null, "surface": null, "lit": null, "length_m": 27.43, "type_element": "Way", "__fid": 121407}, "geometry": {"type": "LineString", "coordinates": [[2.4329856, 48.8388293], [2.4326545, 48.8388548], [2.4326498, 48.8388283]]}}, {"type": "Feature", "properties": {"highway": "service", "footway": null, "name": null, "surface": null, "lit": null, "length_m": 105.7, "type_element": "Way", "__fid": 121408}, "geometry": {"type": "LineString", "coordinates": [[2.4326498, 48.8388283], [2.4325463, 48.8382468], [2.4330957, 48.8382044]]}}, {"type": "Feature", "properties": {"highway": "footway", "footway": null, "name": null, "surface": "compacted", "lit": null, "length_m": 85.97, "type_element": "Way", "__fid": 121409}, "geometry": {"type": "LineString", "coordinates": [[2.4338041, 48.8399381], [2.4330268, 48.8399201], [2.4328732, 48.8399043], [2.4327598, 48.8398617], [2.4326852, 48.83981049999998]]}}, {"type": "Feature", "properties": {"highway": "footway", "footway": null, "name": null, "surface": null, "lit": null, "length_m": 113.76, "type_element": "Way", "__fid": 121410}, "geometry": {"type": "LineString", "coordinates": [[2.4337376, 48.8392968], [2.4332582, 48.8393498], [2.433004, 48.8394137], [2.4328343, 48.8394766], [2.4326757, 48.8395641], [2.4326427, 48.8396117], [2.4326262, 48.83968140000001], [2.4326852, 48.83981049999998]]}}, {"type": "Feature", "properties": {"highway": "track", "footway": null, "name": "Route de l'Esplanade", "surface": "compacted", "lit": "yes", "length_m": 9.77, "type_element": "Way", "__fid": 121416}, "geometry": {"type": "LineString", "coordinates": [[2.4327881, 48.8408852], [2.4328391, 48.8409664]]}}, {"type": "Feature", "properties": {"highway": "footway", "footway": null, "name": null, "surface": "compacted", "lit": "yes", "length_m": 1.77, "type_element": "Way", "__fid": 121417}, "geometry": {"type": "LineString", "coordinates": [[2.4327881, 48.8408852], [2.4328108, 48.8408799]]}}, {"type": "Feature", "properties": {"highway": "footway", "footway": "sidewalk", "name": null, "surface": "compacted", "lit": "yes", "length_m": 9.84, "type_element": "Way", "__fid": 121419}, "geometry": {"type": "LineString", "coordinates": [[2.4328391, 48.8409664], [2.4328108, 48.8408799]]}}, {"type": "Feature", "properties": {"highway": "footway", "footway": null, "name": null, "surface": "compacted", "lit": "yes", "length_m": 96.41, "type_element": "Way", "__fid": 121420}, "geometry": {"type": "LineString", "coordinates": [[2.4328108, 48.8408799], [2.4329473, 48.8408483], [2.4335599, 48.840792], [2.434108, 48.84075840000001]]}}, {"type": "Feature", "properties": {"highway": "track", "footway": null, "name": "Route de l'Esplanade", "surface": "compacted", "lit": "yes", "length_m": 9.24, "type_element": "Way", "__fid": 121423}, "geometry": {"type": "LineString", "coordinates": [[2.4328391, 48.8409664], [2.4328861, 48.8410435]]}}, {"type": "Feature", "properties": {"highway": "service", "footway": null, "name": null, "surface": null, "lit": null, "length_m": 28.94, "type_element": "Way", "__fid": 121424}, "geometry": {"type": "LineString", "coordinates": [[2.4329315, 48.8372704], [2.4328861, 48.8370119]]}}, {"type": "Feature", "properties": {"highway": "service", "footway": null, "name": null, "surface": null, "lit": null, "length_m": 49.07, "type_element": "Way", "__fid": 121425}, "geometry": {"type": "LineString", "coordinates": [[2.4328861, 48.8370119], [2.4328489, 48.8368003], [2.4331924, 48.836774]]}}, {"type": "Feature", "properties": {"highway": "service", "footway": null, "name": null, "surface": null, "lit": null, "length_m": 124.08, "type_element": "Way", "__fid": 121426}, "geometry": {"type": "LineString", "coordinates": [[2.4328861, 48.8370119], [2.4345621, 48.8368666]]}}, {"type": "Feature", "properties": {"highway": "service", "footway": null, "name": null, "surface": null, "lit": null, "length_m": 104.55, "type_element": "Way", "__fid": 121427}, "geometry": {"type": "LineString", "coordinates": [[2.4330957, 48.8382044], [2.4329315, 48.8372704]]}}, {"type": "Feature", "properties": {"highway": "service", "footway": null, "name": null, "surface": null, "lit": null, "length_m": 124.07, "type_element": "Way", "__fid": 121428}, "geometry": {"type": "LineString", "coordinates": [[2.4329315, 48.8372704], [2.4346091, 48.8371339]]}}, {"type": "Feature", "properties": {"highway": "service", "footway": null, "name": null, "surface": null, "lit": null, "length_m": 109.55, "type_element": "Way", "__fid": 121433}, "geometry": {"type": "LineString", "coordinates": [[2.4341178, 48.83902469999999], [2.4331156, 48.8391153], [2.4330278, 48.8390741], [2.4329856, 48.8388293]]}}, {"type": "Feature", "properties": {"highway": "service", "footway": null, "name": null, "surface": null, "lit": null, "length_m": 16.04, "type_element": "Way", "__fid": 121434}, "geometry": {"type": "LineString", "coordinates": [[2.4329856, 48.8388293], [2.4332026, 48.83881210000001]]}}, {"type": "Feature", "properties": {"highway": "service", "footway": null, "name": null, "surface": null, "lit": null, "length_m": 68.03, "type_element": "Way", "__fid": 121441}, "geometry": {"type": "LineString", "coordinates": [[2.4332026, 48.83881210000001], [2.4330957, 48.8382044]]}}, {"type": "Feature", "properties": {"highway": "service", "footway": null, "name": null, "surface": null, "lit": null, "length_m": 40.0, "type_element": "Way", "__fid": 121442}, "geometry": {"type": "LineString", "coordinates": [[2.4331924, 48.836774], [2.4331255, 48.836417]]}}, {"type": "Feature", "properties": {"highway": "service", "footway": null, "name": null, "surface": null, "lit": null, "length_m": 71.22, "type_element": "Way", "__fid": 121443}, "geometry": {"type": "LineString", "coordinates": [[2.4331924, 48.836774], [2.4341562, 48.8367001]]}}, {"type": "Feature", "properties": {"highway": "service", "footway": null, "name": null, "surface": null, "lit": null, "length_m": 63.31, "type_element": "Way", "__fid": 121444}, "geometry": {"type": "LineString", "coordinates": [[2.4332026, 48.83881210000001], [2.434059, 48.8387446]]}}, {"type": "Feature", "properties": {"highway": "path", "footway": null, "name": null, "surface": "compacted", "lit": "yes", "length_m": 16.41, "type_element": "Way", "__fid": 121449}, "geometry": {"type": "LineString", "coordinates": [[2.4336513, 48.841145099999984], [2.4336444, 48.8410943], [2.433789, 48.8410796]]}}, {"type": "Feature", "properties": {"highway": "footway", "footway": null, "name": null, "surface": "compacted", "lit": null, "length_m": 79.88, "type_element": "Way", "__fid": 121452}, "geometry": {"type": "LineString", "coordinates": [[2.4337376, 48.8392968], [2.4337004, 48.8393611], [2.4336239, 48.8394261], [2.4335752, 48.8395018], [2.4335687, 48.839665300000014], [2.4335851, 48.8397319], [2.4336345, 48.839805], [2.4338041, 48.8399381]]}}, {"type": "Feature", "properties": {"highway": "footway", "footway": null, "name": null, "surface": null, "lit": null, "length_m": 101.58, "type_element": "Way", "__fid": 121453}, "geometry": {"type": "LineString", "coordinates": [[2.4341366, 48.8400074], [2.4339817, 48.8392651], [2.4337376, 48.8392968]]}}, {"type": "Feature", "properties": {"highway": "path", "footway": null, "name": null, "surface": "compacted", "lit": "yes", "length_m": 127.99, "type_element": "Way", "__fid": 121456}, "geometry": {"type": "LineString", "coordinates": [[2.4340323, 48.8422192], [2.4339633, 48.8418497], [2.4338282, 48.8412206], [2.433789, 48.8410796]]}}, {"type": "Feature", "properties": {"highway": "path", "footway": null, "name": null, "surface": "compacted", "lit": "yes", "length_m": 38.55, "type_element": "Way", "__fid": 121457}, "geometry": {"type": "LineString", "coordinates": [[2.433789, 48.8410796], [2.4337672, 48.8410023], [2.43417, 48.840968]]}}, {"type": "Feature", "properties": {"highway": "footway", "footway": null, "name": null, "surface": "compacted", "lit": null, "length_m": 25.59, "type_element": "Way", "__fid": 121458}, "geometry": {"type": "LineString", "coordinates": [[2.4341366, 48.8400074], [2.4338041, 48.8399381]]}}, {"type": "Feature", "properties": {"highway": "path", "footway": null, "name": null, "surface": null, "lit": null, "length_m": 121.47, "type_element": "Way", "__fid": 121463}, "geometry": {"type": "LineString", "coordinates": [[2.4351266, 48.83591659999998], [2.4349429, 48.8358734], [2.4346572, 48.8357842], [2.4345312, 48.8357551], [2.4343421, 48.8357516], [2.4342066, 48.8357145], [2.4340336, 48.8355874], [2.4339665, 48.8355123], [2.4339041, 48.83532970000001]]}}, {"type": "Feature", "properties": {"highway": "service", "footway": null, "name": null, "surface": null, "lit": null, "length_m": 31.44, "type_element": "Way", "__fid": 121468}, "geometry": {"type": "LineString", "coordinates": [[2.4341178, 48.83902469999999], [2.434059, 48.8387446]]}}, {"type": "Feature", "properties": {"highway": "service", "footway": null, "name": null, "surface": null, "lit": null, "length_m": 60.75, "type_element": "Way", "__fid": 121469}, "geometry": {"type": "LineString", "coordinates": [[2.434059, 48.8387446], [2.4348807, 48.8386791]]}}, {"type": "Feature", "properties": {"highway": "footway", "footway": null, "name": null, "surface": "compacted", "lit": "no", "length_m": 125.45, "type_element": "Way", "__fid": 121470}, "geometry": {"type": "LineString", "coordinates": [[2.4340362, 48.8412038], [2.43402, 48.8411211], [2.4355882, 48.8409788]]}}, {"type": "Feature", "properties": {"highway": "footway", "footway": null, "name": null, "surface": "compacted", "lit": "yes", "length_m": 3.32, "type_element": "Way", "__fid": 121471}, "geometry": {"type": "LineString", "coordinates": [[2.4340972, 48.8405456], [2.4340547, 48.84053529999998]]}}, {"type": "Feature", "properties": {"highway": "path", "footway": null, "name": null, "surface": "asphalt", "lit": "yes", "length_m": 25.11, "type_element": "Way", "__fid": 121472}, "geometry": {"type": "LineString", "coordinates": [[2.4340547, 48.84053529999998], [2.434108, 48.84075840000001]]}}, {"type": "Feature", "properties": {"highway": "path", "footway": null, "name": null, "surface": "asphalt", "lit": "yes", "length_m": 2.57, "type_element": "Way", "__fid": 121473}, "geometry": {"type": "LineString", "coordinates": [[2.4340662, 48.840513499999986], [2.4340547, 48.84053529999998]]}}, {"type": "Feature", "properties": {"highway": "service", "footway": null, "name": null, "surface": null, "lit": null, "length_m": 35.04, "type_element": "Way", "__fid": 121474}, "geometry": {"type": "LineString", "coordinates": [[2.4341562, 48.8367001], [2.4341057, 48.83638670000002]]}}, {"type": "Feature", "properties": {"highway": "footway", "footway": null, "name": null, "surface": "compacted", "lit": "yes", "length_m": 23.61, "type_element": "Way", "__fid": 121476}, "geometry": {"type": "LineString", "coordinates": [[2.4341546, 48.84075450000002], [2.4340972, 48.8405456]]}}, {"type": "Feature", "properties": {"highway": "footway", "footway": "crossing", "name": null, "surface": "asphalt", "lit": "yes", "length_m": 21.41, "type_element": "Way", "__fid": 121477}, "geometry": {"type": "LineString", "coordinates": [[2.4340972, 48.8405456], [2.4341942, 48.840364]]}}, {"type": "Feature", "properties": {"highway": "service", "footway": null, "name": null, "surface": "asphalt", "lit": null, "length_m": 61.67, "type_element": "Way", "__fid": 121478}, "geometry": {"type": "LineString", "coordinates": [[2.4345627, 48.8394121], [2.434499, 48.8393495], [2.434452, 48.8393274], [2.4343588, 48.8393106], [2.4342692, 48.8393039], [2.4341999, 48.8392806], [2.4341606, 48.83924670000001], [2.4341178, 48.83902469999999]]}}, {"type": "Feature", "properties": {"highway": "service", "footway": null, "name": null, "surface": null, "lit": null, "length_m": 135.65, "type_element": "Way", "__fid": 121479}, "geometry": {"type": "LineString", "coordinates": [[2.4341178, 48.83902469999999], [2.435237, 48.838925], [2.4351848, 48.8386549], [2.4348807, 48.8386791]]}}, {"type": "Feature", "properties": {"highway": "path", "footway": null, "name": null, "surface": "asphalt", "lit": "yes", "length_m": 5.64, "type_element": "Way", "__fid": 121480}, "geometry": {"type": "LineString", "coordinates": [[2.434108, 48.84075840000001], [2.4341142, 48.840809]]}}, {"type": "Feature", "properties": {"highway": "footway", "footway": null, "name": null, "surface": "compacted", "lit": "yes", "length_m": 3.45, "type_element": "Way", "__fid": 121481}, "geometry": {"type": "LineString", "coordinates": [[2.434108, 48.84075840000001], [2.4341546, 48.84075450000002]]}}, {"type": "Feature", "properties": {"highway": "service", "footway": null, "name": null, "surface": null, "lit": null, "length_m": 27.46, "type_element": "Way", "__fid": 121482}, "geometry": {"type": "LineString", "coordinates": [[2.4341562, 48.8367001], [2.4345278, 48.83667169999999]]}}, {"type": "Feature", "properties": {"highway": "path", "footway": null, "name": null, "surface": "asphalt", "lit": "yes", "length_m": 6.94, "type_element": "Way", "__fid": 121483}, "geometry": {"type": "LineString", "coordinates": [[2.4341561, 48.840355], [2.4341203, 48.84041280000002]]}}, {"type": "Feature", "properties": {"highway": "path", "footway": null, "name": null, "surface": "asphalt", "lit": "yes", "length_m": 9.52, "type_element": "Way", "__fid": 121484}, "geometry": {"type": "LineString", "coordinates": [[2.4341233, 48.8408881], [2.43417, 48.840968]]}}, {"type": "Feature", "properties": {"highway": "footway", "footway": null, "name": null, "surface": null, "lit": null, "length_m": 12.37, "type_element": "Way", "__fid": 121485}, "geometry": {"type": "LineString", "coordinates": [[2.4342939, 48.84004740000002], [2.4341366, 48.8400074]]}}, {"type": "Feature", "properties": {"highway": "path", "footway": null, "name": "Esplanade Saint-Louis", "surface": "compacted", "lit": null, "length_m": 35.69, "type_element": "Way", "__fid": 121486}, "geometry": {"type": "LineString", "coordinates": [[2.4341561, 48.840355], [2.4342082, 48.8402582], [2.4342939, 48.84004740000002]]}}, {"type": "Feature", "properties": {"highway": "footway", "footway": "crossing", "name": null, "surface": "asphalt", "lit": "yes", "length_m": 23.89, "type_element": "Way", "__fid": 121487}, "geometry": {"type": "LineString", "coordinates": [[2.4341546, 48.84075450000002], [2.4341799, 48.8408854], [2.43417, 48.840968]]}}, {"type": "Feature", "properties": {"highway": "footway", "footway": null, "name": null, "surface": "compacted", "lit": "yes", "length_m": 49.31, "type_element": "Way", "__fid": 121488}, "geometry": {"type": "LineString", "coordinates": [[2.4341546, 48.84075450000002], [2.4342712, 48.8407408], [2.434352, 48.8407221], [2.4343984, 48.840707899999984], [2.4344359, 48.8406854], [2.4344889, 48.8406267], [2.4345912, 48.840467199999985]]}}, {"type": "Feature", "properties": {"highway": "path", "footway": null, "name": null, "surface": "compacted", "lit": "no", "length_m": 97.58, "type_element": "Way", "__fid": 121489}, "geometry": {"type": "LineString", "coordinates": [[2.43417, 48.840968], [2.4354886, 48.8408556]]}}, {"type": "Feature", "properties": {"highway": "path", "footway": null, "name": "Esplanade Saint-Louis", "surface": "compacted", "lit": null, "length_m": 59.33, "type_element": "Way", "__fid": 121494}, "geometry": {"type": "LineString", "coordinates": [[2.4342939, 48.84004740000002], [2.4345369, 48.83972290000001], [2.4346264, 48.839654], [2.4347318, 48.83961290000002]]}}, {"type": "Feature", "properties": {"highway": "service", "footway": null, "name": null, "surface": "asphalt", "lit": "yes", "length_m": 96.59, "type_element": "Way", "__fid": 121495}, "geometry": {"type": "LineString", "coordinates": [[2.4342924, 48.8405148], [2.4347069, 48.839787], [2.4347307, 48.8396972]]}}]}