{"type": "FeatureCollection", "features": [{"type": "Feature", "properties": {"highway": "service", "footway": null, "name": "Route de la Tourelle", "surface": "asphalt", "lit": null, "length_m": 85.3, "type_element": "Way", "__fid": 121068}, "geometry": {"type": "LineString", "coordinates": [[2.4246376, 48.8416943], [2.4253672, 48.8412948], [2.4255513, 48.8412224]]}}, {"type": "Feature", "properties": {"highway": "track", "footway": null, "name": null, "surface": "compacted", "lit": "no", "length_m": 120.33, "type_element": "Way", "__fid": 121069}, "geometry": {"type": "LineString", "coordinates": [[2.4261607, 48.8413694], [2.4256665, 48.841587], [2.4251436, 48.8416459], [2.42482, 48.841657], [2.4246376, 48.8416943]]}}, {"type": "Feature", "properties": {"highway": "footway", "footway": "sidewalk", "name": null, "surface": null, "lit": "yes", "length_m": 192.65, "type_element": "Way", "__fid": 121074}, "geometry": {"type": "LineString", "coordinates": [[2.4272919, 48.8416572], [2.4248674, 48.8418731], [2.4246968, 48.84190750000001]]}}, {"type": "Feature", "properties": {"highway": "track", "footway": null, "name": null, "surface": "compacted", "lit": "no", "length_m": 143.01, "type_element": "Way", "__fid": 121137}, "geometry": {"type": "LineString", "coordinates": [[2.4280384, 48.8413217], [2.4265623, 48.8414917], [2.4264027, 48.8414723], [2.4261607, 48.8413694]]}}, {"type": "Feature", "properties": {"highway": "path", "footway": null, "name": null, "surface": "compacted", "lit": "yes", "length_m": 127.99, "type_element": "Way", "__fid": 121456}, "geometry": {"type": "LineString", "coordinates": [[2.4340323, 48.8422192], [2.4339633, 48.8418497], [2.4338282, 48.8412206], [2.433789, 48.8410796]]}}]}