{"type": "FeatureCollection", "features": [{"type": "Feature", "properties": {"@id": "node/482775495", "access": "yes", "amenity": "drinking_water", "bottle": "yes", "fee": "no", "man_made": "water_tap", "operator": "Eau de Paris", "source": "cadastre-dgi-fr source : Direction Générale des Impôts - Cadastre;mise à jour : 2009;local knowledge", "wheelchair": "yes", "type_element": "Fontaines à boire", "__fid": 56}, "geometry": {"type": "Point", "coordinates": [2.4339711, 48.8351451]}, "id": "node/482775495"}, {"type": "Feature", "properties": {"highway": "path", "footway": null, "name": null, "surface": "dirt", "lit": "no", "length_m": 190.43, "type_element": "Way", "__fid": 120957}, "geometry": {"type": "LineString", "coordinates": [[2.4232336, 48.8303423], [2.42367, 48.8303798], [2.4237844, 48.8303807], [2.4239965, 48.83036859999998], [2.4241049, 48.8303857], [2.4247783, 48.8305252], [2.4257278, 48.83075129999998]]}}, {"type": "Feature", "properties": {"highway": "service", "footway": null, "name": "Route des Batteries", "surface": "asphalt", "lit": "no", "length_m": 187.42, "type_element": "Way", "__fid": 121002}, "geometry": {"type": "LineString", "coordinates": [[2.4261771, 48.830034300000015], [2.4253605, 48.8298047], [2.4245174, 48.8296284], [2.4238198, 48.8295324], [2.4237554, 48.829517]]}}, {"type": "Feature", "properties": {"highway": "path", "footway": null, "name": null, "surface": "dirt", "lit": "no", "length_m": 129.1, "type_element": "Way", "__fid": 121027}, "geometry": {"type": "LineString", "coordinates": [[2.4239015, 48.8355386], [2.4245597, 48.8355211], [2.4248842, 48.835604], [2.4255699, 48.835808]]}}, {"type": "Feature", "properties": {"highway": "path", "footway": null, "name": null, "surface": "dirt", "lit": "no", "length_m": 169.72, "type_element": "Way", "__fid": 121041}, "geometry": {"type": "LineString", "coordinates": [[2.4241996, 48.8343138], [2.4243028, 48.8344859], [2.4245644, 48.8346695], [2.4246327, 48.83483639999998], [2.4247789, 48.834937], [2.4248822, 48.8349864], [2.4249868, 48.8351012], [2.425082, 48.8351674], [2.4251518, 48.8352539], [2.4252336, 48.8353236], [2.4253958, 48.835426], [2.4255675, 48.8354958]]}}, {"type": "Feature", "properties": {"highway": "path", "footway": null, "name": null, "surface": "dirt", "lit": "no", "length_m": 150.57, "type_element": "Way", "__fid": 121042}, "geometry": {"type": "LineString", "coordinates": [[2.4241996, 48.8343138], [2.424563, 48.83428460000001], [2.4247534, 48.8342776], [2.4249117, 48.8342908], [2.4249975, 48.8343305], [2.4251343, 48.8344259], [2.4251906, 48.8344938], [2.4252537, 48.8347022], [2.4253248, 48.8347419], [2.4254227, 48.8347543], [2.4256077, 48.8347966], [2.4257915, 48.834854]]}}, {"type": "Feature", "properties": {"highway": "footway", "footway": null, "name": "Parcours Santé", "surface": null, "lit": "no", "length_m": 232.48, "type_element": "Way", "__fid": 121077}, "geometry": {"type": "LineString", "coordinates": [[2.4248969, 48.8313654], [2.4249852, 48.8313801], [2.4250187, 48.8314209], [2.4250562, 48.8315374], [2.4250549, 48.8316803], [2.4250388, 48.831765], [2.4250656, 48.8318639], [2.4250388, 48.8319592], [2.4251313, 48.83237430000001], [2.4252333, 48.8324556], [2.4253768, 48.8324854], [2.4255699, 48.8325031], [2.4258917, 48.8324889], [2.4260956, 48.8325596], [2.4263812, 48.8327239], [2.4264891, 48.8327247]]}}, {"type": "Feature", "properties": {"highway": "path", "footway": null, "name": null, "surface": "fine_gravel", "lit": "no", "length_m": 54.26, "type_element": "Way", "__fid": 121078}, "geometry": {"type": "LineString", "coordinates": [[2.4256319, 48.8313149], [2.4251786, 48.8313414], [2.4248969, 48.8313654]]}}, {"type": "Feature", "properties": {"highway": "path", "footway": null, "name": null, "surface": null, "lit": "no", "length_m": 144.5, "type_element": "Way", "__fid": 121083}, "geometry": {"type": "LineString", "coordinates": [[2.425053, 48.8337012], [2.4253743, 48.83390820000002], [2.4255531, 48.8340739], [2.4256591, 48.8342657], [2.4257518, 48.8345708], [2.4257915, 48.834854]]}}, {"type": "Feature", "properties": {"highway": "track", "footway": null, "name": "Allée des Lapins", "surface": "compacted", "lit": "no", "length_m": 151.38, "type_element": "Way", "__fid": 121084}, "geometry": {"type": "LineString", "coordinates": [[2.425053, 48.8337012], [2.4253795, 48.8334802], [2.4255143, 48.8334021], [2.4264891, 48.8327247]]}}, {"type": "Feature", "properties": {"highway": "service", "footway": null, "name": null, "surface": null, "lit": "no", "length_m": 123.77, "type_element": "Way", "__fid": 121099}, "geometry": {"type": "LineString", "coordinates": [[2.4256319, 48.8313149], [2.425818, 48.8321675], [2.4254414, 48.8322066]]}}, {"type": "Feature", "properties": {"highway": "path", "footway": null, "name": "Parcours Santé", "surface": "ground", "lit": "no", "length_m": 33.35, "type_element": "Way", "__fid": 121107}, "geometry": {"type": "LineString", "coordinates": [[2.425713, 48.8357796], [2.4256426, 48.835621099999976], [2.4255675, 48.8354958]]}}, {"type": "Feature", "properties": {"highway": "path", "footway": null, "name": "Parcours Santé", "surface": "ground", "lit": "no", "length_m": 94.71, "type_element": "Way", "__fid": 121108}, "geometry": {"type": "LineString", "coordinates": [[2.4255675, 48.8354958], [2.4255581, 48.8354163], [2.4255876, 48.8353148], [2.4256493, 48.8352371], [2.4257244, 48.8352053], [2.4257955, 48.8351956], [2.4258773, 48.8352036], [2.4260141, 48.83526540000001], [2.426065, 48.835266300000015], [2.4261361, 48.83524679999998], [2.4262541, 48.8351939], [2.4264285, 48.83513029999999]]}}, {"type": "Feature", "properties": {"highway": "service", "footway": null, "name": null, "surface": "asphalt", "lit": "no", "length_m": 63.23, "type_element": "Way", "__fid": 121112}, "geometry": {"type": "LineString", "coordinates": [[2.4257278, 48.83075129999998], [2.4256591, 48.8309942], [2.4256319, 48.8311896], [2.4256319, 48.8313149]]}}, {"type": "Feature", "properties": {"highway": "path", "footway": null, "name": null, "surface": null, "lit": "no", "length_m": 197.73, "type_element": "Way", "__fid": 121113}, "geometry": {"type": "LineString", "coordinates": [[2.4256319, 48.8313149], [2.425702, 48.8312904], [2.4257865, 48.8312344], [2.4259092, 48.8311765], [2.4260212, 48.83113989999999], [2.4260974, 48.8311197], [2.4262483, 48.8311297], [2.4264572, 48.8312114], [2.4267892, 48.831453], [2.4269948, 48.8315853], [2.4273155, 48.8316641], [2.4276565, 48.8317154], [2.4279226, 48.8317412]]}}, {"type": "Feature", "properties": {"highway": "service", "footway": null, "name": null, "surface": "asphalt", "lit": "no", "length_m": 86.4, "type_element": "Way", "__fid": 121120}, "geometry": {"type": "LineString", "coordinates": [[2.4261771, 48.830034300000015], [2.4258806, 48.8304537], [2.4257278, 48.83075129999998]]}}, {"type": "Feature", "properties": {"highway": "path", "footway": null, "name": null, "surface": "dirt", "lit": "no", "length_m": 61.41, "type_element": "Way", "__fid": 121124}, "geometry": {"type": "LineString", "coordinates": [[2.4257915, 48.834854], [2.4262139, 48.8349167], [2.4262877, 48.8349414], [2.4263601, 48.8350641], [2.4264285, 48.83513029999999]]}}, {"type": "Feature", "properties": {"highway": "track", "footway": null, "name": "Route Brûlée", "surface": "asphalt", "lit": "no", "length_m": 87.67, "type_element": "Way", "__fid": 121132}, "geometry": {"type": "LineString", "coordinates": [[2.4270434, 48.835445], [2.4264727, 48.8356061], [2.4259321, 48.8357327]]}}, {"type": "Feature", "properties": {"highway": "service", "footway": null, "name": "Route des Batteries", "surface": "asphalt", "lit": "no", "length_m": 41.04, "type_element": "Way", "__fid": 121133}, "geometry": {"type": "LineString", "coordinates": [[2.4266773, 48.8301992], [2.4261771, 48.830034300000015]]}}, {"type": "Feature", "properties": {"highway": "path", "footway": null, "name": null, "surface": "dirt", "lit": "no", "length_m": 58.31, "type_element": "Way", "__fid": 121140}, "geometry": {"type": "LineString", "coordinates": [[2.4264285, 48.83513029999999], [2.4264955, 48.8351771], [2.4266095, 48.8352301], [2.4269019, 48.8353228], [2.4270434, 48.835445]]}}, {"type": "Feature", "properties": {"highway": "path", "footway": null, "name": "Parcours Santé", "surface": "ground", "lit": "no", "length_m": 231.99, "type_element": "Way", "__fid": 121141}, "geometry": {"type": "LineString", "coordinates": [[2.4264285, 48.83513029999999], [2.4265143, 48.83508089999999], [2.4266122, 48.83500580000001], [2.4267396, 48.834884], [2.4269783, 48.8347348], [2.4270628, 48.834636], [2.4270494, 48.8345283], [2.4269488, 48.834395], [2.4269555, 48.8343261], [2.4270401, 48.8342218], [2.4270749, 48.834158399999986], [2.4270883, 48.8340578], [2.4271285, 48.8339942], [2.4271929, 48.8339439], [2.4272627, 48.8338256], [2.4273512, 48.83372139999998], [2.4275282, 48.833589], [2.4275671, 48.8334672], [2.4275684, 48.8333286]]}}, {"type": "Feature", "properties": {"highway": "path", "footway": null, "name": "Parcours Santé", "surface": "ground", "lit": "no", "length_m": 75.49, "type_element": "Way", "__fid": 121144}, "geometry": {"type": "LineString", "coordinates": [[2.4264891, 48.8327247], [2.4269174, 48.83295780000001], [2.4273123, 48.83313]]}}, {"type": "Feature", "properties": {"highway": "track", "footway": null, "name": "Allée des Lapins", "surface": "compacted", "lit": "no", "length_m": 85.13, "type_element": "Way", "__fid": 121145}, "geometry": {"type": "LineString", "coordinates": [[2.4264891, 48.8327247], [2.4272912, 48.8321718]]}}, {"type": "Feature", "properties": {"highway": "service", "footway": null, "name": "Route des Batteries", "surface": "asphalt", "lit": "no", "length_m": 175.5, "type_element": "Way", "__fid": 121150}, "geometry": {"type": "LineString", "coordinates": [[2.428511, 48.8311993], [2.4280342, 48.8308793], [2.4276414, 48.8306397], [2.4269035, 48.8302726], [2.4266773, 48.8301992]]}}, {"type": "Feature", "properties": {"highway": "path", "footway": null, "name": null, "surface": "dirt", "lit": null, "length_m": 88.11, "type_element": "Way", "__fid": 121151}, "geometry": {"type": "LineString", "coordinates": [[2.4266773, 48.8301992], [2.4268959, 48.8298993], [2.4270389, 48.8297327], [2.4272149, 48.8296144], [2.4273564, 48.8295728]]}}, {"type": "Feature", "properties": {"highway": "path", "footway": null, "name": null, "surface": "compacted", "lit": null, "length_m": 296.93, "type_element": "Way", "__fid": 121160}, "geometry": {"type": "LineString", "coordinates": [[2.4269619, 48.8288031], [2.4277546, 48.8298598], [2.4280442, 48.8302672], [2.4287359, 48.8312029]]}}, {"type": "Feature", "properties": {"highway": "path", "footway": null, "name": null, "surface": "dirt", "lit": "no", "length_m": 18.48, "type_element": "Way", "__fid": 121162}, "geometry": {"type": "LineString", "coordinates": [[2.4270434, 48.835445], [2.4271714, 48.8355881]]}}, {"type": "Feature", "properties": {"highway": "track", "footway": null, "name": "Route Brûlée", "surface": "asphalt", "lit": "no", "length_m": 45.29, "type_element": "Way", "__fid": 121163}, "geometry": {"type": "LineString", "coordinates": [[2.4275977, 48.8352661], [2.4270434, 48.835445]]}}, {"type": "Feature", "properties": {"highway": "track", "footway": null, "name": "Route du Lac de Saint-Mandé", "surface": "asphalt", "lit": "no", "length_m": 47.58, "type_element": "Way", "__fid": 121165}, "geometry": {"type": "LineString", "coordinates": [[2.4271714, 48.8355881], [2.4274406, 48.8353962], [2.4275977, 48.8352661]]}}, {"type": "Feature", "properties": {"highway": "path", "footway": null, "name": null, "surface": null, "lit": "no", "length_m": 117.12, "type_element": "Way", "__fid": 121168}, "geometry": {"type": "LineString", "coordinates": [[2.4272912, 48.8321718], [2.4274236, 48.8323346], [2.4274987, 48.8324564], [2.4276046, 48.8326753], [2.4276087, 48.8327389], [2.427555, 48.8328077], [2.4273874, 48.8329781], [2.4273163, 48.83307259999999], [2.4273123, 48.83313]]}}, {"type": "Feature", "properties": {"highway": "track", "footway": null, "name": "Allée des Lapins", "surface": "compacted", "lit": "no", "length_m": 66.64, "type_element": "Way", "__fid": 121169}, "geometry": {"type": "LineString", "coordinates": [[2.4272912, 48.8321718], [2.4279226, 48.8317412]]}}, {"type": "Feature", "properties": {"highway": "path", "footway": null, "name": null, "surface": null, "lit": "no", "length_m": 29.63, "type_element": "Way", "__fid": 121170}, "geometry": {"type": "LineString", "coordinates": [[2.4273123, 48.83313], [2.4273378, 48.8331829], [2.4274692, 48.833273], [2.4275684, 48.8333286]]}}, {"type": "Feature", "properties": {"highway": "track", "footway": null, "name": "Route Saint-Louis", "surface": "asphalt", "lit": "no", "length_m": 199.83, "type_element": "Way", "__fid": 121171}, "geometry": {"type": "LineString", "coordinates": [[2.428511, 48.8311993], [2.4284734, 48.8311178], [2.4273564, 48.8295728]]}}, {"type": "Feature", "properties": {"highway": "path", "footway": null, "name": null, "surface": null, "lit": "no", "length_m": 145.63, "type_element": "Way", "__fid": 121175}, "geometry": {"type": "LineString", "coordinates": [[2.4275684, 48.8333286], [2.4276851, 48.8333824], [2.4278836, 48.8335122], [2.4283959, 48.833762], [2.4284938, 48.8338574], [2.4288143, 48.8340701], [2.4290647, 48.83417460000001]]}}, {"type": "Feature", "properties": {"highway": "track", "footway": null, "name": "Route du Lac de Saint-Mandé", "surface": "asphalt", "lit": "no", "length_m": 163.01, "type_element": "Way", "__fid": 121178}, "geometry": {"type": "LineString", "coordinates": [[2.4275977, 48.8352661], [2.4283374, 48.834811], [2.4287063, 48.8345263], [2.4290647, 48.83417460000001]]}}, {"type": "Feature", "properties": {"highway": "path", "footway": null, "name": null, "surface": "fine_gravel", "lit": null, "length_m": 225.19, "type_element": "Way", "__fid": 121185}, "geometry": {"type": "LineString", "coordinates": [[2.4292709, 48.8342259], [2.428657, 48.8350492], [2.4277802, 48.8359935]]}}, {"type": "Feature", "properties": {"highway": "track", "footway": null, "name": "Allée des Lapins", "surface": "compacted", "lit": "no", "length_m": 70.76, "type_element": "Way", "__fid": 121188}, "geometry": {"type": "LineString", "coordinates": [[2.4279226, 48.8317412], [2.428593, 48.83128390000001]]}}, {"type": "Feature", "properties": {"highway": "service", "footway": null, "name": "Route des Batteries", "surface": "asphalt", "lit": "no", "length_m": 11.17, "type_element": "Way", "__fid": 121200}, "geometry": {"type": "LineString", "coordinates": [[2.428593, 48.83128390000001], [2.428511, 48.8311993]]}}, {"type": "Feature", "properties": {"highway": "service", "footway": null, "name": "Route des Batteries", "surface": "asphalt", "lit": "no", "length_m": 49.24, "type_element": "Way", "__fid": 121203}, "geometry": {"type": "LineString", "coordinates": [[2.4289036, 48.8316764], [2.428593, 48.83128390000001]]}}, {"type": "Feature", "properties": {"highway": "track", "footway": null, "name": "Allée des Lapins", "surface": "compacted", "lit": "no", "length_m": 13.83, "type_element": "Way", "__fid": 121204}, "geometry": {"type": "LineString", "coordinates": [[2.428593, 48.83128390000001], [2.4287359, 48.8312029]]}}, {"type": "Feature", "properties": {"highway": "path", "footway": null, "name": null, "surface": "compacted", "lit": null, "length_m": 36.21, "type_element": "Way", "__fid": 121205}, "geometry": {"type": "LineString", "coordinates": [[2.4287359, 48.8312029], [2.4288871, 48.8314006], [2.4289397, 48.8314988]]}}, {"type": "Feature", "properties": {"highway": "track", "footway": null, "name": "Allée des Lapins", "surface": "compacted", "lit": "no", "length_m": 43.03, "type_element": "Way", "__fid": 121206}, "geometry": {"type": "LineString", "coordinates": [[2.4287359, 48.8312029], [2.429054, 48.830974], [2.4291627, 48.8309479]]}}, {"type": "Feature", "properties": {"highway": "service", "footway": null, "name": "Route des Batteries", "surface": "asphalt", "lit": "no", "length_m": 73.18, "type_element": "Way", "__fid": 121209}, "geometry": {"type": "LineString", "coordinates": [[2.4293571, 48.8322604], [2.4292405, 48.8321534], [2.4289036, 48.8316764]]}}, {"type": "Feature", "properties": {"highway": "path", "footway": null, "name": null, "surface": "compacted", "lit": "no", "length_m": 287.46, "type_element": "Way", "__fid": 121210}, "geometry": {"type": "LineString", "coordinates": [[2.4289036, 48.8316764], [2.4287129, 48.8319], [2.4287535, 48.8320742], [2.4289493, 48.8325721], [2.4290413, 48.8328681], [2.4290909, 48.8331399], [2.4291237, 48.8334849], [2.4289944, 48.8338074], [2.4289564, 48.8339946], [2.4290137, 48.83410280000001], [2.4290647, 48.83417460000001]]}}, {"type": "Feature", "properties": {"highway": "path", "footway": null, "name": null, "surface": "compacted", "lit": "no", "length_m": 19.92, "type_element": "Way", "__fid": 121211}, "geometry": {"type": "LineString", "coordinates": [[2.4289036, 48.8316764], [2.4289397, 48.8314988]]}}, {"type": "Feature", "properties": {"highway": "path", "footway": null, "name": null, "surface": "compacted", "lit": "no", "length_m": 63.41, "type_element": "Way", "__fid": 121216}, "geometry": {"type": "LineString", "coordinates": [[2.4289397, 48.8314988], [2.4291627, 48.8309479]]}}, {"type": "Feature", "properties": {"highway": "track", "footway": null, "name": "Route du Lac de Saint-Mandé", "surface": "asphalt", "lit": "no", "length_m": 104.18, "type_element": "Way", "__fid": 121219}, "geometry": {"type": "LineString", "coordinates": [[2.4290647, 48.83417460000001], [2.4293938, 48.8337553], [2.4296008, 48.8333112]]}}, {"type": "Feature", "properties": {"highway": "path", "footway": null, "name": null, "surface": "compacted", "lit": "no", "length_m": 477.63, "type_element": "Way", "__fid": 121222}, "geometry": {"type": "LineString", "coordinates": [[2.4291627, 48.8309479], [2.4293409, 48.830524], [2.4294107, 48.8300614], [2.429459, 48.82951580000001], [2.4294563, 48.8293639], [2.4294026, 48.82918909999998], [2.4292229, 48.8289525], [2.4291103, 48.8287759], [2.4290921, 48.8287427], [2.4290915, 48.8286761], [2.4291612, 48.8284934], [2.4292658, 48.8284562], [2.4293711, 48.8284312], [2.4296158, 48.8283828], [2.4297194, 48.8283693], [2.4297842, 48.8283252], [2.4298608, 48.8282482], [2.4299981, 48.8280131], [2.4300893, 48.8278171], [2.4303704, 48.8273239], [2.4305642, 48.827122]]}}, {"type": "Feature", "properties": {"highway": "track", "footway": null, "name": "Allée des Lapins", "surface": null, "lit": "no", "length_m": 26.83, "type_element": "Way", "__fid": 121223}, "geometry": {"type": "LineString", "coordinates": [[2.4291627, 48.8309479], [2.4293565, 48.8309447], [2.4295172, 48.8309049]]}}, {"type": "Feature", "properties": {"highway": "path", "footway": null, "name": null, "surface": "dirt", "lit": null, "length_m": 108.84, "type_element": "Way", "__fid": 121226}, "geometry": {"type": "LineString", "coordinates": [[2.4296505, 48.8330209], [2.429868, 48.8327539], [2.4299175, 48.83256750000001], [2.4298043, 48.8324999], [2.4295353, 48.8323974], [2.4293571, 48.8322604]]}}, {"type": "Feature", "properties": {"highway": "service", "footway": null, "name": "Route de la Tourelle", "surface": "asphalt", "lit": "yes", "length_m": 86.88, "type_element": "Way", "__fid": 121227}, "geometry": {"type": "LineString", "coordinates": [[2.4294966, 48.833036200000016], [2.4294315, 48.8327207], [2.4293571, 48.8322604]]}}, {"type": "Feature", "properties": {"highway": "service", "footway": null, "name": "Route de la Tourelle", "surface": "asphalt", "lit": "no", "length_m": 151.27, "type_element": "Way", "__fid": 121228}, "geometry": {"type": "LineString", "coordinates": [[2.4293571, 48.8322604], [2.429419, 48.8314368], [2.4295172, 48.8309049]]}}, {"type": "Feature", "properties": {"highway": "service", "footway": null, "name": "Route de la Tourelle", "surface": "asphalt", "lit": "no", "length_m": 9.24, "type_element": "Way", "__fid": 121230}, "geometry": {"type": "LineString", "coordinates": [[2.4295172, 48.8309049], [2.4295334, 48.83082249999999]]}}, {"type": "Feature", "properties": {"highway": "service", "footway": null, "name": "Route de la Tourelle", "surface": "asphalt", "lit": "yes", "length_m": 31.52, "type_element": "Way", "__fid": 121231}, "geometry": {"type": "LineString", "coordinates": [[2.4296008, 48.8333112], [2.4294966, 48.833036200000016]]}}, {"type": "Feature", "properties": {"highway": "path", "footway": null, "name": null, "surface": "compacted", "lit": null, "length_m": 11.42, "type_element": "Way", "__fid": 121232}, "geometry": {"type": "LineString", "coordinates": [[2.4296505, 48.8330209], [2.4294966, 48.833036200000016]]}}, {"type": "Feature", "properties": {"highway": "service", "footway": null, "name": "Route de la Tourelle", "surface": "asphalt", "lit": "no", "length_m": 405.14, "type_element": "Way", "__fid": 121233}, "geometry": {"type": "LineString", "coordinates": [[2.4295334, 48.83082249999999], [2.4295701, 48.83065240000001], [2.4298872, 48.8294731], [2.4302535, 48.82845649999998], [2.4307867, 48.82727890000002]]}}, {"type": "Feature", "properties": {"highway": "track", "footway": null, "name": null, "surface": "compacted", "lit": null, "length_m": 108.06, "type_element": "Way", "__fid": 121234}, "geometry": {"type": "LineString", "coordinates": [[2.4295334, 48.83082249999999], [2.4305482, 48.8301185]]}}, {"type": "Feature", "properties": {"highway": "service", "footway": null, "name": "Route de la Tourelle", "surface": "asphalt", "lit": "yes", "length_m": 146.79, "type_element": "Way", "__fid": 121237}, "geometry": {"type": "LineString", "coordinates": [[2.4303039, 48.8345461], [2.4302714, 48.8345073], [2.4298329, 48.83377], [2.4296008, 48.8333112]]}}, {"type": "Feature", "properties": {"highway": "path", "footway": null, "name": null, "surface": "dirt", "lit": null, "length_m": 229.92, "type_element": "Way", "__fid": 121238}, "geometry": {"type": "LineString", "coordinates": [[2.4308525, 48.834880800000015], [2.4308589, 48.8347015], [2.4305086, 48.8344592], [2.4302113, 48.8341307], [2.4298396, 48.8334644], [2.4296505, 48.8330209]]}}, {"type": "Feature", "properties": {"highway": "path", "footway": null, "name": null, "surface": "compacted", "lit": null, "length_m": 20.31, "type_element": "Way", "__fid": 121239}, "geometry": {"type": "LineString", "coordinates": [[2.4299225, 48.8329876], [2.4296505, 48.8330209]]}}, {"type": "Feature", "properties": {"highway": "path", "footway": null, "name": null, "surface": null, "lit": null, "length_m": 65.83, "type_element": "Way", "__fid": 121247}, "geometry": {"type": "LineString", "coordinates": [[2.4299225, 48.8329876], [2.4300912, 48.8329132], [2.4302495, 48.8328055], [2.4303362, 48.8327236], [2.4303541, 48.8326324], [2.4303573, 48.83251629999999]]}}, {"type": "Feature", "properties": {"highway": "path", "footway": null, "name": null, "surface": "compacted", "lit": null, "length_m": 78.8, "type_element": "Way", "__fid": 121248}, "geometry": {"type": "LineString", "coordinates": [[2.4309895, 48.8329809], [2.43076, 48.832985100000016], [2.430592, 48.8329594], [2.4303282, 48.832962], [2.4299225, 48.8329876]]}}, {"type": "Feature", "properties": {"highway": "footway", "footway": null, "name": null, "surface": null, "lit": null, "length_m": 11.14, "type_element": "Way", "__fid": 121258}, "geometry": {"type": "LineString", "coordinates": [[2.4302073, 48.8325012], [2.4303573, 48.83251629999999]]}}, {"type": "Feature", "properties": {"highway": "service", "footway": null, "name": "Avenue du Polygone", "surface": "asphalt", "lit": "yes", "length_m": 54.83, "type_element": "Way", "__fid": 121263}, "geometry": {"type": "LineString", "coordinates": [[2.4303039, 48.8345461], [2.4308525, 48.834880800000015]]}}, {"type": "Feature", "properties": {"highway": "service", "footway": null, "name": "Route de la Tourelle", "surface": "asphalt", "lit": "yes", "length_m": 23.6, "type_element": "Way", "__fid": 121264}, "geometry": {"type": "LineString", "coordinates": [[2.4303244, 48.8347579], [2.4303039, 48.8345461]]}}, {"type": "Feature", "properties": {"highway": "service", "footway": null, "name": "Route de la Tourelle", "surface": "asphalt", "lit": "yes", "length_m": 100.92, "type_element": "Way", "__fid": 121265}, "geometry": {"type": "LineString", "coordinates": [[2.4305524, 48.8356529], [2.4303244, 48.8347579]]}}, {"type": "Feature", "properties": {"highway": "path", "footway": null, "name": null, "surface": "compacted", "lit": null, "length_m": 53.39, "type_element": "Way", "__fid": 121266}, "geometry": {"type": "LineString", "coordinates": [[2.4308726, 48.8350339], [2.4305514, 48.834796], [2.4304663, 48.834758], [2.4303244, 48.8347579]]}}, {"type": "Feature", "properties": {"highway": "footway", "footway": null, "name": null, "surface": null, "lit": null, "length_m": 119.14, "type_element": "Way", "__fid": 121267}, "geometry": {"type": "LineString", "coordinates": [[2.4303573, 48.83251629999999], [2.4305823, 48.8325739], [2.4308377, 48.8326054], [2.430894, 48.8326231], [2.4309744, 48.8326619], [2.4310549, 48.832676], [2.4315994, 48.83272370000002], [2.4317201, 48.8327449], [2.4319061, 48.8327976]]}}, {"type": "Feature", "properties": {"highway": "path", "footway": null, "name": null, "surface": null, "lit": null, "length_m": 242.13, "type_element": "Way", "__fid": 121268}, "geometry": {"type": "LineString", "coordinates": [[2.4303573, 48.83251629999999], [2.4304023, 48.83239409999999], [2.4304891, 48.8322363], [2.430515, 48.8321522], [2.4305043, 48.8320003], [2.4305267, 48.8318885], [2.4306232, 48.83167129999999], [2.4306679, 48.831622500000016], [2.4308271, 48.8313853], [2.4309549, 48.8312499], [2.4312213, 48.8311045], [2.4318482, 48.83066640000001]]}}, {"type": "Feature", "properties": {"highway": "path", "footway": null, "name": null, "surface": "compacted", "lit": null, "length_m": 117.38, "type_element": "Way", "__fid": 121275}, "geometry": {"type": "LineString", "coordinates": [[2.4305482, 48.8301185], [2.430814, 48.83018530000001], [2.43098, 48.8301864], [2.4310568, 48.8302471], [2.4312267, 48.8303453], [2.431393, 48.8304106], [2.4315218, 48.8304442], [2.4316308, 48.8304995], [2.4318482, 48.83066640000001]]}}, {"type": "Feature", "properties": {"highway": "track", "footway": null, "name": null, "surface": "compacted", "lit": "no", "length_m": 192.9, "type_element": "Way", "__fid": 121276}, "geometry": {"type": "LineString", "coordinates": [[2.4305482, 48.8301185], [2.4323043, 48.8289124], [2.4323585, 48.828862]]}}, {"type": "Feature", "properties": {"highway": "service", "footway": null, "name": "Avenue du Polygone", "surface": "asphalt", "lit": "yes", "length_m": 29.76, "type_element": "Way", "__fid": 121294}, "geometry": {"type": "LineString", "coordinates": [[2.4308525, 48.834880800000015], [2.4311459, 48.8350655]]}}, {"type": "Feature", "properties": {"highway": "path", "footway": null, "name": null, "surface": null, "lit": null, "length_m": 17.09, "type_element": "Way", "__fid": 121295}, "geometry": {"type": "LineString", "coordinates": [[2.4308726, 48.8350339], [2.4308525, 48.834880800000015]]}}, {"type": "Feature", "properties": {"highway": "path", "footway": null, "name": null, "surface": "compacted", "lit": null, "length_m": 62.7, "type_element": "Way", "__fid": 121296}, "geometry": {"type": "LineString", "coordinates": [[2.4311987, 48.8355514], [2.4311214, 48.8353689], [2.4310302, 48.8352113], [2.4308726, 48.8350339]]}}, {"type": "Feature", "properties": {"highway": "path", "footway": null, "name": null, "surface": null, "lit": null, "length_m": 196.0, "type_element": "Way", "__fid": 121300}, "geometry": {"type": "LineString", "coordinates": [[2.4309895, 48.8329809], [2.4311061, 48.833054299999986], [2.4313002, 48.8330897], [2.4317329, 48.8332391], [2.4320136, 48.8333484], [2.4322615, 48.83344850000001], [2.4325118, 48.8335855], [2.4326802, 48.8336086], [2.4329983, 48.8336348], [2.4332532, 48.8336501], [2.4333824, 48.8336504]]}}, {"type": "Feature", "properties": {"highway": "path", "footway": null, "name": null, "surface": "compacted", "lit": null, "length_m": 70.68, "type_element": "Way", "__fid": 121301}, "geometry": {"type": "LineString", "coordinates": [[2.4319061, 48.8327976], [2.4317657, 48.8328433], [2.4313875, 48.8329325], [2.4309895, 48.8329809]]}}, {"type": "Feature", "properties": {"highway": "pedestrian", "footway": null, "name": "Avenue du Polygone", "surface": "asphalt", "lit": "yes", "length_m": 12.02, "type_element": "Way", "__fid": 121303}, "geometry": {"type": "LineString", "coordinates": [[2.4312923, 48.8351547], [2.4312371, 48.8351778], [2.4311721, 48.83517350000001], [2.4311447, 48.8351612]]}}, {"type": "Feature", "properties": {"highway": "pedestrian", "footway": null, "name": "Avenue du Polygone", "surface": "asphalt", "lit": "yes", "length_m": 42.9, "type_element": "Way", "__fid": 121304}, "geometry": {"type": "LineString", "coordinates": [[2.4312758, 48.8355358], [2.4311462, 48.8352153], [2.4311447, 48.8351612]]}}, {"type": "Feature", "properties": {"highway": "pedestrian", "footway": null, "name": "Avenue du Polygone", "surface": "asphalt", "lit": "yes", "length_m": 11.74, "type_element": "Way", "__fid": 121305}, "geometry": {"type": "LineString", "coordinates": [[2.4311447, 48.8351612], [2.4311152, 48.8351239], [2.4311155, 48.8351025], [2.4311459, 48.8350655]]}}, {"type": "Feature", "properties": {"highway": "pedestrian", "footway": null, "name": "Avenue du Polygone", "surface": "asphalt", "lit": "yes", "length_m": 15.28, "type_element": "Way", "__fid": 121306}, "geometry": {"type": "LineString", "coordinates": [[2.4311459, 48.8350655], [2.4311996, 48.8350486], [2.4312583, 48.8350548], [2.4312829, 48.835066099999985], [2.4313118, 48.8351003]]}}, {"type": "Feature", "properties": {"highway": "path", "footway": null, "name": null, "surface": "compacted", "lit": null, "length_m": 7.34, "type_element": "Way", "__fid": 121312}, "geometry": {"type": "LineString", "coordinates": [[2.4312758, 48.8355358], [2.4313714, 48.8355164]]}}, {"type": "Feature", "properties": {"highway": "pedestrian", "footway": null, "name": "Avenue du Polygone", "surface": "asphalt", "lit": "yes", "length_m": 40.64, "type_element": "Way", "__fid": 121315}, "geometry": {"type": "LineString", "coordinates": [[2.4312923, 48.8351547], [2.4313714, 48.8355164]]}}, {"type": "Feature", "properties": {"highway": "pedestrian", "footway": null, "name": "Avenue du Polygone", "surface": "asphalt", "lit": "yes", "length_m": 6.35, "type_element": "Way", "__fid": 121316}, "geometry": {"type": "LineString", "coordinates": [[2.4313118, 48.8351003], [2.4313136, 48.8351195], [2.4312923, 48.8351547]]}}, {"type": "Feature", "properties": {"highway": "service", "footway": null, "name": null, "surface": null, "lit": null, "length_m": 190.41, "type_element": "Way", "__fid": 121318}, "geometry": {"type": "LineString", "coordinates": [[2.4313118, 48.8351003], [2.4315903, 48.8351434], [2.4320131, 48.8351903], [2.4322517, 48.83509750000002], [2.4323174, 48.8350565], [2.4323741, 48.8349999], [2.4324031, 48.83492050000001], [2.4324142, 48.8346024], [2.4325421, 48.8340788]]}}, {"type": "Feature", "properties": {"highway": "pedestrian", "footway": null, "name": "Avenue du Polygone", "surface": "asphalt", "lit": "yes", "length_m": 14.09, "type_element": "Way", "__fid": 121320}, "geometry": {"type": "LineString", "coordinates": [[2.4313714, 48.8355164], [2.4313458, 48.835642]]}}, {"type": "Feature", "properties": {"highway": "path", "footway": null, "name": null, "surface": "compacted", "lit": null, "length_m": 191.13, "type_element": "Way", "__fid": 121321}, "geometry": {"type": "LineString", "coordinates": [[2.4313458, 48.835642], [2.4314806, 48.835609199999986], [2.4339041, 48.83532970000001]]}}, {"type": "Feature", "properties": {"highway": "path", "footway": null, "name": null, "surface": "compacted", "lit": null, "length_m": 189.7, "type_element": "Way", "__fid": 121322}, "geometry": {"type": "LineString", "coordinates": [[2.4313714, 48.8355164], [2.4314604, 48.8354983], [2.4339055, 48.8351834]]}}, {"type": "Feature", "properties": {"highway": "footway", "footway": null, "name": null, "surface": null, "lit": null, "length_m": 15.22, "type_element": "Way", "__fid": 121328}, "geometry": {"type": "LineString", "coordinates": [[2.4315247, 48.83190530000001], [2.4315163, 48.8317685]]}}, {"type": "Feature", "properties": {"highway": "footway", "footway": null, "name": null, "surface": null, "lit": null, "length_m": 20.55, "type_element": "Way", "__fid": 121329}, "geometry": {"type": "LineString", "coordinates": [[2.4315247, 48.83190530000001], [2.4317603, 48.83200510000001]]}}, {"type": "Feature", "properties": {"highway": "footway", "footway": null, "name": null, "surface": null, "lit": null, "length_m": 14.15, "type_element": "Way", "__fid": 121330}, "geometry": {"type": "LineString", "coordinates": [[2.4315293, 48.8320325], [2.4315247, 48.83190530000001]]}}, {"type": "Feature", "properties": {"highway": "footway", "footway": null, "name": null, "surface": null, "lit": null, "length_m": 93.6, "type_element": "Way", "__fid": 121331}, "geometry": {"type": "LineString", "coordinates": [[2.4320324, 48.8327513], [2.4319808, 48.83271230000001], [2.4316858, 48.8325552], [2.4316264, 48.83246440000001], [2.4316214, 48.83242280000001], [2.4315838, 48.8323786], [2.4315704, 48.8322074], [2.4315293, 48.8320325]]}}, {"type": "Feature", "properties": {"highway": "footway", "footway": null, "name": null, "surface": null, "lit": null, "length_m": 17.38, "type_element": "Way", "__fid": 121332}, "geometry": {"type": "LineString", "coordinates": [[2.4317603, 48.83200510000001], [2.4316691, 48.83202630000001], [2.4315293, 48.8320325]]}}, {"type": "Feature", "properties": {"highway": "footway", "footway": null, "name": null, "surface": null, "lit": null, "length_m": 39.6, "type_element": "Way", "__fid": 121344}, "geometry": {"type": "LineString", "coordinates": [[2.4322941, 48.8320351], [2.4322002, 48.83204220000001], [2.4321171, 48.8320316], [2.4318542, 48.832021], [2.4317603, 48.83200510000001]]}}, {"type": "Feature", "properties": {"highway": "path", "footway": null, "name": null, "surface": "compacted", "lit": null, "length_m": 256.48, "type_element": "Way", "__fid": 121347}, "geometry": {"type": "LineString", "coordinates": [[2.4318482, 48.83066640000001], [2.4321026, 48.83088020000001], [2.4323086, 48.8311118], [2.4324116, 48.8312474], [2.4325597, 48.8314873], [2.4325512, 48.8319563], [2.4323967, 48.83234049999999], [2.4322679, 48.8324987], [2.432225, 48.832623], [2.4321674, 48.8326755], [2.4320324, 48.8327513]]}}, {"type": "Feature", "properties": {"highway": "path", "footway": null, "name": null, "surface": null, "lit": null, "length_m": 88.08, "type_element": "Way", "__fid": 121348}, "geometry": {"type": "LineString", "coordinates": [[2.4318482, 48.83066640000001], [2.4329143, 48.830303]]}}, {"type": "Feature", "properties": {"highway": "path", "footway": null, "name": null, "surface": "compacted", "lit": null, "length_m": 2.66, "type_element": "Way", "__fid": 121354}, "geometry": {"type": "LineString", "coordinates": [[2.4319386, 48.8327871], [2.4319061, 48.8327976]]}}, {"type": "Feature", "properties": {"highway": "footway", "footway": null, "name": null, "surface": null, "lit": null, "length_m": 148.45, "type_element": "Way", "__fid": 121356}, "geometry": {"type": "LineString", "coordinates": [[2.4319386, 48.8327871], [2.4320554, 48.8328032], [2.4321063, 48.832819], [2.4321435, 48.83284530000002], [2.4322056, 48.8329179], [2.4322168, 48.832956], [2.4322565, 48.8329974], [2.4323134, 48.833106], [2.4326186, 48.8333152], [2.4326964, 48.8333611], [2.4331261, 48.8335315], [2.4333824, 48.8336504]]}}, {"type": "Feature", "properties": {"highway": "path", "footway": null, "name": null, "surface": "compacted", "lit": null, "length_m": 7.95, "type_element": "Way", "__fid": 121357}, "geometry": {"type": "LineString", "coordinates": [[2.4320324, 48.8327513], [2.4319386, 48.8327871]]}}, {"type": "Feature", "properties": {"highway": "track", "footway": null, "name": "Allée Royale", "surface": null, "lit": "no", "length_m": 147.63, "type_element": "Way", "__fid": 121402}, "geometry": {"type": "LineString", "coordinates": [[2.4326784, 48.8289845], [2.4329143, 48.830303]]}}, {"type": "Feature", "properties": {"highway": "track", "footway": null, "name": "Allée Royale", "surface": null, "lit": null, "length_m": 6.7, "type_element": "Way", "__fid": 121418}, "geometry": {"type": "LineString", "coordinates": [[2.4329143, 48.830303], [2.4329264, 48.830362700000016]]}}, {"type": "Feature", "properties": {"highway": "path", "footway": null, "name": null, "surface": null, "lit": null, "length_m": 40.04, "type_element": "Way", "__fid": 121421}, "geometry": {"type": "LineString", "coordinates": [[2.4334685, 48.830338300000015], [2.433017, 48.8303703], [2.4329264, 48.830362700000016]]}}, {"type": "Feature", "properties": {"highway": "track", "footway": null, "name": "Allée Royale", "surface": "dirt", "lit": "no", "length_m": 384.03, "type_element": "Way", "__fid": 121422}, "geometry": {"type": "LineString", "coordinates": [[2.4329264, 48.830362700000016], [2.4336216, 48.8337858]]}}, {"type": "Feature", "properties": {"highway": "path", "footway": null, "name": "Allée Royale", "surface": null, "lit": null, "length_m": 146.86, "type_element": "Way", "__fid": 121439}, "geometry": {"type": "LineString", "coordinates": [[2.4331598, 48.8290334], [2.4333288, 48.82979930000001], [2.4334685, 48.830338300000015]]}}, {"type": "Feature", "properties": {"highway": "footway", "footway": null, "name": null, "surface": null, "lit": null, "length_m": 23.17, "type_element": "Way", "__fid": 121445}, "geometry": {"type": "LineString", "coordinates": [[2.4333824, 48.8336504], [2.4334313, 48.8336718], [2.4336216, 48.8337858]]}}, {"type": "Feature", "properties": {"highway": "path", "footway": null, "name": "Allée Royale", "surface": null, "lit": null, "length_m": 535.76, "type_element": "Way", "__fid": 121446}, "geometry": {"type": "LineString", "coordinates": [[2.4334685, 48.830338300000015], [2.4337308, 48.83140969999999], [2.4340852, 48.8332614], [2.4340975, 48.833379], [2.4341915, 48.8339002], [2.4343578, 48.83463949999998], [2.4344241, 48.8350339], [2.4344361, 48.835068900000024], [2.4344698, 48.8351065]]}}, {"type": "Feature", "properties": {"highway": "path", "footway": null, "name": null, "surface": null, "lit": null, "length_m": 44.62, "type_element": "Way", "__fid": 121447}, "geometry": {"type": "LineString", "coordinates": [[2.434068, 48.8302721], [2.4334685, 48.830338300000015]]}}, {"type": "Feature", "properties": {"highway": "track", "footway": null, "name": "Allée Royale", "surface": "dirt", "lit": "no", "length_m": 156.79, "type_element": "Way", "__fid": 121448}, "geometry": {"type": "LineString", "coordinates": [[2.4336216, 48.8337858], [2.4339055, 48.8351834]]}}, {"type": "Feature", "properties": {"highway": "track", "footway": null, "name": "Allée Royale", "surface": "compacted", "lit": "no", "length_m": 155.89, "type_element": "Way", "__fid": 121450}, "geometry": {"type": "LineString", "coordinates": [[2.434068, 48.8302721], [2.4337865, 48.8288825]]}}, {"type": "Feature", "properties": {"highway": "track", "footway": null, "name": "Route de la Faluère", "surface": "compacted", "lit": "no", "length_m": 221.75, "type_element": "Way", "__fid": 121459}, "geometry": {"type": "LineString", "coordinates": [[2.433967, 48.8287701], [2.4364366, 48.8299185]]}}, {"type": "Feature", "properties": {"highway": "path", "footway": null, "name": null, "surface": null, "lit": null, "length_m": 16.77, "type_element": "Way", "__fid": 121461}, "geometry": {"type": "LineString", "coordinates": [[2.4339041, 48.83532970000001], [2.4338794, 48.835289], [2.4339055, 48.8351834]]}}, {"type": "Feature", "properties": {"highway": "path", "footway": null, "name": null, "surface": "compacted", "lit": null, "length_m": 42.3, "type_element": "Way", "__fid": 121462}, "geometry": {"type": "LineString", "coordinates": [[2.4339055, 48.8351834], [2.4344698, 48.8351065]]}}, {"type": "Feature", "properties": {"highway": "path", "footway": null, "name": null, "surface": null, "lit": null, "length_m": 121.47, "type_element": "Way", "__fid": 121463}, "geometry": {"type": "LineString", "coordinates": [[2.4351266, 48.83591659999998], [2.4349429, 48.8358734], [2.4346572, 48.8357842], [2.4345312, 48.8357551], [2.4343421, 48.8357516], [2.4342066, 48.8357145], [2.4340336, 48.8355874], [2.4339665, 48.8355123], [2.4339041, 48.83532970000001]]}}, {"type": "Feature", "properties": {"highway": "path", "footway": null, "name": null, "surface": "compacted", "lit": null, "length_m": 90.73, "type_element": "Way", "__fid": 121464}, "geometry": {"type": "LineString", "coordinates": [[2.4339041, 48.83532970000001], [2.4351187, 48.83517839999998]]}}, {"type": "Feature", "properties": {"highway": "track", "footway": null, "name": "Allée Royale", "surface": "compacted", "lit": "no", "length_m": 382.84, "type_element": "Way", "__fid": 121466}, "geometry": {"type": "LineString", "coordinates": [[2.4347594, 48.8336847], [2.434068, 48.8302721]]}}, {"type": "Feature", "properties": {"highway": "footway", "footway": null, "name": null, "surface": null, "lit": null, "length_m": 44.37, "type_element": "Way", "__fid": 121467}, "geometry": {"type": "LineString", "coordinates": [[2.434068, 48.8302721], [2.4346721, 48.8302842]]}}]}