{"type": "FeatureCollection", "features": [{"type": "Feature", "properties": {"@id": "node/8349627346", "amenity": "drinking_water", "man_made": "water_tap", "type_element": "Fontaines à boire", "__fid": 747}, "geometry": {"type": "Point", "coordinates": [2.4315944, 48.8228322]}, "id": "node/8349627346"}, {"type": "Feature", "properties": {"highway": "track", "footway": null, "name": "Route Aimable", "surface": "asphalt", "lit": "no", "length_m": 117.85, "type_element": "Way", "__fid": 121241}, "geometry": {"type": "LineString", "coordinates": [[2.4298276, 48.8245476], [2.4300158, 48.8244155], [2.4304961, 48.8238811], [2.4305982, 48.823633]]}}, {"type": "Feature", "properties": {"highway": "path", "footway": null, "name": "Avenue de Gravelle", "surface": "asphalt", "lit": "yes", "length_m": 39.22, "type_element": "Way", "__fid": 121255}, "geometry": {"type": "LineString", "coordinates": [[2.4302282, 48.8233806], [2.4306904, 48.8232037]]}}, {"type": "Feature", "properties": {"highway": "path", "footway": null, "name": null, "surface": null, "lit": null, "length_m": 79.22, "type_element": "Way", "__fid": 121269}, "geometry": {"type": "LineString", "coordinates": [[2.4305982, 48.823633], [2.4310362, 48.8236389], [2.4315606, 48.8236601], [2.4316719, 48.82368040000002]]}}, {"type": "Feature", "properties": {"highway": "track", "footway": null, "name": "Route Aimable", "surface": "asphalt", "lit": "no", "length_m": 50.05, "type_element": "Way", "__fid": 121270}, "geometry": {"type": "LineString", "coordinates": [[2.4305982, 48.823633], [2.4307432, 48.8232729], [2.4306904, 48.8232037]]}}, {"type": "Feature", "properties": {"highway": "track", "footway": null, "name": "Route Aimable", "surface": "asphalt", "lit": "no", "length_m": 7.39, "type_element": "Way", "__fid": 121274}, "geometry": {"type": "LineString", "coordinates": [[2.4306904, 48.8232037], [2.4306204, 48.82315590000001]]}}, {"type": "Feature", "properties": {"highway": "path", "footway": null, "name": "Avenue de Gravelle", "surface": "asphalt", "lit": "yes", "length_m": 52.51, "type_element": "Way", "__fid": 121279}, "geometry": {"type": "LineString", "coordinates": [[2.4306904, 48.8232037], [2.4312843, 48.8229406]]}}, {"type": "Feature", "properties": {"highway": "path", "footway": null, "name": null, "surface": null, "lit": null, "length_m": 6.52, "type_element": "Way", "__fid": 121302}, "geometry": {"type": "LineString", "coordinates": [[2.4312448, 48.8228881], [2.4312843, 48.8229406]]}}, {"type": "Feature", "properties": {"highway": "path", "footway": null, "name": null, "surface": null, "lit": null, "length_m": 82.98, "type_element": "Way", "__fid": 121307}, "geometry": {"type": "LineString", "coordinates": [[2.4312843, 48.8229406], [2.4312725, 48.8230641], [2.4316547, 48.8236332]]}}, {"type": "Feature", "properties": {"highway": "path", "footway": null, "name": "Avenue de Gravelle", "surface": "asphalt", "lit": "yes", "length_m": 21.26, "type_element": "Way", "__fid": 121308}, "geometry": {"type": "LineString", "coordinates": [[2.4312843, 48.8229406], [2.4315165, 48.8228264]]}}, {"type": "Feature", "properties": {"highway": "path", "footway": null, "name": "Route du Ruisseau", "surface": "dirt", "lit": null, "length_m": 7.18, "type_element": "Way", "__fid": 121317}, "geometry": {"type": "LineString", "coordinates": [[2.4314336, 48.8227921], [2.4315165, 48.8228264]]}}, {"type": "Feature", "properties": {"highway": "path", "footway": null, "name": "Route du Ruisseau", "surface": "dirt", "lit": null, "length_m": 221.81, "type_element": "Way", "__fid": 121323}, "geometry": {"type": "LineString", "coordinates": [[2.4315165, 48.8228264], [2.4317478, 48.8228407], [2.4319965, 48.82281360000001], [2.4332432, 48.8227228], [2.4339273, 48.8225795], [2.4344616, 48.8224589]]}}, {"type": "Feature", "properties": {"highway": "path", "footway": null, "name": "Avenue de Gravelle", "surface": "asphalt", "lit": "yes", "length_m": 398.72, "type_element": "Way", "__fid": 121324}, "geometry": {"type": "LineString", "coordinates": [[2.4315165, 48.8228264], [2.4320706, 48.8225187], [2.4325939, 48.822161399999985], [2.4337924, 48.8211735], [2.4344372, 48.820731299999984], [2.4348384, 48.8204884], [2.4352885, 48.82026530000001]]}}, {"type": "Feature", "properties": {"highway": "path", "footway": null, "name": null, "surface": null, "lit": null, "length_m": 5.4, "type_element": "Way", "__fid": 121335}, "geometry": {"type": "LineString", "coordinates": [[2.4316719, 48.82368040000002], [2.4316547, 48.8236332]]}}, {"type": "Feature", "properties": {"highway": "path", "footway": null, "name": null, "surface": null, "lit": null, "length_m": 94.08, "type_element": "Way", "__fid": 121336}, "geometry": {"type": "LineString", "coordinates": [[2.4316547, 48.8236332], [2.4319549, 48.8235568], [2.4323004, 48.823517699999975], [2.4325316, 48.823525], [2.4328877, 48.8236081]]}}, {"type": "Feature", "properties": {"highway": "path", "footway": null, "name": null, "surface": null, "lit": null, "length_m": 57.91, "type_element": "Way", "__fid": 121337}, "geometry": {"type": "LineString", "coordinates": [[2.4316719, 48.82368040000002], [2.4318, 48.823823], [2.4319026, 48.8238605], [2.4320555, 48.8239011], [2.432267, 48.8239958]]}}, {"type": "Feature", "properties": {"highway": "path", "footway": null, "name": null, "surface": null, "lit": null, "length_m": 54.49, "type_element": "Way", "__fid": 121338}, "geometry": {"type": "LineString", "coordinates": [[2.4317443, 48.8241553], [2.4317979, 48.8240277], [2.4317388, 48.8238246], [2.4316719, 48.82368040000002]]}}, {"type": "Feature", "properties": {"highway": "service", "footway": null, "name": "Route de la Tourelle", "surface": "asphalt", "lit": "no", "length_m": 12.21, "type_element": "Way", "__fid": 121406}, "geometry": {"type": "LineString", "coordinates": [[2.4328023, 48.8237023], [2.4328877, 48.8236081]]}}, {"type": "Feature", "properties": {"highway": "service", "footway": null, "name": "Route de la Tourelle", "surface": "asphalt", "lit": "no", "length_m": 172.96, "type_element": "Way", "__fid": 121411}, "geometry": {"type": "LineString", "coordinates": [[2.4328877, 48.8236081], [2.4334813, 48.8230754], [2.4343779, 48.8225042], [2.4344616, 48.8224589]]}}, {"type": "Feature", "properties": {"highway": "path", "footway": null, "name": null, "surface": "dirt", "lit": null, "length_m": 174.99, "type_element": "Way", "__fid": 121412}, "geometry": {"type": "LineString", "coordinates": [[2.4328877, 48.8236081], [2.433011, 48.82357050000002], [2.4333603, 48.8233255], [2.4336446, 48.82310660000002], [2.4342293, 48.822771], [2.4346469, 48.8225592]]}}, {"type": "Feature", "properties": {"highway": "path", "footway": null, "name": null, "surface": "dirt", "lit": null, "length_m": 177.97, "type_element": "Way", "__fid": 121438}, "geometry": {"type": "LineString", "coordinates": [[2.4331763, 48.82384239999998], [2.433516, 48.82348179999999], [2.433836, 48.8232073], [2.4340243, 48.8230864], [2.434878, 48.8227507]]}}, {"type": "Feature", "properties": {"highway": "service", "footway": null, "name": null, "surface": null, "lit": null, "length_m": 103.4, "type_element": "Way", "__fid": 121465}, "geometry": {"type": "LineString", "coordinates": [[2.4341162, 48.8195569], [2.4341875, 48.8199256], [2.4347273, 48.8198972], [2.4348716, 48.8198668], [2.4349896, 48.8198032]]}}]}