{"type": "FeatureCollection", "features": [{"type": "Feature", "properties": {"highway": "path", "footway": null, "name": "Allée Royale", "surface": null, "lit": null, "length_m": 535.76, "type_element": "Way", "__fid": 121446}, "geometry": {"type": "LineString", "coordinates": [[2.4334685, 48.830338300000015], [2.4337308, 48.83140969999999], [2.4340852, 48.8332614], [2.4340975, 48.833379], [2.4341915, 48.8339002], [2.4343578, 48.83463949999998], [2.4344241, 48.8350339], [2.4344361, 48.835068900000024], [2.4344698, 48.8351065]]}}, {"type": "Feature", "properties": {"highway": "track", "footway": null, "name": "Route de la Faluère", "surface": "compacted", "lit": "no", "length_m": 221.75, "type_element": "Way", "__fid": 121459}, "geometry": {"type": "LineString", "coordinates": [[2.433967, 48.8287701], [2.4364366, 48.8299185]]}}, {"type": "Feature", "properties": {"highway": "path", "footway": null, "name": null, "surface": "compacted", "lit": null, "length_m": 42.3, "type_element": "Way", "__fid": 121462}, "geometry": {"type": "LineString", "coordinates": [[2.4339055, 48.8351834], [2.4344698, 48.8351065]]}}, {"type": "Feature", "properties": {"highway": "path", "footway": null, "name": null, "surface": null, "lit": null, "length_m": 121.47, "type_element": "Way", "__fid": 121463}, "geometry": {"type": "LineString", "coordinates": [[2.4351266, 48.83591659999998], [2.4349429, 48.8358734], [2.4346572, 48.8357842], [2.4345312, 48.8357551], [2.4343421, 48.8357516], [2.4342066, 48.8357145], [2.4340336, 48.8355874], [2.4339665, 48.8355123], [2.4339041, 48.83532970000001]]}}, {"type": "Feature", "properties": {"highway": "path", "footway": null, "name": null, "surface": "compacted", "lit": null, "length_m": 90.73, "type_element": "Way", "__fid": 121464}, "geometry": {"type": "LineString", "coordinates": [[2.4339041, 48.83532970000001], [2.4351187, 48.83517839999998]]}}, {"type": "Feature", "properties": {"highway": "track", "footway": null, "name": "Allée Royale", "surface": "compacted", "lit": "no", "length_m": 382.84, "type_element": "Way", "__fid": 121466}, "geometry": {"type": "LineString", "coordinates": [[2.4347594, 48.8336847], [2.434068, 48.8302721]]}}, {"type": "Feature", "properties": {"highway": "footway", "footway": null, "name": null, "surface": null, "lit": null, "length_m": 44.37, "type_element": "Way", "__fid": 121467}, "geometry": {"type": "LineString", "coordinates": [[2.434068, 48.8302721], [2.4346721, 48.8302842]]}}, {"type": "Feature", "properties": {"highway": "path", "footway": null, "name": null, "surface": "compacted", "lit": null, "length_m": 42.77, "type_element": "Way", "__fid": 121497}, "geometry": {"type": "LineString", "coordinates": [[2.4344698, 48.8351065], [2.4350405, 48.835028800000025]]}}, {"type": "Feature", "properties": {"highway": "footway", "footway": null, "name": null, "surface": null, "lit": null, "length_m": 34.46, "type_element": "Way", "__fid": 121507}, "geometry": {"type": "LineString", "coordinates": [[2.4346721, 48.8302842], [2.4347785, 48.8303089], [2.4348181, 48.8303101], [2.434861, 48.8303295], [2.4350004, 48.8303578], [2.4351024, 48.8303984]]}}, {"type": "Feature", "properties": {"highway": "footway", "footway": null, "name": null, "surface": null, "lit": null, "length_m": 90.6, "type_element": "Way", "__fid": 121508}, "geometry": {"type": "LineString", "coordinates": [[2.4346721, 48.8302842], [2.4347725, 48.8303277], [2.4347993, 48.830361300000014], [2.4348844, 48.83042119999999], [2.4349137, 48.83047], [2.4349602, 48.830691499999986], [2.4348771, 48.8308804], [2.4348615, 48.8310226]]}}, {"type": "Feature", "properties": {"highway": "footway", "footway": null, "name": null, "surface": null, "lit": null, "length_m": 41.26, "type_element": "Way", "__fid": 121509}, "geometry": {"type": "LineString", "coordinates": [[2.4346721, 48.8302842], [2.4349483, 48.8302737], [2.4352311, 48.830248300000015]]}}, {"type": "Feature", "properties": {"highway": "track", "footway": null, "name": "Allée Royale", "surface": "compacted", "lit": "no", "length_m": 150.87, "type_element": "Way", "__fid": 121513}, "geometry": {"type": "LineString", "coordinates": [[2.4350405, 48.835028800000025], [2.4347594, 48.8336847]]}}, {"type": "Feature", "properties": {"highway": "path", "footway": null, "name": null, "surface": null, "lit": null, "length_m": 23.55, "type_element": "Way", "__fid": 121514}, "geometry": {"type": "LineString", "coordinates": [[2.4349664, 48.833522899999984], [2.4347594, 48.8336847]]}}, {"type": "Feature", "properties": {"highway": "footway", "footway": null, "name": null, "surface": null, "lit": null, "length_m": 134.44, "type_element": "Way", "__fid": 121522}, "geometry": {"type": "LineString", "coordinates": [[2.4354472, 48.8320485], [2.4352955, 48.8320022], [2.4351748, 48.8318744], [2.4349924, 48.83176669999999], [2.434865, 48.8316727], [2.4347762, 48.8313905], [2.4348615, 48.8310226]]}}, {"type": "Feature", "properties": {"highway": "footway", "footway": null, "name": null, "surface": null, "lit": null, "length_m": 45.37, "type_element": "Way", "__fid": 121523}, "geometry": {"type": "LineString", "coordinates": [[2.4348615, 48.8310226], [2.4349786, 48.8308805], [2.4352316, 48.8306995]]}}, {"type": "Feature", "properties": {"highway": "footway", "footway": null, "name": null, "surface": null, "lit": null, "length_m": 111.82, "type_element": "Way", "__fid": 121531}, "geometry": {"type": "LineString", "coordinates": [[2.4349664, 48.833522899999984], [2.4350139, 48.8335235], [2.4350755, 48.8335094], [2.4354704, 48.83339380000002], [2.4355991, 48.8333356], [2.4356903, 48.83326850000001], [2.4357568, 48.833234], [2.43584, 48.8331545], [2.4360331, 48.83302920000001], [2.4361726, 48.8329497]]}}, {"type": "Feature", "properties": {"highway": "path", "footway": null, "name": null, "surface": null, "lit": null, "length_m": 64.7, "type_element": "Way", "__fid": 121532}, "geometry": {"type": "LineString", "coordinates": [[2.4355319, 48.8330766], [2.4349664, 48.833522899999984]]}}, {"type": "Feature", "properties": {"highway": "footway", "footway": null, "name": null, "surface": null, "lit": null, "length_m": 9.6, "type_element": "Way", "__fid": 121535}, "geometry": {"type": "LineString", "coordinates": [[2.4350332, 48.8304717], [2.4351024, 48.8303984]]}}, {"type": "Feature", "properties": {"highway": "track", "footway": null, "name": "Allée Royale", "surface": "compacted", "lit": "no", "length_m": 17.6, "type_element": "Way", "__fid": 121538}, "geometry": {"type": "LineString", "coordinates": [[2.4351187, 48.83517839999998], [2.4350405, 48.835028800000025]]}}, {"type": "Feature", "properties": {"highway": "path", "footway": null, "name": null, "surface": "compacted", "lit": null, "length_m": 140.6, "type_element": "Way", "__fid": 121539}, "geometry": {"type": "LineString", "coordinates": [[2.4350405, 48.835028800000025], [2.436929, 48.8348175]]}}, {"type": "Feature", "properties": {"highway": "footway", "footway": null, "name": null, "surface": null, "lit": null, "length_m": 22.37, "type_element": "Way", "__fid": 121540}, "geometry": {"type": "LineString", "coordinates": [[2.4351024, 48.8303984], [2.4353035, 48.8304778], [2.4353706, 48.8304919]]}}, {"type": "Feature", "properties": {"highway": "footway", "footway": null, "name": null, "surface": null, "lit": null, "length_m": 19.32, "type_element": "Way", "__fid": 121541}, "geometry": {"type": "LineString", "coordinates": [[2.4352311, 48.830248300000015], [2.4351614, 48.8303083], [2.4351024, 48.8303984]]}}, {"type": "Feature", "properties": {"highway": "path", "footway": null, "name": "Route de la Cavalerie", "surface": null, "lit": null, "length_m": 336.31, "type_element": "Way", "__fid": 121542}, "geometry": {"type": "LineString", "coordinates": [[2.4358283, 48.8381626], [2.4354054, 48.835997800000015], [2.43531, 48.8356407], [2.4351187, 48.83517839999998]]}}, {"type": "Feature", "properties": {"highway": "path", "footway": null, "name": null, "surface": "compacted", "lit": null, "length_m": 131.07, "type_element": "Way", "__fid": 121543}, "geometry": {"type": "LineString", "coordinates": [[2.4351187, 48.83517839999998], [2.4368773, 48.8349741]]}}, {"type": "Feature", "properties": {"highway": "footway", "footway": null, "name": null, "surface": null, "lit": null, "length_m": 30.25, "type_element": "Way", "__fid": 121548}, "geometry": {"type": "LineString", "coordinates": [[2.4352311, 48.830248300000015], [2.4354296, 48.8302289], [2.4356334, 48.8301918]]}}, {"type": "Feature", "properties": {"highway": "footway", "footway": null, "name": null, "surface": null, "lit": null, "length_m": 26.08, "type_element": "Way", "__fid": 121550}, "geometry": {"type": "LineString", "coordinates": [[2.4352316, 48.8306995], [2.4352397, 48.83063590000002], [2.4352579, 48.8305944], [2.4352928, 48.83055020000001], [2.4353706, 48.8304919]]}}, {"type": "Feature", "properties": {"highway": "footway", "footway": null, "name": null, "surface": null, "lit": null, "length_m": 39.35, "type_element": "Way", "__fid": 121551}, "geometry": {"type": "LineString", "coordinates": [[2.4357005, 48.83053430000001], [2.4356334, 48.8305661], [2.4355481, 48.830593], [2.4354543, 48.830613], [2.4353169, 48.8306544], [2.4352316, 48.8306995]]}}, {"type": "Feature", "properties": {"highway": "footway", "footway": null, "name": null, "surface": null, "lit": null, "length_m": 24.78, "type_element": "Way", "__fid": 121552}, "geometry": {"type": "LineString", "coordinates": [[2.4353706, 48.8304919], [2.4355878, 48.8305096], [2.4357005, 48.83053430000001]]}}, {"type": "Feature", "properties": {"highway": "footway", "footway": null, "name": null, "surface": null, "lit": null, "length_m": 38.75, "type_element": "Way", "__fid": 121553}, "geometry": {"type": "LineString", "coordinates": [[2.4353706, 48.8304919], [2.4354618, 48.83040010000001], [2.4355127, 48.8303313], [2.4356173, 48.83022890000002], [2.4356334, 48.8301918]]}}, {"type": "Feature", "properties": {"highway": "footway", "footway": null, "name": null, "surface": null, "lit": null, "length_m": 75.38, "type_element": "Way", "__fid": 121557}, "geometry": {"type": "LineString", "coordinates": [[2.436334, 48.8323651], [2.4361779, 48.8322858], [2.4361082, 48.8322417], [2.4358614, 48.8321552], [2.4357488, 48.8321004], [2.4356849, 48.8320785], [2.4354472, 48.8320485]]}}, {"type": "Feature", "properties": {"highway": "footway", "footway": null, "name": null, "surface": null, "lit": null, "length_m": 75.27, "type_element": "Way", "__fid": 121558}, "geometry": {"type": "LineString", "coordinates": [[2.4354472, 48.8320485], [2.4354905, 48.8320996], [2.4355932, 48.8321305], [2.4356764, 48.8322011], [2.4357595, 48.8322382], [2.436076, 48.8324306], [2.4362012, 48.8324939]]}}, {"type": "Feature", "properties": {"highway": "path", "footway": null, "name": null, "surface": null, "lit": null, "length_m": 51.04, "type_element": "Way", "__fid": 121561}, "geometry": {"type": "LineString", "coordinates": [[2.4359451, 48.8327076], [2.4356915, 48.832924], [2.4355319, 48.8330766]]}}, {"type": "Feature", "properties": {"highway": "footway", "footway": null, "name": null, "surface": null, "lit": null, "length_m": 39.63, "type_element": "Way", "__fid": 121562}, "geometry": {"type": "LineString", "coordinates": [[2.4360465, 48.832970900000014], [2.4358587, 48.8330062], [2.4355825, 48.8330715], [2.4355319, 48.8330766]]}}, {"type": "Feature", "properties": {"highway": "footway", "footway": null, "name": null, "surface": null, "lit": null, "length_m": 53.09, "type_element": "Way", "__fid": 121565}, "geometry": {"type": "LineString", "coordinates": [[2.4356334, 48.8301918], [2.4360706, 48.83009640000002], [2.4363094, 48.830024]]}}, {"type": "Feature", "properties": {"highway": "footway", "footway": null, "name": null, "surface": null, "lit": null, "length_m": 25.17, "type_element": "Way", "__fid": 121566}, "geometry": {"type": "LineString", "coordinates": [[2.4357005, 48.83053430000001], [2.4358158, 48.8305396], [2.435907, 48.830552], [2.4360411, 48.8305555]]}}, {"type": "Feature", "properties": {"highway": "footway", "footway": null, "name": null, "surface": null, "lit": null, "length_m": 32.1, "type_element": "Way", "__fid": 121567}, "geometry": {"type": "LineString", "coordinates": [[2.4357005, 48.83053430000001], [2.435907, 48.8304178], [2.4360116, 48.830333]]}}, {"type": "Feature", "properties": {"highway": "footway", "footway": null, "name": null, "surface": null, "lit": null, "length_m": 13.86, "type_element": "Way", "__fid": 121587}, "geometry": {"type": "LineString", "coordinates": [[2.4359451, 48.8327076], [2.4360358, 48.8327378], [2.4361216, 48.8327484]]}}, {"type": "Feature", "properties": {"highway": "path", "footway": null, "name": null, "surface": null, "lit": null, "length_m": 22.98, "type_element": "Way", "__fid": 121588}, "geometry": {"type": "LineString", "coordinates": [[2.4361449, 48.8325485], [2.4359451, 48.8327076]]}}, {"type": "Feature", "properties": {"highway": "footway", "footway": null, "name": null, "surface": null, "lit": null, "length_m": 24.99, "type_element": "Way", "__fid": 121591}, "geometry": {"type": "LineString", "coordinates": [[2.4360411, 48.8305555], [2.4360385, 48.8304919], [2.4360135, 48.8304322], [2.4360116, 48.830333]]}}, {"type": "Feature", "properties": {"highway": "footway", "footway": null, "name": null, "surface": null, "lit": null, "length_m": 40.91, "type_element": "Way", "__fid": 121592}, "geometry": {"type": "LineString", "coordinates": [[2.4360116, 48.830333], [2.4361913, 48.83017409999999], [2.4362718, 48.8300594], [2.4363094, 48.830024]]}}, {"type": "Feature", "properties": {"highway": "footway", "footway": null, "name": null, "surface": null, "lit": null, "length_m": 21.85, "type_element": "Way", "__fid": 121595}, "geometry": {"type": "LineString", "coordinates": [[2.4360411, 48.8305555], [2.4363314, 48.8305989]]}}, {"type": "Feature", "properties": {"highway": "footway", "footway": null, "name": null, "surface": null, "lit": null, "length_m": 25.35, "type_element": "Way", "__fid": 121596}, "geometry": {"type": "LineString", "coordinates": [[2.4360465, 48.832970900000014], [2.4361216, 48.8327484]]}}, {"type": "Feature", "properties": {"highway": "footway", "footway": null, "name": null, "surface": null, "lit": null, "length_m": 9.55, "type_element": "Way", "__fid": 121597}, "geometry": {"type": "LineString", "coordinates": [[2.4361726, 48.8329497], [2.4360465, 48.832970900000014]]}}, {"type": "Feature", "properties": {"highway": "footway", "footway": null, "name": null, "surface": null, "lit": null, "length_m": 23.99, "type_element": "Way", "__fid": 121598}, "geometry": {"type": "LineString", "coordinates": [[2.4361216, 48.8327484], [2.4361833, 48.8328049], [2.4362321, 48.8328341], [2.4362616, 48.8328748], [2.4363335, 48.8329073]]}}, {"type": "Feature", "properties": {"highway": "footway", "footway": null, "name": null, "surface": null, "lit": null, "length_m": 22.34, "type_element": "Way", "__fid": 121599}, "geometry": {"type": "LineString", "coordinates": [[2.4361216, 48.8327484], [2.4361431, 48.8326443], [2.4361449, 48.8325485]]}}, {"type": "Feature", "properties": {"highway": "path", "footway": null, "name": null, "surface": null, "lit": null, "length_m": 7.34, "type_element": "Way", "__fid": 121600}, "geometry": {"type": "LineString", "coordinates": [[2.4362012, 48.8324939], [2.4361449, 48.8325485]]}}, {"type": "Feature", "properties": {"highway": "footway", "footway": null, "name": null, "surface": null, "lit": null, "length_m": 12.72, "type_element": "Way", "__fid": 121603}, "geometry": {"type": "LineString", "coordinates": [[2.4361726, 48.8329497], [2.4363335, 48.8329073]]}}, {"type": "Feature", "properties": {"highway": "footway", "footway": null, "name": null, "surface": null, "lit": null, "length_m": 42.94, "type_element": "Way", "__fid": 121604}, "geometry": {"type": "LineString", "coordinates": [[2.4362012, 48.8324939], [2.4364354, 48.8326019], [2.4365293, 48.832656600000014], [2.4366713, 48.8327231]]}}, {"type": "Feature", "properties": {"highway": "path", "footway": null, "name": null, "surface": null, "lit": null, "length_m": 17.32, "type_element": "Way", "__fid": 121605}, "geometry": {"type": "LineString", "coordinates": [[2.436334, 48.8323651], [2.4362012, 48.8324939]]}}, {"type": "Feature", "properties": {"highway": "footway", "footway": null, "name": null, "surface": null, "lit": null, "length_m": 15.33, "type_element": "Way", "__fid": 121611}, "geometry": {"type": "LineString", "coordinates": [[2.4363094, 48.830024], [2.4363871, 48.829987], [2.4364667, 48.829934]]}}, {"type": "Feature", "properties": {"highway": "footway", "footway": null, "name": null, "surface": null, "lit": null, "length_m": 6.47, "type_element": "Way", "__fid": 121612}, "geometry": {"type": "LineString", "coordinates": [[2.436414, 48.83061910000002], [2.4363314, 48.8305989]]}}, {"type": "Feature", "properties": {"highway": "footway", "footway": null, "name": null, "surface": null, "lit": null, "length_m": 5.93, "type_element": "Way", "__fid": 121613}, "geometry": {"type": "LineString", "coordinates": [[2.4363314, 48.8305989], [2.4364006, 48.8305714]]}}, {"type": "Feature", "properties": {"highway": "footway", "footway": null, "name": null, "surface": null, "lit": null, "length_m": 63.77, "type_element": "Way", "__fid": 121615}, "geometry": {"type": "LineString", "coordinates": [[2.4369987, 48.832734299999984], [2.436334, 48.8323651]]}}, {"type": "Feature", "properties": {"highway": "path", "footway": null, "name": null, "surface": null, "lit": null, "length_m": 33.92, "type_element": "Way", "__fid": 121616}, "geometry": {"type": "LineString", "coordinates": [[2.4365883, 48.8321106], [2.4365061, 48.8322025], [2.436334, 48.8323651]]}}, {"type": "Feature", "properties": {"highway": "footway", "footway": null, "name": null, "surface": null, "lit": null, "length_m": 26.42, "type_element": "Way", "__fid": 121617}, "geometry": {"type": "LineString", "coordinates": [[2.4363335, 48.8329073], [2.4366709, 48.832824600000016]]}}, {"type": "Feature", "properties": {"highway": "footway", "footway": null, "name": null, "surface": null, "lit": null, "length_m": 5.39, "type_element": "Way", "__fid": 121621}, "geometry": {"type": "LineString", "coordinates": [[2.4364006, 48.8305714], [2.436414, 48.83061910000002]]}}, {"type": "Feature", "properties": {"highway": "footway", "footway": null, "name": null, "surface": null, "lit": null, "length_m": 42.45, "type_element": "Way", "__fid": 121622}, "geometry": {"type": "LineString", "coordinates": [[2.4364006, 48.8305714], [2.4365132, 48.8303984], [2.4365829, 48.8303171], [2.4366715, 48.8302359]]}}, {"type": "Feature", "properties": {"highway": "footway", "footway": null, "name": null, "surface": null, "lit": null, "length_m": 7.67, "type_element": "Way", "__fid": 121623}, "geometry": {"type": "LineString", "coordinates": [[2.436414, 48.83061910000002], [2.4365105, 48.8306456]]}}, {"type": "Feature", "properties": {"highway": "track", "footway": null, "name": "Route de la Faluère", "surface": "compacted", "lit": "no", "length_m": 2.8, "type_element": "Way", "__fid": 121624}, "geometry": {"type": "LineString", "coordinates": [[2.4364366, 48.8299185], [2.4364667, 48.829934]]}}, {"type": "Feature", "properties": {"highway": "path", "footway": null, "name": null, "surface": null, "lit": null, "length_m": 226.85, "type_element": "Way", "__fid": 121625}, "geometry": {"type": "LineString", "coordinates": [[2.4364366, 48.8299185], [2.4364537, 48.82989], [2.4364703, 48.8297467], [2.4365339, 48.8296308], [2.4365258, 48.82955840000001], [2.4363139, 48.8292141], [2.4363032, 48.829004], [2.4363354, 48.8289316], [2.4363756, 48.82888040000002], [2.4364293, 48.8288451], [2.4364775, 48.8287939], [2.436617, 48.8286862], [2.4367538, 48.8286261], [2.4369094, 48.828529], [2.4370113, 48.828416], [2.4370596, 48.8283083], [2.4370763, 48.82809939999998]]}}, {"type": "Feature", "properties": {"highway": "track", "footway": null, "name": "Route de la Faluère", "surface": "compacted", "lit": null, "length_m": 3.21, "type_element": "Way", "__fid": 121626}, "geometry": {"type": "LineString", "coordinates": [[2.4364667, 48.829934], [2.4365046, 48.8299484]]}}, {"type": "Feature", "properties": {"highway": "track", "footway": null, "name": "Route de la Faluère", "surface": "compacted", "lit": null, "length_m": 21.93, "type_element": "Way", "__fid": 121628}, "geometry": {"type": "LineString", "coordinates": [[2.4365046, 48.8299484], [2.436749, 48.8300618]]}}, {"type": "Feature", "properties": {"highway": "footway", "footway": null, "name": null, "surface": null, "lit": null, "length_m": 35.01, "type_element": "Way", "__fid": 121629}, "geometry": {"type": "LineString", "coordinates": [[2.4366715, 48.8302359], [2.4365266, 48.8300523], [2.4364938, 48.8299731], [2.4365046, 48.8299484]]}}, {"type": "Feature", "properties": {"highway": "footway", "footway": null, "name": null, "surface": null, "lit": null, "length_m": 78.7, "type_element": "Way", "__fid": 121635}, "geometry": {"type": "LineString", "coordinates": [[2.4365883, 48.8321106], [2.4365695, 48.8321764], [2.4365669, 48.8322417], [2.4365749, 48.8322858], [2.4366044, 48.8323441], [2.4367787, 48.8325366], [2.4369987, 48.832734299999984]]}}, {"type": "Feature", "properties": {"highway": "path", "footway": null, "name": null, "surface": null, "lit": null, "length_m": 214.63, "type_element": "Way", "__fid": 121636}, "geometry": {"type": "LineString", "coordinates": [[2.4367062, 48.830273100000014], [2.4367722, 48.8304525], [2.4368741, 48.8306185], [2.4370243, 48.8310476], [2.4370404, 48.83134240000001], [2.4369653, 48.831603700000024], [2.4368017, 48.8318492], [2.4365883, 48.8321106]]}}, {"type": "Feature", "properties": {"highway": "footway", "footway": null, "name": null, "surface": null, "lit": null, "length_m": 4.86, "type_element": "Way", "__fid": 121641}, "geometry": {"type": "LineString", "coordinates": [[2.4366715, 48.8302359], [2.4367062, 48.830273100000014]]}}, {"type": "Feature", "properties": {"highway": "path", "footway": null, "name": null, "surface": "dirt", "lit": null, "length_m": 362.87, "type_element": "Way", "__fid": 121642}, "geometry": {"type": "LineString", "coordinates": [[2.4368773, 48.8349741], [2.4368042, 48.8351867], [2.4367877, 48.8352775], [2.4367877, 48.835811100000015], [2.4367768, 48.835872299999984], [2.436727, 48.8359382], [2.4366608, 48.8360725], [2.436385, 48.836326599999985], [2.4363519, 48.8363774], [2.4362968, 48.8365154], [2.4362803, 48.8369546], [2.4363078, 48.8370236], [2.4366718, 48.8374011], [2.4366829, 48.837452], [2.4366773, 48.8375282], [2.4366112, 48.83768790000001], [2.4365891, 48.8377678], [2.4365781, 48.83793840000001], [2.4365998, 48.8380675]]}}, {"type": "Feature", "properties": {"highway": "footway", "footway": null, "name": null, "surface": null, "lit": null, "length_m": 16.0, "type_element": "Way", "__fid": 121644}, "geometry": {"type": "LineString", "coordinates": [[2.4366713, 48.8327231], [2.4367969, 48.8327698], [2.4368699, 48.83277670000001]]}}, {"type": "Feature", "properties": {"highway": "footway", "footway": null, "name": null, "surface": null, "lit": null, "length_m": 11.29, "type_element": "Way", "__fid": 121645}, "geometry": {"type": "LineString", "coordinates": [[2.4366713, 48.8327231], [2.4366709, 48.832824600000016]]}}, {"type": "Feature", "properties": {"highway": "footway", "footway": null, "name": null, "surface": null, "lit": null, "length_m": 42.87, "type_element": "Way", "__fid": 121646}, "geometry": {"type": "LineString", "coordinates": [[2.4372115, 48.832947799999985], [2.4370774, 48.8328827], [2.4368241, 48.8328586], [2.4366709, 48.832824600000016]]}}, {"type": "Feature", "properties": {"highway": "footway", "footway": null, "name": null, "surface": null, "lit": null, "length_m": 15.55, "type_element": "Way", "__fid": 121647}, "geometry": {"type": "LineString", "coordinates": [[2.4366709, 48.832824600000016], [2.4368699, 48.83277670000001]]}}, {"type": "Feature", "properties": {"highway": "path", "footway": null, "name": null, "surface": null, "lit": null, "length_m": 22.31, "type_element": "Way", "__fid": 121648}, "geometry": {"type": "LineString", "coordinates": [[2.436799, 48.8300856], [2.4367153, 48.83019740000001], [2.4367062, 48.830273100000014]]}}, {"type": "Feature", "properties": {"highway": "track", "footway": null, "name": "Route de la Faluère", "surface": "compacted", "lit": null, "length_m": 4.53, "type_element": "Way", "__fid": 121651}, "geometry": {"type": "LineString", "coordinates": [[2.436749, 48.8300618], [2.436799, 48.8300856]]}}, {"type": "Feature", "properties": {"highway": "path", "footway": null, "name": null, "surface": null, "lit": null, "length_m": 240.97, "type_element": "Way", "__fid": 121652}, "geometry": {"type": "LineString", "coordinates": [[2.4376738, 48.8280642], [2.43766, 48.8281773], [2.4376801, 48.8282527], [2.4375889, 48.828587], [2.4376009, 48.8286797], [2.4375674, 48.8288889], [2.4375138, 48.829001900000016], [2.4375205, 48.8291653], [2.4374454, 48.82925090000001], [2.4372683, 48.82936209999998], [2.4370618, 48.82952370000001], [2.4369343, 48.8296709], [2.4368785, 48.8297549], [2.436768, 48.83003640000001], [2.436749, 48.8300618]]}}, {"type": "Feature", "properties": {"highway": "track", "footway": null, "name": "Route de la Faluère", "surface": "compacted", "lit": null, "length_m": 67.94, "type_element": "Way", "__fid": 121655}, "geometry": {"type": "LineString", "coordinates": [[2.436799, 48.8300856], [2.4375568, 48.8304363]]}}, {"type": "Feature", "properties": {"highway": "footway", "footway": null, "name": null, "surface": null, "lit": null, "length_m": 12.11, "type_element": "Way", "__fid": 121659}, "geometry": {"type": "LineString", "coordinates": [[2.4368699, 48.83277670000001], [2.4370336, 48.8327634]]}}, {"type": "Feature", "properties": {"highway": "path", "footway": null, "name": null, "surface": "dirt", "lit": null, "length_m": 17.92, "type_element": "Way", "__fid": 121660}, "geometry": {"type": "LineString", "coordinates": [[2.436929, 48.8348175], [2.4368924, 48.834889], [2.4368773, 48.8349741]]}}, {"type": "Feature", "properties": {"highway": "path", "footway": null, "name": null, "surface": "compacted", "lit": null, "length_m": 48.42, "type_element": "Way", "__fid": 121661}, "geometry": {"type": "LineString", "coordinates": [[2.4368773, 48.8349741], [2.4375239, 48.83488790000001]]}}, {"type": "Feature", "properties": {"highway": "path", "footway": null, "name": "Route Dauphine", "surface": "compacted", "lit": null, "length_m": 263.18, "type_element": "Way", "__fid": 121666}, "geometry": {"type": "LineString", "coordinates": [[2.4368987, 48.8373066], [2.4376873, 48.83499770000002]]}}, {"type": "Feature", "properties": {"highway": "path", "footway": null, "name": null, "surface": "dirt", "lit": null, "length_m": 63.7, "type_element": "Way", "__fid": 121667}, "geometry": {"type": "LineString", "coordinates": [[2.4370146, 48.834247900000015], [2.4369917, 48.8345151], [2.436929, 48.8348175]]}}, {"type": "Feature", "properties": {"highway": "path", "footway": null, "name": null, "surface": "compacted", "lit": null, "length_m": 41.44, "type_element": "Way", "__fid": 121668}, "geometry": {"type": "LineString", "coordinates": [[2.436929, 48.8348175], [2.4374854, 48.8347546]]}}, {"type": "Feature", "properties": {"highway": "footway", "footway": null, "name": null, "surface": null, "lit": null, "length_m": 4.13, "type_element": "Way", "__fid": 121669}, "geometry": {"type": "LineString", "coordinates": [[2.4370336, 48.8327634], [2.4369987, 48.832734299999984]]}}, {"type": "Feature", "properties": {"highway": "path", "footway": null, "name": "Route Dauphine", "surface": "compacted", "lit": "no", "length_m": 264.89, "type_element": "Way", "__fid": 121671}, "geometry": {"type": "LineString", "coordinates": [[2.4378074, 48.8350175], [2.4369574, 48.8373327]]}}, {"type": "Feature", "properties": {"highway": "path", "footway": null, "name": null, "surface": null, "lit": null, "length_m": 62.63, "type_element": "Way", "__fid": 121675}, "geometry": {"type": "LineString", "coordinates": [[2.4376212, 48.8346095], [2.4375159, 48.834538], [2.4374071, 48.83448460000001], [2.4373226, 48.8344001], [2.4373096, 48.834352], [2.4372512, 48.8343135], [2.4370146, 48.834247900000015]]}}, {"type": "Feature", "properties": {"highway": "path", "footway": null, "name": null, "surface": "dirt", "lit": null, "length_m": 183.03, "type_element": "Way", "__fid": 121676}, "geometry": {"type": "LineString", "coordinates": [[2.4372115, 48.832947799999985], [2.4373856, 48.8330305], [2.4373529, 48.8332187], [2.4373117, 48.8333196], [2.4372778, 48.833487099999985], [2.437252, 48.833982], [2.4372026, 48.8340807], [2.4371538, 48.8340995], [2.4370282, 48.834064], [2.4368641, 48.83408520000001], [2.4368611, 48.834146], [2.4370146, 48.834247900000015]]}}, {"type": "Feature", "properties": {"highway": "footway", "footway": null, "name": null, "surface": null, "lit": null, "length_m": 12.01, "type_element": "Way", "__fid": 121677}, "geometry": {"type": "LineString", "coordinates": [[2.4370336, 48.8327634], [2.4371769, 48.83281549999999]]}}, {"type": "Feature", "properties": {"highway": "path", "footway": null, "name": null, "surface": "dirt", "lit": null, "length_m": 14.93, "type_element": "Way", "__fid": 121685}, "geometry": {"type": "LineString", "coordinates": [[2.4371769, 48.83281549999999], [2.4372115, 48.832947799999985]]}}, {"type": "Feature", "properties": {"highway": "path", "footway": null, "name": null, "surface": "ground", "lit": null, "length_m": 266.23, "type_element": "Way", "__fid": 121686}, "geometry": {"type": "LineString", "coordinates": [[2.4371769, 48.83281549999999], [2.4371815, 48.8325429], [2.4374534, 48.8310688], [2.4375232, 48.8305511], [2.4375568, 48.8304363]]}}, {"type": "Feature", "properties": {"highway": "path", "footway": null, "name": null, "surface": "fine_gravel", "lit": null, "length_m": 15.54, "type_element": "Way", "__fid": 121713}, "geometry": {"type": "LineString", "coordinates": [[2.4374854, 48.8347546], [2.4374751, 48.8348051], [2.4375239, 48.83488790000001]]}}, {"type": "Feature", "properties": {"highway": "path", "footway": null, "name": null, "surface": "fine_gravel", "lit": null, "length_m": 19.33, "type_element": "Way", "__fid": 121714}, "geometry": {"type": "LineString", "coordinates": [[2.4376212, 48.8346095], [2.4375738, 48.8346362], [2.4375225, 48.8346892], [2.4374854, 48.8347546]]}}, {"type": "Feature", "properties": {"highway": "track", "footway": null, "name": "Route de la Faluère", "surface": "compacted", "lit": null, "length_m": 114.37, "type_element": "Way", "__fid": 121717}, "geometry": {"type": "LineString", "coordinates": [[2.4375568, 48.8304363], [2.4388325, 48.8310267]]}}, {"type": "Feature", "properties": {"highway": "path", "footway": null, "name": null, "surface": "ground", "lit": null, "length_m": 266.23, "type_element": "Way", "__fid": 121718}, "geometry": {"type": "LineString", "coordinates": [[2.4375568, 48.8304363], [2.4375473, 48.8302566], [2.4375795, 48.8300037], [2.4375969, 48.829723], [2.4377618, 48.8285986], [2.4378139, 48.8283342], [2.4378621, 48.8281567], [2.4378491, 48.8280539]]}}, {"type": "Feature", "properties": {"highway": "path", "footway": null, "name": null, "surface": "fine_gravel", "lit": null, "length_m": 17.26, "type_element": "Way", "__fid": 121719}, "geometry": {"type": "LineString", "coordinates": [[2.4375239, 48.83488790000001], [2.4376244, 48.8349689], [2.4376873, 48.83499770000002]]}}, {"type": "Feature", "properties": {"highway": "path", "footway": null, "name": null, "surface": "fine_gravel", "lit": null, "length_m": 21.54, "type_element": "Way", "__fid": 121732}, "geometry": {"type": "LineString", "coordinates": [[2.4378926, 48.83456969999999], [2.4378228, 48.8345576], [2.4377707, 48.834559], [2.4376487, 48.834594], [2.4376212, 48.8346095]]}}, {"type": "Feature", "properties": {"highway": "path", "footway": null, "name": null, "surface": "fine_gravel", "lit": null, "length_m": 9.09, "type_element": "Way", "__fid": 121739}, "geometry": {"type": "LineString", "coordinates": [[2.4376873, 48.83499770000002], [2.4378074, 48.8350175]]}}, {"type": "Feature", "properties": {"highway": "path", "footway": null, "name": null, "surface": "fine_gravel", "lit": null, "length_m": 3.26, "type_element": "Way", "__fid": 121751}, "geometry": {"type": "LineString", "coordinates": [[2.4378074, 48.8350175], [2.4378517, 48.8350189]]}}, {"type": "Feature", "properties": {"highway": "path", "footway": null, "name": null, "surface": "fine_gravel", "lit": null, "length_m": 15.04, "type_element": "Way", "__fid": 121756}, "geometry": {"type": "LineString", "coordinates": [[2.4380896, 48.8346069], [2.4378926, 48.83456969999999]]}}, {"type": "Feature", "properties": {"highway": "service", "footway": null, "name": "Route Royale de Beauté", "surface": "asphalt", "lit": "no", "length_m": 305.96, "type_element": "Way", "__fid": 121757}, "geometry": {"type": "LineString", "coordinates": [[2.4378926, 48.83456969999999], [2.4378907, 48.8346513], [2.4379183, 48.8346899], [2.4379633, 48.8347205], [2.4380617, 48.8347528], [2.4381998, 48.83475120000002], [2.4418053, 48.83430910000001]]}}, {"type": "Feature", "properties": {"highway": "service", "footway": null, "name": "Route Dauphine", "surface": "asphalt", "lit": "no", "length_m": 290.04, "type_element": "Way", "__fid": 121758}, "geometry": {"type": "LineString", "coordinates": [[2.4388245, 48.83203480000002], [2.4378926, 48.83456969999999]]}}, {"type": "Feature", "properties": {"highway": "path", "footway": null, "name": null, "surface": "terra", "lit": null, "length_m": 276.9, "type_element": "Way", "__fid": 121773}, "geometry": {"type": "LineString", "coordinates": [[2.4380896, 48.8346069], [2.4381206, 48.8346353], [2.4381703, 48.8346529], [2.4417785, 48.8342367]]}}, {"type": "Feature", "properties": {"highway": "path", "footway": null, "name": null, "surface": "asphalt", "lit": null, "length_m": 289.58, "type_element": "Way", "__fid": 121774}, "geometry": {"type": "LineString", "coordinates": [[2.438974, 48.8320712], [2.4380868, 48.8345383], [2.4380896, 48.8346069]]}}, {"type": "Feature", "properties": {"highway": "footway", "footway": null, "name": null, "surface": null, "lit": null, "length_m": 74.47, "type_element": "Way", "__fid": 121781}, "geometry": {"type": "LineString", "coordinates": [[2.4382003, 48.832345899999986], [2.4382003, 48.8323017], [2.4381435, 48.8322473], [2.4381333, 48.8322011], [2.4381634, 48.8321681], [2.4382304, 48.8321337], [2.438618, 48.8320304], [2.4387342, 48.8320128], [2.4388245, 48.83203480000002]]}}, {"type": "Feature", "properties": {"highway": "path", "footway": null, "name": null, "surface": "compacted", "lit": "no", "length_m": 436.97, "type_element": "Way", "__fid": 121818}, "geometry": {"type": "LineString", "coordinates": [[2.4387455, 48.8380755], [2.4401486, 48.8370827], [2.4406377, 48.8366873], [2.4426205, 48.83526359999998], [2.4427426, 48.8351646]]}}, {"type": "Feature", "properties": {"highway": "track", "footway": null, "name": null, "surface": "dirt", "lit": null, "length_m": 41.66, "type_element": "Way", "__fid": 121820}, "geometry": {"type": "LineString", "coordinates": [[2.4388325, 48.8310267], [2.4388133, 48.8310878], [2.4388205, 48.83115], [2.4388536, 48.8312084], [2.4389099, 48.83125860000002], [2.4389851, 48.831296600000016], [2.4390733, 48.8313194]]}}, {"type": "Feature", "properties": {"highway": "track", "footway": null, "name": null, "surface": "dirt", "lit": null, "length_m": 36.07, "type_element": "Way", "__fid": 121821}, "geometry": {"type": "LineString", "coordinates": [[2.439228, 48.8308842], [2.4391465, 48.83087860000001], [2.4390653, 48.830886], [2.4389892, 48.830906], [2.4389225, 48.8309374], [2.4388693, 48.8309784], [2.4388325, 48.8310267]]}}, {"type": "Feature", "properties": {"highway": "footway", "footway": null, "name": null, "surface": null, "lit": null, "length_m": 11.7, "type_element": "Way", "__fid": 121823}, "geometry": {"type": "LineString", "coordinates": [[2.4388245, 48.83203480000002], [2.438974, 48.8320712]]}}, {"type": "Feature", "properties": {"highway": "service", "footway": null, "name": "Route Dauphine", "surface": "asphalt", "lit": "no", "length_m": 81.62, "type_element": "Way", "__fid": 121824}, "geometry": {"type": "LineString", "coordinates": [[2.4390733, 48.8313194], [2.4388245, 48.83203480000002]]}}, {"type": "Feature", "properties": {"highway": "footway", "footway": null, "name": null, "surface": null, "lit": null, "length_m": 51.25, "type_element": "Way", "__fid": 121835}, "geometry": {"type": "LineString", "coordinates": [[2.438974, 48.8320712], [2.4395443, 48.832337]]}}, {"type": "Feature", "properties": {"highway": "path", "footway": null, "name": null, "surface": "asphalt", "lit": null, "length_m": 87.19, "type_element": "Way", "__fid": 121836}, "geometry": {"type": "LineString", "coordinates": [[2.4392679, 48.8313121], [2.4392055, 48.8314273], [2.438974, 48.8320712]]}}, {"type": "Feature", "properties": {"highway": "track", "footway": null, "name": null, "surface": "dirt", "lit": null, "length_m": 14.46, "type_element": "Way", "__fid": 121841}, "geometry": {"type": "LineString", "coordinates": [[2.4390733, 48.8313194], [2.4391714, 48.8313252], [2.4392679, 48.8313121]]}}, {"type": "Feature", "properties": {"highway": "service", "footway": null, "name": "Route Dauphine", "surface": "asphalt", "lit": "no", "length_m": 49.71, "type_element": "Way", "__fid": 121842}, "geometry": {"type": "LineString", "coordinates": [[2.439228, 48.8308842], [2.4390733, 48.8313194]]}}, {"type": "Feature", "properties": {"highway": "footway", "footway": null, "name": null, "surface": null, "lit": null, "length_m": 85.66, "type_element": "Way", "__fid": 121848}, "geometry": {"type": "LineString", "coordinates": [[2.4390973, 48.8327467], [2.4400522, 48.83318950000001]]}}, {"type": "Feature", "properties": {"highway": "footway", "footway": null, "name": null, "surface": null, "lit": null, "length_m": 92.6, "type_element": "Way", "__fid": 121849}, "geometry": {"type": "LineString", "coordinates": [[2.4390973, 48.8327467], [2.4387107, 48.8331011], [2.4387101, 48.83317559999998], [2.4391098, 48.8333594]]}}, {"type": "Feature", "properties": {"highway": "footway", "footway": null, "name": null, "surface": null, "lit": null, "length_m": 56.14, "type_element": "Way", "__fid": 121850}, "geometry": {"type": "LineString", "coordinates": [[2.4395443, 48.832337], [2.4390973, 48.8327467]]}}, {"type": "Feature", "properties": {"highway": "footway", "footway": null, "name": null, "surface": null, "lit": null, "length_m": 45.65, "type_element": "Way", "__fid": 121851}, "geometry": {"type": "LineString", "coordinates": [[2.4391098, 48.8333594], [2.4396202, 48.833594]]}}, {"type": "Feature", "properties": {"highway": "footway", "footway": null, "name": null, "surface": null, "lit": null, "length_m": 199.65, "type_element": "Way", "__fid": 121852}, "geometry": {"type": "LineString", "coordinates": [[2.4400902, 48.8338101], [2.4396441, 48.8342205], [2.4386664, 48.83376590000001], [2.4391098, 48.8333594]]}}, {"type": "Feature", "properties": {"highway": "track", "footway": null, "name": null, "surface": "dirt", "lit": null, "length_m": 49.77, "type_element": "Way", "__fid": 121856}, "geometry": {"type": "LineString", "coordinates": [[2.4394198, 48.8312395], [2.4394679, 48.8311841], [2.4394903, 48.8311219], [2.439485, 48.8310581], [2.4394525, 48.8309979], [2.4393955, 48.8309462], [2.4393186, 48.830907300000014], [2.439228, 48.8308842]]}}, {"type": "Feature", "properties": {"highway": "service", "footway": null, "name": "Route Dauphine", "surface": "asphalt", "lit": "no", "length_m": 344.47, "type_element": "Way", "__fid": 121857}, "geometry": {"type": "LineString", "coordinates": [[2.4403081, 48.8278694], [2.439228, 48.8308842]]}}, {"type": "Feature", "properties": {"highway": "track", "footway": null, "name": null, "surface": "dirt", "lit": null, "length_m": 13.9, "type_element": "Way", "__fid": 121861}, "geometry": {"type": "LineString", "coordinates": [[2.4392679, 48.8313121], [2.4393516, 48.8312829], [2.4394198, 48.8312395]]}}, {"type": "Feature", "properties": {"highway": "service", "footway": null, "name": "Route de la Faluère", "surface": null, "lit": null, "length_m": 338.69, "type_element": "Way", "__fid": 121868}, "geometry": {"type": "LineString", "coordinates": [[2.4394198, 48.8312395], [2.4431968, 48.83298890000002]]}}, {"type": "Feature", "properties": {"highway": "footway", "footway": null, "name": null, "surface": null, "lit": null, "length_m": 85.33, "type_element": "Way", "__fid": 121877}, "geometry": {"type": "LineString", "coordinates": [[2.4395443, 48.832337], [2.4404981, 48.8327757]]}}, {"type": "Feature", "properties": {"highway": "footway", "footway": null, "name": null, "surface": null, "lit": null, "length_m": 42.04, "type_element": "Way", "__fid": 121883}, "geometry": {"type": "LineString", "coordinates": [[2.4396202, 48.833594], [2.4400902, 48.8338101]]}}, {"type": "Feature", "properties": {"highway": "footway", "footway": null, "name": null, "surface": null, "lit": null, "length_m": 55.03, "type_element": "Way", "__fid": 121884}, "geometry": {"type": "LineString", "coordinates": [[2.4400522, 48.83318950000001], [2.4396202, 48.833594]]}}, {"type": "Feature", "properties": {"highway": "footway", "footway": null, "name": null, "surface": null, "lit": null, "length_m": 85.07, "type_element": "Way", "__fid": 121926}, "geometry": {"type": "LineString", "coordinates": [[2.4400522, 48.83318950000001], [2.4410004, 48.8336293]]}}, {"type": "Feature", "properties": {"highway": "footway", "footway": null, "name": null, "surface": null, "lit": null, "length_m": 56.47, "type_element": "Way", "__fid": 121927}, "geometry": {"type": "LineString", "coordinates": [[2.4404981, 48.8327757], [2.4400522, 48.83318950000001]]}}, {"type": "Feature", "properties": {"highway": "footway", "footway": null, "name": null, "surface": null, "lit": null, "length_m": 97.43, "type_element": "Way", "__fid": 121936}, "geometry": {"type": "LineString", "coordinates": [[2.4400902, 48.8338101], [2.4405681, 48.8340298], [2.4410004, 48.8336293]]}}, {"type": "Feature", "properties": {"highway": "footway", "footway": null, "name": null, "surface": null, "lit": null, "length_m": 85.12, "type_element": "Way", "__fid": 121971}, "geometry": {"type": "LineString", "coordinates": [[2.4404981, 48.8327757], [2.4414495, 48.8332133]]}}, {"type": "Feature", "properties": {"highway": "footway", "footway": null, "name": null, "surface": null, "lit": null, "length_m": 25.99, "type_element": "Way", "__fid": 122011}, "geometry": {"type": "LineString", "coordinates": [[2.4410004, 48.8336293], [2.4412901, 48.8337637]]}}, {"type": "Feature", "properties": {"highway": "footway", "footway": null, "name": null, "surface": null, "lit": null, "length_m": 56.8, "type_element": "Way", "__fid": 122012}, "geometry": {"type": "LineString", "coordinates": [[2.4410004, 48.8336293], [2.4414495, 48.8332133]]}}, {"type": "Feature", "properties": {"highway": "service", "footway": null, "name": null, "surface": "asphalt", "lit": null, "length_m": 8.78, "type_element": "Way", "__fid": 122027}, "geometry": {"type": "LineString", "coordinates": [[2.4411515, 48.8338886], [2.4412496, 48.83393379999998]]}}, {"type": "Feature", "properties": {"highway": "service", "footway": null, "name": null, "surface": "asphalt", "lit": null, "length_m": 39.37, "type_element": "Way", "__fid": 122035}, "geometry": {"type": "LineString", "coordinates": [[2.4412496, 48.83393379999998], [2.4416922, 48.83413370000002]]}}, {"type": "Feature", "properties": {"highway": "footway", "footway": null, "name": null, "surface": "asphalt", "lit": null, "length_m": 25.87, "type_element": "Way", "__fid": 122036}, "geometry": {"type": "LineString", "coordinates": [[2.4412901, 48.8337637], [2.4413869, 48.83380860000001], [2.4412496, 48.83393379999998]]}}, {"type": "Feature", "properties": {"highway": "footway", "footway": null, "name": null, "surface": "asphalt", "lit": null, "length_m": 56.91, "type_element": "Way", "__fid": 122044}, "geometry": {"type": "LineString", "coordinates": [[2.4417448, 48.8333492], [2.4412901, 48.8337637]]}}, {"type": "Feature", "properties": {"highway": "footway", "footway": null, "name": null, "surface": null, "lit": null, "length_m": 26.42, "type_element": "Way", "__fid": 122065}, "geometry": {"type": "LineString", "coordinates": [[2.4414495, 48.8332133], [2.4417448, 48.8333492]]}}, {"type": "Feature", "properties": {"highway": "service", "footway": null, "name": null, "surface": null, "lit": null, "length_m": 118.83, "type_element": "Way", "__fid": 122074}, "geometry": {"type": "LineString", "coordinates": [[2.4427426, 48.8351646], [2.4425768, 48.8350927], [2.4424773, 48.835081899999985], [2.4423527, 48.8350862], [2.4422735, 48.8350421], [2.4421738, 48.8349226], [2.4420727, 48.8348399], [2.4419143, 48.8347482], [2.4417067, 48.834661], [2.4414554, 48.8346016]]}}, {"type": "Feature", "properties": {"highway": "path", "footway": null, "name": "Route de la Pyramide", "surface": "asphalt", "lit": "yes", "length_m": 330.13, "type_element": "Way", "__fid": 122082}, "geometry": {"type": "LineString", "coordinates": [[2.4415202, 48.8364682], [2.4432255, 48.8351841], [2.4444581, 48.8342204]]}}, {"type": "Feature", "properties": {"highway": "track", "footway": null, "name": null, "surface": "asphalt", "lit": "yes", "length_m": 345.29, "type_element": "Way", "__fid": 122090}, "geometry": {"type": "LineString", "coordinates": [[2.4445908, 48.8343674], [2.4439605, 48.83486790000003], [2.4422304, 48.8361912], [2.4416129, 48.8366422], [2.4415362, 48.8367267]]}}, {"type": "Feature", "properties": {"highway": "footway", "footway": null, "name": null, "surface": "asphalt", "lit": null, "length_m": 12.64, "type_element": "Way", "__fid": 122099}, "geometry": {"type": "LineString", "coordinates": [[2.4417692, 48.8342115], [2.4417209, 48.8342051], [2.4417014, 48.834194900000014], [2.4416815, 48.8341653], [2.4416922, 48.83413370000002]]}}, {"type": "Feature", "properties": {"highway": "footway", "footway": null, "name": null, "surface": "asphalt", "lit": null, "length_m": 11.3, "type_element": "Way", "__fid": 122100}, "geometry": {"type": "LineString", "coordinates": [[2.4416922, 48.83413370000002], [2.4417082, 48.83412110000002], [2.4417536, 48.834108600000015], [2.4418047, 48.8341178], [2.4418237, 48.8341303]]}}, {"type": "Feature", "properties": {"highway": "footway", "footway": null, "name": null, "surface": null, "lit": null, "length_m": 54.38, "type_element": "Way", "__fid": 122108}, "geometry": {"type": "LineString", "coordinates": [[2.4417448, 48.8333492], [2.4423526, 48.8336288]]}}, {"type": "Feature", "properties": {"highway": "footway", "footway": null, "name": null, "surface": "asphalt", "lit": null, "length_m": 2.88, "type_element": "Way", "__fid": 122110}, "geometry": {"type": "LineString", "coordinates": [[2.4417692, 48.8342115], [2.4417785, 48.8342367]]}}, {"type": "Feature", "properties": {"highway": "footway", "footway": null, "name": null, "surface": "asphalt", "lit": null, "length_m": 11.7, "type_element": "Way", "__fid": 122111}, "geometry": {"type": "LineString", "coordinates": [[2.4418237, 48.8341303], [2.4418379, 48.8341639], [2.4418314, 48.83418109999999], [2.4418165, 48.83419579999999], [2.4417692, 48.8342115]]}}, {"type": "Feature", "properties": {"highway": "footway", "footway": null, "name": null, "surface": "asphalt", "lit": null, "length_m": 8.29, "type_element": "Way", "__fid": 122115}, "geometry": {"type": "LineString", "coordinates": [[2.4417785, 48.8342367], [2.4418053, 48.83430910000001]]}}, {"type": "Feature", "properties": {"highway": "path", "footway": null, "name": null, "surface": "terra", "lit": null, "length_m": 113.88, "type_element": "Way", "__fid": 122116}, "geometry": {"type": "LineString", "coordinates": [[2.4417785, 48.8342367], [2.4433067, 48.8340604]]}}, {"type": "Feature", "properties": {"highway": "path", "footway": null, "name": null, "surface": "compacted", "lit": null, "length_m": 115.49, "type_element": "Way", "__fid": 122117}, "geometry": {"type": "LineString", "coordinates": [[2.4428617, 48.8350681], [2.4426266, 48.83492429999998], [2.4424927, 48.8348672], [2.4423534, 48.834782300000015], [2.4421322, 48.83459170000001], [2.4418785, 48.8343915], [2.4418053, 48.83430910000001]]}}, {"type": "Feature", "properties": {"highway": "service", "footway": null, "name": "Route Royale de Beauté", "surface": "asphalt", "lit": "no", "length_m": 120.96, "type_element": "Way", "__fid": 122118}, "geometry": {"type": "LineString", "coordinates": [[2.4418053, 48.83430910000001], [2.4434265, 48.8341145]]}}, {"type": "Feature", "properties": {"highway": "footway", "footway": null, "name": null, "surface": null, "lit": null, "length_m": 69.47, "type_element": "Way", "__fid": 122120}, "geometry": {"type": "LineString", "coordinates": [[2.4423526, 48.8336288], [2.4422297, 48.8337464], [2.4422337, 48.8337826], [2.4422163, 48.8338135], [2.4421895, 48.8338356], [2.4421254, 48.8338609], [2.4418237, 48.8341303]]}}, {"type": "Feature", "properties": {"highway": "footway", "footway": null, "name": null, "surface": "compacted", "lit": "no", "length_m": 81.75, "type_element": "Way", "__fid": 122168}, "geometry": {"type": "LineString", "coordinates": [[2.4422047, 48.83582850000001], [2.4422574, 48.835816499999986], [2.4423376, 48.83576269999999], [2.4424601, 48.83565059999999], [2.4426926, 48.8354702], [2.4428546, 48.8353827], [2.4429475, 48.835291800000014]]}}, {"type": "Feature", "properties": {"highway": "footway", "footway": null, "name": null, "surface": null, "lit": null, "length_m": 7.67, "type_element": "Way", "__fid": 122179}, "geometry": {"type": "LineString", "coordinates": [[2.4423526, 48.8336288], [2.4424384, 48.8336682]]}}, {"type": "Feature", "properties": {"highway": "footway", "footway": null, "name": null, "surface": null, "lit": null, "length_m": 77.23, "type_element": "Way", "__fid": 122193}, "geometry": {"type": "LineString", "coordinates": [[2.4424384, 48.8336682], [2.4433067, 48.8340604]]}}, {"type": "Feature", "properties": {"highway": "footway", "footway": null, "name": null, "surface": null, "lit": null, "length_m": 94.0, "type_element": "Way", "__fid": 122194}, "geometry": {"type": "LineString", "coordinates": [[2.4424384, 48.8336682], [2.4425055, 48.8336294], [2.4431968, 48.83298890000002]]}}, {"type": "Feature", "properties": {"highway": "service", "footway": null, "name": null, "surface": null, "lit": null, "length_m": 207.64, "type_element": "Way", "__fid": 122228}, "geometry": {"type": "LineString", "coordinates": [[2.4440525, 48.8349067], [2.443901, 48.8350525], [2.4437261, 48.8352924], [2.4436761, 48.8354317], [2.4434615, 48.8355865], [2.4428495, 48.8361283], [2.4426968, 48.8361686], [2.4425658, 48.8361119], [2.4427155, 48.8359573]]}}, {"type": "Feature", "properties": {"highway": "service", "footway": null, "name": null, "surface": null, "lit": null, "length_m": 20.65, "type_element": "Way", "__fid": 122229}, "geometry": {"type": "LineString", "coordinates": [[2.4429475, 48.835291800000014], [2.4427426, 48.8351646]]}}, {"type": "Feature", "properties": {"highway": "path", "footway": null, "name": null, "surface": "compacted", "lit": "no", "length_m": 13.84, "type_element": "Way", "__fid": 122230}, "geometry": {"type": "LineString", "coordinates": [[2.4427426, 48.8351646], [2.4428617, 48.8350681]]}}, {"type": "Feature", "properties": {"highway": "service", "footway": null, "name": null, "surface": "asphalt", "lit": null, "length_m": 75.64, "type_element": "Way", "__fid": 122236}, "geometry": {"type": "LineString", "coordinates": [[2.4436366, 48.8325742], [2.4435738, 48.8325742], [2.4435357, 48.83258639999998], [2.4435083, 48.8326062], [2.4428509, 48.83221540000001]]}}, {"type": "Feature", "properties": {"highway": "path", "footway": null, "name": null, "surface": "compacted", "lit": null, "length_m": 20.79, "type_element": "Way", "__fid": 122241}, "geometry": {"type": "LineString", "coordinates": [[2.4428617, 48.8350681], [2.4430747, 48.8351914]]}}, {"type": "Feature", "properties": {"highway": "path", "footway": null, "name": null, "surface": "compacted", "lit": "no", "length_m": 184.7, "type_element": "Way", "__fid": 122242}, "geometry": {"type": "LineString", "coordinates": [[2.4428617, 48.8350681], [2.4439925, 48.8341512], [2.4443232, 48.8340748], [2.4445528, 48.8340447], [2.4446926, 48.83403430000002]]}}, {"type": "Feature", "properties": {"highway": "path", "footway": null, "name": null, "surface": null, "lit": null, "length_m": 69.63, "type_element": "Way", "__fid": 122250}, "geometry": {"type": "LineString", "coordinates": [[2.4436366, 48.8325742], [2.4429526, 48.8321403]]}}, {"type": "Feature", "properties": {"highway": "footway", "footway": null, "name": null, "surface": "compacted", "lit": "no", "length_m": 14.62, "type_element": "Way", "__fid": 122253}, "geometry": {"type": "LineString", "coordinates": [[2.4429475, 48.835291800000014], [2.4429999, 48.83524060000001], [2.4430747, 48.8351914]]}}, {"type": "Feature", "properties": {"highway": "footway", "footway": null, "name": null, "surface": "compacted", "lit": "no", "length_m": 151.99, "type_element": "Way", "__fid": 122273}, "geometry": {"type": "LineString", "coordinates": [[2.4430747, 48.8351914], [2.443164, 48.8351326], [2.4434713, 48.8348962], [2.4436187, 48.8347964], [2.4437972, 48.8346379], [2.4439571, 48.83452440000002], [2.4441855, 48.8343112], [2.4442852, 48.83424560000001], [2.4443724, 48.8342087], [2.4444581, 48.8342204]]}}, {"type": "Feature", "properties": {"highway": "service", "footway": null, "name": "Route de la Faluère", "surface": null, "lit": null, "length_m": 104.47, "type_element": "Way", "__fid": 122286}, "geometry": {"type": "LineString", "coordinates": [[2.4431968, 48.83298890000002], [2.4443618, 48.8335285]]}}, {"type": "Feature", "properties": {"highway": "footway", "footway": null, "name": null, "surface": null, "lit": null, "length_m": 10.65, "type_element": "Way", "__fid": 122304}, "geometry": {"type": "LineString", "coordinates": [[2.4433067, 48.8340604], [2.4434265, 48.8341145]]}}, {"type": "Feature", "properties": {"highway": "path", "footway": null, "name": null, "surface": "terra", "lit": null, "length_m": 99.62, "type_element": "Way", "__fid": 122305}, "geometry": {"type": "LineString", "coordinates": [[2.4433067, 48.8340604], [2.4446436, 48.8339062]]}}]}