{"type": "FeatureCollection", "features": [{"type": "Feature", "properties": {"@id": "node/1723692148", "amenity": "drinking_water", "man_made": "water_tap", "name": "Petite Fontaine Wallace", "wheelchair": "no", "wikimedia_commons": "File:Font Wallace B de Vincennes1.jpg", "type_element": "Fontaines à boire", "__fid": 301}, "geometry": {"type": "Point", "coordinates": [2.4418585, 48.8449387]}, "id": "node/1723692148"}, {"type": "Feature", "properties": {"highway": "footway", "footway": null, "name": null, "surface": "compacted", "lit": "yes", "length_m": 99.61, "type_element": "Way", "__fid": 121656}, "geometry": {"type": "LineString", "coordinates": [[2.4379426, 48.8444231], [2.4378334, 48.84445379999999], [2.4377219, 48.8444676], [2.4367971, 48.8445521], [2.4366736, 48.8446487]]}}, {"type": "Feature", "properties": {"highway": "footway", "footway": "sidewalk", "name": null, "surface": "paving_stones", "lit": "yes", "length_m": 82.32, "type_element": "Way", "__fid": 121694}, "geometry": {"type": "LineString", "coordinates": [[2.438235, 48.84454130000001], [2.4372599, 48.8446337], [2.437221, 48.8446147], [2.4371333, 48.844621]]}}, {"type": "Feature", "properties": {"highway": "footway", "footway": null, "name": null, "surface": "asphalt", "lit": "yes", "length_m": 183.38, "type_element": "Way", "__fid": 121695}, "geometry": {"type": "LineString", "coordinates": [[2.4371486, 48.8447082], [2.439625172201603, 48.8444895929792]]}}, {"type": "Feature", "properties": {"highway": "footway", "footway": null, "name": null, "surface": "asphalt", "lit": "yes", "length_m": 207.56, "type_element": "Way", "__fid": 121697}, "geometry": {"type": "LineString", "coordinates": [[2.439960462770566, 48.844518846141455], [2.4371556, 48.8447577]]}}, {"type": "Feature", "properties": {"highway": "footway", "footway": null, "name": null, "surface": "sett", "lit": "no", "length_m": 28.64, "type_element": "Way", "__fid": 121708}, "geometry": {"type": "LineString", "coordinates": [[2.4377085, 48.8425945], [2.437322, 48.84263019999999]]}}, {"type": "Feature", "properties": {"highway": "footway", "footway": null, "name": null, "surface": "compacted", "lit": "no", "length_m": 66.42, "type_element": "Way", "__fid": 121709}, "geometry": {"type": "LineString", "coordinates": [[2.4373418, 48.8409042], [2.4375005, 48.8414923]]}}, {"type": "Feature", "properties": {"highway": "footway", "footway": null, "name": null, "surface": "dirt", "lit": "no", "length_m": 49.41, "type_element": "Way", "__fid": 121723}, "geometry": {"type": "LineString", "coordinates": [[2.4380321, 48.841765], [2.4375005, 48.8414923]]}}, {"type": "Feature", "properties": {"highway": "footway", "footway": null, "name": null, "surface": "compacted", "lit": "no", "length_m": 83.2, "type_element": "Way", "__fid": 121724}, "geometry": {"type": "LineString", "coordinates": [[2.4375005, 48.8414923], [2.4376429, 48.8422346]]}}, {"type": "Feature", "properties": {"highway": "footway", "footway": null, "name": null, "surface": "compacted", "lit": "no", "length_m": 51.93, "type_element": "Way", "__fid": 121725}, "geometry": {"type": "LineString", "coordinates": [[2.4375005, 48.8414923], [2.4377804, 48.8412448], [2.4379379, 48.84112560000001]]}}, {"type": "Feature", "properties": {"highway": "footway", "footway": null, "name": null, "surface": "compacted", "lit": "no", "length_m": 40.31, "type_element": "Way", "__fid": 121744}, "geometry": {"type": "LineString", "coordinates": [[2.4376429, 48.8422346], [2.4377085, 48.8425945]]}}, {"type": "Feature", "properties": {"highway": "footway", "footway": null, "name": null, "surface": "dirt", "lit": "no", "length_m": 59.52, "type_element": "Way", "__fid": 121745}, "geometry": {"type": "LineString", "coordinates": [[2.4376429, 48.8422346], [2.4380321, 48.841765]]}}, {"type": "Feature", "properties": {"highway": "footway", "footway": null, "name": null, "surface": "compacted", "lit": "no", "length_m": 40.56, "type_element": "Way", "__fid": 121749}, "geometry": {"type": "LineString", "coordinates": [[2.4377085, 48.8425945], [2.4377405, 48.8427038], [2.4377908, 48.8429551]]}}, {"type": "Feature", "properties": {"highway": "footway", "footway": null, "name": null, "surface": "sett", "lit": "no", "length_m": 40.37, "type_element": "Way", "__fid": 121750}, "geometry": {"type": "LineString", "coordinates": [[2.4382533, 48.8425447], [2.4377085, 48.8425945]]}}, {"type": "Feature", "properties": {"highway": "footway", "footway": null, "name": null, "surface": "dirt", "lit": "no", "length_m": 59.92, "type_element": "Way", "__fid": 121754}, "geometry": {"type": "LineString", "coordinates": [[2.4383521, 48.8433464], [2.4377908, 48.8429551]]}}, {"type": "Feature", "properties": {"highway": "footway", "footway": null, "name": null, "surface": "compacted", "lit": "no", "length_m": 85.61, "type_element": "Way", "__fid": 121755}, "geometry": {"type": "LineString", "coordinates": [[2.4377908, 48.8429551], [2.4379431, 48.8437184]]}}, {"type": "Feature", "properties": {"highway": "footway", "footway": "sidewalk", "name": null, "surface": "compacted", "lit": "yes", "length_m": 71.31, "type_element": "Way", "__fid": 121763}, "geometry": {"type": "LineString", "coordinates": [[2.4380768, 48.8417603], [2.4379379, 48.84112560000001]]}}, {"type": "Feature", "properties": {"highway": "footway", "footway": null, "name": null, "surface": "compacted", "lit": "no", "length_m": 52.73, "type_element": "Way", "__fid": 121769}, "geometry": {"type": "LineString", "coordinates": [[2.4379431, 48.8437184], [2.4380328, 48.8441889]]}}, {"type": "Feature", "properties": {"highway": "footway", "footway": null, "name": null, "surface": "dirt", "lit": "no", "length_m": 51.11, "type_element": "Way", "__fid": 121770}, "geometry": {"type": "LineString", "coordinates": [[2.4379431, 48.8437184], [2.4383521, 48.8433464]]}}, {"type": "Feature", "properties": {"highway": "footway", "footway": null, "name": null, "surface": "dirt", "lit": "yes", "length_m": 20.81, "type_element": "Way", "__fid": 121771}, "geometry": {"type": "LineString", "coordinates": [[2.4379426, 48.8444231], [2.4379853, 48.8444392], [2.4382197, 48.8444392]]}}, {"type": "Feature", "properties": {"highway": "footway", "footway": null, "name": null, "surface": "compacted", "lit": "no", "length_m": 15.6, "type_element": "Way", "__fid": 121772}, "geometry": {"type": "LineString", "coordinates": [[2.4380679, 48.8443138], [2.4380295, 48.844372], [2.4379426, 48.8444231]]}}, {"type": "Feature", "properties": {"highway": "footway", "footway": null, "name": null, "surface": "dirt", "lit": "yes", "length_m": 3.32, "type_element": "Way", "__fid": 121775}, "geometry": {"type": "LineString", "coordinates": [[2.4380321, 48.841765], [2.4380768, 48.8417603]]}}, {"type": "Feature", "properties": {"highway": "footway", "footway": null, "name": null, "surface": "dirt", "lit": "yes", "length_m": 13.95, "type_element": "Way", "__fid": 121776}, "geometry": {"type": "LineString", "coordinates": [[2.4381778, 48.8442584], [2.4381548, 48.844224], [2.4380328, 48.8441889]]}}, {"type": "Feature", "properties": {"highway": "footway", "footway": null, "name": null, "surface": "compacted", "lit": "no", "length_m": 14.12, "type_element": "Way", "__fid": 121777}, "geometry": {"type": "LineString", "coordinates": [[2.4380328, 48.8441889], [2.4380679, 48.8443138]]}}, {"type": "Feature", "properties": {"highway": "footway", "footway": "sidewalk", "name": null, "surface": "compacted", "lit": "yes", "length_m": 75.49, "type_element": "Way", "__fid": 121778}, "geometry": {"type": "LineString", "coordinates": [[2.4382304, 48.8424316], [2.4380768, 48.8417603]]}}, {"type": "Feature", "properties": {"highway": "footway", "footway": null, "name": null, "surface": "dirt", "lit": "yes", "length_m": 6.72, "type_element": "Way", "__fid": 121779}, "geometry": {"type": "LineString", "coordinates": [[2.4380768, 48.8417603], [2.4381672, 48.8417509]]}}, {"type": "Feature", "properties": {"highway": "footway", "footway": null, "name": null, "surface": "dirt", "lit": "no", "length_m": 10.15, "type_element": "Way", "__fid": 121780}, "geometry": {"type": "LineString", "coordinates": [[2.4380679, 48.8443138], [2.4381778, 48.8442584]]}}, {"type": "Feature", "properties": {"highway": "footway", "footway": null, "name": null, "surface": "dirt", "lit": "yes", "length_m": 32.99, "type_element": "Way", "__fid": 121784}, "geometry": {"type": "LineString", "coordinates": [[2.4381778, 48.8442584], [2.4382316, 48.8442677], [2.4384383, 48.84434849999999], [2.4385634, 48.8444074]]}}, {"type": "Feature", "properties": {"highway": "footway", "footway": null, "name": null, "surface": "dirt", "lit": "yes", "length_m": 20.6, "type_element": "Way", "__fid": 121785}, "geometry": {"type": "LineString", "coordinates": [[2.4382197, 48.8444392], [2.4382253, 48.8444001], [2.4382039, 48.8443016], [2.4381778, 48.8442584]]}}, {"type": "Feature", "properties": {"highway": "footway", "footway": null, "name": null, "surface": "dirt", "lit": "no", "length_m": 47.88, "type_element": "Way", "__fid": 121786}, "geometry": {"type": "LineString", "coordinates": [[2.4381778, 48.8442584], [2.4382007, 48.84422290000001], [2.4385131, 48.84388950000001]]}}, {"type": "Feature", "properties": {"highway": "footway", "footway": "crossing", "name": null, "surface": "sett", "lit": "yes", "length_m": 12.69, "type_element": "Way", "__fid": 121787}, "geometry": {"type": "LineString", "coordinates": [[2.4382533, 48.8425447], [2.4382304, 48.8424316]]}}, {"type": "Feature", "properties": {"highway": "footway", "footway": "crossing", "name": null, "surface": null, "lit": "yes", "length_m": 12.39, "type_element": "Way", "__fid": 121788}, "geometry": {"type": "LineString", "coordinates": [[2.4382304, 48.8424316], [2.4383975, 48.8424156]]}}, {"type": "Feature", "properties": {"highway": "footway", "footway": null, "name": null, "surface": "compacted", "lit": "yes", "length_m": 11.41, "type_element": "Way", "__fid": 121789}, "geometry": {"type": "LineString", "coordinates": [[2.4382197, 48.8444392], [2.438235, 48.84454130000001]]}}, {"type": "Feature", "properties": {"highway": "footway", "footway": null, "name": null, "surface": "dirt", "lit": "yes", "length_m": 25.47, "type_element": "Way", "__fid": 121790}, "geometry": {"type": "LineString", "coordinates": [[2.4382197, 48.8444392], [2.4385634, 48.8444074]]}}, {"type": "Feature", "properties": {"highway": "footway", "footway": "crossing", "name": null, "surface": "sett", "lit": "yes", "length_m": 13.37, "type_element": "Way", "__fid": 121793}, "geometry": {"type": "LineString", "coordinates": [[2.438276, 48.842664], [2.4382533, 48.8425447]]}}, {"type": "Feature", "properties": {"highway": "footway", "footway": null, "name": null, "surface": "sett", "lit": "no", "length_m": 5.22, "type_element": "Way", "__fid": 121794}, "geometry": {"type": "LineString", "coordinates": [[2.4383237, 48.8425382], [2.4382533, 48.8425447]]}}, {"type": "Feature", "properties": {"highway": "footway", "footway": "sidewalk", "name": null, "surface": "paving_stones", "lit": "yes", "length_m": 27.33, "type_element": "Way", "__fid": 121795}, "geometry": {"type": "LineString", "coordinates": [[2.4385992, 48.8444902], [2.438235, 48.84454130000001]]}}, {"type": "Feature", "properties": {"highway": "footway", "footway": "sidewalk", "name": null, "surface": "compacted", "lit": "yes", "length_m": 76.06, "type_element": "Way", "__fid": 121797}, "geometry": {"type": "LineString", "coordinates": [[2.4384003, 48.8433421], [2.4382703, 48.84269829999998], [2.438276, 48.842664]]}}, {"type": "Feature", "properties": {"highway": "footway", "footway": "crossing", "name": null, "surface": "sett", "lit": "yes", "length_m": 38.93, "type_element": "Way", "__fid": 121798}, "geometry": {"type": "LineString", "coordinates": [[2.4383975, 48.8424156], [2.4384477, 48.8426491], [2.438276, 48.842664]]}}, {"type": "Feature", "properties": {"highway": "footway", "footway": null, "name": null, "surface": "dirt", "lit": "no", "length_m": 3.57, "type_element": "Way", "__fid": 121802}, "geometry": {"type": "LineString", "coordinates": [[2.4383521, 48.8433464], [2.4384003, 48.8433421]]}}, {"type": "Feature", "properties": {"highway": "footway", "footway": null, "name": null, "surface": "compacted", "lit": "yes", "length_m": 40.99, "type_element": "Way", "__fid": 121803}, "geometry": {"type": "LineString", "coordinates": [[2.4383975, 48.8424156], [2.438422, 48.84240860000001], [2.4389494, 48.8423633]]}}, {"type": "Feature", "properties": {"highway": "footway", "footway": "sidewalk", "name": null, "surface": "compacted", "lit": "yes", "length_m": 61.43, "type_element": "Way", "__fid": 121804}, "geometry": {"type": "LineString", "coordinates": [[2.4385131, 48.84388950000001], [2.4384003, 48.8433421]]}}, {"type": "Feature", "properties": {"highway": "footway", "footway": null, "name": null, "surface": "dirt", "lit": "no", "length_m": 6.83, "type_element": "Way", "__fid": 121805}, "geometry": {"type": "LineString", "coordinates": [[2.4384003, 48.8433421], [2.4384925, 48.843334]]}}, {"type": "Feature", "properties": {"highway": "footway", "footway": "sidewalk", "name": null, "surface": "compacted", "lit": "yes", "length_m": 62.34, "type_element": "Way", "__fid": 121809}, "geometry": {"type": "LineString", "coordinates": [[2.4386302, 48.8444448], [2.4385131, 48.84388950000001]]}}, {"type": "Feature", "properties": {"highway": "footway", "footway": null, "name": null, "surface": "dirt", "lit": "no", "length_m": 11.06, "type_element": "Way", "__fid": 121810}, "geometry": {"type": "LineString", "coordinates": [[2.4385131, 48.84388950000001], [2.4385923, 48.8438049]]}}, {"type": "Feature", "properties": {"highway": "footway", "footway": null, "name": null, "surface": "dirt", "lit": "yes", "length_m": 6.43, "type_element": "Way", "__fid": 121812}, "geometry": {"type": "LineString", "coordinates": [[2.4385634, 48.8444074], [2.4386302, 48.8444448]]}}, {"type": "Feature", "properties": {"highway": "footway", "footway": "crossing", "name": null, "surface": "asphalt", "lit": "yes", "length_m": 9.65, "type_element": "Way", "__fid": 121813}, "geometry": {"type": "LineString", "coordinates": [[2.4385992, 48.8444902], [2.4386128, 48.8445765]]}}, {"type": "Feature", "properties": {"highway": "footway", "footway": "sidewalk", "name": null, "surface": "paving_stones", "lit": "yes", "length_m": 5.54, "type_element": "Way", "__fid": 121814}, "geometry": {"type": "LineString", "coordinates": [[2.4386302, 48.8444448], [2.4385992, 48.8444902]]}}, {"type": "Feature", "properties": {"highway": "footway", "footway": "sidewalk", "name": null, "surface": null, "lit": "yes", "length_m": 65.87, "type_element": "Way", "__fid": 121816}, "geometry": {"type": "LineString", "coordinates": [[2.4395177, 48.8443564], [2.4386302, 48.8444448]]}}, {"type": "Feature", "properties": {"highway": "footway", "footway": "sidewalk", "name": null, "surface": "asphalt", "lit": "yes", "length_m": 182.73, "type_element": "Way", "__fid": 121833}, "geometry": {"type": "LineString", "coordinates": [[2.4387886, 48.8407245], [2.4388718, 48.841138700000016], [2.4388673, 48.8411952], [2.4388778, 48.8412516], [2.4389127, 48.84130070000001], [2.439094, 48.84223330000001], [2.4390988, 48.84227210000001], [2.4390846, 48.84231530000001], [2.4390907, 48.8423496]]}}, {"type": "Feature", "properties": {"highway": "footway", "footway": "crossing", "name": null, "surface": null, "lit": "yes", "length_m": 39.07, "type_element": "Way", "__fid": 121838}, "geometry": {"type": "LineString", "coordinates": [[2.4389494, 48.8423633], [2.4390019, 48.8426016], [2.4391667, 48.842582]]}}, {"type": "Feature", "properties": {"highway": "footway", "footway": "crossing", "name": null, "surface": "sett", "lit": "yes", "length_m": 10.48, "type_element": "Way", "__fid": 121839}, "geometry": {"type": "LineString", "coordinates": [[2.4390907, 48.8423496], [2.4389494, 48.8423633]]}}, {"type": "Feature", "properties": {"highway": "service", "footway": null, "name": null, "surface": "cobblestone", "lit": null, "length_m": 5.68, "type_element": "Way", "__fid": 121853}, "geometry": {"type": "LineString", "coordinates": [[2.4390662, 48.84247520000001], [2.4391429, 48.8424683]]}}, {"type": "Feature", "properties": {"highway": "footway", "footway": "crossing", "name": null, "surface": null, "lit": "yes", "length_m": 14.28, "type_element": "Way", "__fid": 121855}, "geometry": {"type": "LineString", "coordinates": [[2.4390907, 48.8423496], [2.4391143, 48.8423605], [2.4391429, 48.8424683]]}}, {"type": "Feature", "properties": {"highway": "service", "footway": null, "name": null, "surface": null, "lit": null, "length_m": 51.04, "type_element": "Way", "__fid": 121858}, "geometry": {"type": "LineString", "coordinates": [[2.4391191, 48.8419012], [2.4398076, 48.8418369]]}}, {"type": "Feature", "properties": {"highway": "footway", "footway": "crossing", "name": null, "surface": null, "lit": "yes", "length_m": 12.76, "type_element": "Way", "__fid": 121859}, "geometry": {"type": "LineString", "coordinates": [[2.4391667, 48.842582], [2.4391429, 48.8424683]]}}, {"type": "Feature", "properties": {"highway": "service", "footway": null, "name": null, "surface": "cobblestone", "lit": null, "length_m": 57.09, "type_element": "Way", "__fid": 121860}, "geometry": {"type": "LineString", "coordinates": [[2.4391429, 48.8424683], [2.4399137, 48.8423995]]}}, {"type": "Feature", "properties": {"highway": "footway", "footway": "sidewalk", "name": null, "surface": null, "lit": "yes", "length_m": 158.01, "type_element": "Way", "__fid": 121862}, "geometry": {"type": "LineString", "coordinates": [[2.4394556, 48.8439866], [2.4394227, 48.8438183], [2.4393974, 48.84379339999999], [2.4393752, 48.8436966], [2.4392404, 48.84303709999999], [2.4392376, 48.8429592], [2.4391667, 48.842582]]}}, {"type": "Feature", "properties": {"highway": "service", "footway": null, "name": null, "surface": null, "lit": null, "length_m": 49.28, "type_element": "Way", "__fid": 121863}, "geometry": {"type": "LineString", "coordinates": [[2.4398538, 48.8420815], [2.4391875, 48.842136]]}}, {"type": "Feature", "properties": {"highway": "service", "footway": null, "name": null, "surface": "asphalt", "lit": null, "length_m": 52.28, "type_element": "Way", "__fid": 121867}, "geometry": {"type": "LineString", "coordinates": [[2.4399721, 48.84269440000001], [2.4392659, 48.842756]]}}, {"type": "Feature", "properties": {"highway": "service", "footway": null, "name": null, "surface": "asphalt", "lit": null, "length_m": 49.47, "type_element": "Way", "__fid": 121871}, "geometry": {"type": "LineString", "coordinates": [[2.4393564, 48.8430239], [2.4400242, 48.84296360000001]]}}, {"type": "Feature", "properties": {"highway": "footway", "footway": null, "name": null, "surface": "compacted", "lit": "yes", "length_m": 5.62, "type_element": "Way", "__fid": 121872}, "geometry": {"type": "LineString", "coordinates": [[2.439379, 48.8439854], [2.4394556, 48.8439866]]}}, {"type": "Feature", "properties": {"highway": "service", "footway": null, "name": null, "surface": "asphalt", "lit": null, "length_m": 48.74, "type_element": "Way", "__fid": 121876}, "geometry": {"type": "LineString", "coordinates": [[2.440079, 48.8432466], [2.4394208, 48.8433046]]}}, {"type": "Feature", "properties": {"highway": "footway", "footway": null, "name": null, "surface": "compacted", "lit": "yes", "length_m": 46.65, "type_element": "Way", "__fid": 121880}, "geometry": {"type": "LineString", "coordinates": [[2.4394556, 48.8439866], [2.4394758, 48.8439869], [2.4397227, 48.844287], [2.4396952, 48.8443075], [2.439675366666666, 48.84434250000017]]}}, {"type": "Feature", "properties": {"highway": "footway", "footway": "sidewalk", "name": null, "surface": "asphalt", "lit": "yes", "length_m": 41.34, "type_element": "Way", "__fid": 121881}, "geometry": {"type": "LineString", "coordinates": [[2.4395329, 48.8443549], [2.4394556, 48.8439866]]}}, {"type": "Feature", "properties": {"highway": "service", "footway": null, "name": null, "surface": "asphalt", "lit": "yes", "length_m": 10.72, "type_element": "Way", "__fid": 121882}, "geometry": {"type": "LineString", "coordinates": [[2.4394804, 48.8444832], [2.439618239035232, 48.84445132940832]]}}, {"type": "Feature", "properties": {"highway": "service", "footway": null, "name": null, "surface": null, "lit": null, "length_m": 49.08, "type_element": "Way", "__fid": 121885}, "geometry": {"type": "LineString", "coordinates": [[2.4395227, 48.843843], [2.4398667, 48.8438103], [2.4400417, 48.8438231], [2.4401848, 48.8438072]]}}, {"type": "Feature", "properties": {"highway": "footway", "footway": null, "name": null, "surface": "asphalt", "lit": "yes", "length_m": 18.96, "type_element": "Way", "__fid": 121886}, "geometry": {"type": "LineString", "coordinates": [[2.4395177, 48.8443564], [2.4395375, 48.8443854], [2.439569, 48.8443986], [2.4396361, 48.8444065], [2.439675366666666, 48.84434250000017]]}}, {"type": "Feature", "properties": {"highway": "footway", "footway": null, "name": null, "surface": "asphalt", "lit": "yes", "length_m": 1.13, "type_element": "Way", "__fid": 121887}, "geometry": {"type": "LineString", "coordinates": [[2.4395177, 48.8443564], [2.4395329, 48.8443549]]}}, {"type": "Feature", "properties": {"highway": "footway", "footway": null, "name": null, "surface": "asphalt", "lit": "yes", "length_m": 10.55, "type_element": "Way", "__fid": 121889}, "geometry": {"type": "LineString", "coordinates": [[2.4395329, 48.8443549], [2.439675366666666, 48.84434250000017]]}}, {"type": "Feature", "properties": {"highway": "footway", "footway": "crossing", "name": null, "surface": "asphalt", "lit": "yes", "length_m": 4.65, "type_element": "Way", "__fid": 121893}, "geometry": {"type": "LineString", "coordinates": [[2.439618239035232, 48.84445132940832], [2.439611033333284, 48.8444098]]}}, {"type": "Feature", "properties": {"highway": "footway", "footway": "crossing", "name": null, "surface": "asphalt", "lit": "yes", "length_m": 4.28, "type_element": "Way", "__fid": 121894}, "geometry": {"type": "LineString", "coordinates": [[2.439625172201603, 48.8444895929792], [2.439618239035232, 48.84445132940832]]}}, {"type": "Feature", "properties": {"highway": "service", "footway": null, "name": null, "surface": "asphalt", "lit": "yes", "length_m": 6.67, "type_element": "Way", "__fid": 121895}, "geometry": {"type": "LineString", "coordinates": [[2.439618239035232, 48.84445132940832], [2.439704, 48.8444315]]}}, {"type": "Feature", "properties": {"highway": "footway", "footway": "crossing", "name": null, "surface": "asphalt", "lit": "yes", "length_m": 0.55, "type_element": "Way", "__fid": 121896}, "geometry": {"type": "LineString", "coordinates": [[2.4396261, 48.84449450000001], [2.439625172201603, 48.8444895929792]]}}, {"type": "Feature", "properties": {"highway": "footway", "footway": null, "name": null, "surface": "asphalt", "lit": "yes", "length_m": 29.39, "type_element": "Way", "__fid": 121897}, "geometry": {"type": "LineString", "coordinates": [[2.439625172201603, 48.8444895929792], [2.440022043440154, 48.84445455621559]]}}, {"type": "Feature", "properties": {"highway": "service", "footway": null, "name": null, "surface": "asphalt", "lit": null, "length_m": 28.36, "type_element": "Way", "__fid": 121898}, "geometry": {"type": "LineString", "coordinates": [[2.439752, 48.8415431], [2.4397042, 48.84129]]}}, {"type": "Feature", "properties": {"highway": "service", "footway": null, "name": null, "surface": "asphalt", "lit": null, "length_m": 236.09, "type_element": "Way", "__fid": 121899}, "geometry": {"type": "LineString", "coordinates": [[2.4419073, 48.8419237], [2.4417613, 48.8411886], [2.4417007, 48.841154500000016], [2.4416209, 48.8411468], [2.4411702, 48.8411858], [2.4409452, 48.8411753], [2.4397042, 48.84129]]}}, {"type": "Feature", "properties": {"highway": "footway", "footway": "crossing", "name": null, "surface": "asphalt", "lit": "yes", "length_m": 6.01, "type_element": "Way", "__fid": 121900}, "geometry": {"type": "LineString", "coordinates": [[2.439675366666666, 48.84434250000017], [2.4397572, 48.8443428]]}}, {"type": "Feature", "properties": {"highway": "service", "footway": null, "name": null, "surface": null, "lit": null, "length_m": 3.74, "type_element": "Way", "__fid": 121901}, "geometry": {"type": "LineString", "coordinates": [[2.439704, 48.8444315], [2.4397035, 48.8444651]]}}, {"type": "Feature", "properties": {"highway": "service", "footway": null, "name": null, "surface": null, "lit": null, "length_m": 10.61, "type_element": "Way", "__fid": 121902}, "geometry": {"type": "LineString", "coordinates": [[2.4397572, 48.8443428], [2.439704, 48.8444315]]}}, {"type": "Feature", "properties": {"highway": "service", "footway": null, "name": null, "surface": "asphalt", "lit": "yes", "length_m": 30.82, "type_element": "Way", "__fid": 121903}, "geometry": {"type": "LineString", "coordinates": [[2.439704, 48.8444315], [2.440101, 48.844341100000015]]}}, {"type": "Feature", "properties": {"highway": "service", "footway": null, "name": null, "surface": "asphalt", "lit": null, "length_m": 32.92, "type_element": "Way", "__fid": 121904}, "geometry": {"type": "LineString", "coordinates": [[2.4398076, 48.8418369], [2.439752, 48.8415431]]}}, {"type": "Feature", "properties": {"highway": "service", "footway": null, "name": null, "surface": "asphalt", "lit": null, "length_m": 132.71, "type_element": "Way", "__fid": 121905}, "geometry": {"type": "LineString", "coordinates": [[2.439752, 48.8415431], [2.4411179, 48.8414316], [2.4411651, 48.8417149]]}}, {"type": "Feature", "properties": {"highway": "service", "footway": null, "name": null, "surface": null, "lit": null, "length_m": 71.32, "type_element": "Way", "__fid": 121906}, "geometry": {"type": "LineString", "coordinates": [[2.4401848, 48.8438072], [2.4402138, 48.8439402], [2.4401913, 48.8439932], [2.4397572, 48.8443428]]}}, {"type": "Feature", "properties": {"highway": "footway", "footway": "sidewalk", "name": null, "surface": "asphalt", "lit": "yes", "length_m": 19.66, "type_element": "Way", "__fid": 121907}, "geometry": {"type": "LineString", "coordinates": [[2.4397572, 48.8443428], [2.4398855, 48.844339], [2.4399781, 48.84427020000002]]}}, {"type": "Feature", "properties": {"highway": "service", "footway": null, "name": null, "surface": "asphalt", "lit": null, "length_m": 27.41, "type_element": "Way", "__fid": 121908}, "geometry": {"type": "LineString", "coordinates": [[2.4398538, 48.8420815], [2.4398076, 48.8418369]]}}, {"type": "Feature", "properties": {"highway": "service", "footway": null, "name": null, "surface": "asphalt", "lit": null, "length_m": 100.55, "type_element": "Way", "__fid": 121909}, "geometry": {"type": "LineString", "coordinates": [[2.4398076, 48.8418369], [2.4411651, 48.8417149]]}}, {"type": "Feature", "properties": {"highway": "service", "footway": null, "name": null, "surface": "asphalt", "lit": null, "length_m": 2.52, "type_element": "Way", "__fid": 121911}, "geometry": {"type": "LineString", "coordinates": [[2.4398581, 48.842104], [2.4398538, 48.8420815]]}}, {"type": "Feature", "properties": {"highway": "service", "footway": null, "name": null, "surface": "asphalt", "lit": null, "length_m": 33.11, "type_element": "Way", "__fid": 121914}, "geometry": {"type": "LineString", "coordinates": [[2.4399137, 48.8423995], [2.4398581, 48.842104]]}}, {"type": "Feature", "properties": {"highway": "service", "footway": null, "name": null, "surface": "asphalt", "lit": null, "length_m": 100.9, "type_element": "Way", "__fid": 121915}, "geometry": {"type": "LineString", "coordinates": [[2.4412205, 48.8419828], [2.4398581, 48.842104]]}}, {"type": "Feature", "properties": {"highway": "service", "footway": null, "name": null, "surface": "asphalt", "lit": null, "length_m": 33.07, "type_element": "Way", "__fid": 121922}, "geometry": {"type": "LineString", "coordinates": [[2.4399721, 48.84269440000001], [2.4399137, 48.8423995]]}}, {"type": "Feature", "properties": {"highway": "service", "footway": null, "name": null, "surface": "cobblestone", "lit": null, "length_m": 100.75, "type_element": "Way", "__fid": 121923}, "geometry": {"type": "LineString", "coordinates": [[2.4399137, 48.8423995], [2.4412739, 48.8422776]]}}, {"type": "Feature", "properties": {"highway": "steps", "footway": null, "name": null, "surface": "concrete", "lit": "yes", "length_m": 8.01, "type_element": "Way", "__fid": 121925}, "geometry": {"type": "LineString", "coordinates": [[2.4399322, 48.8443349], [2.4400047, 48.84428110000001]]}}, {"type": "Feature", "properties": {"highway": "service", "footway": null, "name": null, "surface": "asphalt", "lit": "yes", "length_m": 1.53, "type_element": "Way", "__fid": 121928}, "geometry": {"type": "LineString", "coordinates": [[2.439960462770566, 48.844518846141455], [2.4399493, 48.8445305]]}}, {"type": "Feature", "properties": {"highway": "service", "footway": null, "name": null, "surface": "asphalt", "lit": null, "length_m": 30.18, "type_element": "Way", "__fid": 121929}, "geometry": {"type": "LineString", "coordinates": [[2.4400242, 48.84296360000001], [2.4399721, 48.84269440000001]]}}, {"type": "Feature", "properties": {"highway": "service", "footway": null, "name": null, "surface": "asphalt", "lit": null, "length_m": 101.13, "type_element": "Way", "__fid": 121930}, "geometry": {"type": "LineString", "coordinates": [[2.4413369, 48.842569], [2.4399721, 48.84269440000001]]}}, {"type": "Feature", "properties": {"highway": "service", "footway": null, "name": null, "surface": "asphalt", "lit": "yes", "length_m": 8.46, "type_element": "Way", "__fid": 121933}, "geometry": {"type": "LineString", "coordinates": [[2.440022043440154, 48.84445455621559], [2.439960462770566, 48.844518846141455]]}}, {"type": "Feature", "properties": {"highway": "footway", "footway": null, "name": null, "surface": "asphalt", "lit": "yes", "length_m": 37.58, "type_element": "Way", "__fid": 121934}, "geometry": {"type": "LineString", "coordinates": [[2.44046836219757, 48.84447558764947], [2.439960462770566, 48.844518846141455]]}}, {"type": "Feature", "properties": {"highway": "footway", "footway": "sidewalk", "name": null, "surface": "asphalt", "lit": "yes", "length_m": 2.3, "type_element": "Way", "__fid": 121937}, "geometry": {"type": "LineString", "coordinates": [[2.4399781, 48.84427020000002], [2.4400047, 48.84428110000001]]}}, {"type": "Feature", "properties": {"highway": "footway", "footway": "sidewalk", "name": null, "surface": "asphalt", "lit": "yes", "length_m": 217.68, "type_element": "Way", "__fid": 121938}, "geometry": {"type": "LineString", "coordinates": [[2.4399781, 48.84427020000002], [2.4402764, 48.844087], [2.4404246, 48.8439679], [2.4418489, 48.8438445], [2.4419662, 48.8439145], [2.4425322, 48.8438651], [2.4425747, 48.8439665]]}}, {"type": "Feature", "properties": {"highway": "footway", "footway": "crossing", "name": null, "surface": null, "lit": "yes", "length_m": 10.55, "type_element": "Way", "__fid": 121939}, "geometry": {"type": "LineString", "coordinates": [[2.4400047, 48.84428110000001], [2.4401477, 48.8442711]]}}, {"type": "Feature", "properties": {"highway": "service", "footway": null, "name": null, "surface": "asphalt", "lit": null, "length_m": 31.72, "type_element": "Way", "__fid": 121940}, "geometry": {"type": "LineString", "coordinates": [[2.440079, 48.8432466], [2.4400242, 48.84296360000001]]}}, {"type": "Feature", "properties": {"highway": "service", "footway": null, "name": null, "surface": "asphalt", "lit": null, "length_m": 101.91, "type_element": "Way", "__fid": 121941}, "geometry": {"type": "LineString", "coordinates": [[2.4400242, 48.84296360000001], [2.4413998, 48.842838700000016]]}}, {"type": "Feature", "properties": {"highway": "service", "footway": null, "name": null, "surface": "asphalt", "lit": "yes", "length_m": 13.88, "type_element": "Way", "__fid": 121942}, "geometry": {"type": "LineString", "coordinates": [[2.440101, 48.844341100000015], [2.440022043440154, 48.84445455621559]]}}, {"type": "Feature", "properties": {"highway": "footway", "footway": null, "name": null, "surface": "asphalt", "lit": "yes", "length_m": 13.92, "type_element": "Way", "__fid": 121943}, "geometry": {"type": "LineString", "coordinates": [[2.440022043440154, 48.84445455621559], [2.440210090954209, 48.844437954444594]]}}, {"type": "Feature", "properties": {"highway": "service", "footway": null, "name": null, "surface": "asphalt", "lit": null, "length_m": 31.33, "type_element": "Way", "__fid": 121948}, "geometry": {"type": "LineString", "coordinates": [[2.4401349, 48.8435259], [2.440079, 48.8432466]]}}, {"type": "Feature", "properties": {"highway": "service", "footway": null, "name": null, "surface": "asphalt", "lit": null, "length_m": 101.97, "type_element": "Way", "__fid": 121949}, "geometry": {"type": "LineString", "coordinates": [[2.4414551, 48.8431199], [2.440079, 48.8432466]]}}, {"type": "Feature", "properties": {"highway": "service", "footway": null, "name": null, "surface": "asphalt", "lit": "yes", "length_m": 8.5, "type_element": "Way", "__fid": 121952}, "geometry": {"type": "LineString", "coordinates": [[2.4401477, 48.8442711], [2.440101, 48.844341100000015]]}}, {"type": "Feature", "properties": {"highway": "service", "footway": null, "name": null, "surface": "asphalt", "lit": "yes", "length_m": 5.0, "type_element": "Way", "__fid": 121953}, "geometry": {"type": "LineString", "coordinates": [[2.440101, 48.844341100000015], [2.4401654, 48.8443264]]}}, {"type": "Feature", "properties": {"highway": "service", "footway": null, "name": null, "surface": null, "lit": null, "length_m": 31.49, "type_element": "Way", "__fid": 121954}, "geometry": {"type": "LineString", "coordinates": [[2.4401349, 48.8435259], [2.4401848, 48.8438072]]}}, {"type": "Feature", "properties": {"highway": "service", "footway": null, "name": null, "surface": "asphalt", "lit": null, "length_m": 102.16, "type_element": "Way", "__fid": 121955}, "geometry": {"type": "LineString", "coordinates": [[2.4401349, 48.8435259], [2.4415121, 48.8433924]]}}, {"type": "Feature", "properties": {"highway": "service", "footway": null, "name": null, "surface": "asphalt", "lit": "yes", "length_m": 6.28, "type_element": "Way", "__fid": 121958}, "geometry": {"type": "LineString", "coordinates": [[2.4401477, 48.8442711], [2.4401654, 48.8443264]]}}, {"type": "Feature", "properties": {"highway": "service", "footway": null, "name": null, "surface": "asphalt", "lit": "yes", "length_m": 159.85, "type_element": "Way", "__fid": 121959}, "geometry": {"type": "LineString", "coordinates": [[2.4420316, 48.8440834], [2.4419899, 48.84401660000002], [2.4418986, 48.8439581], [2.4417961, 48.8439188], [2.4405075, 48.8440244], [2.4404338, 48.844049], [2.4401477, 48.8442711]]}}, {"type": "Feature", "properties": {"highway": "footway", "footway": "sidewalk", "name": null, "surface": "asphalt", "lit": "yes", "length_m": 20.66, "type_element": "Way", "__fid": 121960}, "geometry": {"type": "LineString", "coordinates": [[2.4401477, 48.8442711], [2.440426300415997, 48.844244777166736]]}}, {"type": "Feature", "properties": {"highway": "service", "footway": null, "name": null, "surface": "asphalt", "lit": "yes", "length_m": 13.08, "type_element": "Way", "__fid": 121963}, "geometry": {"type": "LineString", "coordinates": [[2.440210090954209, 48.844437954444594], [2.4401969, 48.84443060000001], [2.4401654, 48.8443264]]}}, {"type": "Feature", "properties": {"highway": "service", "footway": null, "name": null, "surface": "asphalt", "lit": "yes", "length_m": 20.1, "type_element": "Way", "__fid": 121964}, "geometry": {"type": "LineString", "coordinates": [[2.4401654, 48.8443264], [2.440436223458045, 48.84429922921387]]}}, {"type": "Feature", "properties": {"highway": "footway", "footway": "sidewalk", "name": null, "surface": "asphalt", "lit": "yes", "length_m": 33.37, "type_element": "Way", "__fid": 121968}, "geometry": {"type": "LineString", "coordinates": [[2.4406284, 48.8445508], [2.4401768, 48.8445858]]}}, {"type": "Feature", "properties": {"highway": "service", "footway": null, "name": null, "surface": "asphalt", "lit": "yes", "length_m": 19.8, "type_element": "Way", "__fid": 121969}, "geometry": {"type": "LineString", "coordinates": [[2.440463327835306, 48.84444796212166], [2.4402586, 48.844465], [2.440210090954209, 48.844437954444594]]}}, {"type": "Feature", "properties": {"highway": "footway", "footway": null, "name": null, "surface": "asphalt", "lit": "yes", "length_m": 18.32, "type_element": "Way", "__fid": 121970}, "geometry": {"type": "LineString", "coordinates": [[2.440210090954209, 48.844437954444594], [2.440457523139368, 48.84441610943225]]}}, {"type": "Feature", "properties": {"highway": "footway", "footway": null, "name": null, "surface": "asphalt", "lit": "yes", "length_m": 1.23, "type_element": "Way", "__fid": 121973}, "geometry": {"type": "LineString", "coordinates": [[2.4404243, 48.8442338], [2.440426300415997, 48.844244777166736]]}}, {"type": "Feature", "properties": {"highway": "steps", "footway": null, "name": null, "surface": "concrete", "lit": "yes", "length_m": 13.31, "type_element": "Way", "__fid": 121974}, "geometry": {"type": "LineString", "coordinates": [[2.4404243, 48.8442338], [2.4406041, 48.8442179]]}}, {"type": "Feature", "properties": {"highway": "footway", "footway": null, "name": null, "surface": "asphalt", "lit": "yes", "length_m": 6.1, "type_element": "Way", "__fid": 121975}, "geometry": {"type": "LineString", "coordinates": [[2.440426300415997, 48.844244777166736], [2.440436223458045, 48.84429922921387]]}}, {"type": "Feature", "properties": {"highway": "footway", "footway": "sidewalk", "name": null, "surface": "asphalt", "lit": "yes", "length_m": 18.54, "type_element": "Way", "__fid": 121976}, "geometry": {"type": "LineString", "coordinates": [[2.440426300415997, 48.844244777166736], [2.4406586, 48.844224], [2.4406571, 48.844212]]}}, {"type": "Feature", "properties": {"highway": "footway", "footway": null, "name": null, "surface": "asphalt", "lit": "yes", "length_m": 13.09, "type_element": "Way", "__fid": 121977}, "geometry": {"type": "LineString", "coordinates": [[2.440436223458045, 48.84429922921387], [2.440457523139368, 48.84441610943225]]}}, {"type": "Feature", "properties": {"highway": "service", "footway": null, "name": null, "surface": "asphalt", "lit": "yes", "length_m": 27.4, "type_element": "Way", "__fid": 121978}, "geometry": {"type": "LineString", "coordinates": [[2.440436223458045, 48.84429922921387], [2.4408053, 48.84426219999998]]}}, {"type": "Feature", "properties": {"highway": "footway", "footway": null, "name": null, "surface": "asphalt", "lit": "yes", "length_m": 3.57, "type_element": "Way", "__fid": 121979}, "geometry": {"type": "LineString", "coordinates": [[2.440457523139368, 48.84441610943225], [2.440463327835306, 48.84444796212166]]}}, {"type": "Feature", "properties": {"highway": "footway", "footway": null, "name": null, "surface": "asphalt", "lit": "yes", "length_m": 15.86, "type_element": "Way", "__fid": 121980}, "geometry": {"type": "LineString", "coordinates": [[2.440457523139368, 48.84441610943225], [2.4406717, 48.84439720000001]]}}, {"type": "Feature", "properties": {"highway": "footway", "footway": null, "name": null, "surface": "asphalt", "lit": "yes", "length_m": 3.09, "type_element": "Way", "__fid": 121981}, "geometry": {"type": "LineString", "coordinates": [[2.440463327835306, 48.84444796212166], [2.44046836219757, 48.84447558764947]]}}, {"type": "Feature", "properties": {"highway": "service", "footway": null, "name": null, "surface": "asphalt", "lit": "yes", "length_m": 40.44, "type_element": "Way", "__fid": 121982}, "geometry": {"type": "LineString", "coordinates": [[2.4410117, 48.8444233], [2.4407897, 48.8444208], [2.440463327835306, 48.84444796212166]]}}, {"type": "Feature", "properties": {"highway": "footway", "footway": null, "name": null, "surface": "asphalt", "lit": "yes", "length_m": 7.09, "type_element": "Way", "__fid": 121983}, "geometry": {"type": "LineString", "coordinates": [[2.44046836219757, 48.84447558764947], [2.4404799, 48.84453890000001]]}}, {"type": "Feature", "properties": {"highway": "footway", "footway": null, "name": null, "surface": "asphalt", "lit": "yes", "length_m": 15.45, "type_element": "Way", "__fid": 121984}, "geometry": {"type": "LineString", "coordinates": [[2.4406772, 48.8444578], [2.44046836219757, 48.84447558764947]]}}, {"type": "Feature", "properties": {"highway": "steps", "footway": null, "name": null, "surface": "asphalt", "lit": "yes", "length_m": 10.19, "type_element": "Way", "__fid": 121986}, "geometry": {"type": "LineString", "coordinates": [[2.4405255, 48.8445347], [2.4406263, 48.8445263], [2.4406284, 48.8445508]]}}, {"type": "Feature", "properties": {"highway": "footway", "footway": null, "name": null, "surface": "compacted", "lit": "yes", "length_m": 3.94, "type_element": "Way", "__fid": 121997}, "geometry": {"type": "LineString", "coordinates": [[2.4406571, 48.844212], [2.4406041, 48.8442179]]}}, {"type": "Feature", "properties": {"highway": "footway", "footway": "sidewalk", "name": null, "surface": "asphalt", "lit": "yes", "length_m": 28.15, "type_element": "Way", "__fid": 121999}, "geometry": {"type": "LineString", "coordinates": [[2.4410097, 48.8445236], [2.4406284, 48.8445508]]}}, {"type": "Feature", "properties": {"highway": "footway", "footway": null, "name": null, "surface": "compacted", "lit": "yes", "length_m": 16.51, "type_element": "Way", "__fid": 122000}, "geometry": {"type": "LineString", "coordinates": [[2.4408053, 48.84426219999998], [2.4407842, 48.8442], [2.4406571, 48.844212]]}}, {"type": "Feature", "properties": {"highway": "footway", "footway": "sidewalk", "name": null, "surface": "compacted", "lit": "yes", "length_m": 19.36, "type_element": "Way", "__fid": 122005}, "geometry": {"type": "LineString", "coordinates": [[2.4406956, 48.845216], [2.4409593, 48.84522109999999]]}}, {"type": "Feature", "properties": {"highway": "footway", "footway": "sidewalk", "name": null, "surface": "compacted", "lit": "yes", "length_m": 19.29, "type_element": "Way", "__fid": 122006}, "geometry": {"type": "LineString", "coordinates": [[2.4407021, 48.8452843], [2.4409648, 48.8452896]]}}, {"type": "Feature", "properties": {"highway": "footway", "footway": null, "name": null, "surface": "compacted", "lit": "yes", "length_m": 33.0, "type_element": "Way", "__fid": 122008}, "geometry": {"type": "LineString", "coordinates": [[2.4410117, 48.8444233], [2.4409997, 48.8443173], [2.4408224, 48.84433360000003], [2.4408053, 48.84426219999998]]}}, {"type": "Feature", "properties": {"highway": "service", "footway": null, "name": null, "surface": null, "lit": "yes", "length_m": 87.23, "type_element": "Way", "__fid": 122009}, "geometry": {"type": "LineString", "coordinates": [[2.4408053, 48.84426219999998], [2.4419803, 48.84414419999998]]}}, {"type": "Feature", "properties": {"highway": "footway", "footway": null, "name": null, "surface": "compacted", "lit": "yes", "length_m": 4.71, "type_element": "Way", "__fid": 122013}, "geometry": {"type": "LineString", "coordinates": [[2.4409656, 48.845896500000016], [2.4409146, 48.8459222]]}}, {"type": "Feature", "properties": {"highway": "footway", "footway": "crossing", "name": null, "surface": "asphalt", "lit": "yes", "length_m": 3.8, "type_element": "Way", "__fid": 122014}, "geometry": {"type": "LineString", "coordinates": [[2.4409607, 48.8452553], [2.4409593, 48.84522109999999]]}}, {"type": "Feature", "properties": {"highway": "footway", "footway": null, "name": null, "surface": "compacted", "lit": "yes", "length_m": 78.1, "type_element": "Way", "__fid": 122015}, "geometry": {"type": "LineString", "coordinates": [[2.4409593, 48.84522109999999], [2.4409253, 48.8448972], [2.4410097, 48.8445236]]}}, {"type": "Feature", "properties": {"highway": "path", "footway": null, "name": null, "surface": "compacted", "lit": "no", "length_m": 14.94, "type_element": "Way", "__fid": 122016}, "geometry": {"type": "LineString", "coordinates": [[2.4411601, 48.8452824], [2.4409607, 48.8452553]]}}, {"type": "Feature", "properties": {"highway": "footway", "footway": "crossing", "name": null, "surface": "asphalt", "lit": "yes", "length_m": 3.83, "type_element": "Way", "__fid": 122017}, "geometry": {"type": "LineString", "coordinates": [[2.4409648, 48.8452896], [2.4409607, 48.8452553]]}}, {"type": "Feature", "properties": {"highway": "footway", "footway": null, "name": null, "surface": "compacted", "lit": "yes", "length_m": 37.02, "type_element": "Way", "__fid": 122018}, "geometry": {"type": "LineString", "coordinates": [[2.4410201, 48.8456205], [2.4409648, 48.8452896]]}}, {"type": "Feature", "properties": {"highway": "footway", "footway": null, "name": null, "surface": "compacted", "lit": "yes", "length_m": 31.1, "type_element": "Way", "__fid": 122019}, "geometry": {"type": "LineString", "coordinates": [[2.4409656, 48.845896500000016], [2.4410119, 48.845769299999986], [2.4410201, 48.8456205]]}}, {"type": "Feature", "properties": {"highway": "footway", "footway": null, "name": null, "surface": "compacted", "lit": "no", "length_m": 18.11, "type_element": "Way", "__fid": 122020}, "geometry": {"type": "LineString", "coordinates": [[2.4411822, 48.8458184], [2.4409656, 48.845896500000016]]}}, {"type": "Feature", "properties": {"highway": "footway", "footway": "sidewalk", "name": null, "surface": "sett", "lit": "yes", "length_m": 78.18, "type_element": "Way", "__fid": 122023}, "geometry": {"type": "LineString", "coordinates": [[2.4410097, 48.8445236], [2.4412367, 48.8445588], [2.4412568, 48.8445473], [2.4413949, 48.8445314], [2.4420541, 48.8444723]]}}, {"type": "Feature", "properties": {"highway": "footway", "footway": "crossing", "name": null, "surface": "asphalt", "lit": "yes", "length_m": 11.53, "type_element": "Way", "__fid": 122024}, "geometry": {"type": "LineString", "coordinates": [[2.4410097, 48.8445236], [2.4410291, 48.8444917], [2.4410117, 48.8444233]]}}, {"type": "Feature", "properties": {"highway": "footway", "footway": null, "name": null, "surface": "compacted", "lit": "no", "length_m": 25.67, "type_element": "Way", "__fid": 122025}, "geometry": {"type": "LineString", "coordinates": [[2.4410201, 48.8456205], [2.4410804, 48.8457458], [2.4411441, 48.8457979], [2.4411822, 48.8458184]]}}, {"type": "Feature", "properties": {"highway": "service", "footway": null, "name": null, "surface": "asphalt", "lit": null, "length_m": 30.06, "type_element": "Way", "__fid": 122034}, "geometry": {"type": "LineString", "coordinates": [[2.4411651, 48.8417149], [2.4412205, 48.8419828]]}}, {"type": "Feature", "properties": {"highway": "path", "footway": null, "name": null, "surface": "compacted", "lit": "no", "length_m": 54.37, "type_element": "Way", "__fid": 122042}, "geometry": {"type": "LineString", "coordinates": [[2.4411601, 48.8452824], [2.4413902, 48.8454776], [2.441572, 48.8456874]]}}, {"type": "Feature", "properties": {"highway": "path", "footway": null, "name": null, "surface": "compacted", "lit": "no", "length_m": 87.42, "type_element": "Way", "__fid": 122043}, "geometry": {"type": "LineString", "coordinates": [[2.4422573, 48.8450152], [2.4421634, 48.8450766], [2.4419144, 48.8451111], [2.4415803, 48.8452124], [2.441328, 48.84527279999998], [2.4411601, 48.8452824]]}}, {"type": "Feature", "properties": {"highway": "service", "footway": null, "name": null, "surface": "asphalt", "lit": null, "length_m": 33.01, "type_element": "Way", "__fid": 122049}, "geometry": {"type": "LineString", "coordinates": [[2.4412205, 48.8419828], [2.4412739, 48.8422776]]}}, {"type": "Feature", "properties": {"highway": "service", "footway": null, "name": null, "surface": "asphalt", "lit": null, "length_m": 25.17, "type_element": "Way", "__fid": 122050}, "geometry": {"type": "LineString", "coordinates": [[2.4415609, 48.841955], [2.4412205, 48.8419828]]}}, {"type": "Feature", "properties": {"highway": "footway", "footway": null, "name": null, "surface": "compacted", "lit": "no", "length_m": 32.15, "type_element": "Way", "__fid": 122051}, "geometry": {"type": "LineString", "coordinates": [[2.441572, 48.8456874], [2.4413565, 48.8457685], [2.4411822, 48.8458184]]}}, {"type": "Feature", "properties": {"highway": "service", "footway": null, "name": null, "surface": "asphalt", "lit": null, "length_m": 32.73, "type_element": "Way", "__fid": 122056}, "geometry": {"type": "LineString", "coordinates": [[2.4412739, 48.8422776], [2.4413369, 48.842569]]}}, {"type": "Feature", "properties": {"highway": "service", "footway": null, "name": null, "surface": "cobblestone", "lit": null, "length_m": 25.67, "type_element": "Way", "__fid": 122057}, "geometry": {"type": "LineString", "coordinates": [[2.4412739, 48.8422776], [2.4416202, 48.8422451]]}}, {"type": "Feature", "properties": {"highway": "service", "footway": null, "name": null, "surface": null, "lit": "yes", "length_m": 78.0, "type_element": "Way", "__fid": 122062}, "geometry": {"type": "LineString", "coordinates": [[2.4423211, 48.8444184], [2.4412652, 48.8444981]]}}, {"type": "Feature", "properties": {"highway": "service", "footway": null, "name": null, "surface": "asphalt", "lit": null, "length_m": 30.34, "type_element": "Way", "__fid": 122063}, "geometry": {"type": "LineString", "coordinates": [[2.4413369, 48.842569], [2.4413998, 48.842838700000016]]}}, {"type": "Feature", "properties": {"highway": "service", "footway": null, "name": null, "surface": "asphalt", "lit": null, "length_m": 25.6, "type_element": "Way", "__fid": 122064}, "geometry": {"type": "LineString", "coordinates": [[2.4416829, 48.8425399], [2.4413369, 48.842569]]}}, {"type": "Feature", "properties": {"highway": "service", "footway": null, "name": null, "surface": "asphalt", "lit": null, "length_m": 31.53, "type_element": "Way", "__fid": 122077}, "geometry": {"type": "LineString", "coordinates": [[2.4413998, 48.842838700000016], [2.4414551, 48.8431199]]}}, {"type": "Feature", "properties": {"highway": "service", "footway": null, "name": null, "surface": "asphalt", "lit": null, "length_m": 30.59, "type_element": "Way", "__fid": 122087}, "geometry": {"type": "LineString", "coordinates": [[2.4414551, 48.8431199], [2.4415121, 48.8433924]]}}, {"type": "Feature", "properties": {"highway": "service", "footway": null, "name": null, "surface": "asphalt", "lit": null, "length_m": 143.37, "type_element": "Way", "__fid": 122093}, "geometry": {"type": "LineString", "coordinates": [[2.4415121, 48.8433924], [2.4422024, 48.843332], [2.4420265, 48.842510400000016]]}}, {"type": "Feature", "properties": {"highway": "service", "footway": null, "name": null, "surface": null, "lit": null, "length_m": 32.55, "type_element": "Way", "__fid": 122094}, "geometry": {"type": "LineString", "coordinates": [[2.4415609, 48.841955], [2.4416202, 48.8422451]]}}, {"type": "Feature", "properties": {"highway": "service", "footway": null, "name": null, "surface": "asphalt", "lit": null, "length_m": 25.66, "type_element": "Way", "__fid": 122095}, "geometry": {"type": "LineString", "coordinates": [[2.4419073, 48.8419237], [2.4415609, 48.841955]]}}, {"type": "Feature", "properties": {"highway": "footway", "footway": null, "name": null, "surface": "compacted", "lit": "no", "length_m": 170.68, "type_element": "Way", "__fid": 122102}, "geometry": {"type": "LineString", "coordinates": [[2.441572, 48.8456874], [2.4417597, 48.845921099999984], [2.4427434, 48.8457213], [2.4436036, 48.8455566]]}}, {"type": "Feature", "properties": {"highway": "footway", "footway": null, "name": null, "surface": "compacted", "lit": "no", "length_m": 93.97, "type_element": "Way", "__fid": 122103}, "geometry": {"type": "LineString", "coordinates": [[2.4426131, 48.8452059], [2.4423276, 48.8453742], [2.4420438, 48.8455258], [2.4418031, 48.8456202], [2.441572, 48.8456874]]}}, {"type": "Feature", "properties": {"highway": "service", "footway": null, "name": null, "surface": null, "lit": null, "length_m": 33.1, "type_element": "Way", "__fid": 122105}, "geometry": {"type": "LineString", "coordinates": [[2.4416202, 48.8422451], [2.4416829, 48.8425399]]}}, {"type": "Feature", "properties": {"highway": "service", "footway": null, "name": null, "surface": "cobblestone", "lit": null, "length_m": 25.46, "type_element": "Way", "__fid": 122106}, "geometry": {"type": "LineString", "coordinates": [[2.4416202, 48.8422451], [2.441964, 48.84221440000001]]}}, {"type": "Feature", "properties": {"highway": "service", "footway": null, "name": null, "surface": "asphalt", "lit": null, "length_m": 25.43, "type_element": "Way", "__fid": 122112}, "geometry": {"type": "LineString", "coordinates": [[2.4420265, 48.842510400000016], [2.4416829, 48.8425399]]}}, {"type": "Feature", "properties": {"highway": "service", "footway": null, "name": null, "surface": "asphalt", "lit": null, "length_m": 32.59, "type_element": "Way", "__fid": 122140}, "geometry": {"type": "LineString", "coordinates": [[2.441964, 48.84221440000001], [2.4419073, 48.8419237]]}}, {"type": "Feature", "properties": {"highway": "service", "footway": null, "name": null, "surface": null, "lit": null, "length_m": 59.58, "type_element": "Way", "__fid": 122143}, "geometry": {"type": "LineString", "coordinates": [[2.442052, 48.8422065], [2.4419454, 48.8416753]]}}, {"type": "Feature", "properties": {"highway": "service", "footway": null, "name": null, "surface": "asphalt", "lit": null, "length_m": 33.23, "type_element": "Way", "__fid": 122144}, "geometry": {"type": "LineString", "coordinates": [[2.4420265, 48.842510400000016], [2.441964, 48.84221440000001]]}}, {"type": "Feature", "properties": {"highway": "service", "footway": null, "name": null, "surface": "cobblestone", "lit": null, "length_m": 6.52, "type_element": "Way", "__fid": 122145}, "geometry": {"type": "LineString", "coordinates": [[2.441964, 48.84221440000001], [2.442052, 48.8422065]]}}, {"type": "Feature", "properties": {"highway": "track", "footway": null, "name": "Route des Pelouses Marigny", "surface": "asphalt", "lit": "yes", "length_m": 8.57, "type_element": "Way", "__fid": 122146}, "geometry": {"type": "LineString", "coordinates": [[2.4419378, 48.8449214], [2.4420446, 48.8449526]]}}, {"type": "Feature", "properties": {"highway": "service", "footway": null, "name": null, "surface": "asphalt", "lit": "yes", "length_m": 7.74, "type_element": "Way", "__fid": 122150}, "geometry": {"type": "LineString", "coordinates": [[2.4419803, 48.84414419999998], [2.4420316, 48.8440834]]}}, {"type": "Feature", "properties": {"highway": "service", "footway": null, "name": null, "surface": null, "lit": "yes", "length_m": 13.33, "type_element": "Way", "__fid": 122151}, "geometry": {"type": "LineString", "coordinates": [[2.4419803, 48.84414419999998], [2.4421596, 48.84412480000001]]}}, {"type": "Feature", "properties": {"highway": "service", "footway": null, "name": null, "surface": "asphalt", "lit": "yes", "length_m": 10.46, "type_element": "Way", "__fid": 122160}, "geometry": {"type": "LineString", "coordinates": [[2.4421596, 48.84412480000001], [2.4420316, 48.8440834]]}}, {"type": "Feature", "properties": {"highway": "service", "footway": null, "name": null, "surface": null, "lit": null, "length_m": 60.87, "type_element": "Way", "__fid": 122161}, "geometry": {"type": "LineString", "coordinates": [[2.4421694, 48.8427484], [2.442052, 48.8422065]]}}, {"type": "Feature", "properties": {"highway": "service", "footway": null, "name": null, "surface": "cobblestone", "lit": null, "length_m": 26.24, "type_element": "Way", "__fid": 122162}, "geometry": {"type": "LineString", "coordinates": [[2.442052, 48.8422065], [2.4424063, 48.842174600000014]]}}, {"type": "Feature", "properties": {"highway": "track", "footway": null, "name": "Route des Pelouses Marigny", "surface": "asphalt", "lit": "yes", "length_m": 17.09, "type_element": "Way", "__fid": 122165}, "geometry": {"type": "LineString", "coordinates": [[2.4420446, 48.8449526], [2.4422573, 48.8450152]]}}, {"type": "Feature", "properties": {"highway": "footway", "footway": null, "name": null, "surface": "dirt", "lit": "no", "length_m": 71.12, "type_element": "Way", "__fid": 122166}, "geometry": {"type": "LineString", "coordinates": [[2.4420446, 48.8449526], [2.442308, 48.8448528], [2.4424126, 48.8447981], [2.4424824, 48.8447416], [2.4425038, 48.844678], [2.4425065, 48.84458269999999], [2.442536, 48.8445209], [2.4425815, 48.8444773]]}}, {"type": "Feature", "properties": {"highway": "service", "footway": null, "name": null, "surface": null, "lit": null, "length_m": 9.78, "type_element": "Way", "__fid": 122171}, "geometry": {"type": "LineString", "coordinates": [[2.4422774, 48.8427944], [2.4422338, 48.8427887], [2.4421694, 48.8427484]]}}, {"type": "Feature", "properties": {"highway": "service", "footway": null, "name": null, "surface": null, "lit": null, "length_m": 9.72, "type_element": "Way", "__fid": 122172}, "geometry": {"type": "LineString", "coordinates": [[2.4421694, 48.8427484], [2.4421876, 48.842835]]}}, {"type": "Feature", "properties": {"highway": "service", "footway": null, "name": null, "surface": "asphalt", "lit": "yes", "length_m": 42.66, "type_element": "Way", "__fid": 122173}, "geometry": {"type": "LineString", "coordinates": [[2.4421596, 48.84412480000001], [2.4423745, 48.8441589], [2.4424528, 48.8442542], [2.4424324, 48.8443273], [2.4423937, 48.844376]]}}, {"type": "Feature", "properties": {"highway": "service", "footway": null, "name": null, "surface": null, "lit": "yes", "length_m": 33.35, "type_element": "Way", "__fid": 122174}, "geometry": {"type": "LineString", "coordinates": [[2.4421596, 48.84412480000001], [2.442397, 48.8441171], [2.4425925, 48.84417890000002]]}}, {"type": "Feature", "properties": {"highway": "service", "footway": null, "name": null, "surface": null, "lit": "yes", "length_m": 29.68, "type_element": "Way", "__fid": 122177}, "geometry": {"type": "LineString", "coordinates": [[2.4421741, 48.8440028], [2.4425747, 48.8439665]]}}, {"type": "Feature", "properties": {"highway": "track", "footway": null, "name": "Route de la Dame Blanche", "surface": "asphalt", "lit": "yes", "length_m": 41.29, "type_element": "Way", "__fid": 122182}, "geometry": {"type": "LineString", "coordinates": [[2.4428194, 48.845025700000015], [2.4425946, 48.845026699999984], [2.4422573, 48.8450152]]}}, {"type": "Feature", "properties": {"highway": "track", "footway": null, "name": null, "surface": "asphalt", "lit": "yes", "length_m": 36.99, "type_element": "Way", "__fid": 122183}, "geometry": {"type": "LineString", "coordinates": [[2.4422573, 48.8450152], [2.4425521, 48.8450893], [2.4427321, 48.8451265]]}}, {"type": "Feature", "properties": {"highway": "track", "footway": null, "name": "Route des Pelouses Marigny", "surface": "asphalt", "lit": "no", "length_m": 33.64, "type_element": "Way", "__fid": 122184}, "geometry": {"type": "LineString", "coordinates": [[2.4422573, 48.8450152], [2.4426131, 48.8452059]]}}, {"type": "Feature", "properties": {"highway": "track", "footway": null, "name": "Route du Donjon", "surface": "asphalt", "lit": "yes", "length_m": 15.18, "type_element": "Way", "__fid": 122185}, "geometry": {"type": "LineString", "coordinates": [[2.4423937, 48.844376], [2.4423225, 48.844335200000025], [2.4422658, 48.844271]]}}, {"type": "Feature", "properties": {"highway": "path", "footway": null, "name": null, "surface": "dirt", "lit": "yes", "length_m": 160.1, "type_element": "Way", "__fid": 122191}, "geometry": {"type": "LineString", "coordinates": [[2.4423211, 48.8444184], [2.4421429, 48.8444826], [2.4420286, 48.8445117], [2.4413784, 48.8445709], [2.4414842, 48.8445974], [2.4420876, 48.8445566], [2.4424203, 48.8444684], [2.4425415, 48.8444642]]}}, {"type": "Feature", "properties": {"highway": "service", "footway": null, "name": null, "surface": "sett", "lit": "yes", "length_m": 7.11, "type_element": "Way", "__fid": 122192}, "geometry": {"type": "LineString", "coordinates": [[2.4423937, 48.844376], [2.4423211, 48.8444184]]}}, {"type": "Feature", "properties": {"highway": "service", "footway": null, "name": null, "surface": "asphalt", "lit": null, "length_m": 105.66, "type_element": "Way", "__fid": 122199}, "geometry": {"type": "LineString", "coordinates": [[2.4434305, 48.8427937], [2.4424336, 48.8423024], [2.4424063, 48.842174600000014]]}}, {"type": "Feature", "properties": {"highway": "service", "footway": null, "name": null, "surface": "asphalt", "lit": null, "length_m": 109.2, "type_element": "Way", "__fid": 122200}, "geometry": {"type": "LineString", "coordinates": [[2.4424063, 48.842174600000014], [2.442388, 48.842060899999986], [2.4431742, 48.841365400000015]]}}, {"type": "Feature", "properties": {"highway": "service", "footway": null, "name": null, "surface": "cobblestone", "lit": null, "length_m": 45.99, "type_element": "Way", "__fid": 122201}, "geometry": {"type": "LineString", "coordinates": [[2.4424063, 48.842174600000014], [2.4430271, 48.8421187]]}}, {"type": "Feature", "properties": {"highway": "track", "footway": null, "name": "Route du Donjon", "surface": "asphalt", "lit": "yes", "length_m": 14.62, "type_element": "Way", "__fid": 122202}, "geometry": {"type": "LineString", "coordinates": [[2.4425415, 48.8444642], [2.4423937, 48.844376]]}}, {"type": "Feature", "properties": {"highway": "track", "footway": null, "name": "Route du Donjon", "surface": "asphalt", "lit": "yes", "length_m": 2.39, "type_element": "Way", "__fid": 122212}, "geometry": {"type": "LineString", "coordinates": [[2.4425732, 48.8444691], [2.4425415, 48.8444642]]}}, {"type": "Feature", "properties": {"highway": "path", "footway": null, "name": null, "surface": "dirt", "lit": "yes", "length_m": 346.74, "type_element": "Way", "__fid": 122213}, "geometry": {"type": "LineString", "coordinates": [[2.4470759, 48.843816400000016], [2.446696, 48.8439128], [2.4458493, 48.8440631], [2.4426289, 48.8443523], [2.4425415, 48.8444642]]}}, {"type": "Feature", "properties": {"highway": "service", "footway": null, "name": null, "surface": "asphalt", "lit": "yes", "length_m": 20.07, "type_element": "Way", "__fid": 122214}, "geometry": {"type": "LineString", "coordinates": [[2.4425964, 48.8441438], [2.4426073, 48.844044299999986], [2.4425747, 48.8439665]]}}, {"type": "Feature", "properties": {"highway": "track", "footway": null, "name": "Route du Donjon", "surface": "asphalt", "lit": "yes", "length_m": 1.53, "type_element": "Way", "__fid": 122215}, "geometry": {"type": "LineString", "coordinates": [[2.442593349999887, 48.84447245000013], [2.4425732, 48.8444691]]}}, {"type": "Feature", "properties": {"highway": "footway", "footway": null, "name": null, "surface": null, "lit": "yes", "length_m": 1.1, "type_element": "Way", "__fid": 122216}, "geometry": {"type": "LineString", "coordinates": [[2.4425815, 48.8444773], [2.4425732, 48.8444691]]}}, {"type": "Feature", "properties": {"highway": "footway", "footway": null, "name": null, "surface": null, "lit": "yes", "length_m": 1.02, "type_element": "Way", "__fid": 122219}, "geometry": {"type": "LineString", "coordinates": [[2.4425815, 48.8444773], [2.442593349999887, 48.84447245000013]]}}, {"type": "Feature", "properties": {"highway": "service", "footway": null, "name": null, "surface": null, "lit": "yes", "length_m": 8.13, "type_element": "Way", "__fid": 122220}, "geometry": {"type": "LineString", "coordinates": [[2.4425925, 48.84417890000002], [2.4426653, 48.844234]]}}, {"type": "Feature", "properties": {"highway": "service", "footway": null, "name": null, "surface": "asphalt", "lit": "yes", "length_m": 3.91, "type_element": "Way", "__fid": 122221}, "geometry": {"type": "LineString", "coordinates": [[2.4425925, 48.84417890000002], [2.4425964, 48.8441438]]}}, {"type": "Feature", "properties": {"highway": "path", "footway": null, "name": null, "surface": "ground", "lit": null, "length_m": 318.01, "type_element": "Way", "__fid": 122222}, "geometry": {"type": "LineString", "coordinates": [[2.4466866, 48.8434338], [2.4463048, 48.8435684], [2.444793, 48.84368090000001], [2.4441654, 48.8436985], [2.4434787, 48.843758500000014], [2.4425964, 48.8441438]]}}, {"type": "Feature", "properties": {"highway": "path", "footway": null, "name": null, "surface": "dirt", "lit": null, "length_m": 329.23, "type_element": "Way", "__fid": 122223}, "geometry": {"type": "LineString", "coordinates": [[2.4425964, 48.8441438], [2.4435514, 48.8440742], [2.4457103, 48.8438693], [2.4460516, 48.8438216], [2.4466252, 48.8437027], [2.4467996, 48.8436528], [2.4469055, 48.8436144], [2.4469686, 48.8435788]]}}, {"type": "Feature", "properties": {"highway": "track", "footway": null, "name": "Route du Donjon", "surface": "asphalt", "lit": "yes", "length_m": 169.37, "type_element": "Way", "__fid": 122224}, "geometry": {"type": "LineString", "coordinates": [[2.444889, 48.8443953], [2.4427479, 48.8445014], [2.442593349999887, 48.84447245000013]]}}, {"type": "Feature", "properties": {"highway": "track", "footway": null, "name": "Route des Pelouses Marigny", "surface": "asphalt", "lit": "no", "length_m": 82.51, "type_element": "Way", "__fid": 122226}, "geometry": {"type": "LineString", "coordinates": [[2.4426131, 48.8452059], [2.442989, 48.8453309], [2.4436036, 48.8455566]]}}, {"type": "Feature", "properties": {"highway": "footway", "footway": null, "name": null, "surface": "compacted", "lit": "no", "length_m": 12.42, "type_element": "Way", "__fid": 122227}, "geometry": {"type": "LineString", "coordinates": [[2.4427321, 48.8451265], [2.4426131, 48.8452059]]}}, {"type": "Feature", "properties": {"highway": "track", "footway": null, "name": null, "surface": "asphalt", "lit": "yes", "length_m": 111.9, "type_element": "Way", "__fid": 122237}, "geometry": {"type": "LineString", "coordinates": [[2.4427321, 48.8451265], [2.4441941, 48.8454123]]}}, {"type": "Feature", "properties": {"highway": "footway", "footway": null, "name": null, "surface": "compacted", "lit": "no", "length_m": 12.91, "type_element": "Way", "__fid": 122238}, "geometry": {"type": "LineString", "coordinates": [[2.4428194, 48.845025700000015], [2.4427321, 48.8451265]]}}, {"type": "Feature", "properties": {"highway": "track", "footway": null, "name": "Route de la Dame Blanche", "surface": "asphalt", "lit": "yes", "length_m": 87.04, "type_element": "Way", "__fid": 122251}, "geometry": {"type": "LineString", "coordinates": [[2.4439723, 48.8448674], [2.4437577, 48.8448656], [2.44357, 48.8448885], [2.4430041, 48.8450069], [2.4428194, 48.845025700000015]]}}, {"type": "Feature", "properties": {"highway": "service", "footway": null, "name": null, "surface": "cobblestone", "lit": null, "length_m": 136.86, "type_element": "Way", "__fid": 122277}, "geometry": {"type": "LineString", "coordinates": [[2.4443845, 48.8419989], [2.4437015, 48.8416589], [2.4435407, 48.84167440000002], [2.4430271, 48.8421187]]}}, {"type": "Feature", "properties": {"highway": "service", "footway": null, "name": null, "surface": "asphalt", "lit": null, "length_m": 118.57, "type_element": "Way", "__fid": 122297}, "geometry": {"type": "LineString", "coordinates": [[2.4439986, 48.8427725], [2.4440975, 48.843217], [2.4440838, 48.8432309], [2.4431826, 48.8433134]]}}]}