{"type": "FeatureCollection", "features": [{"type": "Feature", "properties": {"highway": "track", "footway": null, "name": "Route de la Belle-Étoile", "surface": null, "lit": null, "length_m": 221.85, "type_element": "Way", "__fid": 121437}, "geometry": {"type": "LineString", "coordinates": [[2.4358358, 48.824789], [2.4353263, 48.8245971], [2.4336132, 48.8240036], [2.4331763, 48.82384239999998]]}}, {"type": "Feature", "properties": {"highway": "path", "footway": null, "name": null, "surface": "dirt", "lit": null, "length_m": 177.97, "type_element": "Way", "__fid": 121438}, "geometry": {"type": "LineString", "coordinates": [[2.4331763, 48.82384239999998], [2.433516, 48.82348179999999], [2.433836, 48.8232073], [2.4340243, 48.8230864], [2.434878, 48.8227507]]}}, {"type": "Feature", "properties": {"highway": "track", "footway": null, "name": "Route de la Demi-Lune", "surface": "compacted", "lit": null, "length_m": 204.33, "type_element": "Way", "__fid": 121455}, "geometry": {"type": "LineString", "coordinates": [[2.4358481, 48.8264631], [2.4339236, 48.827790600000014]]}}, {"type": "Feature", "properties": {"highway": "track", "footway": null, "name": "Route de la Faluère", "surface": "compacted", "lit": "no", "length_m": 221.75, "type_element": "Way", "__fid": 121459}, "geometry": {"type": "LineString", "coordinates": [[2.433967, 48.8287701], [2.4364366, 48.8299185]]}}, {"type": "Feature", "properties": {"highway": "path", "footway": null, "name": "Route Saint-Hubert", "surface": null, "lit": null, "length_m": 136.04, "type_element": "Way", "__fid": 121475}, "geometry": {"type": "LineString", "coordinates": [[2.4342142, 48.8282815], [2.4360587, 48.8281639]]}}, {"type": "Feature", "properties": {"highway": "path", "footway": null, "name": "Allée des Quatre Carrefours", "surface": null, "lit": null, "length_m": 122.12, "type_element": "Way", "__fid": 121490}, "geometry": {"type": "LineString", "coordinates": [[2.4358481, 48.8264631], [2.4343424, 48.8259963]]}}, {"type": "Feature", "properties": {"highway": "track", "footway": null, "name": "Avenue des Tribunes", "surface": "compacted", "lit": "no", "length_m": 236.75, "type_element": "Way", "__fid": 121491}, "geometry": {"type": "LineString", "coordinates": [[2.4343424, 48.8259963], [2.4365872, 48.825474499999984], [2.4374114, 48.825351799999986]]}}, {"type": "Feature", "properties": {"highway": "path", "footway": null, "name": null, "surface": null, "lit": null, "length_m": 92.2, "type_element": "Way", "__fid": 121537}, "geometry": {"type": "LineString", "coordinates": [[2.435135, 48.8233828], [2.435203, 48.823459200000016], [2.4351843, 48.8236005], [2.4352071, 48.8237369], [2.4353103, 48.8238304], [2.4354257, 48.8240327], [2.4355933, 48.8241002]]}}, {"type": "Feature", "properties": {"highway": "path", "footway": null, "name": null, "surface": null, "lit": null, "length_m": 79.7, "type_element": "Way", "__fid": 121559}, "geometry": {"type": "LineString", "coordinates": [[2.4355933, 48.8241002], [2.4356521, 48.8241416], [2.4358287, 48.8246783], [2.4358358, 48.824789]]}}, {"type": "Feature", "properties": {"highway": "path", "footway": null, "name": null, "surface": null, "lit": null, "length_m": 130.79, "type_element": "Way", "__fid": 121560}, "geometry": {"type": "LineString", "coordinates": [[2.4355933, 48.8241002], [2.4356925, 48.8240892], [2.4357891, 48.8241144], [2.4359842, 48.8241347], [2.4360862, 48.8241722], [2.4361445, 48.82416950000001], [2.4361988, 48.8241536], [2.4362786, 48.8241545], [2.4363249, 48.824166900000016], [2.4364154, 48.82417], [2.4364677, 48.82419119999999], [2.4365716, 48.82425160000001], [2.436626, 48.8242353], [2.4367044, 48.8242327], [2.4367896, 48.824209300000014], [2.4368566, 48.8242185], [2.4369981, 48.8242746], [2.4371121, 48.824289600000014], [2.4371939, 48.8243682]]}}, {"type": "Feature", "properties": {"highway": "track", "footway": null, "name": "Route de la Belle-Étoile", "surface": null, "lit": null, "length_m": 78.8, "type_element": "Way", "__fid": 121569}, "geometry": {"type": "LineString", "coordinates": [[2.4367682, 48.8251401], [2.4358358, 48.824789]]}}, {"type": "Feature", "properties": {"highway": "path", "footway": null, "name": "Allée des Quatre Carrefours", "surface": null, "lit": null, "length_m": 45.95, "type_element": "Way", "__fid": 121570}, "geometry": {"type": "LineString", "coordinates": [[2.4364212, 48.8266291], [2.4358481, 48.8264631]]}}, {"type": "Feature", "properties": {"highway": "track", "footway": null, "name": "Route de la Demi-Lune", "surface": "compacted", "lit": null, "length_m": 168.79, "type_element": "Way", "__fid": 121571}, "geometry": {"type": "LineString", "coordinates": [[2.4374114, 48.825351799999986], [2.4372965, 48.8254595], [2.4358481, 48.8264631]]}}, {"type": "Feature", "properties": {"highway": "path", "footway": null, "name": null, "surface": null, "lit": null, "length_m": 163.24, "type_element": "Way", "__fid": 121593}, "geometry": {"type": "LineString", "coordinates": [[2.4360587, 48.8281639], [2.4360139, 48.82802070000001], [2.4356356, 48.82789910000002], [2.4356353, 48.827888], [2.4358261, 48.827810200000016], [2.4358844, 48.8277728], [2.4359706, 48.8277], [2.4359575, 48.82768080000001], [2.4359421, 48.8276762], [2.4357466, 48.8276787], [2.436568, 48.8274802]]}}, {"type": "Feature", "properties": {"highway": "path", "footway": null, "name": "Route Saint-Hubert", "surface": null, "lit": null, "length_m": 75.05, "type_element": "Way", "__fid": 121594}, "geometry": {"type": "LineString", "coordinates": [[2.4360587, 48.8281639], [2.4370763, 48.82809939999998]]}}, {"type": "Feature", "properties": {"highway": "path", "footway": null, "name": "Allée des Quatre Carrefours", "surface": null, "lit": null, "length_m": 72.03, "type_element": "Way", "__fid": 121619}, "geometry": {"type": "LineString", "coordinates": [[2.4373105, 48.8269028], [2.4364212, 48.8266291]]}}, {"type": "Feature", "properties": {"highway": "path", "footway": null, "name": null, "surface": null, "lit": null, "length_m": 105.52, "type_element": "Way", "__fid": 121620}, "geometry": {"type": "LineString", "coordinates": [[2.436568, 48.8274802], [2.4363059, 48.8272541], [2.43622, 48.82715], [2.4362147, 48.827058100000016], [2.4364132, 48.8267209], [2.4364212, 48.8266291]]}}, {"type": "Feature", "properties": {"highway": "path", "footway": null, "name": null, "surface": null, "lit": null, "length_m": 226.85, "type_element": "Way", "__fid": 121625}, "geometry": {"type": "LineString", "coordinates": [[2.4364366, 48.8299185], [2.4364537, 48.82989], [2.4364703, 48.8297467], [2.4365339, 48.8296308], [2.4365258, 48.82955840000001], [2.4363139, 48.8292141], [2.4363032, 48.829004], [2.4363354, 48.8289316], [2.4363756, 48.82888040000002], [2.4364293, 48.8288451], [2.4364775, 48.8287939], [2.436617, 48.8286862], [2.4367538, 48.8286261], [2.4369094, 48.828529], [2.4370113, 48.828416], [2.4370596, 48.8283083], [2.4370763, 48.82809939999998]]}}, {"type": "Feature", "properties": {"highway": "path", "footway": null, "name": null, "surface": null, "lit": null, "length_m": 84.36, "type_element": "Way", "__fid": 121630}, "geometry": {"type": "LineString", "coordinates": [[2.4370763, 48.82809939999998], [2.4370596, 48.82786510000001], [2.4369925, 48.82772210000001], [2.4369121, 48.8276461], [2.4368262, 48.8275967], [2.436568, 48.8274802]]}}, {"type": "Feature", "properties": {"highway": "track", "footway": null, "name": "Route de la Belle-Étoile", "surface": null, "lit": null, "length_m": 52.76, "type_element": "Way", "__fid": 121649}, "geometry": {"type": "LineString", "coordinates": [[2.4374114, 48.825351799999986], [2.4367682, 48.8251401]]}}, {"type": "Feature", "properties": {"highway": "path", "footway": null, "name": null, "surface": null, "lit": null, "length_m": 94.64, "type_element": "Way", "__fid": 121650}, "geometry": {"type": "LineString", "coordinates": [[2.4367682, 48.8251401], [2.4371503, 48.8247722], [2.4371939, 48.8243682]]}}, {"type": "Feature", "properties": {"highway": "path", "footway": null, "name": null, "surface": null, "lit": null, "length_m": 240.97, "type_element": "Way", "__fid": 121652}, "geometry": {"type": "LineString", "coordinates": [[2.4376738, 48.8280642], [2.43766, 48.8281773], [2.4376801, 48.8282527], [2.4375889, 48.828587], [2.4376009, 48.8286797], [2.4375674, 48.8288889], [2.4375138, 48.829001900000016], [2.4375205, 48.8291653], [2.4374454, 48.82925090000001], [2.4372683, 48.82936209999998], [2.4370618, 48.82952370000001], [2.4369343, 48.8296709], [2.4368785, 48.8297549], [2.436768, 48.83003640000001], [2.436749, 48.8300618]]}}, {"type": "Feature", "properties": {"highway": "path", "footway": null, "name": "Route Saint-Hubert", "surface": null, "lit": null, "length_m": 44.04, "type_element": "Way", "__fid": 121674}, "geometry": {"type": "LineString", "coordinates": [[2.4370763, 48.82809939999998], [2.4376738, 48.8280642]]}}, {"type": "Feature", "properties": {"highway": "path", "footway": null, "name": null, "surface": null, "lit": null, "length_m": 265.5, "type_element": "Way", "__fid": 121682}, "geometry": {"type": "LineString", "coordinates": [[2.4371939, 48.8243682], [2.4376438, 48.8241435], [2.4378691, 48.8239387], [2.4386524, 48.8237692], [2.4395965, 48.8234654], [2.4400757, 48.82304719999998]]}}, {"type": "Feature", "properties": {"highway": "path", "footway": null, "name": "Allée des Quatre Carrefours", "surface": null, "lit": null, "length_m": 127.99, "type_element": "Way", "__fid": 121691}, "geometry": {"type": "LineString", "coordinates": [[2.4388889, 48.827391599999984], [2.4373105, 48.8269028]]}}, {"type": "Feature", "properties": {"highway": "path", "footway": null, "name": null, "surface": null, "lit": null, "length_m": 132.19, "type_element": "Way", "__fid": 121692}, "geometry": {"type": "LineString", "coordinates": [[2.4373105, 48.8269028], [2.4373761, 48.8271729], [2.4374861, 48.8273813], [2.4375826, 48.827655], [2.4376738, 48.8280642]]}}, {"type": "Feature", "properties": {"highway": "path", "footway": null, "name": null, "surface": null, "lit": null, "length_m": 160.67, "type_element": "Way", "__fid": 121693}, "geometry": {"type": "LineString", "coordinates": [[2.4381161, 48.8255884], [2.438001, 48.825674], [2.4379179, 48.8258521], [2.4378401, 48.8259775], [2.4378294, 48.826011], [2.4377757, 48.8260728], [2.437757, 48.8261452], [2.4377248, 48.826201699999984], [2.4376255, 48.82626710000001], [2.4376068, 48.826313], [2.4376202, 48.826369499999984], [2.437588, 48.8264454], [2.4374592, 48.826675], [2.4373949, 48.826758], [2.4373105, 48.8269028]]}}, {"type": "Feature", "properties": {"highway": "track", "footway": null, "name": "Route de la Belle-Étoile", "surface": null, "lit": null, "length_m": 58.04, "type_element": "Way", "__fid": 121700}, "geometry": {"type": "LineString", "coordinates": [[2.4381161, 48.8255884], [2.4374114, 48.825351799999986]]}}, {"type": "Feature", "properties": {"highway": "track", "footway": null, "name": "Route de la Demi-Lune", "surface": "compacted", "lit": null, "length_m": 320.99, "type_element": "Way", "__fid": 121701}, "geometry": {"type": "LineString", "coordinates": [[2.4374114, 48.825351799999986], [2.4374781, 48.82526280000001], [2.4403994, 48.8232504]]}}, {"type": "Feature", "properties": {"highway": "track", "footway": null, "name": "Avenue des Tribunes", "surface": "compacted", "lit": null, "length_m": 79.81, "type_element": "Way", "__fid": 121702}, "geometry": {"type": "LineString", "coordinates": [[2.4374114, 48.825351799999986], [2.4384835, 48.825233]]}}, {"type": "Feature", "properties": {"highway": "path", "footway": null, "name": null, "surface": "ground", "lit": null, "length_m": 266.23, "type_element": "Way", "__fid": 121718}, "geometry": {"type": "LineString", "coordinates": [[2.4375568, 48.8304363], [2.4375473, 48.8302566], [2.4375795, 48.8300037], [2.4375969, 48.829723], [2.4377618, 48.8285986], [2.4378139, 48.8283342], [2.4378621, 48.8281567], [2.4378491, 48.8280539]]}}, {"type": "Feature", "properties": {"highway": "path", "footway": null, "name": "Route Saint-Hubert", "surface": "compacted", "lit": null, "length_m": 12.92, "type_element": "Way", "__fid": 121731}, "geometry": {"type": "LineString", "coordinates": [[2.4376738, 48.8280642], [2.4378491, 48.8280539]]}}, {"type": "Feature", "properties": {"highway": "path", "footway": null, "name": "Route Saint-Hubert", "surface": "compacted", "lit": null, "length_m": 182.69, "type_element": "Way", "__fid": 121748}, "geometry": {"type": "LineString", "coordinates": [[2.4378491, 48.8280539], [2.440197, 48.8279156], [2.4403081, 48.8278694]]}}, {"type": "Feature", "properties": {"highway": "track", "footway": null, "name": "Route de la Belle-Étoile", "surface": null, "lit": null, "length_m": 126.06, "type_element": "Way", "__fid": 121765}, "geometry": {"type": "LineString", "coordinates": [[2.4396344, 48.8261178], [2.4381161, 48.8255884]]}}, {"type": "Feature", "properties": {"highway": "path", "footway": null, "name": null, "surface": "dirt", "lit": null, "length_m": 47.85, "type_element": "Way", "__fid": 121766}, "geometry": {"type": "LineString", "coordinates": [[2.4384835, 48.825233], [2.4381161, 48.8255884]]}}, {"type": "Feature", "properties": {"highway": "path", "footway": null, "name": null, "surface": "dirt", "lit": null, "length_m": 129.03, "type_element": "Way", "__fid": 121799}, "geometry": {"type": "LineString", "coordinates": [[2.4398044, 48.8245081], [2.4395354, 48.824631899999986], [2.439271, 48.82478690000002], [2.4388247, 48.8249165], [2.4384835, 48.825233]]}}, {"type": "Feature", "properties": {"highway": "track", "footway": null, "name": "Avenue des Tribunes", "surface": "compacted", "lit": null, "length_m": 122.21, "type_element": "Way", "__fid": 121800}, "geometry": {"type": "LineString", "coordinates": [[2.4384835, 48.825233], [2.4398353, 48.8250455], [2.4401148, 48.825015]]}}, {"type": "Feature", "properties": {"highway": "path", "footway": null, "name": "Allée des Quatre Carrefours", "surface": null, "lit": null, "length_m": 117.76, "type_element": "Way", "__fid": 121830}, "geometry": {"type": "LineString", "coordinates": [[2.4403081, 48.8278694], [2.4402254, 48.8278045], [2.4388889, 48.827391599999984]]}}, {"type": "Feature", "properties": {"highway": "path", "footway": null, "name": null, "surface": null, "lit": null, "length_m": 154.21, "type_element": "Way", "__fid": 121831}, "geometry": {"type": "LineString", "coordinates": [[2.4388889, 48.827391599999984], [2.4390793, 48.8271888], [2.4393126, 48.8268074], [2.4393421, 48.82668910000001], [2.4393287, 48.8266238], [2.4393502, 48.82654079999999], [2.4394199, 48.826396], [2.4395262, 48.8262131], [2.4396344, 48.8261178]]}}, {"type": "Feature", "properties": {"highway": "service", "footway": null, "name": "Route Dauphine", "surface": "asphalt", "lit": "no", "length_m": 344.47, "type_element": "Way", "__fid": 121857}, "geometry": {"type": "LineString", "coordinates": [[2.4403081, 48.8278694], [2.439228, 48.8308842]]}}, {"type": "Feature", "properties": {"highway": "track", "footway": null, "name": "Route de la Belle-Étoile", "surface": null, "lit": null, "length_m": 97.77, "type_element": "Way", "__fid": 121878}, "geometry": {"type": "LineString", "coordinates": [[2.4407814, 48.82656460000001], [2.4396344, 48.8261178]]}}, {"type": "Feature", "properties": {"highway": "path", "footway": null, "name": null, "surface": null, "lit": null, "length_m": 136.43, "type_element": "Way", "__fid": 121879}, "geometry": {"type": "LineString", "coordinates": [[2.4396344, 48.8261178], [2.4398634, 48.825862], [2.4400609, 48.8256114], [2.4399575, 48.8254591], [2.4401372, 48.8252699], [2.440141, 48.8250825], [2.4401148, 48.825015]]}}, {"type": "Feature", "properties": {"highway": "path", "footway": null, "name": null, "surface": null, "lit": null, "length_m": 63.16, "type_element": "Way", "__fid": 121890}, "geometry": {"type": "LineString", "coordinates": [[2.4401148, 48.825015], [2.4400471, 48.8249748], [2.4400006, 48.8247542], [2.4398258, 48.8245978], [2.4398044, 48.8245081]]}}, {"type": "Feature", "properties": {"highway": "path", "footway": null, "name": null, "surface": "dirt", "lit": null, "length_m": 317.78, "type_element": "Way", "__fid": 121891}, "geometry": {"type": "LineString", "coordinates": [[2.442123, 48.8222711], [2.4420521, 48.822295], [2.4419424, 48.82248760000002], [2.4419228, 48.8225605], [2.441773, 48.8227278], [2.4416818, 48.8228049], [2.4416102, 48.8228821], [2.4413431, 48.8231309], [2.4412351, 48.82327779999998], [2.441082, 48.8233761], [2.4408035, 48.8236565], [2.4400899, 48.8238488], [2.4398775, 48.8242123], [2.4398044, 48.8245081]]}}, {"type": "Feature", "properties": {"highway": "track", "footway": null, "name": "Avenue des Tribunes", "surface": "compacted", "lit": null, "length_m": 93.5, "type_element": "Way", "__fid": 121924}, "geometry": {"type": "LineString", "coordinates": [[2.4401148, 48.825015], [2.4413755, 48.8248962]]}}, {"type": "Feature", "properties": {"highway": "service", "footway": null, "name": "Route Dauphine", "surface": "asphalt", "lit": "no", "length_m": 149.19, "type_element": "Way", "__fid": 121956}, "geometry": {"type": "LineString", "coordinates": [[2.4407814, 48.82656460000001], [2.4403081, 48.8278694]]}}, {"type": "Feature", "properties": {"highway": "path", "footway": null, "name": "Route Saint-Hubert", "surface": "ground", "lit": null, "length_m": 230.79, "type_element": "Way", "__fid": 121957}, "geometry": {"type": "LineString", "coordinates": [[2.4434386, 48.8276795], [2.4403081, 48.8278694]]}}, {"type": "Feature", "properties": {"highway": "track", "footway": null, "name": "Route de la Belle-Étoile", "surface": null, "lit": null, "length_m": 227.93, "type_element": "Way", "__fid": 121993}, "geometry": {"type": "LineString", "coordinates": [[2.4434529, 48.827599699999986], [2.4422961, 48.827193499999986], [2.4419387, 48.8270527], [2.4413446, 48.8268404], [2.4409852, 48.8266461], [2.4407814, 48.82656460000001]]}}, {"type": "Feature", "properties": {"highway": "service", "footway": null, "name": "Route Dauphine", "surface": "asphalt", "lit": "no", "length_m": 190.57, "type_element": "Way", "__fid": 121994}, "geometry": {"type": "LineString", "coordinates": [[2.4413755, 48.8248962], [2.4407814, 48.82656460000001]]}}, {"type": "Feature", "properties": {"highway": "service", "footway": null, "name": "Route Dauphine", "surface": "asphalt", "lit": "no", "length_m": 275.07, "type_element": "Way", "__fid": 122038}, "geometry": {"type": "LineString", "coordinates": [[2.4413755, 48.8248962], [2.4420635, 48.8230003], [2.4422244, 48.8224869]]}}, {"type": "Feature", "properties": {"highway": "track", "footway": null, "name": "Avenue des Tribunes", "surface": "compacted", "lit": null, "length_m": 130.6, "type_element": "Way", "__fid": 122039}, "geometry": {"type": "LineString", "coordinates": [[2.4413755, 48.8248962], [2.4431486, 48.8248021]]}}, {"type": "Feature", "properties": {"highway": "service", "footway": null, "name": "Route de Bourbon", "surface": "asphalt", "lit": "no", "length_m": 153.55, "type_element": "Way", "__fid": 122198}, "geometry": {"type": "LineString", "coordinates": [[2.4425835, 48.8224835], [2.4427415, 48.8230193], [2.4429183, 48.82384620000001]]}}, {"type": "Feature", "properties": {"highway": "service", "footway": null, "name": "Route de Bourbon", "surface": "asphalt", "lit": "no", "length_m": 107.62, "type_element": "Way", "__fid": 122232}, "geometry": {"type": "LineString", "coordinates": [[2.4431486, 48.8248021], [2.4429183, 48.82384620000001]]}}, {"type": "Feature", "properties": {"highway": "path", "footway": null, "name": null, "surface": null, "lit": null, "length_m": 81.64, "type_element": "Way", "__fid": 122233}, "geometry": {"type": "LineString", "coordinates": [[2.4440295, 48.8238196], [2.4429183, 48.82384620000001]]}}, {"type": "Feature", "properties": {"highway": "service", "footway": null, "name": "Route de Bourbon", "surface": "asphalt", "lit": "no", "length_m": 297.72, "type_element": "Way", "__fid": 122263}, "geometry": {"type": "LineString", "coordinates": [[2.4437285, 48.8274521], [2.4431486, 48.8248021]]}}, {"type": "Feature", "properties": {"highway": "track", "footway": null, "name": "Avenue des Tribunes", "surface": "compacted", "lit": null, "length_m": 59.93, "type_element": "Way", "__fid": 122264}, "geometry": {"type": "LineString", "coordinates": [[2.4431486, 48.8248021], [2.4439606, 48.8247466]]}}]}