{"type": "FeatureCollection", "features": [{"type": "Feature", "properties": {"@id": "node/3110948194", "access": "yes", "amenity": "drinking_water", "man_made": "water_tap", "seasonal": "yes", "type_element": "Fontaines à boire", "__fid": 416}, "geometry": {"type": "Point", "coordinates": [2.4420635, 48.8223127]}, "id": "node/3110948194"}, {"type": "Feature", "properties": {"highway": "path", "footway": null, "name": "Route du Ruisseau", "surface": "dirt", "lit": null, "length_m": 221.81, "type_element": "Way", "__fid": 121323}, "geometry": {"type": "LineString", "coordinates": [[2.4315165, 48.8228264], [2.4317478, 48.8228407], [2.4319965, 48.82281360000001], [2.4332432, 48.8227228], [2.4339273, 48.8225795], [2.4344616, 48.8224589]]}}, {"type": "Feature", "properties": {"highway": "path", "footway": null, "name": "Avenue de Gravelle", "surface": "asphalt", "lit": "yes", "length_m": 398.72, "type_element": "Way", "__fid": 121324}, "geometry": {"type": "LineString", "coordinates": [[2.4315165, 48.8228264], [2.4320706, 48.8225187], [2.4325939, 48.822161399999985], [2.4337924, 48.8211735], [2.4344372, 48.820731299999984], [2.4348384, 48.8204884], [2.4352885, 48.82026530000001]]}}, {"type": "Feature", "properties": {"highway": "service", "footway": null, "name": "Route de la Tourelle", "surface": "asphalt", "lit": "no", "length_m": 172.96, "type_element": "Way", "__fid": 121411}, "geometry": {"type": "LineString", "coordinates": [[2.4328877, 48.8236081], [2.4334813, 48.8230754], [2.4343779, 48.8225042], [2.4344616, 48.8224589]]}}, {"type": "Feature", "properties": {"highway": "path", "footway": null, "name": null, "surface": "dirt", "lit": null, "length_m": 174.99, "type_element": "Way", "__fid": 121412}, "geometry": {"type": "LineString", "coordinates": [[2.4328877, 48.8236081], [2.433011, 48.82357050000002], [2.4333603, 48.8233255], [2.4336446, 48.82310660000002], [2.4342293, 48.822771], [2.4346469, 48.8225592]]}}, {"type": "Feature", "properties": {"highway": "path", "footway": null, "name": null, "surface": "dirt", "lit": null, "length_m": 177.97, "type_element": "Way", "__fid": 121438}, "geometry": {"type": "LineString", "coordinates": [[2.4331763, 48.82384239999998], [2.433516, 48.82348179999999], [2.433836, 48.8232073], [2.4340243, 48.8230864], [2.434878, 48.8227507]]}}, {"type": "Feature", "properties": {"highway": "service", "footway": null, "name": null, "surface": null, "lit": null, "length_m": 103.4, "type_element": "Way", "__fid": 121465}, "geometry": {"type": "LineString", "coordinates": [[2.4341162, 48.8195569], [2.4341875, 48.8199256], [2.4347273, 48.8198972], [2.4348716, 48.8198668], [2.4349896, 48.8198032]]}}, {"type": "Feature", "properties": {"highway": "path", "footway": null, "name": null, "surface": "woodchips", "lit": null, "length_m": 17.59, "type_element": "Way", "__fid": 121492}, "geometry": {"type": "LineString", "coordinates": [[2.4346469, 48.8225592], [2.4344616, 48.8224589]]}}, {"type": "Feature", "properties": {"highway": "service", "footway": null, "name": "Route de la Tourelle", "surface": "asphalt", "lit": "no", "length_m": 30.31, "type_element": "Way", "__fid": 121493}, "geometry": {"type": "LineString", "coordinates": [[2.4344616, 48.8224589], [2.4348127, 48.8223155]]}}, {"type": "Feature", "properties": {"highway": "footway", "footway": "sidewalk", "name": null, "surface": null, "lit": null, "length_m": 67.17, "type_element": "Way", "__fid": 121496}, "geometry": {"type": "LineString", "coordinates": [[2.4350143, 48.8197559], [2.4349021, 48.81972140000001], [2.4346209, 48.81959180000001], [2.4344379, 48.8194588], [2.4345177, 48.8194213], [2.4345392, 48.8193718]]}}, {"type": "Feature", "properties": {"highway": "path", "footway": null, "name": null, "surface": "concrete", "lit": null, "length_m": 27.34, "type_element": "Way", "__fid": 121498}, "geometry": {"type": "LineString", "coordinates": [[2.434878, 48.8227507], [2.4347905, 48.8226606], [2.4346469, 48.8225592]]}}, {"type": "Feature", "properties": {"highway": "path", "footway": null, "name": null, "surface": "dirt", "lit": null, "length_m": 472.16, "type_element": "Way", "__fid": 121499}, "geometry": {"type": "LineString", "coordinates": [[2.4346469, 48.8225592], [2.4349743, 48.8224324], [2.4354068, 48.8223552], [2.4356952, 48.8222906], [2.4359514, 48.8222085], [2.4360962, 48.8222107], [2.4364516, 48.822257], [2.4365467, 48.82225189999998], [2.4377609, 48.82210810000002], [2.4383923, 48.8220545], [2.439618, 48.8220487], [2.4402563, 48.82199250000002], [2.4405078, 48.8219476], [2.4409183, 48.8219346]]}}, {"type": "Feature", "properties": {"highway": "path", "footway": null, "name": "Route du Moulin Rouge", "surface": "ground", "lit": null, "length_m": 241.57, "type_element": "Way", "__fid": 121511}, "geometry": {"type": "LineString", "coordinates": [[2.4348127, 48.8223155], [2.4352703, 48.82198910000002], [2.4355192, 48.8217348], [2.4356222, 48.8215031], [2.4356995, 48.82126010000001], [2.4356909, 48.8209776], [2.4353384, 48.8203679]]}}, {"type": "Feature", "properties": {"highway": "service", "footway": null, "name": "Route de la Tourelle", "surface": "asphalt", "lit": "no", "length_m": 337.18, "type_element": "Way", "__fid": 121512}, "geometry": {"type": "LineString", "coordinates": [[2.4348127, 48.8223155], [2.4353221, 48.8221199], [2.4369279, 48.8216963], [2.4376309, 48.8215717], [2.4384823, 48.8214615], [2.4391553, 48.8214051]]}}, {"type": "Feature", "properties": {"highway": "path", "footway": null, "name": null, "surface": null, "lit": null, "length_m": 72.77, "type_element": "Way", "__fid": 121515}, "geometry": {"type": "LineString", "coordinates": [[2.434878, 48.8227507], [2.435135, 48.8233828]]}}, {"type": "Feature", "properties": {"highway": "path", "footway": null, "name": null, "surface": "dirt", "lit": null, "length_m": 296.27, "type_element": "Way", "__fid": 121516}, "geometry": {"type": "LineString", "coordinates": [[2.434878, 48.8227507], [2.4350936, 48.8227021], [2.4362143, 48.8225051], [2.4371317, 48.8224377], [2.437503, 48.8224374], [2.4383877, 48.8223388], [2.4388437, 48.8223362]]}}, {"type": "Feature", "properties": {"highway": "path", "footway": null, "name": null, "surface": "ground", "lit": null, "length_m": 44.1, "type_element": "Way", "__fid": 121524}, "geometry": {"type": "LineString", "coordinates": [[2.4349896, 48.8198032], [2.4350219, 48.8198721], [2.4350716, 48.81992860000001], [2.4351802, 48.819986], [2.4352647, 48.8200195], [2.4352943, 48.82005189999998], [2.4352899, 48.8201162]]}}, {"type": "Feature", "properties": {"highway": "service", "footway": null, "name": null, "surface": null, "lit": null, "length_m": 5.56, "type_element": "Way", "__fid": 121525}, "geometry": {"type": "LineString", "coordinates": [[2.4349896, 48.8198032], [2.4350143, 48.8197559]]}}, {"type": "Feature", "properties": {"highway": "path", "footway": null, "name": "Route de la Terrasse", "surface": "fine_gravel", "lit": "yes", "length_m": 10.73, "type_element": "Way", "__fid": 121526}, "geometry": {"type": "LineString", "coordinates": [[2.4351184, 48.81976739999999], [2.4350574, 48.81977190000001], [2.4350185, 48.8197825], [2.4349896, 48.8198032]]}}, {"type": "Feature", "properties": {"highway": "path", "footway": null, "name": "Route de la Terrasse", "surface": "fine_gravel", "lit": "yes", "length_m": 7.75, "type_element": "Way", "__fid": 121527}, "geometry": {"type": "LineString", "coordinates": [[2.4351184, 48.81976739999999], [2.4350143, 48.8197559]]}}, {"type": "Feature", "properties": {"highway": "service", "footway": null, "name": null, "surface": null, "lit": null, "length_m": 6.12, "type_element": "Way", "__fid": 121528}, "geometry": {"type": "LineString", "coordinates": [[2.4350143, 48.8197559], [2.4350428, 48.8197042]]}}, {"type": "Feature", "properties": {"highway": "path", "footway": null, "name": "Route de la Terrasse", "surface": "fine_gravel", "lit": "yes", "length_m": 63.73, "type_element": "Way", "__fid": 121533}, "geometry": {"type": "LineString", "coordinates": [[2.4359807, 48.81979480000001], [2.4359244, 48.8197798], [2.4358594, 48.819775800000016], [2.4354215, 48.819782], [2.4351184, 48.81976739999999]]}}, {"type": "Feature", "properties": {"highway": "path", "footway": null, "name": null, "surface": null, "lit": null, "length_m": 226.89, "type_element": "Way", "__fid": 121536}, "geometry": {"type": "LineString", "coordinates": [[2.435135, 48.8233828], [2.4359278, 48.8234387], [2.4368763, 48.8232523], [2.4381646, 48.8231218]]}}, {"type": "Feature", "properties": {"highway": "path", "footway": null, "name": null, "surface": null, "lit": null, "length_m": 92.2, "type_element": "Way", "__fid": 121537}, "geometry": {"type": "LineString", "coordinates": [[2.435135, 48.8233828], [2.435203, 48.823459200000016], [2.4351843, 48.8236005], [2.4352071, 48.8237369], [2.4353103, 48.8238304], [2.4354257, 48.8240327], [2.4355933, 48.8241002]]}}, {"type": "Feature", "properties": {"highway": "path", "footway": null, "name": null, "surface": "ground", "lit": null, "length_m": 16.79, "type_element": "Way", "__fid": 121544}, "geometry": {"type": "LineString", "coordinates": [[2.4352899, 48.8201162], [2.4352714, 48.8202005], [2.4352885, 48.82026530000001]]}}, {"type": "Feature", "properties": {"highway": "path", "footway": null, "name": "Avenue de Gravelle", "surface": "grass", "lit": "yes", "length_m": 61.89, "type_element": "Way", "__fid": 121545}, "geometry": {"type": "LineString", "coordinates": [[2.4352899, 48.8201162], [2.4360003, 48.8198167]]}}, {"type": "Feature", "properties": {"highway": "path", "footway": null, "name": "Route du Moulin Rouge", "surface": "ground", "lit": null, "length_m": 11.98, "type_element": "Way", "__fid": 121546}, "geometry": {"type": "LineString", "coordinates": [[2.4353384, 48.8203679], [2.4352885, 48.82026530000001]]}}, {"type": "Feature", "properties": {"highway": "path", "footway": null, "name": "Avenue de Gravelle", "surface": "asphalt", "lit": "yes", "length_m": 23.21, "type_element": "Way", "__fid": 121547}, "geometry": {"type": "LineString", "coordinates": [[2.4352885, 48.82026530000001], [2.4355482, 48.8201463]]}}, {"type": "Feature", "properties": {"highway": "path", "footway": null, "name": null, "surface": "ground", "lit": null, "length_m": 308.62, "type_element": "Way", "__fid": 121549}, "geometry": {"type": "LineString", "coordinates": [[2.4353384, 48.8203679], [2.4355767, 48.820493], [2.4358448, 48.82065509999999], [2.436516, 48.8209356], [2.4369256, 48.821049400000014], [2.437364, 48.821148500000014], [2.4389095, 48.8213618], [2.4391553, 48.8214051]]}}, {"type": "Feature", "properties": {"highway": "path", "footway": null, "name": null, "surface": null, "lit": null, "length_m": 251.98, "type_element": "Way", "__fid": 121555}, "geometry": {"type": "LineString", "coordinates": [[2.4355482, 48.8201463], [2.4357905, 48.8201586], [2.4366436, 48.82011290000001], [2.4389663, 48.8199691]]}}, {"type": "Feature", "properties": {"highway": "path", "footway": null, "name": "Avenue de Gravelle", "surface": "asphalt", "lit": "yes", "length_m": 47.2, "type_element": "Way", "__fid": 121556}, "geometry": {"type": "LineString", "coordinates": [[2.4355482, 48.8201463], [2.4361009, 48.8199296]]}}, {"type": "Feature", "properties": {"highway": "path", "footway": null, "name": "Route de la Terrasse", "surface": "fine_gravel", "lit": "yes", "length_m": 5.05, "type_element": "Way", "__fid": 121576}, "geometry": {"type": "LineString", "coordinates": [[2.4360495, 48.819795], [2.4359807, 48.81979480000001]]}}, {"type": "Feature", "properties": {"highway": "path", "footway": null, "name": "Avenue de Gravelle", "surface": "fine_gravel", "lit": "yes", "length_m": 2.83, "type_element": "Way", "__fid": 121577}, "geometry": {"type": "LineString", "coordinates": [[2.4359807, 48.81979480000001], [2.4360003, 48.8198167]]}}, {"type": "Feature", "properties": {"highway": "footway", "footway": "crossing", "name": "Avenue de Gravelle", "surface": "fine_gravel", "lit": "yes", "length_m": 14.57, "type_element": "Way", "__fid": 121579}, "geometry": {"type": "LineString", "coordinates": [[2.4360003, 48.8198167], [2.4361009, 48.8199296]]}}, {"type": "Feature", "properties": {"highway": "path", "footway": null, "name": "Avenue de Gravelle", "surface": "fine_gravel", "lit": "yes", "length_m": 4.34, "type_element": "Way", "__fid": 121580}, "geometry": {"type": "LineString", "coordinates": [[2.4360003, 48.8198167], [2.4360495, 48.819795]]}}, {"type": "Feature", "properties": {"highway": "path", "footway": null, "name": "Avenue de Gravelle", "surface": "fine_gravel", "lit": "yes", "length_m": 36.36, "type_element": "Way", "__fid": 121583}, "geometry": {"type": "LineString", "coordinates": [[2.4360495, 48.819795], [2.4362982, 48.81969669999999], [2.4363995, 48.8198147]]}}, {"type": "Feature", "properties": {"highway": "path", "footway": null, "name": "Avenue de Gravelle", "surface": "asphalt", "lit": "yes", "length_m": 25.38, "type_element": "Way", "__fid": 121589}, "geometry": {"type": "LineString", "coordinates": [[2.4361009, 48.8199296], [2.4363995, 48.8198147]]}}, {"type": "Feature", "properties": {"highway": "path", "footway": null, "name": "Avenue de Gravelle", "surface": "asphalt", "lit": "yes", "length_m": 67.82, "type_element": "Way", "__fid": 121609}, "geometry": {"type": "LineString", "coordinates": [[2.4363995, 48.8198147], [2.4372292, 48.8195466]]}}, {"type": "Feature", "properties": {"highway": "service", "footway": null, "name": "Route Nouvelle", "surface": "asphalt", "lit": "no", "length_m": 7.35, "type_element": "Way", "__fid": 121673}, "geometry": {"type": "LineString", "coordinates": [[2.4372292, 48.8195466], [2.4371585, 48.81949980000001]]}}, {"type": "Feature", "properties": {"highway": "service", "footway": null, "name": "Route Nouvelle", "surface": "asphalt", "lit": "no", "length_m": 138.56, "type_element": "Way", "__fid": 121680}, "geometry": {"type": "LineString", "coordinates": [[2.4389663, 48.8199691], [2.438525, 48.819790800000014], [2.4381855, 48.8196656], [2.4377959, 48.8195885], [2.4373059, 48.81956790000002], [2.4372292, 48.8195466]]}}, {"type": "Feature", "properties": {"highway": "path", "footway": null, "name": "Avenue de Gravelle", "surface": "asphalt", "lit": "yes", "length_m": 6.65, "type_element": "Way", "__fid": 121681}, "geometry": {"type": "LineString", "coordinates": [[2.4372292, 48.8195466], [2.4373128, 48.8195236]]}}, {"type": "Feature", "properties": {"highway": "path", "footway": null, "name": null, "surface": null, "lit": null, "length_m": 265.5, "type_element": "Way", "__fid": 121682}, "geometry": {"type": "LineString", "coordinates": [[2.4371939, 48.8243682], [2.4376438, 48.8241435], [2.4378691, 48.8239387], [2.4386524, 48.8237692], [2.4395965, 48.8234654], [2.4400757, 48.82304719999998]]}}, {"type": "Feature", "properties": {"highway": "path", "footway": null, "name": null, "surface": null, "lit": null, "length_m": 62.21, "type_element": "Way", "__fid": 121683}, "geometry": {"type": "LineString", "coordinates": [[2.4377111, 48.8191234], [2.4372953, 48.8193367], [2.4372293, 48.81940560000001], [2.4373128, 48.8195236]]}}, {"type": "Feature", "properties": {"highway": "path", "footway": null, "name": "Avenue de Gravelle", "surface": "asphalt", "lit": "yes", "length_m": 215.62, "type_element": "Way", "__fid": 121684}, "geometry": {"type": "LineString", "coordinates": [[2.4373128, 48.8195236], [2.4379705, 48.8193437], [2.4389254, 48.819135], [2.4401075, 48.818939]]}}, {"type": "Feature", "properties": {"highway": "track", "footway": null, "name": "Route de la Demi-Lune", "surface": "compacted", "lit": null, "length_m": 320.99, "type_element": "Way", "__fid": 121701}, "geometry": {"type": "LineString", "coordinates": [[2.4374114, 48.825351799999986], [2.4374781, 48.82526280000001], [2.4403994, 48.8232504]]}}, {"type": "Feature", "properties": {"highway": "path", "footway": null, "name": null, "surface": null, "lit": null, "length_m": 12.33, "type_element": "Way", "__fid": 121705}, "geometry": {"type": "LineString", "coordinates": [[2.4375607, 48.8182298], [2.4375509, 48.81826059999999], [2.4376704, 48.8182693]]}}, {"type": "Feature", "properties": {"highway": "path", "footway": null, "name": null, "surface": null, "lit": null, "length_m": 55.73, "type_element": "Way", "__fid": 121715}, "geometry": {"type": "LineString", "coordinates": [[2.4376704, 48.8182693], [2.438426, 48.8183167]]}}, {"type": "Feature", "properties": {"highway": "path", "footway": null, "name": null, "surface": null, "lit": null, "length_m": 103.39, "type_element": "Way", "__fid": 121716}, "geometry": {"type": "LineString", "coordinates": [[2.4377111, 48.8191234], [2.437623, 48.8190267], [2.4376251, 48.8189317], [2.4375896, 48.8188974], [2.4375802, 48.81881760000001], [2.4375224, 48.818784100000016], [2.4374742, 48.81874049999998], [2.4374577, 48.8186992], [2.4375212, 48.8186016], [2.4375894, 48.8184336], [2.4376704, 48.8182693]]}}, {"type": "Feature", "properties": {"highway": "path", "footway": null, "name": null, "surface": null, "lit": null, "length_m": 18.37, "type_element": "Way", "__fid": 121721}, "geometry": {"type": "LineString", "coordinates": [[2.4377111, 48.8191234], [2.4378257, 48.81927030000002]]}}, {"type": "Feature", "properties": {"highway": "path", "footway": null, "name": null, "surface": null, "lit": null, "length_m": 125.5, "type_element": "Way", "__fid": 121722}, "geometry": {"type": "LineString", "coordinates": [[2.4388399, 48.8184885], [2.4389515, 48.8185743], [2.4389686, 48.8185981], [2.4389407, 48.8186283], [2.438376, 48.8188148], [2.4378901, 48.819049], [2.4377111, 48.8191234]]}}, {"type": "Feature", "properties": {"highway": "path", "footway": null, "name": null, "surface": null, "lit": null, "length_m": 103.26, "type_element": "Way", "__fid": 121767}, "geometry": {"type": "LineString", "coordinates": [[2.4381646, 48.8231218], [2.4386459, 48.8227769], [2.4388437, 48.8223362]]}}, {"type": "Feature", "properties": {"highway": "path", "footway": null, "name": null, "surface": null, "lit": null, "length_m": 141.51, "type_element": "Way", "__fid": 121768}, "geometry": {"type": "LineString", "coordinates": [[2.4400757, 48.82304719999998], [2.4391414, 48.82301], [2.4381646, 48.8231218]]}}, {"type": "Feature", "properties": {"highway": "path", "footway": null, "name": null, "surface": null, "lit": null, "length_m": 264.54, "type_element": "Way", "__fid": 121782}, "geometry": {"type": "LineString", "coordinates": [[2.438426, 48.8183167], [2.4396259, 48.818393599999986], [2.4400819, 48.8183777], [2.441826, 48.81804429999998], [2.4419508, 48.8180409]]}}, {"type": "Feature", "properties": {"highway": "path", "footway": null, "name": null, "surface": null, "lit": null, "length_m": 35.98, "type_element": "Way", "__fid": 121783}, "geometry": {"type": "LineString", "coordinates": [[2.438426, 48.8183167], [2.4387062, 48.818445], [2.4388399, 48.8184885]]}}, {"type": "Feature", "properties": {"highway": "path", "footway": null, "name": null, "surface": null, "lit": null, "length_m": 145.47, "type_element": "Way", "__fid": 121811}, "geometry": {"type": "LineString", "coordinates": [[2.4388399, 48.8184885], [2.4393821, 48.8185496], [2.4397386, 48.8185603], [2.4403099, 48.8185471], [2.4408111, 48.8185226]]}}, {"type": "Feature", "properties": {"highway": "path", "footway": null, "name": null, "surface": "dirt", "lit": null, "length_m": 162.29, "type_element": "Way", "__fid": 121815}, "geometry": {"type": "LineString", "coordinates": [[2.4388437, 48.8223362], [2.4391062, 48.8223347], [2.44034, 48.8222217], [2.4410245, 48.8221183]]}}, {"type": "Feature", "properties": {"highway": "service", "footway": null, "name": "Route Nouvelle", "surface": "asphalt", "lit": "no", "length_m": 127.54, "type_element": "Way", "__fid": 121828}, "geometry": {"type": "LineString", "coordinates": [[2.4403479, 48.820663], [2.4396573, 48.8202897], [2.4389663, 48.8199691]]}}, {"type": "Feature", "properties": {"highway": "path", "footway": null, "name": null, "surface": null, "lit": null, "length_m": 98.24, "type_element": "Way", "__fid": 121829}, "geometry": {"type": "LineString", "coordinates": [[2.4389663, 48.8199691], [2.4402979, 48.8198827]]}}, {"type": "Feature", "properties": {"highway": "service", "footway": null, "name": "Route de la Tourelle", "surface": "asphalt", "lit": "no", "length_m": 93.8, "type_element": "Way", "__fid": 121837}, "geometry": {"type": "LineString", "coordinates": [[2.4391553, 48.8214051], [2.4401575, 48.82133790000001], [2.4404252, 48.821314]]}}, {"type": "Feature", "properties": {"highway": "path", "footway": null, "name": null, "surface": "dirt", "lit": null, "length_m": 317.78, "type_element": "Way", "__fid": 121891}, "geometry": {"type": "LineString", "coordinates": [[2.442123, 48.8222711], [2.4420521, 48.822295], [2.4419424, 48.82248760000002], [2.4419228, 48.8225605], [2.441773, 48.8227278], [2.4416818, 48.8228049], [2.4416102, 48.8228821], [2.4413431, 48.8231309], [2.4412351, 48.82327779999998], [2.441082, 48.8233761], [2.4408035, 48.8236565], [2.4400899, 48.8238488], [2.4398775, 48.8242123], [2.4398044, 48.8245081]]}}, {"type": "Feature", "properties": {"highway": "path", "footway": null, "name": null, "surface": null, "lit": null, "length_m": 76.98, "type_element": "Way", "__fid": 121910}, "geometry": {"type": "LineString", "coordinates": [[2.4408111, 48.8185226], [2.4402978, 48.818684900000015], [2.4400095, 48.818791800000014], [2.440064, 48.8188831]]}}, {"type": "Feature", "properties": {"highway": "path", "footway": null, "name": null, "surface": null, "lit": null, "length_m": 56.21, "type_element": "Way", "__fid": 121916}, "geometry": {"type": "LineString", "coordinates": [[2.4402273, 48.8194365], [2.4401839, 48.8191252], [2.4401075, 48.818939]]}}, {"type": "Feature", "properties": {"highway": "path", "footway": null, "name": "Avenue de Gravelle", "surface": "asphalt", "lit": "yes", "length_m": 222.5, "type_element": "Way", "__fid": 121917}, "geometry": {"type": "LineString", "coordinates": [[2.4401075, 48.818939], [2.4411603, 48.8188077], [2.4417372, 48.8187496], [2.4423633, 48.81870269999999], [2.4426171, 48.8186908], [2.4428214, 48.8187039], [2.442934, 48.81872710000001], [2.4430814, 48.8187796]]}}, {"type": "Feature", "properties": {"highway": "path", "footway": null, "name": null, "surface": null, "lit": null, "length_m": 32.79, "type_element": "Way", "__fid": 121918}, "geometry": {"type": "LineString", "coordinates": [[2.4400757, 48.82304719999998], [2.4403994, 48.8232504]]}}, {"type": "Feature", "properties": {"highway": "path", "footway": null, "name": null, "surface": null, "lit": null, "length_m": 124.58, "type_element": "Way", "__fid": 121919}, "geometry": {"type": "LineString", "coordinates": [[2.4410245, 48.8221183], [2.4400757, 48.82304719999998]]}}, {"type": "Feature", "properties": {"highway": "path", "footway": null, "name": null, "surface": null, "lit": null, "length_m": 49.88, "type_element": "Way", "__fid": 121931}, "geometry": {"type": "LineString", "coordinates": [[2.4402979, 48.8198827], [2.4402273, 48.8194365]]}}, {"type": "Feature", "properties": {"highway": "path", "footway": null, "name": null, "surface": null, "lit": null, "length_m": 274.78, "type_element": "Way", "__fid": 121932}, "geometry": {"type": "LineString", "coordinates": [[2.4439535, 48.8192353], [2.443755, 48.8192356], [2.4434788, 48.819272], [2.4431169, 48.819276], [2.442673, 48.8192937], [2.4415947, 48.8193475], [2.4402273, 48.8194365]]}}, {"type": "Feature", "properties": {"highway": "path", "footway": null, "name": null, "surface": null, "lit": null, "length_m": 86.84, "type_element": "Way", "__fid": 121944}, "geometry": {"type": "LineString", "coordinates": [[2.4403479, 48.820663], [2.4402979, 48.8198827]]}}, {"type": "Feature", "properties": {"highway": "path", "footway": null, "name": null, "surface": null, "lit": null, "length_m": 277.31, "type_element": "Way", "__fid": 121945}, "geometry": {"type": "LineString", "coordinates": [[2.4402979, 48.8198827], [2.4417248, 48.8197795], [2.4432611, 48.819706], [2.4439351, 48.8197089], [2.4440441, 48.8197519]]}}, {"type": "Feature", "properties": {"highway": "service", "footway": null, "name": "Route Nouvelle", "surface": "asphalt", "lit": "no", "length_m": 115.94, "type_element": "Way", "__fid": 121950}, "geometry": {"type": "LineString", "coordinates": [[2.4416966, 48.82120230000003], [2.4407672, 48.820862], [2.4403479, 48.820663]]}}, {"type": "Feature", "properties": {"highway": "path", "footway": null, "name": null, "surface": null, "lit": null, "length_m": 73.31, "type_element": "Way", "__fid": 121951}, "geometry": {"type": "LineString", "coordinates": [[2.4404252, 48.821314], [2.4403081, 48.8207924], [2.4403479, 48.820663]]}}, {"type": "Feature", "properties": {"highway": "track", "footway": null, "name": "Route de la Demi-Lune", "surface": "compacted", "lit": null, "length_m": 162.34, "type_element": "Way", "__fid": 121965}, "geometry": {"type": "LineString", "coordinates": [[2.4403994, 48.8232504], [2.4419407, 48.822203600000016]]}}, {"type": "Feature", "properties": {"highway": "path", "footway": null, "name": null, "surface": null, "lit": null, "length_m": 77.93, "type_element": "Way", "__fid": 121966}, "geometry": {"type": "LineString", "coordinates": [[2.4409183, 48.8219346], [2.4404252, 48.821314]]}}, {"type": "Feature", "properties": {"highway": "service", "footway": null, "name": "Route de la Tourelle", "surface": "asphalt", "lit": "no", "length_m": 94.17, "type_element": "Way", "__fid": 121967}, "geometry": {"type": "LineString", "coordinates": [[2.4404252, 48.821314], [2.4416966, 48.82120230000003]]}}, {"type": "Feature", "properties": {"highway": "path", "footway": null, "name": null, "surface": null, "lit": null, "length_m": 99.36, "type_element": "Way", "__fid": 121987}, "geometry": {"type": "LineString", "coordinates": [[2.4419508, 48.8180409], [2.4408111, 48.8185226]]}}, {"type": "Feature", "properties": {"highway": "path", "footway": null, "name": null, "surface": null, "lit": null, "length_m": 177.58, "type_element": "Way", "__fid": 121988}, "geometry": {"type": "LineString", "coordinates": [[2.4408111, 48.8185226], [2.4419501, 48.81847290000001], [2.4424912, 48.8184853], [2.4427494, 48.8185542], [2.4432061, 48.8185429]]}}, {"type": "Feature", "properties": {"highway": "path", "footway": null, "name": null, "surface": null, "lit": null, "length_m": 22.36, "type_element": "Way", "__fid": 122001}, "geometry": {"type": "LineString", "coordinates": [[2.4409183, 48.8219346], [2.4409524, 48.8220517], [2.4410245, 48.8221183]]}}, {"type": "Feature", "properties": {"highway": "path", "footway": null, "name": null, "surface": "dirt", "lit": null, "length_m": 98.82, "type_element": "Way", "__fid": 122002}, "geometry": {"type": "LineString", "coordinates": [[2.4409183, 48.8219346], [2.4412379, 48.8218681], [2.4415962, 48.821830200000015], [2.4419429, 48.8217769], [2.4422002, 48.8216857]]}}, {"type": "Feature", "properties": {"highway": "path", "footway": null, "name": null, "surface": "dirt", "lit": null, "length_m": 69.04, "type_element": "Way", "__fid": 122007}, "geometry": {"type": "LineString", "coordinates": [[2.4410245, 48.8221183], [2.4412425, 48.8220964], [2.4414606, 48.8221096], [2.4419407, 48.822203600000016]]}}, {"type": "Feature", "properties": {"highway": "service", "footway": null, "name": "Route Dauphine", "surface": "asphalt", "lit": "no", "length_m": 275.07, "type_element": "Way", "__fid": 122038}, "geometry": {"type": "LineString", "coordinates": [[2.4413755, 48.8248962], [2.4420635, 48.8230003], [2.4422244, 48.8224869]]}}, {"type": "Feature", "properties": {"highway": "service", "footway": null, "name": "Carrefour de la Patte d'Oie", "surface": "asphalt", "lit": null, "length_m": 66.77, "type_element": "Way", "__fid": 122088}, "geometry": {"type": "LineString", "coordinates": [[2.4422002, 48.8216857], [2.4421654, 48.8216129], [2.4420876, 48.8215008], [2.4419147, 48.8213281], [2.4418315, 48.8212593], [2.4416966, 48.82120230000003]]}}, {"type": "Feature", "properties": {"highway": "service", "footway": null, "name": "Route de la Tourelle", "surface": "asphalt", "lit": null, "length_m": 172.41, "type_element": "Way", "__fid": 122089}, "geometry": {"type": "LineString", "coordinates": [[2.4416966, 48.82120230000003], [2.4427382, 48.8210729], [2.4439821, 48.8208514]]}}, {"type": "Feature", "properties": {"highway": "steps", "footway": null, "name": null, "surface": null, "lit": null, "length_m": 10.64, "type_element": "Way", "__fid": 122113}, "geometry": {"type": "LineString", "coordinates": [[2.4419508, 48.8180409], [2.4419743, 48.8180544], [2.4420867, 48.8180426]]}}, {"type": "Feature", "properties": {"highway": "path", "footway": null, "name": null, "surface": null, "lit": null, "length_m": 9.93, "type_element": "Way", "__fid": 122114}, "geometry": {"type": "LineString", "coordinates": [[2.4419508, 48.8180409], [2.442084474574568, 48.818027166999286]]}}, {"type": "Feature", "properties": {"highway": "track", "footway": null, "name": "Route de la Demi-Lune", "surface": "compacted", "lit": null, "length_m": 10.95, "type_element": "Way", "__fid": 122119}, "geometry": {"type": "LineString", "coordinates": [[2.4419407, 48.822203600000016], [2.4420733, 48.822158600000016]]}}, {"type": "Feature", "properties": {"highway": "path", "footway": null, "name": null, "surface": null, "lit": null, "length_m": 11.86, "type_element": "Way", "__fid": 122125}, "geometry": {"type": "LineString", "coordinates": [[2.442084474574568, 48.818027166999286], [2.4420705, 48.8179209]]}}, {"type": "Feature", "properties": {"highway": "path", "footway": null, "name": null, "surface": null, "lit": null, "length_m": 1.72, "type_element": "Way", "__fid": 122126}, "geometry": {"type": "LineString", "coordinates": [[2.4420867, 48.8180426], [2.442084474574568, 48.818027166999286]]}}, {"type": "Feature", "properties": {"highway": "path", "footway": null, "name": null, "surface": null, "lit": null, "length_m": 13.43, "type_element": "Way", "__fid": 122127}, "geometry": {"type": "LineString", "coordinates": [[2.442084474574568, 48.818027166999286], [2.4422652, 48.8180086]]}}, {"type": "Feature", "properties": {"highway": "steps", "footway": null, "name": null, "surface": null, "lit": null, "length_m": 14.18, "type_element": "Way", "__fid": 122128}, "geometry": {"type": "LineString", "coordinates": [[2.4420867, 48.8180426], [2.4422172, 48.8180346], [2.4422652, 48.8180086]]}}, {"type": "Feature", "properties": {"highway": "service", "footway": null, "name": "Carrefour de la Patte d'Oie", "surface": "asphalt", "lit": null, "length_m": 13.28, "type_element": "Way", "__fid": 122131}, "geometry": {"type": "LineString", "coordinates": [[2.442123, 48.8222711], [2.442093, 48.82223659999999], [2.4420761, 48.8221983], [2.4420733, 48.822158600000016]]}}, {"type": "Feature", "properties": {"highway": "service", "footway": null, "name": "Carrefour de la Patte d'Oie", "surface": "asphalt", "lit": null, "length_m": 24.33, "type_element": "Way", "__fid": 122132}, "geometry": {"type": "LineString", "coordinates": [[2.4420733, 48.822158600000016], [2.4420867, 48.8221158], [2.4421164, 48.8220767], [2.4421603, 48.822044], [2.4422156, 48.8220198], [2.4422785, 48.8220058]]}}, {"type": "Feature", "properties": {"highway": "service", "footway": null, "name": "Carrefour de la Patte d'Oie", "surface": "asphalt", "lit": null, "length_m": 13.29, "type_element": "Way", "__fid": 122141}, "geometry": {"type": "LineString", "coordinates": [[2.442272, 48.822335], [2.4422151, 48.8223217], [2.4421645, 48.8223], [2.442123, 48.8222711]]}}, {"type": "Feature", "properties": {"highway": "service", "footway": null, "name": "Carrefour de la Patte d'Oie", "surface": "asphalt", "lit": null, "length_m": 36.05, "type_element": "Way", "__fid": 122148}, "geometry": {"type": "LineString", "coordinates": [[2.4422785, 48.8220058], [2.4422002, 48.8216857]]}}, {"type": "Feature", "properties": {"highway": "path", "footway": null, "name": null, "surface": null, "lit": null, "length_m": 126.36, "type_element": "Way", "__fid": 122149}, "geometry": {"type": "LineString", "coordinates": [[2.4422002, 48.8216857], [2.4425992, 48.8214668], [2.4427133, 48.8214259], [2.442903, 48.8213874], [2.4430593, 48.8213165], [2.4432416, 48.8212557], [2.4433744, 48.821261700000015], [2.4435789, 48.8212385], [2.4437016, 48.82119460000001]]}}, {"type": "Feature", "properties": {"highway": "path", "footway": null, "name": null, "surface": "ground", "lit": null, "length_m": 200.33, "type_element": "Way", "__fid": 122152}, "geometry": {"type": "LineString", "coordinates": [[2.4422652, 48.8180086], [2.442707, 48.8180486], [2.4433373, 48.8181669], [2.4436968, 48.81826049999999], [2.4440244, 48.8183325], [2.4447497, 48.8185122], [2.4447876, 48.8185375], [2.4447963, 48.8185812]]}}, {"type": "Feature", "properties": {"highway": "path", "footway": null, "name": null, "surface": null, "lit": null, "length_m": 543.23, "type_element": "Way", "__fid": 122153}, "geometry": {"type": "LineString", "coordinates": [[2.4422652, 48.8180086], [2.44412, 48.8179943], [2.4458621, 48.8180088], [2.4476042, 48.8180738], [2.4489882, 48.8180279], [2.4496555, 48.817986]]}}, {"type": "Feature", "properties": {"highway": "service", "footway": null, "name": "Route Dauphine", "surface": "asphalt", "lit": null, "length_m": 17.25, "type_element": "Way", "__fid": 122154}, "geometry": {"type": "LineString", "coordinates": [[2.4422244, 48.8224869], [2.442272, 48.822335]]}}, {"type": "Feature", "properties": {"highway": "service", "footway": null, "name": "Carrefour de la Patte d'Oie", "surface": "asphalt", "lit": null, "length_m": 35.64, "type_element": "Way", "__fid": 122155}, "geometry": {"type": "LineString", "coordinates": [[2.4425835, 48.8224835], [2.4425456, 48.82243539999999], [2.442506, 48.8224093], [2.4424534, 48.82239770000002], [2.4423892, 48.8223954], [2.4423273, 48.8224047], [2.4422795, 48.822428500000015], [2.4422244, 48.8224869]]}}, {"type": "Feature", "properties": {"highway": "service", "footway": null, "name": "Carrefour de la Patte d'Oie", "surface": "asphalt", "lit": null, "length_m": 20.4, "type_element": "Way", "__fid": 122163}, "geometry": {"type": "LineString", "coordinates": [[2.4425234, 48.8222795], [2.4424718, 48.82231010000001], [2.4424095, 48.8223304], [2.4423412, 48.8223389], [2.442272, 48.822335]]}}, {"type": "Feature", "properties": {"highway": "service", "footway": null, "name": "Carrefour de la Patte d'Oie", "surface": "asphalt", "lit": null, "length_m": 8.9, "type_element": "Way", "__fid": 122164}, "geometry": {"type": "LineString", "coordinates": [[2.4422785, 48.8220058], [2.4423389, 48.82200270000002], [2.4423988, 48.822009100000024]]}}, {"type": "Feature", "properties": {"highway": "service", "footway": null, "name": "Carrefour de la Patte d'Oie", "surface": "asphalt", "lit": null, "length_m": 12.4, "type_element": "Way", "__fid": 122175}, "geometry": {"type": "LineString", "coordinates": [[2.4423988, 48.822009100000024], [2.4424751, 48.82203310000001], [2.4425353, 48.8220721]]}}, {"type": "Feature", "properties": {"highway": "path", "footway": null, "name": null, "surface": "asphalt", "lit": null, "length_m": 135.07, "type_element": "Way", "__fid": 122176}, "geometry": {"type": "LineString", "coordinates": [[2.4423988, 48.822009100000024], [2.44263, 48.821849], [2.4428366, 48.8217944], [2.4430753, 48.8217131], [2.4433456, 48.821612], [2.4436036, 48.8215037], [2.4438832, 48.8213175]]}}, {"type": "Feature", "properties": {"highway": "service", "footway": null, "name": "Route de Bourbon", "surface": "asphalt", "lit": null, "length_m": 23.11, "type_element": "Way", "__fid": 122187}, "geometry": {"type": "LineString", "coordinates": [[2.4425234, 48.8222795], [2.4425835, 48.8224835]]}}, {"type": "Feature", "properties": {"highway": "service", "footway": null, "name": "Carrefour de la Patte d'Oie", "surface": "asphalt", "lit": null, "length_m": 24.76, "type_element": "Way", "__fid": 122188}, "geometry": {"type": "LineString", "coordinates": [[2.4425353, 48.8220721], [2.4425729, 48.822122], [2.4425837, 48.8221772], [2.4425666, 48.822231700000025], [2.4425234, 48.8222795]]}}, {"type": "Feature", "properties": {"highway": "path", "footway": null, "name": null, "surface": "dirt", "lit": null, "length_m": 16.94, "type_element": "Way", "__fid": 122190}, "geometry": {"type": "LineString", "coordinates": [[2.4425353, 48.8220721], [2.442766, 48.8220696]]}}, {"type": "Feature", "properties": {"highway": "service", "footway": null, "name": "Route de Bourbon", "surface": "asphalt", "lit": "no", "length_m": 153.55, "type_element": "Way", "__fid": 122198}, "geometry": {"type": "LineString", "coordinates": [[2.4425835, 48.8224835], [2.4427415, 48.8230193], [2.4429183, 48.82384620000001]]}}, {"type": "Feature", "properties": {"highway": "path", "footway": null, "name": null, "surface": "compacted", "lit": null, "length_m": 82.46, "type_element": "Way", "__fid": 122248}, "geometry": {"type": "LineString", "coordinates": [[2.4430814, 48.8187796], [2.4432215, 48.8188266], [2.4435122, 48.8189433], [2.4436798, 48.819039], [2.4439535, 48.8192353]]}}, {"type": "Feature", "properties": {"highway": "path", "footway": null, "name": "Avenue de Gravelle", "surface": "asphalt", "lit": "yes", "length_m": 15.15, "type_element": "Way", "__fid": 122249}, "geometry": {"type": "LineString", "coordinates": [[2.4430814, 48.8187796], [2.4431863, 48.818687], [2.4432154, 48.8186796]]}}, {"type": "Feature", "properties": {"highway": "footway", "footway": null, "name": "Sentier Laurent Fignon", "surface": null, "lit": null, "length_m": 116.97, "type_element": "Way", "__fid": 122261}, "geometry": {"type": "LineString", "coordinates": [[2.4432061, 48.8185429], [2.4433662, 48.818559399999984], [2.4435192, 48.81856539999998], [2.4442147, 48.8185647], [2.4447963, 48.8185812]]}}, {"type": "Feature", "properties": {"highway": "path", "footway": null, "name": null, "surface": null, "lit": null, "length_m": 15.22, "type_element": "Way", "__fid": 122262}, "geometry": {"type": "LineString", "coordinates": [[2.4432061, 48.8185429], [2.4432154, 48.8186796]]}}, {"type": "Feature", "properties": {"highway": "path", "footway": null, "name": "Avenue de Gravelle", "surface": "asphalt", "lit": "yes", "length_m": 116.58, "type_element": "Way", "__fid": 122265}, "geometry": {"type": "LineString", "coordinates": [[2.4432154, 48.8186796], [2.4432569, 48.818669100000015], [2.4438334, 48.818667], [2.4447998, 48.818684900000015]]}}]}