{"type": "FeatureCollection", "features": [{"type": "Feature", "properties": {"@id": "node/429275608", "access": "yes", "amenity": "drinking_water", "fee": "no", "seasonal": "yes", "type_element": "Fontaines à boire", "__fid": 32}, "geometry": {"type": "Point", "coordinates": [2.4448001, 48.8336479]}, "id": "node/429275608"}, {"type": "Feature", "properties": {"@id": "node/918204730", "amenity": "drinking_water", "fixme": "verifier la position", "source": "Eau de Paris", "type_element": "Fontaines à boire", "__fid": 194}, "geometry": {"type": "Point", "coordinates": [2.449976, 48.83046]}, "id": "node/918204730"}, {"type": "Feature", "properties": {"@id": "node/918205034", "amenity": "drinking_water", "fixme": "verifier la position", "source": "Eau de Paris", "type_element": "Fontaines à boire", "__fid": 207}, "geometry": {"type": "Point", "coordinates": [2.4501255, 48.830271]}, "id": "node/918205034"}, {"type": "Feature", "properties": {"@id": "node/8788291620", "amenity": "drinking_water", "type_element": "Fontaines à boire", "__fid": 764}, "geometry": {"type": "Point", "coordinates": [2.4488448, 48.8309978]}, "id": "node/8788291620"}, {"type": "Feature", "geometry": {"type": "Point", "coordinates": [2.4453, 48.834465]}, "properties": {"id": 20417, "name": "Anneau cyclable Raymond Poulidor", "categorie": "Parcs, jardins et bois", "photo_url": "https://cdn.paris.fr/eqpts-prod/2024/05/21/fbfb6a10f5435c6d92867f2f33c67794.jpg", "photo_credit": "Frédéric Combeau - Ville de Paris", "photo_alt": "Un groupe de cyclistes dans la boucle de l'anneau Poulidor", "address_street": "Rond point de la Pyramide", "address_postcode": "75012", "address_city": "paris", "phone": null, "accessibility": "{\"handicaps\": [{\"name\": \"Personnes déficientes visuelles\", \"status\": \"undefined\"}, {\"name\": \"Personnes déficientes auditives\", \"status\": \"undefined\"}, {\"name\": \"Personnes déficientes mentales\", \"status\": \"undefined\"}, {\"name\": \"Personnes à mobilité réduite\", \"status\": \"undefined\"}, {\"name\": \"Accueil en langue des signes\", \"status\": \"undefined\"}]}", "latitude": 48.834465, "longitude": 2.4453, "url": "https://www.paris.fr/lieux/anneau-cyclable-raymond-poulidor-20417", "type_element": "Parcs, Jardins et Bois", "__fid": 1296}}, {"type": "Feature", "properties": {"highway": "path", "footway": null, "name": "Route de la Pyramide", "surface": "asphalt", "lit": "yes", "length_m": 330.13, "type_element": "Way", "__fid": 122082}, "geometry": {"type": "LineString", "coordinates": [[2.4415202, 48.8364682], [2.4432255, 48.8351841], [2.4444581, 48.8342204]]}}, {"type": "Feature", "properties": {"highway": "track", "footway": null, "name": null, "surface": "asphalt", "lit": "yes", "length_m": 345.29, "type_element": "Way", "__fid": 122090}, "geometry": {"type": "LineString", "coordinates": [[2.4445908, 48.8343674], [2.4439605, 48.83486790000003], [2.4422304, 48.8361912], [2.4416129, 48.8366422], [2.4415362, 48.8367267]]}}, {"type": "Feature", "properties": {"highway": "service", "footway": null, "name": "Route Royale de Beauté", "surface": "asphalt", "lit": "no", "length_m": 120.96, "type_element": "Way", "__fid": 122118}, "geometry": {"type": "LineString", "coordinates": [[2.4418053, 48.83430910000001], [2.4434265, 48.8341145]]}}, {"type": "Feature", "properties": {"highway": "service", "footway": null, "name": null, "surface": null, "lit": null, "length_m": 207.64, "type_element": "Way", "__fid": 122228}, "geometry": {"type": "LineString", "coordinates": [[2.4440525, 48.8349067], [2.443901, 48.8350525], [2.4437261, 48.8352924], [2.4436761, 48.8354317], [2.4434615, 48.8355865], [2.4428495, 48.8361283], [2.4426968, 48.8361686], [2.4425658, 48.8361119], [2.4427155, 48.8359573]]}}, {"type": "Feature", "properties": {"highway": "service", "footway": null, "name": null, "surface": "asphalt", "lit": null, "length_m": 75.64, "type_element": "Way", "__fid": 122236}, "geometry": {"type": "LineString", "coordinates": [[2.4436366, 48.8325742], [2.4435738, 48.8325742], [2.4435357, 48.83258639999998], [2.4435083, 48.8326062], [2.4428509, 48.83221540000001]]}}, {"type": "Feature", "properties": {"highway": "path", "footway": null, "name": null, "surface": "compacted", "lit": "no", "length_m": 184.7, "type_element": "Way", "__fid": 122242}, "geometry": {"type": "LineString", "coordinates": [[2.4428617, 48.8350681], [2.4439925, 48.8341512], [2.4443232, 48.8340748], [2.4445528, 48.8340447], [2.4446926, 48.83403430000002]]}}, {"type": "Feature", "properties": {"highway": "path", "footway": null, "name": null, "surface": null, "lit": null, "length_m": 69.63, "type_element": "Way", "__fid": 122250}, "geometry": {"type": "LineString", "coordinates": [[2.4436366, 48.8325742], [2.4429526, 48.8321403]]}}, {"type": "Feature", "properties": {"highway": "footway", "footway": null, "name": null, "surface": "compacted", "lit": "no", "length_m": 151.99, "type_element": "Way", "__fid": 122273}, "geometry": {"type": "LineString", "coordinates": [[2.4430747, 48.8351914], [2.443164, 48.8351326], [2.4434713, 48.8348962], [2.4436187, 48.8347964], [2.4437972, 48.8346379], [2.4439571, 48.83452440000002], [2.4441855, 48.8343112], [2.4442852, 48.83424560000001], [2.4443724, 48.8342087], [2.4444581, 48.8342204]]}}, {"type": "Feature", "properties": {"highway": "service", "footway": null, "name": "Route de la Faluère", "surface": null, "lit": null, "length_m": 104.47, "type_element": "Way", "__fid": 122286}, "geometry": {"type": "LineString", "coordinates": [[2.4431968, 48.83298890000002], [2.4443618, 48.8335285]]}}, {"type": "Feature", "properties": {"highway": "footway", "footway": null, "name": null, "surface": null, "lit": null, "length_m": 10.65, "type_element": "Way", "__fid": 122304}, "geometry": {"type": "LineString", "coordinates": [[2.4433067, 48.8340604], [2.4434265, 48.8341145]]}}, {"type": "Feature", "properties": {"highway": "path", "footway": null, "name": null, "surface": "terra", "lit": null, "length_m": 99.62, "type_element": "Way", "__fid": 122305}, "geometry": {"type": "LineString", "coordinates": [[2.4433067, 48.8340604], [2.4446436, 48.8339062]]}}, {"type": "Feature", "properties": {"highway": "footway", "footway": null, "name": null, "surface": null, "lit": null, "length_m": 11.05, "type_element": "Way", "__fid": 122323}, "geometry": {"type": "LineString", "coordinates": [[2.4434265, 48.8341145], [2.4434534, 48.8342123]]}}, {"type": "Feature", "properties": {"highway": "service", "footway": null, "name": "Route Royale de Beauté", "surface": "asphalt", "lit": "no", "length_m": 94.24, "type_element": "Way", "__fid": 122324}, "geometry": {"type": "LineString", "coordinates": [[2.4434265, 48.8341145], [2.4442262, 48.83401210000001], [2.4445276, 48.83402750000002], [2.444638, 48.83402490000001], [2.4446926, 48.83403430000002]]}}, {"type": "Feature", "properties": {"highway": "service", "footway": null, "name": null, "surface": null, "lit": null, "length_m": 157.21, "type_element": "Way", "__fid": 122346}, "geometry": {"type": "LineString", "coordinates": [[2.4442387, 48.83475519999999], [2.4443678, 48.835459], [2.4443477, 48.8355875], [2.4442427, 48.8356531], [2.4440151, 48.83569280000001], [2.4437293, 48.8357318], [2.4435961, 48.8358305]]}}, {"type": "Feature", "properties": {"highway": "service", "footway": null, "name": null, "surface": "asphalt", "lit": null, "length_m": 126.84, "type_element": "Way", "__fid": 122349}, "geometry": {"type": "LineString", "coordinates": [[2.4443618, 48.8335285], [2.4444471, 48.8334595], [2.4439604, 48.8327804], [2.4438914, 48.832714], [2.4437782, 48.8326371], [2.4436366, 48.8325742]]}}, {"type": "Feature", "properties": {"highway": "service", "footway": null, "name": "Route de Bourbon", "surface": "asphalt", "lit": "no", "length_m": 185.75, "type_element": "Way", "__fid": 122369}, "geometry": {"type": "LineString", "coordinates": [[2.444229, 48.8296346], [2.4438315, 48.82798479999999]]}}, {"type": "Feature", "properties": {"highway": "service", "footway": null, "name": null, "surface": null, "lit": null, "length_m": 48.18, "type_element": "Way", "__fid": 122394}, "geometry": {"type": "LineString", "coordinates": [[2.4440525, 48.8349067], [2.4441251, 48.8353373]]}}, {"type": "Feature", "properties": {"highway": "service", "footway": null, "name": null, "surface": null, "lit": null, "length_m": 21.69, "type_element": "Way", "__fid": 122395}, "geometry": {"type": "LineString", "coordinates": [[2.4442387, 48.83475519999999], [2.4440525, 48.8349067]]}}, {"type": "Feature", "properties": {"highway": "service", "footway": null, "name": "Route de Bourbon", "surface": "asphalt", "lit": "no", "length_m": 140.19, "type_element": "Way", "__fid": 122405}, "geometry": {"type": "LineString", "coordinates": [[2.4445118, 48.83088149999998], [2.444229, 48.8296346]]}}, {"type": "Feature", "properties": {"highway": "path", "footway": null, "name": null, "surface": "dirt", "lit": null, "length_m": 125.95, "type_element": "Way", "__fid": 122406}, "geometry": {"type": "LineString", "coordinates": [[2.4455807, 48.8303172], [2.4442724, 48.8296301], [2.444229, 48.8296346]]}}, {"type": "Feature", "properties": {"highway": "service", "footway": null, "name": null, "surface": null, "lit": null, "length_m": 82.78, "type_element": "Way", "__fid": 122408}, "geometry": {"type": "LineString", "coordinates": [[2.4452899, 48.83454670000001], [2.4445609, 48.8346065], [2.4442387, 48.83475519999999]]}}, {"type": "Feature", "properties": {"highway": "service", "footway": null, "name": "Route de la Faluère", "surface": null, "lit": null, "length_m": 32.54, "type_element": "Way", "__fid": 122420}, "geometry": {"type": "LineString", "coordinates": [[2.4443618, 48.8335285], [2.4447247, 48.8336965]]}}, {"type": "Feature", "properties": {"highway": "path", "footway": null, "name": "Route de la Pyramide", "surface": "asphalt", "lit": "yes", "length_m": 26.92, "type_element": "Way", "__fid": 122425}, "geometry": {"type": "LineString", "coordinates": [[2.4444581, 48.8342204], [2.4446926, 48.83403430000002]]}}, {"type": "Feature", "properties": {"highway": "service", "footway": null, "name": "Route de Bourbon", "surface": "asphalt", "lit": "no", "length_m": 298.83, "type_element": "Way", "__fid": 122428}, "geometry": {"type": "LineString", "coordinates": [[2.4445118, 48.83088149999998], [2.4450878, 48.8334401], [2.4451269, 48.8334962], [2.4451348, 48.8335349]]}}, {"type": "Feature", "properties": {"highway": "path", "footway": null, "name": null, "surface": null, "lit": null, "length_m": 23.03, "type_element": "Way", "__fid": 122429}, "geometry": {"type": "LineString", "coordinates": [[2.4445118, 48.83088149999998], [2.4448243, 48.8308637]]}}, {"type": "Feature", "properties": {"highway": "service", "footway": null, "name": null, "surface": null, "lit": null, "length_m": 8.26, "type_element": "Way", "__fid": 122430}, "geometry": {"type": "LineString", "coordinates": [[2.4444848, 48.8343424], [2.4445908, 48.8343674]]}}, {"type": "Feature", "properties": {"highway": "service", "footway": null, "name": null, "surface": null, "lit": null, "length_m": 19.92, "type_element": "Way", "__fid": 122440}, "geometry": {"type": "LineString", "coordinates": [[2.4445908, 48.8343674], [2.4448502, 48.83442]]}}, {"type": "Feature", "properties": {"highway": "path", "footway": null, "name": null, "surface": "compacted", "lit": null, "length_m": 14.74, "type_element": "Way", "__fid": 122446}, "geometry": {"type": "LineString", "coordinates": [[2.4446926, 48.83403430000002], [2.4446493, 48.8339406], [2.4446436, 48.8339062]]}}, {"type": "Feature", "properties": {"highway": "path", "footway": null, "name": null, "surface": "compacted", "lit": "yes", "length_m": 24.39, "type_element": "Way", "__fid": 122447}, "geometry": {"type": "LineString", "coordinates": [[2.4446436, 48.8339062], [2.4446464, 48.8338496], [2.4446734, 48.8337669], [2.4447247, 48.8336965]]}}, {"type": "Feature", "properties": {"highway": "path", "footway": null, "name": null, "surface": "compacted", "lit": "yes", "length_m": 50.33, "type_element": "Way", "__fid": 122456}, "geometry": {"type": "LineString", "coordinates": [[2.4452556, 48.8342361], [2.4451557, 48.8342401], [2.4450448, 48.834228799999984], [2.4449399, 48.83420260000001], [2.4448454, 48.8341627], [2.4447656, 48.8341109], [2.4446926, 48.83403430000002]]}}, {"type": "Feature", "properties": {"highway": "path", "footway": null, "name": "Route de la Pyramide", "surface": "asphalt", "lit": null, "length_m": 27.47, "type_element": "Way", "__fid": 122457}, "geometry": {"type": "LineString", "coordinates": [[2.4449132, 48.8338347], [2.4446926, 48.83403430000002]]}}, {"type": "Feature", "properties": {"highway": "service", "footway": null, "name": null, "surface": null, "lit": null, "length_m": 30.74, "type_element": "Way", "__fid": 122458}, "geometry": {"type": "LineString", "coordinates": [[2.4448502, 48.83442], [2.4446992, 48.8341621]]}}, {"type": "Feature", "properties": {"highway": "service", "footway": null, "name": "Route de la Faluère", "surface": null, "lit": null, "length_m": 20.68, "type_element": "Way", "__fid": 122460}, "geometry": {"type": "LineString", "coordinates": [[2.4447247, 48.8336965], [2.4449132, 48.8338347]]}}, {"type": "Feature", "properties": {"highway": "path", "footway": null, "name": null, "surface": "compacted", "lit": "yes", "length_m": 36.4, "type_element": "Way", "__fid": 122461}, "geometry": {"type": "LineString", "coordinates": [[2.4447247, 48.8336965], [2.4448186, 48.8336226], [2.4448911, 48.833586], [2.4450403, 48.8335422], [2.4451348, 48.8335349]]}}, {"type": "Feature", "properties": {"highway": "path", "footway": null, "name": null, "surface": null, "lit": null, "length_m": 85.34, "type_element": "Way", "__fid": 122466}, "geometry": {"type": "LineString", "coordinates": [[2.4448243, 48.8308637], [2.4456665, 48.8313412], [2.4457184, 48.83133679999999]]}}, {"type": "Feature", "properties": {"highway": "path", "footway": null, "name": null, "surface": "dirt", "lit": null, "length_m": 82.32, "type_element": "Way", "__fid": 122467}, "geometry": {"type": "LineString", "coordinates": [[2.4455807, 48.8303172], [2.4448243, 48.8308637]]}}, {"type": "Feature", "properties": {"highway": "service", "footway": null, "name": null, "surface": null, "lit": null, "length_m": 31.12, "type_element": "Way", "__fid": 122478}, "geometry": {"type": "LineString", "coordinates": [[2.4448502, 48.83442], [2.4452714, 48.8343883]]}}, {"type": "Feature", "properties": {"highway": "service", "footway": null, "name": "Route de la Faluère", "surface": null, "lit": null, "length_m": 8.88, "type_element": "Way", "__fid": 122484}, "geometry": {"type": "LineString", "coordinates": [[2.4449132, 48.8338347], [2.4450111, 48.83388160000001]]}}, {"type": "Feature", "properties": {"highway": "path", "footway": null, "name": "Route de la Pyramide", "surface": "asphalt", "lit": null, "length_m": 15.14, "type_element": "Way", "__fid": 122485}, "geometry": {"type": "LineString", "coordinates": [[2.4450347, 48.83372470000001], [2.4449132, 48.8338347]]}}, {"type": "Feature", "properties": {"highway": "path", "footway": null, "name": null, "surface": "compacted", "lit": "yes", "length_m": 22.38, "type_element": "Way", "__fid": 122500}, "geometry": {"type": "LineString", "coordinates": [[2.4451348, 48.8335349], [2.445111, 48.8335951], [2.4450347, 48.83372470000001]]}}, {"type": "Feature", "properties": {"highway": "path", "footway": null, "name": "Route de la Pyramide", "surface": "asphalt", "lit": null, "length_m": 31.59, "type_element": "Way", "__fid": 122501}, "geometry": {"type": "LineString", "coordinates": [[2.4453837, 48.833559], [2.4451889, 48.8336594], [2.4450347, 48.83372470000001]]}}, {"type": "Feature", "properties": {"highway": "path", "footway": null, "name": null, "surface": "compacted", "lit": "yes", "length_m": 18.53, "type_element": "Way", "__fid": 122516}, "geometry": {"type": "LineString", "coordinates": [[2.4451348, 48.8335349], [2.4452378, 48.8335381], [2.4453837, 48.833559]]}}, {"type": "Feature", "properties": {"highway": "service", "footway": null, "name": null, "surface": "asphalt", "lit": null, "length_m": 24.13, "type_element": "Way", "__fid": 122526}, "geometry": {"type": "LineString", "coordinates": [[2.4452285, 48.8340198], [2.4452556, 48.8342361]]}}, {"type": "Feature", "properties": {"highway": "service", "footway": null, "name": null, "surface": "asphalt", "lit": null, "length_m": 16.96, "type_element": "Way", "__fid": 122529}, "geometry": {"type": "LineString", "coordinates": [[2.4452556, 48.8342361], [2.4452714, 48.8343883]]}}, {"type": "Feature", "properties": {"highway": "path", "footway": null, "name": null, "surface": "compacted", "lit": "yes", "length_m": 32.77, "type_element": "Way", "__fid": 122530}, "geometry": {"type": "LineString", "coordinates": [[2.4456266, 48.8340875], [2.445556, 48.834142], [2.4454703, 48.834186], [2.4453729, 48.8342178], [2.4452556, 48.8342361]]}}, {"type": "Feature", "properties": {"highway": "service", "footway": null, "name": null, "surface": "asphalt", "lit": null, "length_m": 17.67, "type_element": "Way", "__fid": 122534}, "geometry": {"type": "LineString", "coordinates": [[2.4452714, 48.8343883], [2.4452899, 48.83454670000001]]}}, {"type": "Feature", "properties": {"highway": "service", "footway": null, "name": null, "surface": null, "lit": null, "length_m": 103.4, "type_element": "Way", "__fid": 122537}, "geometry": {"type": "LineString", "coordinates": [[2.4454383, 48.835471400000024], [2.4452899, 48.83454670000001]]}}, {"type": "Feature", "properties": {"highway": "track", "footway": null, "name": null, "surface": "gravel", "lit": null, "length_m": 26.32, "type_element": "Way", "__fid": 122546}, "geometry": {"type": "LineString", "coordinates": [[2.4457184, 48.83384010000001], [2.4453655, 48.8338822]]}}, {"type": "Feature", "properties": {"highway": "path", "footway": null, "name": null, "surface": null, "lit": "yes", "length_m": 17.06, "type_element": "Way", "__fid": 122547}, "geometry": {"type": "LineString", "coordinates": [[2.4453837, 48.833559], [2.445463, 48.83358130000001], [2.4455767, 48.833642]]}}, {"type": "Feature", "properties": {"highway": "path", "footway": null, "name": "Route de la Pyramide", "surface": "asphalt", "lit": null, "length_m": 379.88, "type_element": "Way", "__fid": 122548}, "geometry": {"type": "LineString", "coordinates": [[2.448938, 48.8310768], [2.4473239, 48.8322412], [2.4462631, 48.832985], [2.4453837, 48.833559]]}}, {"type": "Feature", "properties": {"highway": "service", "footway": null, "name": null, "surface": null, "lit": null, "length_m": 514.42, "type_element": "Way", "__fid": 122554}, "geometry": {"type": "LineString", "coordinates": [[2.4455087, 48.8357603], [2.4457278, 48.8366593], [2.4457372, 48.8368169], [2.444848, 48.83690880000001], [2.4445717, 48.8369282], [2.4442881, 48.83693880000001], [2.4438986, 48.8368924], [2.4439456, 48.8363593], [2.4446452, 48.8362732], [2.4445526, 48.8358408], [2.4444865, 48.8356773], [2.4445203, 48.8355719], [2.4454383, 48.835471400000024]]}}, {"type": "Feature", "properties": {"highway": "service", "footway": null, "name": null, "surface": null, "lit": null, "length_m": 32.03, "type_element": "Way", "__fid": 122555}, "geometry": {"type": "LineString", "coordinates": [[2.4458673, 48.8354185], [2.4454383, 48.835471400000024]]}}, {"type": "Feature", "properties": {"highway": "path", "footway": null, "name": null, "surface": "dirt", "lit": null, "length_m": 89.13, "type_element": "Way", "__fid": 122562}, "geometry": {"type": "LineString", "coordinates": [[2.446781, 48.8301989], [2.4465678, 48.8302112], [2.4455807, 48.8303172]]}}, {"type": "Feature", "properties": {"highway": "path", "footway": null, "name": null, "surface": "compacted", "lit": "yes", "length_m": 24.66, "type_element": "Way", "__fid": 122565}, "geometry": {"type": "LineString", "coordinates": [[2.4455767, 48.833642], [2.4456713, 48.8337337], [2.4457184, 48.83384010000001]]}}, {"type": "Feature", "properties": {"highway": "path", "footway": null, "name": null, "surface": null, "lit": null, "length_m": 84.99, "type_element": "Way", "__fid": 122566}, "geometry": {"type": "LineString", "coordinates": [[2.4455767, 48.833642], [2.4464288, 48.8331245]]}}, {"type": "Feature", "properties": {"highway": "path", "footway": null, "name": null, "surface": "sand", "lit": null, "length_m": 15.94, "type_element": "Way", "__fid": 122569}, "geometry": {"type": "LineString", "coordinates": [[2.4456266, 48.8340875], [2.4456992, 48.8342226]]}}, {"type": "Feature", "properties": {"highway": "path", "footway": null, "name": null, "surface": "compacted", "lit": "yes", "length_m": 4.49, "type_element": "Way", "__fid": 122570}, "geometry": {"type": "LineString", "coordinates": [[2.4456586, 48.8340531], [2.4456266, 48.8340875]]}}, {"type": "Feature", "properties": {"highway": "path", "footway": null, "name": null, "surface": "compacted", "lit": "no", "length_m": 47.71, "type_element": "Way", "__fid": 122576}, "geometry": {"type": "LineString", "coordinates": [[2.4456586, 48.8340531], [2.446286, 48.8341653]]}}, {"type": "Feature", "properties": {"highway": "path", "footway": null, "name": null, "surface": null, "lit": "yes", "length_m": 13.1, "type_element": "Way", "__fid": 122577}, "geometry": {"type": "LineString", "coordinates": [[2.4457159, 48.83394149999999], [2.4456586, 48.8340531]]}}, {"type": "Feature", "properties": {"highway": "path", "footway": null, "name": null, "surface": null, "lit": null, "length_m": 115.85, "type_element": "Way", "__fid": 122580}, "geometry": {"type": "LineString", "coordinates": [[2.4457184, 48.83133679999999], [2.4459376, 48.8311842], [2.4464016, 48.830992600000016], [2.4469384, 48.8306835]]}}, {"type": "Feature", "properties": {"highway": "path", "footway": null, "name": null, "surface": null, "lit": null, "length_m": 98.04, "type_element": "Way", "__fid": 122581}, "geometry": {"type": "LineString", "coordinates": [[2.4457184, 48.83133679999999], [2.4470429, 48.831224]]}}, {"type": "Feature", "properties": {"highway": "path", "footway": null, "name": null, "surface": "compacted", "lit": "yes", "length_m": 59.47, "type_element": "Way", "__fid": 122582}, "geometry": {"type": "LineString", "coordinates": [[2.4465181, 48.83396590000001], [2.4462202, 48.8339243], [2.4459279, 48.8339432], [2.4457159, 48.83394149999999]]}}, {"type": "Feature", "properties": {"highway": "path", "footway": null, "name": null, "surface": "compacted", "lit": "yes", "length_m": 11.28, "type_element": "Way", "__fid": 122583}, "geometry": {"type": "LineString", "coordinates": [[2.4457184, 48.83384010000001], [2.4457159, 48.83394149999999]]}}, {"type": "Feature", "properties": {"highway": "track", "footway": null, "name": null, "surface": "gravel", "lit": null, "length_m": 53.32, "type_element": "Way", "__fid": 122584}, "geometry": {"type": "LineString", "coordinates": [[2.4464333, 48.8337554], [2.4457184, 48.83384010000001]]}}, {"type": "Feature", "properties": {"highway": "service", "footway": null, "name": null, "surface": null, "lit": null, "length_m": 33.5, "type_element": "Way", "__fid": 122595}, "geometry": {"type": "LineString", "coordinates": [[2.445901, 48.83571710000001], [2.4458554, 48.83553], [2.4458673, 48.8354185]]}}, {"type": "Feature", "properties": {"highway": "service", "footway": null, "name": null, "surface": null, "lit": null, "length_m": 24.58, "type_element": "Way", "__fid": 122596}, "geometry": {"type": "LineString", "coordinates": [[2.4461957, 48.8353755], [2.4458673, 48.8354185]]}}, {"type": "Feature", "properties": {"highway": "service", "footway": null, "name": null, "surface": null, "lit": null, "length_m": 88.65, "type_element": "Way", "__fid": 122636}, "geometry": {"type": "LineString", "coordinates": [[2.4461543, 48.8345673], [2.446346, 48.8353545]]}}, {"type": "Feature", "properties": {"highway": "service", "footway": null, "name": null, "surface": null, "lit": null, "length_m": 96.24, "type_element": "Way", "__fid": 122637}, "geometry": {"type": "LineString", "coordinates": [[2.4461957, 48.8353755], [2.4460078, 48.834672], [2.4460556, 48.8346007], [2.4461543, 48.8345673]]}}, {"type": "Feature", "properties": {"highway": "service", "footway": null, "name": null, "surface": null, "lit": null, "length_m": 16.65, "type_element": "Way", "__fid": 122638}, "geometry": {"type": "LineString", "coordinates": [[2.4463783, 48.83454360000001], [2.4461543, 48.8345673]]}}, {"type": "Feature", "properties": {"highway": "service", "footway": null, "name": null, "surface": null, "lit": null, "length_m": 47.52, "type_element": "Way", "__fid": 122641}, "geometry": {"type": "LineString", "coordinates": [[2.4464269, 48.8356847], [2.4462831, 48.8357014], [2.4461957, 48.8353755]]}}, {"type": "Feature", "properties": {"highway": "service", "footway": null, "name": null, "surface": null, "lit": null, "length_m": 11.28, "type_element": "Way", "__fid": 122642}, "geometry": {"type": "LineString", "coordinates": [[2.446346, 48.8353545], [2.4461957, 48.8353755]]}}, {"type": "Feature", "properties": {"highway": "service", "footway": null, "name": null, "surface": null, "lit": null, "length_m": 6.25, "type_element": "Way", "__fid": 122660}, "geometry": {"type": "LineString", "coordinates": [[2.4462752, 48.8341095], [2.446286, 48.8341653]]}}, {"type": "Feature", "properties": {"highway": "path", "footway": null, "name": null, "surface": "compacted", "lit": "no", "length_m": 114.43, "type_element": "Way", "__fid": 122661}, "geometry": {"type": "LineString", "coordinates": [[2.446286, 48.8341653], [2.4477928, 48.8344291]]}}, {"type": "Feature", "properties": {"highway": "service", "footway": null, "name": null, "surface": null, "lit": null, "length_m": 42.61, "type_element": "Way", "__fid": 122662}, "geometry": {"type": "LineString", "coordinates": [[2.446286, 48.8341653], [2.4463783, 48.83454360000001]]}}, {"type": "Feature", "properties": {"highway": "service", "footway": null, "name": null, "surface": null, "lit": null, "length_m": 37.19, "type_element": "Way", "__fid": 122671}, "geometry": {"type": "LineString", "coordinates": [[2.446346, 48.8353545], [2.4464269, 48.8356847]]}}, {"type": "Feature", "properties": {"highway": "service", "footway": null, "name": null, "surface": null, "lit": null, "length_m": 16.7, "type_element": "Way", "__fid": 122672}, "geometry": {"type": "LineString", "coordinates": [[2.4465686, 48.8353234], [2.446346, 48.8353545]]}}, {"type": "Feature", "properties": {"highway": "path", "footway": null, "name": null, "surface": null, "lit": null, "length_m": 84.34, "type_element": "Way", "__fid": 122673}, "geometry": {"type": "LineString", "coordinates": [[2.4474052, 48.8296309], [2.4470282, 48.8294521], [2.4468351, 48.8293409], [2.4464108, 48.8293015]]}}, {"type": "Feature", "properties": {"highway": "path", "footway": null, "name": null, "surface": "dirt", "lit": null, "length_m": 109.22, "type_element": "Way", "__fid": 122674}, "geometry": {"type": "LineString", "coordinates": [[2.446781, 48.8301989], [2.4466768, 48.8301598], [2.4465557, 48.830078], [2.4464858, 48.829981], [2.4464108, 48.8293015]]}}, {"type": "Feature", "properties": {"highway": "service", "footway": null, "name": null, "surface": null, "lit": null, "length_m": 87.83, "type_element": "Way", "__fid": 122681}, "geometry": {"type": "LineString", "coordinates": [[2.4463783, 48.83454360000001], [2.4465686, 48.8353234]]}}, {"type": "Feature", "properties": {"highway": "service", "footway": null, "name": null, "surface": null, "lit": null, "length_m": 149.61, "type_element": "Way", "__fid": 122682}, "geometry": {"type": "LineString", "coordinates": [[2.4466513, 48.8356625], [2.44681, 48.8356457], [2.446537, 48.83452680000001], [2.4463783, 48.83454360000001]]}}, {"type": "Feature", "properties": {"highway": "path", "footway": null, "name": null, "surface": null, "lit": null, "length_m": 73.83, "type_element": "Way", "__fid": 122693}, "geometry": {"type": "LineString", "coordinates": [[2.4464288, 48.8331245], [2.4463664, 48.8332525], [2.4463302, 48.8333999], [2.4463302, 48.833498800000015], [2.446302, 48.8335694], [2.4463221, 48.83363030000002], [2.4463691, 48.8336991], [2.4464333, 48.8337554]]}}, {"type": "Feature", "properties": {"highway": "path", "footway": null, "name": null, "surface": null, "lit": null, "length_m": 540.82, "type_element": "Way", "__fid": 122694}, "geometry": {"type": "LineString", "coordinates": [[2.4464288, 48.8331245], [2.4473762, 48.83249330000001], [2.4489373, 48.8313262], [2.4513245, 48.8294921]]}}, {"type": "Feature", "properties": {"highway": "path", "footway": null, "name": null, "surface": null, "lit": null, "length_m": 24.65, "type_element": "Way", "__fid": 122698}, "geometry": {"type": "LineString", "coordinates": [[2.4464333, 48.8337554], [2.4464737, 48.8337918], [2.4465181, 48.83396590000001]]}}, {"type": "Feature", "properties": {"highway": "service", "footway": null, "name": null, "surface": null, "lit": null, "length_m": 102.54, "type_element": "Way", "__fid": 122699}, "geometry": {"type": "LineString", "coordinates": [[2.4475922, 48.8335011], [2.4466492, 48.83361], [2.4466867, 48.8337281], [2.4464333, 48.8337554]]}}, {"type": "Feature", "properties": {"highway": "path", "footway": null, "name": null, "surface": "compacted", "lit": "yes", "length_m": 225.28, "type_element": "Way", "__fid": 122713}, "geometry": {"type": "LineString", "coordinates": [[2.44941, 48.8345258], [2.4489558, 48.8343857], [2.4486541, 48.8343893], [2.4482379, 48.8343522], [2.4481088, 48.8343203], [2.4478979, 48.83429120000001], [2.4476316, 48.8342008], [2.4474479, 48.8342062], [2.4472765, 48.834187], [2.4469969, 48.8341308], [2.4467961, 48.8340402], [2.4465181, 48.83396590000001]]}}, {"type": "Feature", "properties": {"highway": "service", "footway": null, "name": null, "surface": null, "lit": null, "length_m": 38.19, "type_element": "Way", "__fid": 122722}, "geometry": {"type": "LineString", "coordinates": [[2.4465686, 48.8353234], [2.4466513, 48.8356625]]}}, {"type": "Feature", "properties": {"highway": "path", "footway": null, "name": null, "surface": "dirt", "lit": null, "length_m": 34.37, "type_element": "Way", "__fid": 122737}, "geometry": {"type": "LineString", "coordinates": [[2.4471858, 48.8300643], [2.4470529, 48.8301502], [2.4469371, 48.8301765], [2.446781, 48.8301989]]}}, {"type": "Feature", "properties": {"highway": "service", "footway": null, "name": null, "surface": null, "lit": null, "length_m": 22.21, "type_element": "Way", "__fid": 122747}, "geometry": {"type": "LineString", "coordinates": [[2.4467764, 48.8348373], [2.446832, 48.8350336]]}}, {"type": "Feature", "properties": {"highway": "service", "footway": null, "name": null, "surface": null, "lit": null, "length_m": 76.36, "type_element": "Way", "__fid": 122748}, "geometry": {"type": "LineString", "coordinates": [[2.4475707, 48.834741], [2.4469528, 48.8346411], [2.4468187, 48.83467880000001], [2.4467536, 48.8347607], [2.4467764, 48.8348373]]}}, {"type": "Feature", "properties": {"highway": "service", "footway": null, "name": null, "surface": null, "lit": null, "length_m": 14.91, "type_element": "Way", "__fid": 122749}, "geometry": {"type": "LineString", "coordinates": [[2.4467764, 48.8348373], [2.4469741, 48.8348067]]}}, {"type": "Feature", "properties": {"highway": "service", "footway": null, "name": null, "surface": null, "lit": null, "length_m": 17.83, "type_element": "Way", "__fid": 122756}, "geometry": {"type": "LineString", "coordinates": [[2.446832, 48.8350336], [2.4468731, 48.8351916]]}}, {"type": "Feature", "properties": {"highway": "service", "footway": null, "name": null, "surface": "asphalt", "lit": null, "length_m": 50.78, "type_element": "Way", "__fid": 122757}, "geometry": {"type": "LineString", "coordinates": [[2.4475133, 48.8349544], [2.446832, 48.8350336]]}}, {"type": "Feature", "properties": {"highway": "service", "footway": null, "name": null, "surface": null, "lit": null, "length_m": 25.08, "type_element": "Way", "__fid": 122764}, "geometry": {"type": "LineString", "coordinates": [[2.4468731, 48.8351916], [2.446931, 48.8354139]]}}, {"type": "Feature", "properties": {"highway": "service", "footway": null, "name": null, "surface": null, "lit": null, "length_m": 73.46, "type_element": "Way", "__fid": 122765}, "geometry": {"type": "LineString", "coordinates": [[2.4478556, 48.8350661], [2.4468731, 48.8351916]]}}, {"type": "Feature", "properties": {"highway": "path", "footway": null, "name": null, "surface": null, "lit": null, "length_m": 60.62, "type_element": "Way", "__fid": 122766}, "geometry": {"type": "LineString", "coordinates": [[2.4470429, 48.831224], [2.447027, 48.8310755], [2.4469384, 48.8306835]]}}, {"type": "Feature", "properties": {"highway": "path", "footway": null, "name": null, "surface": null, "lit": null, "length_m": 72.15, "type_element": "Way", "__fid": 122767}, "geometry": {"type": "LineString", "coordinates": [[2.4469384, 48.8306835], [2.4470068, 48.8304478], [2.4471302, 48.83029770000002], [2.4471477, 48.8301361], [2.4471858, 48.8300643]]}}, {"type": "Feature", "properties": {"highway": "service", "footway": null, "name": null, "surface": null, "lit": null, "length_m": 94.76, "type_element": "Way", "__fid": 122768}, "geometry": {"type": "LineString", "coordinates": [[2.446931, 48.8354139], [2.446978, 48.83559450000001], [2.4479734, 48.83546889999998]]}}, {"type": "Feature", "properties": {"highway": "service", "footway": null, "name": null, "surface": null, "lit": null, "length_m": 73.96, "type_element": "Way", "__fid": 122769}, "geometry": {"type": "LineString", "coordinates": [[2.4479212, 48.83529080000001], [2.446931, 48.8354139]]}}, {"type": "Feature", "properties": {"highway": "path", "footway": null, "name": null, "surface": null, "lit": null, "length_m": 21.61, "type_element": "Way", "__fid": 122786}, "geometry": {"type": "LineString", "coordinates": [[2.4470429, 48.831224], [2.4473348, 48.8311991]]}}, {"type": "Feature", "properties": {"highway": "path", "footway": null, "name": null, "surface": "dirt", "lit": null, "length_m": 6.75, "type_element": "Way", "__fid": 122809}, "geometry": {"type": "LineString", "coordinates": [[2.4472751, 48.8300786], [2.4471858, 48.8300643]]}}, {"type": "Feature", "properties": {"highway": "footway", "footway": null, "name": null, "surface": "fine_gravel", "lit": null, "length_m": 164.99, "type_element": "Way", "__fid": 122838}, "geometry": {"type": "LineString", "coordinates": [[2.4472751, 48.8300786], [2.448938, 48.8310768]]}}, {"type": "Feature", "properties": {"highway": "footway", "footway": null, "name": null, "surface": "fine_gravel", "lit": null, "length_m": 17.25, "type_element": "Way", "__fid": 122839}, "geometry": {"type": "LineString", "coordinates": [[2.4473685, 48.8299362], [2.4472751, 48.8300786]]}}, {"type": "Feature", "properties": {"highway": "service", "footway": null, "name": null, "surface": "asphalt", "lit": null, "length_m": 24.86, "type_element": "Way", "__fid": 122842}, "geometry": {"type": "LineString", "coordinates": [[2.4475707, 48.834741], [2.4472492, 48.83481119999998]]}}, {"type": "Feature", "properties": {"highway": "path", "footway": null, "name": null, "surface": null, "lit": null, "length_m": 34.05, "type_element": "Way", "__fid": 122857}, "geometry": {"type": "LineString", "coordinates": [[2.4473685, 48.8299362], [2.4474052, 48.8296309]]}}, {"type": "Feature", "properties": {"highway": "footway", "footway": null, "name": null, "surface": "fine_gravel", "lit": null, "length_m": 165.11, "type_element": "Way", "__fid": 122858}, "geometry": {"type": "LineString", "coordinates": [[2.4488769, 48.82883480000003], [2.4473685, 48.8299362]]}}, {"type": "Feature", "properties": {"highway": "path", "footway": null, "name": null, "surface": null, "lit": null, "length_m": 5.89, "type_element": "Way", "__fid": 122859}, "geometry": {"type": "LineString", "coordinates": [[2.4474052, 48.8296309], [2.4474115, 48.8295781]]}}, {"type": "Feature", "properties": {"highway": "footway", "footway": null, "name": null, "surface": null, "lit": null, "length_m": 33.09, "type_element": "Way", "__fid": 122880}, "geometry": {"type": "LineString", "coordinates": [[2.4474728, 48.8340161], [2.4477813, 48.8337991]]}}, {"type": "Feature", "properties": {"highway": "service", "footway": null, "name": null, "surface": "asphalt", "lit": null, "length_m": 19.98, "type_element": "Way", "__fid": 122888}, "geometry": {"type": "LineString", "coordinates": [[2.4476601, 48.8348031], [2.4475133, 48.8349544]]}}, {"type": "Feature", "properties": {"highway": "service", "footway": null, "name": null, "surface": null, "lit": null, "length_m": 22.32, "type_element": "Way", "__fid": 122889}, "geometry": {"type": "LineString", "coordinates": [[2.4475133, 48.8349544], [2.4478119, 48.8349166]]}}, {"type": "Feature", "properties": {"highway": "service", "footway": null, "name": null, "surface": "asphalt", "lit": null, "length_m": 9.68, "type_element": "Way", "__fid": 122896}, "geometry": {"type": "LineString", "coordinates": [[2.4476959, 48.8347136], [2.4475707, 48.834741]]}}, {"type": "Feature", "properties": {"highway": "service", "footway": null, "name": null, "surface": null, "lit": null, "length_m": 10.02, "type_element": "Way", "__fid": 122897}, "geometry": {"type": "LineString", "coordinates": [[2.4476197, 48.8335894], [2.4475922, 48.8335011]]}}, {"type": "Feature", "properties": {"highway": "service", "footway": null, "name": null, "surface": null, "lit": null, "length_m": 88.76, "type_element": "Way", "__fid": 122898}, "geometry": {"type": "LineString", "coordinates": [[2.4487813, 48.8333562], [2.4475922, 48.8335011]]}}, {"type": "Feature", "properties": {"highway": "service", "footway": null, "name": null, "surface": null, "lit": null, "length_m": 27.59, "type_element": "Way", "__fid": 122902}, "geometry": {"type": "LineString", "coordinates": [[2.4477813, 48.8337991], [2.4476566, 48.833723800000016], [2.4476197, 48.8335894]]}}, {"type": "Feature", "properties": {"highway": "footway", "footway": null, "name": null, "surface": null, "lit": null, "length_m": 88.18, "type_element": "Way", "__fid": 122903}, "geometry": {"type": "LineString", "coordinates": [[2.4476197, 48.8335894], [2.4488022, 48.8334497]]}}, {"type": "Feature", "properties": {"highway": "service", "footway": null, "name": null, "surface": "asphalt", "lit": null, "length_m": 9.32, "type_element": "Way", "__fid": 122908}, "geometry": {"type": "LineString", "coordinates": [[2.4477856, 48.83481579999998], [2.4476601, 48.8348031]]}}, {"type": "Feature", "properties": {"highway": "service", "footway": null, "name": null, "surface": "asphalt", "lit": null, "length_m": 10.29, "type_element": "Way", "__fid": 122909}, "geometry": {"type": "LineString", "coordinates": [[2.4476959, 48.8347136], [2.4476601, 48.8348031]]}}, {"type": "Feature", "properties": {"highway": "service", "footway": null, "name": null, "surface": "asphalt", "lit": null, "length_m": 13.13, "type_element": "Way", "__fid": 122911}, "geometry": {"type": "LineString", "coordinates": [[2.4476959, 48.8347136], [2.4477856, 48.83481579999998]]}}, {"type": "Feature", "properties": {"highway": "service", "footway": null, "name": null, "surface": "asphalt", "lit": null, "length_m": 32.42, "type_element": "Way", "__fid": 122912}, "geometry": {"type": "LineString", "coordinates": [[2.4477928, 48.8344291], [2.4476959, 48.8347136]]}}, {"type": "Feature", "properties": {"highway": "service", "footway": null, "name": null, "surface": null, "lit": null, "length_m": 19.61, "type_element": "Way", "__fid": 122917}, "geometry": {"type": "LineString", "coordinates": [[2.4479784, 48.8339181], [2.4477813, 48.8337991]]}}, {"type": "Feature", "properties": {"highway": "footway", "footway": null, "name": null, "surface": null, "lit": null, "length_m": 96.34, "type_element": "Way", "__fid": 122918}, "geometry": {"type": "LineString", "coordinates": [[2.4477813, 48.8337991], [2.4479717, 48.8336638], [2.448826, 48.8335561], [2.4488022, 48.8334497]]}}, {"type": "Feature", "properties": {"highway": "service", "footway": null, "name": null, "surface": "asphalt", "lit": null, "length_m": 11.37, "type_element": "Way", "__fid": 122919}, "geometry": {"type": "LineString", "coordinates": [[2.4477856, 48.83481579999998], [2.4478119, 48.8349166]]}}, {"type": "Feature", "properties": {"highway": "path", "footway": null, "name": null, "surface": "compacted", "lit": "no", "length_m": 34.15, "type_element": "Way", "__fid": 122921}, "geometry": {"type": "LineString", "coordinates": [[2.4477928, 48.8344291], [2.4482425, 48.8345077]]}}, {"type": "Feature", "properties": {"highway": "service", "footway": null, "name": null, "surface": "asphalt", "lit": null, "length_m": 6.39, "type_element": "Way", "__fid": 122922}, "geometry": {"type": "LineString", "coordinates": [[2.4478095, 48.83437270000001], [2.4477928, 48.8344291]]}}, {"type": "Feature", "properties": {"highway": "service", "footway": null, "name": null, "surface": null, "lit": null, "length_m": 16.93, "type_element": "Way", "__fid": 122926}, "geometry": {"type": "LineString", "coordinates": [[2.4478119, 48.8349166], [2.4478556, 48.8350661]]}}, {"type": "Feature", "properties": {"highway": "service", "footway": null, "name": null, "surface": null, "lit": null, "length_m": 11.63, "type_element": "Way", "__fid": 122928}, "geometry": {"type": "LineString", "coordinates": [[2.4478556, 48.8350661], [2.4478856, 48.83516880000002]]}}, {"type": "Feature", "properties": {"highway": "service", "footway": null, "name": null, "surface": null, "lit": null, "length_m": 13.81, "type_element": "Way", "__fid": 122929}, "geometry": {"type": "LineString", "coordinates": [[2.4478856, 48.83516880000002], [2.4479212, 48.83529080000001]]}}, {"type": "Feature", "properties": {"highway": "service", "footway": null, "name": null, "surface": null, "lit": null, "length_m": 18.36, "type_element": "Way", "__fid": 122930}, "geometry": {"type": "LineString", "coordinates": [[2.4478856, 48.83516880000002], [2.4481348, 48.8351549]]}}, {"type": "Feature", "properties": {"highway": "service", "footway": null, "name": null, "surface": null, "lit": null, "length_m": 20.17, "type_element": "Way", "__fid": 122931}, "geometry": {"type": "LineString", "coordinates": [[2.4479734, 48.83546889999998], [2.4479212, 48.83529080000001]]}}, {"type": "Feature", "properties": {"highway": "service", "footway": null, "name": null, "surface": null, "lit": null, "length_m": 43.44, "type_element": "Way", "__fid": 122935}, "geometry": {"type": "LineString", "coordinates": [[2.4482044, 48.835806199999986], [2.4481457, 48.8357802], [2.4480462, 48.83571749999999], [2.4479734, 48.83546889999998]]}}, {"type": "Feature", "properties": {"highway": "service", "footway": null, "name": null, "surface": null, "lit": null, "length_m": 77.16, "type_element": "Way", "__fid": 122944}, "geometry": {"type": "LineString", "coordinates": [[2.4481348, 48.8351549], [2.4483217, 48.8358378]]}}, {"type": "Feature", "properties": {"highway": "service", "footway": null, "name": null, "surface": null, "lit": null, "length_m": 12.02, "type_element": "Way", "__fid": 122945}, "geometry": {"type": "LineString", "coordinates": [[2.4481348, 48.8351549], [2.4482976, 48.8351431]]}}, {"type": "Feature", "properties": {"highway": "service", "footway": null, "name": null, "surface": "asphalt", "lit": null, "length_m": 6.72, "type_element": "Way", "__fid": 122950}, "geometry": {"type": "LineString", "coordinates": [[2.4482207, 48.834449], [2.4482425, 48.8345077]]}}, {"type": "Feature", "properties": {"highway": "path", "footway": null, "name": null, "surface": "compacted", "lit": "no", "length_m": 79.64, "type_element": "Way", "__fid": 122952}, "geometry": {"type": "LineString", "coordinates": [[2.4482425, 48.8345077], [2.4492727, 48.8347322]]}}, {"type": "Feature", "properties": {"highway": "service", "footway": null, "name": null, "surface": "asphalt", "lit": null, "length_m": 44.32, "type_element": "Way", "__fid": 122953}, "geometry": {"type": "LineString", "coordinates": [[2.4482425, 48.8345077], [2.448314, 48.83475859999999], [2.4482696, 48.8348989]]}}, {"type": "Feature", "properties": {"highway": "service", "footway": null, "name": null, "surface": null, "lit": null, "length_m": 72.42, "type_element": "Way", "__fid": 122958}, "geometry": {"type": "LineString", "coordinates": [[2.4482696, 48.8348989], [2.4492229, 48.8350667]]}}, {"type": "Feature", "properties": {"highway": "service", "footway": null, "name": null, "surface": null, "lit": null, "length_m": 27.23, "type_element": "Way", "__fid": 122959}, "geometry": {"type": "LineString", "coordinates": [[2.4482696, 48.8348989], [2.4482976, 48.8351431]]}}, {"type": "Feature", "properties": {"highway": "footway", "footway": null, "name": null, "surface": null, "lit": null, "length_m": 61.31, "type_element": "Way", "__fid": 122960}, "geometry": {"type": "LineString", "coordinates": [[2.4482976, 48.8351431], [2.4485552, 48.83517890000002], [2.4486878, 48.8352093], [2.4488032, 48.8352529], [2.4489271, 48.83531559999999], [2.4490252, 48.8353839]]}}, {"type": "Feature", "properties": {"highway": "service", "footway": null, "name": null, "surface": null, "lit": null, "length_m": 65.14, "type_element": "Way", "__fid": 122961}, "geometry": {"type": "LineString", "coordinates": [[2.4482976, 48.8351431], [2.448333, 48.8352013], [2.4484864, 48.8357145]]}}, {"type": "Feature", "properties": {"highway": "footway", "footway": null, "name": null, "surface": null, "lit": null, "length_m": 21.55, "type_element": "Way", "__fid": 122963}, "geometry": {"type": "LineString", "coordinates": [[2.448372, 48.8322884], [2.4484625, 48.8323511], [2.4485786, 48.8322762]]}}, {"type": "Feature", "properties": {"highway": "service", "footway": null, "name": null, "surface": null, "lit": null, "length_m": 59.58, "type_element": "Way", "__fid": 122982}, "geometry": {"type": "LineString", "coordinates": [[2.4493281, 48.8322885], [2.449296, 48.8322684], [2.4491915, 48.8323291], [2.4490828, 48.8323396], [2.4486396, 48.8323004], [2.4485786, 48.8322762]]}}, {"type": "Feature", "properties": {"highway": "service", "footway": null, "name": null, "surface": null, "lit": null, "length_m": 32.95, "type_element": "Way", "__fid": 122983}, "geometry": {"type": "LineString", "coordinates": [[2.4485786, 48.8322762], [2.448555, 48.8322511], [2.4485672, 48.83217770000001], [2.4486141, 48.8321114], [2.4486416, 48.8320395], [2.4486866, 48.8320049]]}}, {"type": "Feature", "properties": {"highway": "service", "footway": null, "name": null, "surface": null, "lit": null, "length_m": 10.51, "type_element": "Way", "__fid": 122988}, "geometry": {"type": "LineString", "coordinates": [[2.4487813, 48.8333562], [2.4488022, 48.8334497]]}}, {"type": "Feature", "properties": {"highway": "service", "footway": null, "name": null, "surface": null, "lit": null, "length_m": 102.93, "type_element": "Way", "__fid": 122989}, "geometry": {"type": "LineString", "coordinates": [[2.4501601, 48.8331879], [2.4487813, 48.8333562]]}}, {"type": "Feature", "properties": {"highway": "footway", "footway": null, "name": null, "surface": null, "lit": null, "length_m": 103.43, "type_element": "Way", "__fid": 122990}, "geometry": {"type": "LineString", "coordinates": [[2.4488022, 48.8334497], [2.4501892, 48.8332859]]}}, {"type": "Feature", "properties": {"highway": "footway", "footway": null, "name": null, "surface": "fine_gravel", "lit": null, "length_m": 19.56, "type_element": "Way", "__fid": 122999}, "geometry": {"type": "LineString", "coordinates": [[2.448938, 48.8310768], [2.4489714, 48.8310971], [2.4491764, 48.8310425]]}}, {"type": "Feature", "properties": {"highway": "path", "footway": null, "name": "Route de la Pyramide", "surface": "asphalt", "lit": null, "length_m": 308.62, "type_element": "Way", "__fid": 123000}, "geometry": {"type": "LineString", "coordinates": [[2.4517125, 48.8289919], [2.451362, 48.8292365], [2.4509919, 48.8295111], [2.448938, 48.8310768]]}}, {"type": "Feature", "properties": {"highway": "footway", "footway": null, "name": null, "surface": null, "lit": null, "length_m": 50.84, "type_element": "Way", "__fid": 123007}, "geometry": {"type": "LineString", "coordinates": [[2.4490252, 48.8353839], [2.4489877, 48.8354067], [2.4489617, 48.8354712], [2.448979, 48.8355813], [2.4490828, 48.8356819], [2.4492299, 48.83575970000001]]}}, {"type": "Feature", "properties": {"highway": "footway", "footway": null, "name": null, "surface": null, "lit": null, "length_m": 41.95, "type_element": "Way", "__fid": 123008}, "geometry": {"type": "LineString", "coordinates": [[2.4493745, 48.8351322], [2.4492876, 48.8353118], [2.4491434, 48.8353402], [2.4490252, 48.8353839]]}}, {"type": "Feature", "properties": {"highway": "footway", "footway": null, "name": null, "surface": null, "lit": null, "length_m": 40.6, "type_element": "Way", "__fid": 123020}, "geometry": {"type": "LineString", "coordinates": [[2.4491871, 48.832427899999985], [2.4492092, 48.8325155], [2.4492417, 48.8325122], [2.4492095, 48.8323789], [2.4493281, 48.8322885]]}}, {"type": "Feature", "properties": {"highway": "service", "footway": null, "name": null, "surface": null, "lit": null, "length_m": 17.14, "type_element": "Way", "__fid": 123025}, "geometry": {"type": "LineString", "coordinates": [[2.4492229, 48.8350667], [2.4492075, 48.8351063], [2.4493745, 48.8351322]]}}, {"type": "Feature", "properties": {"highway": "service", "footway": null, "name": null, "surface": null, "lit": null, "length_m": 22.0, "type_element": "Way", "__fid": 123026}, "geometry": {"type": "LineString", "coordinates": [[2.4493071, 48.8348768], [2.4492229, 48.8350667]]}}, {"type": "Feature", "properties": {"highway": "path", "footway": null, "name": null, "surface": "compacted", "lit": "no", "length_m": 6.81, "type_element": "Way", "__fid": 123031}, "geometry": {"type": "LineString", "coordinates": [[2.4492727, 48.8347322], [2.4493595, 48.8347538]]}}, {"type": "Feature", "properties": {"highway": "path", "footway": null, "name": null, "surface": "fine_gravel", "lit": null, "length_m": 25.45, "type_element": "Way", "__fid": 123032}, "geometry": {"type": "LineString", "coordinates": [[2.4492727, 48.8347322], [2.4493034, 48.8346494], [2.4493564, 48.834568199999985], [2.44941, 48.8345258]]}}, {"type": "Feature", "properties": {"highway": "service", "footway": null, "name": null, "surface": null, "lit": null, "length_m": 23.34, "type_element": "Way", "__fid": 123033}, "geometry": {"type": "LineString", "coordinates": [[2.4495591, 48.83243270000001], [2.4493281, 48.8322885]]}}, {"type": "Feature", "properties": {"highway": "path", "footway": null, "name": null, "surface": null, "lit": null, "length_m": 117.7, "type_element": "Way", "__fid": 123034}, "geometry": {"type": "LineString", "coordinates": [[2.450848, 48.8351544], [2.4507366, 48.8351549], [2.4506607, 48.8351449], [2.4499283, 48.8350173], [2.4494917, 48.8349265], [2.4493071, 48.8348768]]}}, {"type": "Feature", "properties": {"highway": "service", "footway": null, "name": null, "surface": null, "lit": null, "length_m": 14.21, "type_element": "Way", "__fid": 123035}, "geometry": {"type": "LineString", "coordinates": [[2.4493595, 48.8347538], [2.4493071, 48.8348768]]}}, {"type": "Feature", "properties": {"highway": "service", "footway": null, "name": null, "surface": null, "lit": null, "length_m": 153.78, "type_element": "Way", "__fid": 123043}, "geometry": {"type": "LineString", "coordinates": [[2.4493919, 48.8314692], [2.4494865, 48.8315023], [2.4496011, 48.8315239], [2.4496756, 48.8315473], [2.4509967, 48.8323409]]}}, {"type": "Feature", "properties": {"highway": "path", "footway": null, "name": null, "surface": "compacted", "lit": "no", "length_m": 117.99, "type_element": "Way", "__fid": 123044}, "geometry": {"type": "LineString", "coordinates": [[2.4493595, 48.8347538], [2.450848, 48.8351544]]}}, {"type": "Feature", "properties": {"highway": "service", "footway": null, "name": null, "surface": null, "lit": null, "length_m": 4.44, "type_element": "Way", "__fid": 123045}, "geometry": {"type": "LineString", "coordinates": [[2.4493801, 48.8347163], [2.4493595, 48.8347538]]}}, {"type": "Feature", "properties": {"highway": "service", "footway": null, "name": null, "surface": null, "lit": null, "length_m": 41.16, "type_element": "Way", "__fid": 123046}, "geometry": {"type": "LineString", "coordinates": [[2.4493745, 48.8351322], [2.4498687, 48.8352118], [2.4498895, 48.835221], [2.4498855, 48.8352386]]}}, {"type": "Feature", "properties": {"highway": "path", "footway": null, "name": null, "surface": "compacted", "lit": "yes", "length_m": 28.48, "type_element": "Way", "__fid": 123047}, "geometry": {"type": "LineString", "coordinates": [[2.4497695, 48.83462], [2.4496358, 48.8345955], [2.44941, 48.8345258]]}}, {"type": "Feature", "properties": {"highway": "service", "footway": null, "name": null, "surface": null, "lit": null, "length_m": 87.28, "type_element": "Way", "__fid": 123050}, "geometry": {"type": "LineString", "coordinates": [[2.4495591, 48.83243270000001], [2.449744, 48.83230649999999], [2.4502315, 48.8326151], [2.4500641, 48.8327356]]}}, {"type": "Feature", "properties": {"highway": "service", "footway": null, "name": null, "surface": null, "lit": null, "length_m": 68.33, "type_element": "Way", "__fid": 123060}, "geometry": {"type": "LineString", "coordinates": [[2.4498855, 48.8352386], [2.4496422, 48.8358318]]}}, {"type": "Feature", "properties": {"highway": "service", "footway": null, "name": null, "surface": null, "lit": null, "length_m": 71.28, "type_element": "Way", "__fid": 123062}, "geometry": {"type": "LineString", "coordinates": [[2.450455, 48.83254740000001], [2.4497346, 48.83211759999999]]}}, {"type": "Feature", "properties": {"highway": "path", "footway": null, "name": null, "surface": null, "lit": null, "length_m": 73.43, "type_element": "Way", "__fid": 123065}, "geometry": {"type": "LineString", "coordinates": [[2.4505587, 48.8348247], [2.4502744, 48.8348856], [2.4498694, 48.83478050000002], [2.4497822, 48.8346746], [2.4497695, 48.83462]]}}, {"type": "Feature", "properties": {"highway": "service", "footway": null, "name": null, "surface": null, "lit": null, "length_m": 48.54, "type_element": "Way", "__fid": 123072}, "geometry": {"type": "LineString", "coordinates": [[2.4498855, 48.8352386], [2.4505272, 48.8353442]]}}, {"type": "Feature", "properties": {"highway": "service", "footway": null, "name": null, "surface": null, "lit": null, "length_m": 20.79, "type_element": "Way", "__fid": 123077}, "geometry": {"type": "LineString", "coordinates": [[2.4502757, 48.83285990000001], [2.4500641, 48.8327356]]}}, {"type": "Feature", "properties": {"highway": "service", "footway": null, "name": null, "surface": null, "lit": null, "length_m": 11.1, "type_element": "Way", "__fid": 123080}, "geometry": {"type": "LineString", "coordinates": [[2.4501601, 48.8331879], [2.4501892, 48.8332859]]}}, {"type": "Feature", "properties": {"highway": "service", "footway": null, "name": null, "surface": null, "lit": null, "length_m": 41.07, "type_element": "Way", "__fid": 123081}, "geometry": {"type": "LineString", "coordinates": [[2.4507103, 48.8331208], [2.4501601, 48.8331879]]}}, {"type": "Feature", "properties": {"highway": "service", "footway": null, "name": null, "surface": null, "lit": null, "length_m": 11.51, "type_element": "Way", "__fid": 123083}, "geometry": {"type": "LineString", "coordinates": [[2.4501892, 48.8332859], [2.4502194, 48.8333875]]}}, {"type": "Feature", "properties": {"highway": "footway", "footway": null, "name": null, "surface": null, "lit": null, "length_m": 50.6, "type_element": "Way", "__fid": 123084}, "geometry": {"type": "LineString", "coordinates": [[2.4501892, 48.8332859], [2.4508677, 48.8332055]]}}, {"type": "Feature", "properties": {"highway": "service", "footway": null, "name": null, "surface": null, "lit": null, "length_m": 43.12, "type_element": "Way", "__fid": 123090}, "geometry": {"type": "LineString", "coordinates": [[2.4507103, 48.8331208], [2.4502757, 48.83285990000001]]}}, {"type": "Feature", "properties": {"highway": "service", "footway": null, "name": null, "surface": null, "lit": null, "length_m": 4.03, "type_element": "Way", "__fid": 123091}, "geometry": {"type": "LineString", "coordinates": [[2.4502757, 48.83285990000001], [2.4503128, 48.8328332]]}}, {"type": "Feature", "properties": {"highway": "footway", "footway": null, "name": null, "surface": null, "lit": null, "length_m": 152.55, "type_element": "Way", "__fid": 123095}, "geometry": {"type": "LineString", "coordinates": [[2.4521003, 48.8334555], [2.4518126, 48.833422], [2.4517067, 48.833399], [2.4516168, 48.8333685], [2.4513211, 48.83320350000001], [2.4512393, 48.8331792], [2.4509456, 48.8331554], [2.4506452, 48.8330229], [2.4503128, 48.8328332]]}}, {"type": "Feature", "properties": {"highway": "service", "footway": null, "name": null, "surface": null, "lit": null, "length_m": 30.58, "type_element": "Way", "__fid": 123096}, "geometry": {"type": "LineString", "coordinates": [[2.4503128, 48.8328332], [2.4505943, 48.8326305]]}}, {"type": "Feature", "properties": {"highway": "service", "footway": null, "name": null, "surface": null, "lit": null, "length_m": 13.78, "type_element": "Way", "__fid": 123103}, "geometry": {"type": "LineString", "coordinates": [[2.4505943, 48.8326305], [2.450455, 48.83254740000001]]}}, {"type": "Feature", "properties": {"highway": "service", "footway": null, "name": null, "surface": null, "lit": null, "length_m": 48.37, "type_element": "Way", "__fid": 123104}, "geometry": {"type": "LineString", "coordinates": [[2.450455, 48.83254740000001], [2.4508169, 48.8322827], [2.4507304, 48.8322289]]}}, {"type": "Feature", "properties": {"highway": "path", "footway": null, "name": null, "surface": "compacted", "lit": "yes", "length_m": 168.93, "type_element": "Way", "__fid": 123107}, "geometry": {"type": "LineString", "coordinates": [[2.4526338, 48.8354278], [2.4524336, 48.8353905], [2.4522693, 48.8353124], [2.451932, 48.835259], [2.4516635, 48.8351841], [2.4514998, 48.8351227], [2.4512125, 48.8349597], [2.4510203, 48.8349131], [2.4505587, 48.8348247]]}}, {"type": "Feature", "properties": {"highway": "service", "footway": null, "name": null, "surface": null, "lit": null, "length_m": 20.58, "type_element": "Way", "__fid": 123108}, "geometry": {"type": "LineString", "coordinates": [[2.4505943, 48.8326305], [2.4507839, 48.8324941]]}}, {"type": "Feature", "properties": {"highway": "footway", "footway": null, "name": null, "surface": null, "lit": null, "length_m": 17.34, "type_element": "Way", "__fid": 123109}, "geometry": {"type": "LineString", "coordinates": [[2.4506264, 48.8309369], [2.4508028, 48.83104059999999]]}}, {"type": "Feature", "properties": {"highway": "steps", "footway": null, "name": null, "surface": null, "lit": null, "length_m": 3.48, "type_element": "Way", "__fid": 123110}, "geometry": {"type": "LineString", "coordinates": [[2.4506264, 48.8309369], [2.4506594, 48.83091440000001]]}}, {"type": "Feature", "properties": {"highway": "footway", "footway": null, "name": null, "surface": null, "lit": null, "length_m": 1.29, "type_element": "Way", "__fid": 123115}, "geometry": {"type": "LineString", "coordinates": [[2.4506716, 48.8309061], [2.4506594, 48.83091440000001]]}}, {"type": "Feature", "properties": {"highway": "steps", "footway": null, "name": null, "surface": null, "lit": null, "length_m": 5.28, "type_element": "Way", "__fid": 123116}, "geometry": {"type": "LineString", "coordinates": [[2.4506716, 48.8309061], [2.4507217, 48.830872]]}}, {"type": "Feature", "properties": {"highway": "footway", "footway": null, "name": null, "surface": null, "lit": null, "length_m": 4.92, "type_element": "Way", "__fid": 123122}, "geometry": {"type": "LineString", "coordinates": [[2.4507684, 48.8308403], [2.4507217, 48.830872]]}}, {"type": "Feature", "properties": {"highway": "service", "footway": null, "name": null, "surface": null, "lit": null, "length_m": 14.91, "type_element": "Way", "__fid": 123123}, "geometry": {"type": "LineString", "coordinates": [[2.4508677, 48.8332055], [2.4507103, 48.8331208]]}}, {"type": "Feature", "properties": {"highway": "footway", "footway": null, "name": null, "surface": null, "lit": null, "length_m": 20.09, "type_element": "Way", "__fid": 123124}, "geometry": {"type": "LineString", "coordinates": [[2.4507839, 48.8324941], [2.4509912, 48.832612]]}}, {"type": "Feature", "properties": {"highway": "service", "footway": null, "name": null, "surface": null, "lit": null, "length_m": 23.11, "type_element": "Way", "__fid": 123125}, "geometry": {"type": "LineString", "coordinates": [[2.4507839, 48.8324941], [2.4509967, 48.8323409]]}}, {"type": "Feature", "properties": {"highway": "service", "footway": null, "name": null, "surface": null, "lit": null, "length_m": 8.95, "type_element": "Way", "__fid": 123126}, "geometry": {"type": "LineString", "coordinates": [[2.4508996, 48.83108949999998], [2.4508028, 48.83104059999999]]}}, {"type": "Feature", "properties": {"highway": "footway", "footway": null, "name": null, "surface": null, "lit": null, "length_m": 82.21, "type_element": "Way", "__fid": 123127}, "geometry": {"type": "LineString", "coordinates": [[2.4508028, 48.83104059999999], [2.4514686, 48.8305555], [2.4515647, 48.8306116]]}}, {"type": "Feature", "properties": {"highway": "service", "footway": null, "name": null, "surface": null, "lit": null, "length_m": 89.21, "type_element": "Way", "__fid": 123135}, "geometry": {"type": "LineString", "coordinates": [[2.4517593, 48.83375070000001], [2.4508677, 48.8332055]]}}, {"type": "Feature", "properties": {"highway": "footway", "footway": null, "name": null, "surface": null, "lit": null, "length_m": 11.4, "type_element": "Way", "__fid": 123136}, "geometry": {"type": "LineString", "coordinates": [[2.450896, 48.8333063], [2.4508677, 48.8332055]]}}, {"type": "Feature", "properties": {"highway": "path", "footway": null, "name": null, "surface": "compacted", "lit": "no", "length_m": 176.18, "type_element": "Way", "__fid": 123137}, "geometry": {"type": "LineString", "coordinates": [[2.450848, 48.8351544], [2.4509758, 48.8352012], [2.4510891, 48.8352824], [2.4527427, 48.8358173], [2.4529761, 48.83586709999999]]}}, {"type": "Feature", "properties": {"highway": "service", "footway": null, "name": null, "surface": null, "lit": null, "length_m": 99.3, "type_element": "Way", "__fid": 123138}, "geometry": {"type": "LineString", "coordinates": [[2.4519062, 48.8316861], [2.4508996, 48.83108949999998]]}}, {"type": "Feature", "properties": {"highway": "service", "footway": null, "name": null, "surface": null, "lit": null, "length_m": 72.16, "type_element": "Way", "__fid": 123139}, "geometry": {"type": "LineString", "coordinates": [[2.4508996, 48.83108949999998], [2.4515647, 48.8306116]]}}, {"type": "Feature", "properties": {"highway": "footway", "footway": null, "name": null, "surface": null, "lit": null, "length_m": 13.83, "type_element": "Way", "__fid": 123142}, "geometry": {"type": "LineString", "coordinates": [[2.450896, 48.8333063], [2.4509302, 48.8334286]]}}, {"type": "Feature", "properties": {"highway": "footway", "footway": null, "name": null, "surface": null, "lit": null, "length_m": 170.42, "type_element": "Way", "__fid": 123143}, "geometry": {"type": "LineString", "coordinates": [[2.4510958, 48.8340421], [2.4505124, 48.8341145], [2.4503113, 48.8333783], [2.450896, 48.8333063]]}}, {"type": "Feature", "properties": {"highway": "service", "footway": null, "name": null, "surface": null, "lit": null, "length_m": 2.82, "type_element": "Way", "__fid": 123144}, "geometry": {"type": "LineString", "coordinates": [[2.45089, 48.83439790000001], [2.4509155, 48.8343789]]}}, {"type": "Feature", "properties": {"highway": "service", "footway": null, "name": null, "surface": null, "lit": null, "length_m": 100.3, "type_element": "Way", "__fid": 123146}, "geometry": {"type": "LineString", "coordinates": [[2.4515107, 48.833935799999985], [2.4516879, 48.8340478], [2.4510831, 48.8344813], [2.4509155, 48.8343789]]}}, {"type": "Feature", "properties": {"highway": "service", "footway": null, "name": null, "surface": null, "lit": null, "length_m": 36.84, "type_element": "Way", "__fid": 123147}, "geometry": {"type": "LineString", "coordinates": [[2.4509155, 48.8343789], [2.4512484, 48.834131]]}}, {"type": "Feature", "properties": {"highway": "service", "footway": null, "name": null, "surface": null, "lit": null, "length_m": 18.12, "type_element": "Way", "__fid": 123150}, "geometry": {"type": "LineString", "coordinates": [[2.4509967, 48.8323409], [2.4511635, 48.8322208]]}}, {"type": "Feature", "properties": {"highway": "footway", "footway": null, "name": null, "surface": null, "lit": null, "length_m": 35.35, "type_element": "Way", "__fid": 123152}, "geometry": {"type": "LineString", "coordinates": [[2.4510147, 48.8337287], [2.4510958, 48.8340421]]}}, {"type": "Feature", "properties": {"highway": "service", "footway": null, "name": null, "surface": null, "lit": null, "length_m": 38.52, "type_element": "Way", "__fid": 123155}, "geometry": {"type": "LineString", "coordinates": [[2.4512011, 48.8310017], [2.4511595, 48.8310322], [2.4512105, 48.83105960000001], [2.451195, 48.8310733], [2.4511176, 48.8310379], [2.4510958, 48.8310366], [2.4510426, 48.8310485], [2.4510191, 48.831069599999985], [2.4510172, 48.8311074], [2.4510824, 48.8311589]]}}, {"type": "Feature", "properties": {"highway": "footway", "footway": null, "name": null, "surface": null, "lit": null, "length_m": 14.94, "type_element": "Way", "__fid": 123156}, "geometry": {"type": "LineString", "coordinates": [[2.4512484, 48.834131], [2.4510958, 48.8340421]]}}, {"type": "Feature", "properties": {"highway": "service", "footway": null, "name": null, "surface": null, "lit": null, "length_m": 22.45, "type_element": "Way", "__fid": 123159}, "geometry": {"type": "LineString", "coordinates": [[2.4511635, 48.8322208], [2.451384, 48.83236070000001]]}}, {"type": "Feature", "properties": {"highway": "service", "footway": null, "name": null, "surface": null, "lit": null, "length_m": 59.17, "type_element": "Way", "__fid": 123160}, "geometry": {"type": "LineString", "coordinates": [[2.4511635, 48.8322208], [2.4514841, 48.8320183], [2.4517069, 48.8318296]]}}, {"type": "Feature", "properties": {"highway": "service", "footway": null, "name": null, "surface": null, "lit": null, "length_m": 17.95, "type_element": "Way", "__fid": 123163}, "geometry": {"type": "LineString", "coordinates": [[2.4512011, 48.8310017], [2.451379, 48.8311125]]}}, {"type": "Feature", "properties": {"highway": "service", "footway": null, "name": null, "surface": null, "lit": null, "length_m": 55.87, "type_element": "Way", "__fid": 123164}, "geometry": {"type": "LineString", "coordinates": [[2.4517143, 48.8306307], [2.4512011, 48.8310017]]}}, {"type": "Feature", "properties": {"highway": "service", "footway": null, "name": null, "surface": null, "lit": null, "length_m": 15.7, "type_element": "Way", "__fid": 123166}, "geometry": {"type": "LineString", "coordinates": [[2.4512346, 48.8312167], [2.451379, 48.8311125]]}}, {"type": "Feature", "properties": {"highway": "service", "footway": null, "name": null, "surface": null, "lit": null, "length_m": 29.01, "type_element": "Way", "__fid": 123172}, "geometry": {"type": "LineString", "coordinates": [[2.4512484, 48.834131], [2.4515107, 48.833935799999985]]}}, {"type": "Feature", "properties": {"highway": "service", "footway": null, "name": null, "surface": "asphalt", "lit": null, "length_m": 77.69, "type_element": "Way", "__fid": 123173}, "geometry": {"type": "LineString", "coordinates": [[2.4513245, 48.8294921], [2.451653, 48.8296033], [2.4516971, 48.829659], [2.4521355, 48.8299236]]}}, {"type": "Feature", "properties": {"highway": "service", "footway": null, "name": null, "surface": null, "lit": null, "length_m": 56.01, "type_element": "Way", "__fid": 123177}, "geometry": {"type": "LineString", "coordinates": [[2.451379, 48.8311125], [2.4518939, 48.8307408]]}}, {"type": "Feature", "properties": {"highway": "service", "footway": null, "name": null, "surface": null, "lit": null, "length_m": 27.51, "type_element": "Way", "__fid": 123183}, "geometry": {"type": "LineString", "coordinates": [[2.4515107, 48.833935799999985], [2.4517593, 48.83375070000001]]}}, {"type": "Feature", "properties": {"highway": "service", "footway": null, "name": null, "surface": null, "lit": null, "length_m": 5.86, "type_element": "Way", "__fid": 123184}, "geometry": {"type": "LineString", "coordinates": [[2.4515647, 48.8306116], [2.4516187, 48.8305728]]}}, {"type": "Feature", "properties": {"highway": "service", "footway": null, "name": null, "surface": null, "lit": null, "length_m": 9.52, "type_element": "Way", "__fid": 123185}, "geometry": {"type": "LineString", "coordinates": [[2.4516187, 48.8305728], [2.4517143, 48.8306307]]}}, {"type": "Feature", "properties": {"highway": "footway", "footway": null, "name": null, "surface": null, "lit": null, "length_m": 91.33, "type_element": "Way", "__fid": 123186}, "geometry": {"type": "LineString", "coordinates": [[2.4516187, 48.8305728], [2.4515323, 48.8304738], [2.4515122, 48.83042219999999], [2.4515256, 48.83037359999999], [2.4515478, 48.8303489], [2.4521355, 48.8299236]]}}, {"type": "Feature", "properties": {"highway": "footway", "footway": null, "name": null, "surface": null, "lit": null, "length_m": 15.91, "type_element": "Way", "__fid": 123187}, "geometry": {"type": "LineString", "coordinates": [[2.4517415, 48.8338199], [2.451594, 48.8339247]]}}, {"type": "Feature", "properties": {"highway": "service", "footway": null, "name": null, "surface": null, "lit": null, "length_m": 17.99, "type_element": "Way", "__fid": 123190}, "geometry": {"type": "LineString", "coordinates": [[2.4517143, 48.8306307], [2.4518939, 48.8307408]]}}, {"type": "Feature", "properties": {"highway": "footway", "footway": null, "name": null, "surface": null, "lit": null, "length_m": 64.92, "type_element": "Way", "__fid": 123193}, "geometry": {"type": "LineString", "coordinates": [[2.4523213, 48.8316641], [2.4519222, 48.8319563], [2.4517069, 48.8318296]]}}, {"type": "Feature", "properties": {"highway": "service", "footway": null, "name": null, "surface": null, "lit": null, "length_m": 21.65, "type_element": "Way", "__fid": 123194}, "geometry": {"type": "LineString", "coordinates": [[2.4517069, 48.8318296], [2.4519062, 48.8316861]]}}, {"type": "Feature", "properties": {"highway": "footway", "footway": null, "name": null, "surface": null, "lit": null, "length_m": 37.99, "type_element": "Way", "__fid": 123195}, "geometry": {"type": "LineString", "coordinates": [[2.4521003, 48.8334555], [2.4517764, 48.83368990000001], [2.4517409, 48.8336965]]}}, {"type": "Feature", "properties": {"highway": "footway", "footway": null, "name": null, "surface": null, "lit": null, "length_m": 50.77, "type_element": "Way", "__fid": 123196}, "geometry": {"type": "LineString", "coordinates": [[2.4517415, 48.8338199], [2.452226, 48.8341458]]}}, {"type": "Feature", "properties": {"highway": "footway", "footway": null, "name": null, "surface": null, "lit": null, "length_m": 48.16, "type_element": "Way", "__fid": 123197}, "geometry": {"type": "LineString", "coordinates": [[2.4521821, 48.833499], [2.4517415, 48.8338199]]}}, {"type": "Feature", "properties": {"highway": "service", "footway": null, "name": null, "surface": "asphalt", "lit": null, "length_m": 41.6, "type_element": "Way", "__fid": 123198}, "geometry": {"type": "LineString", "coordinates": [[2.4521587, 48.8299987], [2.4517845, 48.8302796]]}}, {"type": "Feature", "properties": {"highway": "service", "footway": null, "name": null, "surface": null, "lit": null, "length_m": 114.6, "type_element": "Way", "__fid": 123199}, "geometry": {"type": "LineString", "coordinates": [[2.4517593, 48.83375070000001], [2.4528206, 48.8329948]]}}, {"type": "Feature", "properties": {"highway": "service", "footway": null, "name": null, "surface": null, "lit": null, "length_m": 71.1, "type_element": "Way", "__fid": 123205}, "geometry": {"type": "LineString", "coordinates": [[2.4518939, 48.8307408], [2.4526065, 48.8311739]]}}, {"type": "Feature", "properties": {"highway": "service", "footway": null, "name": null, "surface": null, "lit": null, "length_m": 22.23, "type_element": "Way", "__fid": 123206}, "geometry": {"type": "LineString", "coordinates": [[2.4519062, 48.8316861], [2.4521091, 48.83153770000001]]}}, {"type": "Feature", "properties": {"highway": "service", "footway": null, "name": null, "surface": null, "lit": null, "length_m": 53.43, "type_element": "Way", "__fid": 123210}, "geometry": {"type": "LineString", "coordinates": [[2.452498, 48.834655], [2.4519648, 48.8343279]]}}, {"type": "Feature", "properties": {"highway": "service", "footway": null, "name": null, "surface": null, "lit": null, "length_m": 102.02, "type_element": "Way", "__fid": 123211}, "geometry": {"type": "LineString", "coordinates": [[2.4519648, 48.8343279], [2.4519555, 48.8343222], [2.4515262, 48.8346253], [2.4520745, 48.83496169999998]]}}, {"type": "Feature", "properties": {"highway": "footway", "footway": null, "name": null, "surface": null, "lit": null, "length_m": 27.89, "type_element": "Way", "__fid": 123212}, "geometry": {"type": "LineString", "coordinates": [[2.452226, 48.8341458], [2.4519648, 48.8343279]]}}, {"type": "Feature", "properties": {"highway": "footway", "footway": null, "name": null, "surface": null, "lit": null, "length_m": 20.98, "type_element": "Way", "__fid": 123215}, "geometry": {"type": "LineString", "coordinates": [[2.4523213, 48.8316641], [2.4521091, 48.83153770000001]]}}, {"type": "Feature", "properties": {"highway": "service", "footway": null, "name": null, "surface": null, "lit": null, "length_m": 48.59, "type_element": "Way", "__fid": 123216}, "geometry": {"type": "LineString", "coordinates": [[2.4521091, 48.83153770000001], [2.4525526, 48.83121329999999]]}}, {"type": "Feature", "properties": {"highway": "service", "footway": null, "name": null, "surface": null, "lit": null, "length_m": 114.76, "type_element": "Way", "__fid": 123217}, "geometry": {"type": "LineString", "coordinates": [[2.4530396, 48.83479040000001], [2.4524675, 48.83519579999999], [2.4524289, 48.83519759999999], [2.4519776, 48.835069200000014], [2.4519762, 48.83505419999999], [2.4520745, 48.83496169999998]]}}, {"type": "Feature", "properties": {"highway": "service", "footway": null, "name": null, "surface": null, "lit": null, "length_m": 46.15, "type_element": "Way", "__fid": 123218}, "geometry": {"type": "LineString", "coordinates": [[2.452498, 48.834655], [2.4520745, 48.83496169999998]]}}, {"type": "Feature", "properties": {"highway": "service", "footway": null, "name": null, "surface": "asphalt", "lit": null, "length_m": 9.36, "type_element": "Way", "__fid": 123219}, "geometry": {"type": "LineString", "coordinates": [[2.4521355, 48.8299236], [2.4521614, 48.8299393], [2.4521702, 48.829971], [2.4521587, 48.8299987]]}}, {"type": "Feature", "properties": {"highway": "footway", "footway": null, "name": null, "surface": null, "lit": null, "length_m": 9.76, "type_element": "Way", "__fid": 123220}, "geometry": {"type": "LineString", "coordinates": [[2.4521928, 48.8333924], [2.4521003, 48.8334555]]}}, {"type": "Feature", "properties": {"highway": "service", "footway": null, "name": null, "surface": "asphalt", "lit": null, "length_m": 24.56, "type_element": "Way", "__fid": 123222}, "geometry": {"type": "LineString", "coordinates": [[2.4523813, 48.82983380000002], [2.4521587, 48.8299987]]}}, {"type": "Feature", "properties": {"highway": "footway", "footway": null, "name": null, "surface": null, "lit": null, "length_m": 124.08, "type_element": "Way", "__fid": 123224}, "geometry": {"type": "LineString", "coordinates": [[2.4533978, 48.8335976], [2.4529083, 48.8339355], [2.4521821, 48.833499]]}}, {"type": "Feature", "properties": {"highway": "footway", "footway": null, "name": null, "surface": null, "lit": null, "length_m": 140.98, "type_element": "Way", "__fid": 123225}, "geometry": {"type": "LineString", "coordinates": [[2.4535608, 48.8334829], [2.4528648, 48.8330644], [2.4528177, 48.833053800000016], [2.4527825, 48.833065], [2.4521821, 48.833499]]}}, {"type": "Feature", "properties": {"highway": "footway", "footway": null, "name": null, "surface": null, "lit": null, "length_m": 15.69, "type_element": "Way", "__fid": 123226}, "geometry": {"type": "LineString", "coordinates": [[2.4521928, 48.8333924], [2.4521858, 48.8332514]]}}, {"type": "Feature", "properties": {"highway": "footway", "footway": null, "name": null, "surface": null, "lit": null, "length_m": 147.87, "type_element": "Way", "__fid": 123230}, "geometry": {"type": "LineString", "coordinates": [[2.4535487, 48.8324089], [2.4521928, 48.8333924]]}}, {"type": "Feature", "properties": {"highway": "path", "footway": null, "name": null, "surface": null, "lit": null, "length_m": 499.38, "type_element": "Way", "__fid": 123231}, "geometry": {"type": "LineString", "coordinates": [[2.4572651, 48.8322342], [2.4571422, 48.83202979999999], [2.4569542, 48.8318869], [2.4565764, 48.831690400000014], [2.4562973, 48.8315663], [2.4561106, 48.8314449], [2.4554028, 48.8311099], [2.4549319, 48.83082730000001], [2.4547282, 48.83066320000002], [2.4541354, 48.8302588], [2.4537411, 48.830107], [2.4534515, 48.82994460000002], [2.4529038, 48.8294731], [2.4524121, 48.829373300000015], [2.4522732, 48.829307]]}}, {"type": "Feature", "properties": {"highway": "footway", "footway": null, "name": null, "surface": null, "lit": null, "length_m": 22.08, "type_element": "Way", "__fid": 123233}, "geometry": {"type": "LineString", "coordinates": [[2.452226, 48.8341458], [2.4524443, 48.83428240000001]]}}, {"type": "Feature", "properties": {"highway": "footway", "footway": null, "name": null, "surface": null, "lit": null, "length_m": 70.94, "type_element": "Way", "__fid": 123236}, "geometry": {"type": "LineString", "coordinates": [[2.453146, 48.8318807], [2.4530981, 48.83185319999998], [2.4529894, 48.83181350000001], [2.4528506, 48.8317738], [2.4525784, 48.8317482], [2.4523745, 48.8316267], [2.4523213, 48.8316641]]}}]}