{"type": "FeatureCollection", "features": [{"type": "Feature", "geometry": {"type": "Point", "coordinates": [2.451716, 48.829211]}, "properties": {"id": 1796, "name": "Arboretum de Paris", "categorie": "Parcs, jardins et bois", "photo_url": "https://cdn.paris.fr/eqpts-prod/2022/05/10/4e05d9c56b116be3b6f7c0a66b21171b.jpg", "photo_credit": "Sonia Yassa/ Ville de Paris", "photo_alt": null, "address_street": "50, route de la Pyramide", "address_postcode": "75012", "address_city": "PARIS", "phone": null, "accessibility": "{\"handicaps\": [{\"name\": \"Personnes à mobilité réduite\", \"status\": \"accessible\"}, {\"name\": \"Personnes déficientes visuelles\", \"status\": \"undefined\"}, {\"name\": \"Personnes déficientes auditives\", \"status\": \"undefined\"}, {\"name\": \"Personnes déficientes mentales\", \"status\": \"undefined\"}, {\"name\": \"Accueil en langue des signes\", \"status\": \"undefined\"}]}", "latitude": 48.829211, "longitude": 2.451716, "url": "https://www.paris.fr/lieux/arboretum-de-paris-1796", "type_element": "Parcs, Jardins et Bois", "__fid": 1215}}, {"type": "Feature", "properties": {"highway": "path", "footway": null, "name": "Route Saint-Hubert", "surface": "ground", "lit": null, "length_m": 230.79, "type_element": "Way", "__fid": 121957}, "geometry": {"type": "LineString", "coordinates": [[2.4434386, 48.8276795], [2.4403081, 48.8278694]]}}, {"type": "Feature", "properties": {"highway": "track", "footway": null, "name": "Route de la Belle-Étoile", "surface": null, "lit": null, "length_m": 227.93, "type_element": "Way", "__fid": 121993}, "geometry": {"type": "LineString", "coordinates": [[2.4434529, 48.827599699999986], [2.4422961, 48.827193499999986], [2.4419387, 48.8270527], [2.4413446, 48.8268404], [2.4409852, 48.8266461], [2.4407814, 48.82656460000001]]}}, {"type": "Feature", "properties": {"highway": "path", "footway": null, "name": null, "surface": null, "lit": null, "length_m": 81.64, "type_element": "Way", "__fid": 122233}, "geometry": {"type": "LineString", "coordinates": [[2.4440295, 48.8238196], [2.4429183, 48.82384620000001]]}}, {"type": "Feature", "properties": {"highway": "service", "footway": null, "name": "Route de Bourbon", "surface": "asphalt", "lit": "no", "length_m": 297.72, "type_element": "Way", "__fid": 122263}, "geometry": {"type": "LineString", "coordinates": [[2.4437285, 48.8274521], [2.4431486, 48.8248021]]}}, {"type": "Feature", "properties": {"highway": "track", "footway": null, "name": "Avenue des Tribunes", "surface": "compacted", "lit": null, "length_m": 59.93, "type_element": "Way", "__fid": 122264}, "geometry": {"type": "LineString", "coordinates": [[2.4431486, 48.8248021], [2.4439606, 48.8247466]]}}, {"type": "Feature", "properties": {"highway": "path", "footway": null, "name": null, "surface": null, "lit": null, "length_m": 46.57, "type_element": "Way", "__fid": 122312}, "geometry": {"type": "LineString", "coordinates": [[2.4438315, 48.82798479999999], [2.443734, 48.82795759999998], [2.4437066, 48.8278926], [2.4435887, 48.8278316], [2.4435049, 48.8277647], [2.4434386, 48.8276795]]}}, {"type": "Feature", "properties": {"highway": "path", "footway": null, "name": null, "surface": null, "lit": null, "length_m": 9.1, "type_element": "Way", "__fid": 122313}, "geometry": {"type": "LineString", "coordinates": [[2.4434386, 48.8276795], [2.4434395, 48.8276183], [2.4434529, 48.827599699999986]]}}, {"type": "Feature", "properties": {"highway": "path", "footway": null, "name": null, "surface": "ground", "lit": null, "length_m": 25.4, "type_element": "Way", "__fid": 122314}, "geometry": {"type": "LineString", "coordinates": [[2.4434386, 48.8276795], [2.4435608, 48.8276487], [2.443716, 48.8276465], [2.4437695, 48.82766440000001]]}}, {"type": "Feature", "properties": {"highway": "path", "footway": null, "name": null, "surface": null, "lit": null, "length_m": 27.18, "type_element": "Way", "__fid": 122318}, "geometry": {"type": "LineString", "coordinates": [[2.4434529, 48.827599699999986], [2.443536, 48.827517600000014], [2.4436403, 48.8274667], [2.4437285, 48.8274521]]}}, {"type": "Feature", "properties": {"highway": "service", "footway": null, "name": "Route de Bourbon", "surface": "asphalt", "lit": "no", "length_m": 23.8, "type_element": "Way", "__fid": 122352}, "geometry": {"type": "LineString", "coordinates": [[2.4437695, 48.82766440000001], [2.4437285, 48.8274521]]}}, {"type": "Feature", "properties": {"highway": "path", "footway": null, "name": null, "surface": null, "lit": null, "length_m": 20.29, "type_element": "Way", "__fid": 122353}, "geometry": {"type": "LineString", "coordinates": [[2.4437285, 48.8274521], [2.4437979, 48.8274401], [2.4439188, 48.8275491]]}}, {"type": "Feature", "properties": {"highway": "service", "footway": null, "name": "Route de Bourbon", "surface": "asphalt", "lit": "no", "length_m": 35.92, "type_element": "Way", "__fid": 122357}, "geometry": {"type": "LineString", "coordinates": [[2.4438315, 48.82798479999999], [2.4437695, 48.82766440000001]]}}, {"type": "Feature", "properties": {"highway": "service", "footway": null, "name": "Route Saint-Hubert", "surface": "asphalt", "lit": null, "length_m": 24.22, "type_element": "Way", "__fid": 122358}, "geometry": {"type": "LineString", "coordinates": [[2.4440972, 48.82763910000001], [2.4437695, 48.82766440000001]]}}, {"type": "Feature", "properties": {"highway": "service", "footway": null, "name": "Route de Bourbon", "surface": "asphalt", "lit": "no", "length_m": 185.75, "type_element": "Way", "__fid": 122369}, "geometry": {"type": "LineString", "coordinates": [[2.444229, 48.8296346], [2.4438315, 48.82798479999999]]}}, {"type": "Feature", "properties": {"highway": "path", "footway": null, "name": null, "surface": null, "lit": null, "length_m": 10.36, "type_element": "Way", "__fid": 122370}, "geometry": {"type": "LineString", "coordinates": [[2.4439693, 48.8279647], [2.4438315, 48.82798479999999]]}}, {"type": "Feature", "properties": {"highway": "path", "footway": null, "name": null, "surface": null, "lit": null, "length_m": 16.48, "type_element": "Way", "__fid": 122380}, "geometry": {"type": "LineString", "coordinates": [[2.4439188, 48.8275491], [2.4440972, 48.82763910000001]]}}, {"type": "Feature", "properties": {"highway": "path", "footway": null, "name": null, "surface": null, "lit": null, "length_m": 167.7, "type_element": "Way", "__fid": 122381}, "geometry": {"type": "LineString", "coordinates": [[2.4453933, 48.8263972], [2.4439188, 48.8275491]]}}, {"type": "Feature", "properties": {"highway": "path", "footway": null, "name": null, "surface": null, "lit": null, "length_m": 214.67, "type_element": "Way", "__fid": 122382}, "geometry": {"type": "LineString", "coordinates": [[2.4439606, 48.8247466], [2.4442992, 48.8251933], [2.4448797, 48.8256034], [2.4452053, 48.826223100000014], [2.4453933, 48.8263972]]}}, {"type": "Feature", "properties": {"highway": "track", "footway": null, "name": "Avenue des Tribunes", "surface": "compacted", "lit": null, "length_m": 15.97, "type_element": "Way", "__fid": 122383}, "geometry": {"type": "LineString", "coordinates": [[2.4439606, 48.8247466], [2.4441776, 48.8247362]]}}, {"type": "Feature", "properties": {"highway": "path", "footway": null, "name": null, "surface": null, "lit": null, "length_m": 27.14, "type_element": "Way", "__fid": 122388}, "geometry": {"type": "LineString", "coordinates": [[2.4441529, 48.827759499999985], [2.4439719, 48.8279241], [2.4439693, 48.8279647]]}}, {"type": "Feature", "properties": {"highway": "path", "footway": null, "name": null, "surface": null, "lit": null, "length_m": 238.76, "type_element": "Way", "__fid": 122389}, "geometry": {"type": "LineString", "coordinates": [[2.4471828, 48.8277985], [2.4468781, 48.8278196], [2.4463328, 48.8277852], [2.445667, 48.8278199], [2.4449088, 48.8279387], [2.4442794, 48.8279119], [2.4439693, 48.8279647]]}}, {"type": "Feature", "properties": {"highway": "track", "footway": null, "name": null, "surface": null, "lit": null, "length_m": 102.5, "type_element": "Way", "__fid": 122390}, "geometry": {"type": "LineString", "coordinates": [[2.4441776, 48.8247362], [2.4440295, 48.8238196]]}}, {"type": "Feature", "properties": {"highway": "track", "footway": null, "name": null, "surface": null, "lit": null, "length_m": 23.49, "type_element": "Way", "__fid": 122391}, "geometry": {"type": "LineString", "coordinates": [[2.4440295, 48.8238196], [2.4440411, 48.823608499999985]]}}, {"type": "Feature", "properties": {"highway": "path", "footway": null, "name": null, "surface": null, "lit": null, "length_m": 14.0, "type_element": "Way", "__fid": 122392}, "geometry": {"type": "LineString", "coordinates": [[2.4441529, 48.827759499999985], [2.4440972, 48.82763910000001]]}}, {"type": "Feature", "properties": {"highway": "service", "footway": null, "name": "Route Saint-Hubert", "surface": "asphalt", "lit": null, "length_m": 175.18, "type_element": "Way", "__fid": 122393}, "geometry": {"type": "LineString", "coordinates": [[2.4464747, 48.827505], [2.4440972, 48.82763910000001]]}}, {"type": "Feature", "properties": {"highway": "track", "footway": null, "name": "Avenue des Tribunes", "surface": "compacted", "lit": null, "length_m": 149.19, "type_element": "Way", "__fid": 122396}, "geometry": {"type": "LineString", "coordinates": [[2.4441776, 48.8247362], [2.4462035, 48.8246322]]}}, {"type": "Feature", "properties": {"highway": "path", "footway": null, "name": null, "surface": null, "lit": null, "length_m": 182.12, "type_element": "Way", "__fid": 122397}, "geometry": {"type": "LineString", "coordinates": [[2.4466105, 48.82758290000001], [2.4442528, 48.8277241], [2.4441529, 48.827759499999985]]}}, {"type": "Feature", "properties": {"highway": "track", "footway": null, "name": null, "surface": null, "lit": null, "length_m": 69.92, "type_element": "Way", "__fid": 122495}, "geometry": {"type": "LineString", "coordinates": [[2.4460494, 48.8237172], [2.4455751, 48.8237532], [2.4451017, 48.8237784]]}}, {"type": "Feature", "properties": {"highway": "path", "footway": null, "name": null, "surface": null, "lit": null, "length_m": 152.57, "type_element": "Way", "__fid": 122540}, "geometry": {"type": "LineString", "coordinates": [[2.4453933, 48.8263972], [2.4455443, 48.826538], [2.4456858, 48.8266113], [2.4458132, 48.827039], [2.4460405, 48.827239], [2.4463972, 48.827425699999985], [2.4464747, 48.827505]]}}, {"type": "Feature", "properties": {"highway": "path", "footway": null, "name": null, "surface": null, "lit": null, "length_m": 101.68, "type_element": "Way", "__fid": 122541}, "geometry": {"type": "LineString", "coordinates": [[2.4463169, 48.8257246], [2.4461311, 48.825801], [2.4453933, 48.8263972]]}}, {"type": "Feature", "properties": {"highway": "path", "footway": null, "name": null, "surface": null, "lit": null, "length_m": 161.92, "type_element": "Way", "__fid": 122586}, "geometry": {"type": "LineString", "coordinates": [[2.4459099, 48.82226390000001], [2.4459998, 48.823115], [2.4460494, 48.8237172]]}}, {"type": "Feature", "properties": {"highway": "service", "footway": null, "name": "Route du Pesage", "surface": "asphalt", "lit": null, "length_m": 162.52, "type_element": "Way", "__fid": 122591}, "geometry": {"type": "LineString", "coordinates": [[2.4460019, 48.8222544], [2.4461128, 48.8237142]]}}, {"type": "Feature", "properties": {"highway": "track", "footway": null, "name": null, "surface": null, "lit": null, "length_m": 4.67, "type_element": "Way", "__fid": 122607}, "geometry": {"type": "LineString", "coordinates": [[2.4461128, 48.8237142], [2.4460494, 48.8237172]]}}, {"type": "Feature", "properties": {"highway": "service", "footway": null, "name": "Route du Pesage", "surface": "asphalt", "lit": null, "length_m": 3.75, "type_element": "Way", "__fid": 122614}, "geometry": {"type": "LineString", "coordinates": [[2.4461128, 48.8237142], [2.4461161, 48.8237479]]}}, {"type": "Feature", "properties": {"highway": "service", "footway": null, "name": "Route du Pesage", "surface": "asphalt", "lit": null, "length_m": 98.54, "type_element": "Way", "__fid": 122615}, "geometry": {"type": "LineString", "coordinates": [[2.4461161, 48.8237479], [2.4462035, 48.8246322]]}}, {"type": "Feature", "properties": {"highway": "service", "footway": null, "name": null, "surface": null, "lit": null, "length_m": 15.17, "type_element": "Way", "__fid": 122616}, "geometry": {"type": "LineString", "coordinates": [[2.4463221, 48.82373779999999], [2.4461161, 48.8237479]]}}, {"type": "Feature", "properties": {"highway": "service", "footway": null, "name": "Route du Pesage", "surface": "asphalt", "lit": null, "length_m": 121.75, "type_element": "Way", "__fid": 122628}, "geometry": {"type": "LineString", "coordinates": [[2.4462035, 48.8246322], [2.4463169, 48.8257246]]}}, {"type": "Feature", "properties": {"highway": "service", "footway": null, "name": null, "surface": null, "lit": null, "length_m": 372.69, "type_element": "Way", "__fid": 122643}, "geometry": {"type": "LineString", "coordinates": [[2.4463221, 48.82373779999999], [2.4464455, 48.824658700000015], [2.4465716, 48.8254674], [2.4467607, 48.8268015], [2.4467942, 48.826949], [2.4468438, 48.8270699]]}}, {"type": "Feature", "properties": {"highway": "service", "footway": null, "name": null, "surface": null, "lit": null, "length_m": 56.42, "type_element": "Way", "__fid": 122644}, "geometry": {"type": "LineString", "coordinates": [[2.4466413, 48.8234175], [2.4463262, 48.82345080000001], [2.4462806, 48.82350289999999], [2.4463221, 48.82373779999999]]}}, {"type": "Feature", "properties": {"highway": "service", "footway": null, "name": "Route du Pesage", "surface": "asphalt", "lit": null, "length_m": 198.51, "type_element": "Way", "__fid": 122649}, "geometry": {"type": "LineString", "coordinates": [[2.4463169, 48.8257246], [2.4464348, 48.8267512], [2.4464697, 48.8269808], [2.4465231, 48.8271936], [2.4465945, 48.8274146], [2.446604, 48.82749769999999]]}}, {"type": "Feature", "properties": {"highway": "path", "footway": null, "name": null, "surface": null, "lit": null, "length_m": 84.34, "type_element": "Way", "__fid": 122673}, "geometry": {"type": "LineString", "coordinates": [[2.4474052, 48.8296309], [2.4470282, 48.8294521], [2.4468351, 48.8293409], [2.4464108, 48.8293015]]}}, {"type": "Feature", "properties": {"highway": "path", "footway": null, "name": null, "surface": "dirt", "lit": null, "length_m": 109.22, "type_element": "Way", "__fid": 122674}, "geometry": {"type": "LineString", "coordinates": [[2.446781, 48.8301989], [2.4466768, 48.8301598], [2.4465557, 48.830078], [2.4464858, 48.829981], [2.4464108, 48.8293015]]}}, {"type": "Feature", "properties": {"highway": "path", "footway": null, "name": null, "surface": null, "lit": null, "length_m": 118.55, "type_element": "Way", "__fid": 122675}, "geometry": {"type": "LineString", "coordinates": [[2.4476048, 48.8286841], [2.447339, 48.8286866], [2.4471602, 48.8287517], [2.447011, 48.82888590000001], [2.4468931, 48.8289688], [2.4466167, 48.8291562], [2.4465801, 48.8291709], [2.4465455, 48.829199], [2.4464068, 48.8292648], [2.4464108, 48.8293015]]}}, {"type": "Feature", "properties": {"highway": "service", "footway": null, "name": "Route Saint-Hubert", "surface": "asphalt", "lit": null, "length_m": 9.53, "type_element": "Way", "__fid": 122687}, "geometry": {"type": "LineString", "coordinates": [[2.446604, 48.82749769999999], [2.4464747, 48.827505]]}}, {"type": "Feature", "properties": {"highway": "path", "footway": null, "name": null, "surface": null, "lit": null, "length_m": 540.82, "type_element": "Way", "__fid": 122694}, "geometry": {"type": "LineString", "coordinates": [[2.4464288, 48.8331245], [2.4473762, 48.83249330000001], [2.4489373, 48.8313262], [2.4513245, 48.8294921]]}}, {"type": "Feature", "properties": {"highway": "footway", "footway": null, "name": null, "surface": null, "lit": null, "length_m": 9.49, "type_element": "Way", "__fid": 122716}, "geometry": {"type": "LineString", "coordinates": [[2.4466105, 48.82758290000001], [2.446604, 48.82749769999999]]}}, {"type": "Feature", "properties": {"highway": "service", "footway": null, "name": "Route Saint-Hubert", "surface": "asphalt", "lit": null, "length_m": 15.81, "type_element": "Way", "__fid": 122717}, "geometry": {"type": "LineString", "coordinates": [[2.446604, 48.82749769999999], [2.4468185, 48.8274851]]}}, {"type": "Feature", "properties": {"highway": "path", "footway": null, "name": null, "surface": null, "lit": null, "length_m": 16.11, "type_element": "Way", "__fid": 122718}, "geometry": {"type": "LineString", "coordinates": [[2.4468289, 48.8275689], [2.4466105, 48.82758290000001]]}}, {"type": "Feature", "properties": {"highway": "footway", "footway": null, "name": null, "surface": null, "lit": null, "length_m": 9.35, "type_element": "Way", "__fid": 122741}, "geometry": {"type": "LineString", "coordinates": [[2.4468289, 48.8275689], [2.4468185, 48.8274851]]}}, {"type": "Feature", "properties": {"highway": "service", "footway": null, "name": "Route Saint-Hubert", "surface": "asphalt", "lit": null, "length_m": 532.09, "type_element": "Way", "__fid": 122742}, "geometry": {"type": "LineString", "coordinates": [[2.4468185, 48.8274851], [2.454038, 48.82706369999999]]}}, {"type": "Feature", "properties": {"highway": "footway", "footway": null, "name": null, "surface": null, "lit": null, "length_m": 39.55, "type_element": "Way", "__fid": 122744}, "geometry": {"type": "LineString", "coordinates": [[2.4471828, 48.8277985], [2.4468452, 48.8276632], [2.4468289, 48.8275689]]}}, {"type": "Feature", "properties": {"highway": "path", "footway": null, "name": null, "surface": null, "lit": null, "length_m": 211.7, "type_element": "Way", "__fid": 122745}, "geometry": {"type": "LineString", "coordinates": [[2.4497009, 48.8273977], [2.4468289, 48.8275689]]}}, {"type": "Feature", "properties": {"highway": "footway", "footway": null, "name": null, "surface": null, "lit": null, "length_m": 100.84, "type_element": "Way", "__fid": 122803}, "geometry": {"type": "LineString", "coordinates": [[2.4481904, 48.8284148], [2.4471828, 48.8277985]]}}, {"type": "Feature", "properties": {"highway": "path", "footway": null, "name": null, "surface": null, "lit": null, "length_m": 197.62, "type_element": "Way", "__fid": 122804}, "geometry": {"type": "LineString", "coordinates": [[2.4497107, 48.8274768], [2.4496584, 48.8275695], [2.449535, 48.8275513], [2.4492239, 48.827569], [2.4488255, 48.8276352], [2.4485868, 48.8277191], [2.448391, 48.8277341], [2.4482797, 48.827735], [2.4481456, 48.8277791], [2.4476199, 48.8277791], [2.4471828, 48.8277985]]}}, {"type": "Feature", "properties": {"highway": "footway", "footway": null, "name": null, "surface": "fine_gravel", "lit": null, "length_m": 165.11, "type_element": "Way", "__fid": 122858}, "geometry": {"type": "LineString", "coordinates": [[2.4488769, 48.82883480000003], [2.4473685, 48.8299362]]}}, {"type": "Feature", "properties": {"highway": "path", "footway": null, "name": null, "surface": null, "lit": null, "length_m": 5.89, "type_element": "Way", "__fid": 122859}, "geometry": {"type": "LineString", "coordinates": [[2.4474052, 48.8296309], [2.4474115, 48.8295781]]}}, {"type": "Feature", "properties": {"highway": "path", "footway": null, "name": null, "surface": null, "lit": null, "length_m": 103.03, "type_element": "Way", "__fid": 122862}, "geometry": {"type": "LineString", "coordinates": [[2.4474115, 48.8295781], [2.4474021, 48.8293002], [2.4474984, 48.8287554], [2.4476048, 48.8286841]]}}, {"type": "Feature", "properties": {"highway": "path", "footway": null, "name": null, "surface": null, "lit": null, "length_m": 134.48, "type_element": "Way", "__fid": 122863}, "geometry": {"type": "LineString", "coordinates": [[2.4474115, 48.8295781], [2.4475348, 48.82941919999998], [2.4485967, 48.8286634]]}}, {"type": "Feature", "properties": {"highway": "path", "footway": null, "name": null, "surface": null, "lit": null, "length_m": 52.67, "type_element": "Way", "__fid": 122895}, "geometry": {"type": "LineString", "coordinates": [[2.4476048, 48.8286841], [2.4477238, 48.82860440000001], [2.4481904, 48.8284148]]}}, {"type": "Feature", "properties": {"highway": "service", "footway": null, "name": null, "surface": null, "lit": null, "length_m": 587.48, "type_element": "Way", "__fid": 122920}, "geometry": {"type": "LineString", "coordinates": [[2.4479086, 48.823413], [2.4483121, 48.8237529], [2.4489093, 48.8241825], [2.4498319, 48.8247772], [2.4503177, 48.8250364], [2.4507922, 48.8252575], [2.4514271, 48.8255361], [2.4520612, 48.8257726], [2.4525045, 48.82591080000001], [2.4530191, 48.8260417], [2.4531786, 48.82607069999998], [2.4534375, 48.8260871], [2.4536628, 48.82608659999998], [2.4539121, 48.826047], [2.4540948, 48.8259984], [2.4543353, 48.82591450000001], [2.454384694748414, 48.825890335011806]]}}, {"type": "Feature", "properties": {"highway": "footway", "footway": null, "name": null, "surface": null, "lit": null, "length_m": 40.67, "type_element": "Way", "__fid": 122943}, "geometry": {"type": "LineString", "coordinates": [[2.4485967, 48.8286634], [2.4481904, 48.8284148]]}}, {"type": "Feature", "properties": {"highway": "footway", "footway": null, "name": null, "surface": null, "lit": null, "length_m": 28.04, "type_element": "Way", "__fid": 122977}, "geometry": {"type": "LineString", "coordinates": [[2.4488769, 48.82883480000003], [2.4485967, 48.8286634]]}}, {"type": "Feature", "properties": {"highway": "path", "footway": null, "name": null, "surface": null, "lit": null, "length_m": 82.79, "type_element": "Way", "__fid": 122978}, "geometry": {"type": "LineString", "coordinates": [[2.4485967, 48.8286634], [2.4489216, 48.82844810000001], [2.4493132, 48.8284534], [2.4495833, 48.82849]]}}, {"type": "Feature", "properties": {"highway": "footway", "footway": null, "name": null, "surface": null, "lit": null, "length_m": 14.51, "type_element": "Way", "__fid": 122995}, "geometry": {"type": "LineString", "coordinates": [[2.4490271, 48.8289196], [2.4488769, 48.82883480000003]]}}, {"type": "Feature", "properties": {"highway": "path", "footway": null, "name": "Route de la Pyramide", "surface": "asphalt", "lit": null, "length_m": 308.62, "type_element": "Way", "__fid": 123000}, "geometry": {"type": "LineString", "coordinates": [[2.4517125, 48.8289919], [2.451362, 48.8292365], [2.4509919, 48.8295111], [2.448938, 48.8310768]]}}, {"type": "Feature", "properties": {"highway": "footway", "footway": null, "name": null, "surface": null, "lit": null, "length_m": 114.32, "type_element": "Way", "__fid": 123002}, "geometry": {"type": "LineString", "coordinates": [[2.4503931, 48.8292448], [2.4499378, 48.8292586], [2.4497151, 48.8292603], [2.4496209, 48.829253], [2.449526, 48.8292241], [2.4490271, 48.8289196]]}}, {"type": "Feature", "properties": {"highway": "path", "footway": null, "name": null, "surface": null, "lit": null, "length_m": 62.84, "type_element": "Way", "__fid": 123003}, "geometry": {"type": "LineString", "coordinates": [[2.4490271, 48.8289196], [2.4495833, 48.82849]]}}, {"type": "Feature", "properties": {"highway": "service", "footway": null, "name": null, "surface": null, "lit": null, "length_m": 276.36, "type_element": "Way", "__fid": 123014}, "geometry": {"type": "LineString", "coordinates": [[2.452588136023782, 48.82382430880956], [2.4525444, 48.8238585], [2.4523381, 48.82398089999998], [2.4520365, 48.8240794], [2.4517554, 48.8241257], [2.45154, 48.8241421], [2.451209, 48.8241212], [2.4509165, 48.8240615], [2.4506648, 48.8239839], [2.4496329, 48.82364530000001], [2.4491861, 48.8234868]]}}, {"type": "Feature", "properties": {"highway": "path", "footway": null, "name": null, "surface": null, "lit": null, "length_m": 100.11, "type_element": "Way", "__fid": 123049}, "geometry": {"type": "LineString", "coordinates": [[2.4495833, 48.82849], [2.4503485, 48.8286758], [2.4507374, 48.82870229999999], [2.4508863, 48.8287359]]}}, {"type": "Feature", "properties": {"highway": "path", "footway": null, "name": null, "surface": null, "lit": null, "length_m": 8.82, "type_element": "Way", "__fid": 123054}, "geometry": {"type": "LineString", "coordinates": [[2.4497009, 48.8273977], [2.4497107, 48.8274768]]}}, {"type": "Feature", "properties": {"highway": "path", "footway": null, "name": null, "surface": null, "lit": null, "length_m": 87.41, "type_element": "Way", "__fid": 123055}, "geometry": {"type": "LineString", "coordinates": [[2.4508864, 48.8273251], [2.4497009, 48.8273977]]}}, {"type": "Feature", "properties": {"highway": "service", "footway": null, "name": null, "surface": null, "lit": null, "length_m": 223.84, "type_element": "Way", "__fid": 123056}, "geometry": {"type": "LineString", "coordinates": [[2.4524298, 48.8237204], [2.4521003, 48.8238717], [2.4517237, 48.8239702], [2.4514467, 48.8239957], [2.4510812, 48.823972], [2.4497381, 48.8235198], [2.4497452, 48.823462]]}}, {"type": "Feature", "properties": {"highway": "path", "footway": null, "name": null, "surface": null, "lit": null, "length_m": 88.44, "type_element": "Way", "__fid": 123058}, "geometry": {"type": "LineString", "coordinates": [[2.4508982, 48.82746069999999], [2.4503734, 48.8275338], [2.4497107, 48.8274768]]}}, {"type": "Feature", "properties": {"highway": "service", "footway": null, "name": null, "surface": null, "lit": null, "length_m": 301.93, "type_element": "Way", "__fid": 123073}, "geometry": {"type": "LineString", "coordinates": [[2.4501341, 48.8220813], [2.4505384, 48.8221743], [2.452632, 48.8229091], [2.4527372, 48.82305310000002], [2.4527067, 48.8232847], [2.4526347, 48.823456], [2.4524298, 48.8237204]]}}, {"type": "Feature", "properties": {"highway": "path", "footway": null, "name": null, "surface": null, "lit": null, "length_m": 69.88, "type_element": "Way", "__fid": 123099}, "geometry": {"type": "LineString", "coordinates": [[2.4508863, 48.8287359], [2.4503699, 48.8291695], [2.4503931, 48.8292448]]}}, {"type": "Feature", "properties": {"highway": "footway", "footway": null, "name": null, "surface": null, "lit": null, "length_m": 99.6, "type_element": "Way", "__fid": 123100}, "geometry": {"type": "LineString", "coordinates": [[2.4515539, 48.828917199999985], [2.4514277, 48.8289778], [2.4512769, 48.8291138], [2.4511907, 48.829172700000015], [2.4511089, 48.8292142], [2.45101, 48.8292268], [2.4503931, 48.8292448]]}}, {"type": "Feature", "properties": {"highway": "path", "footway": null, "name": null, "surface": null, "lit": null, "length_m": 15.1, "type_element": "Way", "__fid": 123130}, "geometry": {"type": "LineString", "coordinates": [[2.4508982, 48.82746069999999], [2.4508864, 48.8273251]]}}, {"type": "Feature", "properties": {"highway": "path", "footway": null, "name": null, "surface": null, "lit": null, "length_m": 226.58, "type_element": "Way", "__fid": 123131}, "geometry": {"type": "LineString", "coordinates": [[2.4539396, 48.8271797], [2.4538803, 48.8271443], [2.4508864, 48.8273251]]}}, {"type": "Feature", "properties": {"highway": "path", "footway": null, "name": null, "surface": null, "lit": null, "length_m": 180.33, "type_element": "Way", "__fid": 123132}, "geometry": {"type": "LineString", "coordinates": [[2.4508863, 48.8287359], [2.4512953, 48.8284495], [2.4514884, 48.828280300000024], [2.4516064, 48.8281038], [2.4515716, 48.82797840000001], [2.4514294, 48.8278778], [2.4510512, 48.8276694], [2.4509869, 48.82759519999998], [2.4509815, 48.8275723], [2.4508982, 48.82746069999999]]}}, {"type": "Feature", "properties": {"highway": "path", "footway": null, "name": null, "surface": null, "lit": null, "length_m": 181.8, "type_element": "Way", "__fid": 123133}, "geometry": {"type": "LineString", "coordinates": [[2.4531871, 48.82765950000001], [2.4523115, 48.8274261], [2.4514707, 48.8275828], [2.4510625, 48.8274155], [2.4508982, 48.82746069999999]]}}, {"type": "Feature", "properties": {"highway": "path", "footway": null, "name": null, "surface": null, "lit": null, "length_m": 53.66, "type_element": "Way", "__fid": 123134}, "geometry": {"type": "LineString", "coordinates": [[2.4508863, 48.8287359], [2.4511625, 48.828782799999985], [2.4513784, 48.82883669999999], [2.4514482, 48.828859700000024], [2.4515539, 48.828917199999985]]}}, {"type": "Feature", "properties": {"highway": "track", "footway": null, "name": null, "surface": null, "lit": null, "length_m": 8.72, "type_element": "Way", "__fid": 123165}, "geometry": {"type": "LineString", "coordinates": [[2.4512266, 48.82944770000002], [2.4513245, 48.8294921]]}}, {"type": "Feature", "properties": {"highway": "service", "footway": null, "name": null, "surface": "asphalt", "lit": null, "length_m": 77.69, "type_element": "Way", "__fid": 123173}, "geometry": {"type": "LineString", "coordinates": [[2.4513245, 48.8294921], [2.451653, 48.8296033], [2.4516971, 48.829659], [2.4521355, 48.8299236]]}}, {"type": "Feature", "properties": {"highway": "path", "footway": null, "name": null, "surface": null, "lit": null, "length_m": 60.3, "type_element": "Way", "__fid": 123174}, "geometry": {"type": "LineString", "coordinates": [[2.4513245, 48.8294921], [2.451866, 48.8290843]]}}, {"type": "Feature", "properties": {"highway": "footway", "footway": null, "name": null, "surface": null, "lit": null, "length_m": 14.3, "type_element": "Way", "__fid": 123181}, "geometry": {"type": "LineString", "coordinates": [[2.4517125, 48.8289919], [2.4515539, 48.828917199999985]]}}, {"type": "Feature", "properties": {"highway": "path", "footway": null, "name": null, "surface": null, "lit": null, "length_m": 184.21, "type_element": "Way", "__fid": 123182}, "geometry": {"type": "LineString", "coordinates": [[2.4515539, 48.828917199999985], [2.451778, 48.8287375], [2.4531871, 48.82765950000001]]}}, {"type": "Feature", "properties": {"highway": "footway", "footway": "crossing", "name": null, "surface": null, "lit": null, "length_m": 15.25, "type_element": "Way", "__fid": 123188}, "geometry": {"type": "LineString", "coordinates": [[2.451866, 48.8290843], [2.4517125, 48.8289919]]}}, {"type": "Feature", "properties": {"highway": "path", "footway": null, "name": "Route de la Pyramide", "surface": "asphalt", "lit": null, "length_m": 265.3, "type_element": "Way", "__fid": 123189}, "geometry": {"type": "LineString", "coordinates": [[2.4540832, 48.8271921], [2.4539235, 48.82733790000001], [2.4517125, 48.8289919]]}}, {"type": "Feature", "properties": {"highway": "path", "footway": null, "name": null, "surface": null, "lit": null, "length_m": 38.82, "type_element": "Way", "__fid": 123200}, "geometry": {"type": "LineString", "coordinates": [[2.4522732, 48.829307], [2.451866, 48.8290843]]}}, {"type": "Feature", "properties": {"highway": "path", "footway": null, "name": null, "surface": null, "lit": null, "length_m": 257.99, "type_element": "Way", "__fid": 123201}, "geometry": {"type": "LineString", "coordinates": [[2.451866, 48.8290843], [2.4524121, 48.82870680000001], [2.4531819, 48.8281426], [2.4541939, 48.8273472]]}}, {"type": "Feature", "properties": {"highway": "service", "footway": null, "name": null, "surface": null, "lit": null, "length_m": 127.71, "type_element": "Way", "__fid": 123223}, "geometry": {"type": "LineString", "coordinates": [[2.4538149, 48.8246216], [2.4535856, 48.8246225], [2.4534568, 48.8246499], [2.4531363, 48.824795499999986], [2.452907, 48.8249165], [2.452746, 48.8249333], [2.4525636, 48.82492709999999], [2.4524416, 48.8249059], [2.4522632, 48.824820299999985]]}}, {"type": "Feature", "properties": {"highway": "path", "footway": null, "name": null, "surface": null, "lit": null, "length_m": 499.38, "type_element": "Way", "__fid": 123231}, "geometry": {"type": "LineString", "coordinates": [[2.4572651, 48.8322342], [2.4571422, 48.83202979999999], [2.4569542, 48.8318869], [2.4565764, 48.831690400000014], [2.4562973, 48.8315663], [2.4561106, 48.8314449], [2.4554028, 48.8311099], [2.4549319, 48.83082730000001], [2.4547282, 48.83066320000002], [2.4541354, 48.8302588], [2.4537411, 48.830107], [2.4534515, 48.82994460000002], [2.4529038, 48.8294731], [2.4524121, 48.829373300000015], [2.4522732, 48.829307]]}}, {"type": "Feature", "properties": {"highway": "path", "footway": null, "name": null, "surface": null, "lit": null, "length_m": 237.46, "type_element": "Way", "__fid": 123232}, "geometry": {"type": "LineString", "coordinates": [[2.4549843, 48.8287343], [2.4548413, 48.828691], [2.4547265, 48.8287195], [2.454591, 48.8287356], [2.4543671, 48.8287058], [2.4542015, 48.8287343], [2.4540905, 48.8287207], [2.4539907, 48.828697199999986], [2.4538346, 48.8286996], [2.4536426, 48.8286835], [2.4534959, 48.8286451], [2.4531252, 48.82867730000001], [2.4530349, 48.82867730000002], [2.4529539, 48.8287244], [2.4527263, 48.8289152], [2.4525513, 48.8291109], [2.4522732, 48.829307]]}}]}