{"type": "FeatureCollection", "features": [{"type": "Feature", "properties": {"highway": "footway", "footway": null, "name": null, "surface": "compacted", "lit": "no", "length_m": 170.68, "type_element": "Way", "__fid": 122102}, "geometry": {"type": "LineString", "coordinates": [[2.441572, 48.8456874], [2.4417597, 48.845921099999984], [2.4427434, 48.8457213], [2.4436036, 48.8455566]]}}, {"type": "Feature", "properties": {"highway": "service", "footway": null, "name": null, "surface": "asphalt", "lit": null, "length_m": 105.66, "type_element": "Way", "__fid": 122199}, "geometry": {"type": "LineString", "coordinates": [[2.4434305, 48.8427937], [2.4424336, 48.8423024], [2.4424063, 48.842174600000014]]}}, {"type": "Feature", "properties": {"highway": "path", "footway": null, "name": null, "surface": "dirt", "lit": "yes", "length_m": 346.74, "type_element": "Way", "__fid": 122213}, "geometry": {"type": "LineString", "coordinates": [[2.4470759, 48.843816400000016], [2.446696, 48.8439128], [2.4458493, 48.8440631], [2.4426289, 48.8443523], [2.4425415, 48.8444642]]}}, {"type": "Feature", "properties": {"highway": "path", "footway": null, "name": null, "surface": "ground", "lit": null, "length_m": 318.01, "type_element": "Way", "__fid": 122222}, "geometry": {"type": "LineString", "coordinates": [[2.4466866, 48.8434338], [2.4463048, 48.8435684], [2.444793, 48.84368090000001], [2.4441654, 48.8436985], [2.4434787, 48.843758500000014], [2.4425964, 48.8441438]]}}, {"type": "Feature", "properties": {"highway": "path", "footway": null, "name": null, "surface": "dirt", "lit": null, "length_m": 329.23, "type_element": "Way", "__fid": 122223}, "geometry": {"type": "LineString", "coordinates": [[2.4425964, 48.8441438], [2.4435514, 48.8440742], [2.4457103, 48.8438693], [2.4460516, 48.8438216], [2.4466252, 48.8437027], [2.4467996, 48.8436528], [2.4469055, 48.8436144], [2.4469686, 48.8435788]]}}, {"type": "Feature", "properties": {"highway": "track", "footway": null, "name": "Route du Donjon", "surface": "asphalt", "lit": "yes", "length_m": 169.37, "type_element": "Way", "__fid": 122224}, "geometry": {"type": "LineString", "coordinates": [[2.444889, 48.8443953], [2.4427479, 48.8445014], [2.442593349999887, 48.84447245000013]]}}, {"type": "Feature", "properties": {"highway": "track", "footway": null, "name": "Route des Pelouses Marigny", "surface": "asphalt", "lit": "no", "length_m": 82.51, "type_element": "Way", "__fid": 122226}, "geometry": {"type": "LineString", "coordinates": [[2.4426131, 48.8452059], [2.442989, 48.8453309], [2.4436036, 48.8455566]]}}, {"type": "Feature", "properties": {"highway": "track", "footway": null, "name": null, "surface": "asphalt", "lit": "yes", "length_m": 111.9, "type_element": "Way", "__fid": 122237}, "geometry": {"type": "LineString", "coordinates": [[2.4427321, 48.8451265], [2.4441941, 48.8454123]]}}, {"type": "Feature", "properties": {"highway": "track", "footway": null, "name": "Route de la Dame Blanche", "surface": "asphalt", "lit": "yes", "length_m": 87.04, "type_element": "Way", "__fid": 122251}, "geometry": {"type": "LineString", "coordinates": [[2.4439723, 48.8448674], [2.4437577, 48.8448656], [2.44357, 48.8448885], [2.4430041, 48.8450069], [2.4428194, 48.845025700000015]]}}, {"type": "Feature", "properties": {"highway": "service", "footway": null, "name": null, "surface": "cobblestone", "lit": null, "length_m": 136.86, "type_element": "Way", "__fid": 122277}, "geometry": {"type": "LineString", "coordinates": [[2.4443845, 48.8419989], [2.4437015, 48.8416589], [2.4435407, 48.84167440000002], [2.4430271, 48.8421187]]}}, {"type": "Feature", "properties": {"highway": "service", "footway": null, "name": null, "surface": "asphalt", "lit": null, "length_m": 118.57, "type_element": "Way", "__fid": 122297}, "geometry": {"type": "LineString", "coordinates": [[2.4439986, 48.8427725], [2.4440975, 48.843217], [2.4440838, 48.8432309], [2.4431826, 48.8433134]]}}, {"type": "Feature", "properties": {"highway": "service", "footway": null, "name": null, "surface": "asphalt", "lit": null, "length_m": 47.22, "type_element": "Way", "__fid": 122336}, "geometry": {"type": "LineString", "coordinates": [[2.4439986, 48.8427725], [2.4439336, 48.8428298], [2.4438879, 48.842844], [2.4437848, 48.8428571], [2.4436654, 48.842858], [2.4435617, 48.84284849999999], [2.4434305, 48.8427937]]}}, {"type": "Feature", "properties": {"highway": "service", "footway": null, "name": null, "surface": "asphalt", "lit": null, "length_m": 47.08, "type_element": "Way", "__fid": 122337}, "geometry": {"type": "LineString", "coordinates": [[2.4434305, 48.8427937], [2.4435206, 48.8432129]]}}, {"type": "Feature", "properties": {"highway": "track", "footway": null, "name": "Route des Pelouses Marigny", "surface": "asphalt", "lit": "no", "length_m": 50.7, "type_element": "Way", "__fid": 122363}, "geometry": {"type": "LineString", "coordinates": [[2.4436036, 48.8455566], [2.4440098, 48.845738200000014], [2.4440968, 48.8458061], [2.4441212, 48.8458462]]}}, {"type": "Feature", "properties": {"highway": "footway", "footway": null, "name": null, "surface": "dirt", "lit": "no", "length_m": 46.21, "type_element": "Way", "__fid": 122364}, "geometry": {"type": "LineString", "coordinates": [[2.4436036, 48.8455566], [2.4441941, 48.8454123]]}}, {"type": "Feature", "properties": {"highway": "service", "footway": null, "name": null, "surface": "asphalt", "lit": null, "length_m": 38.48, "type_element": "Way", "__fid": 122387}, "geometry": {"type": "LineString", "coordinates": [[2.4438178, 48.8413845], [2.444238, 48.8415915]]}}, {"type": "Feature", "properties": {"highway": "track", "footway": null, "name": "Route de la Dame Blanche", "surface": "asphalt", "lit": "no", "length_m": 72.85, "type_element": "Way", "__fid": 122398}, "geometry": {"type": "LineString", "coordinates": [[2.4449426, 48.84494680000001], [2.4448105, 48.8449649], [2.4445143, 48.8449643], [2.4439723, 48.8448674]]}}, {"type": "Feature", "properties": {"highway": "footway", "footway": null, "name": null, "surface": "compacted", "lit": "no", "length_m": 20.69, "type_element": "Way", "__fid": 122399}, "geometry": {"type": "LineString", "coordinates": [[2.4439723, 48.8448674], [2.4440769, 48.8447844], [2.4441708, 48.8447368]]}}, {"type": "Feature", "properties": {"highway": "service", "footway": null, "name": null, "surface": "asphalt", "lit": null, "length_m": 49.02, "type_element": "Way", "__fid": 122402}, "geometry": {"type": "LineString", "coordinates": [[2.444401, 48.8424206], [2.4439986, 48.8427725]]}}, {"type": "Feature", "properties": {"highway": "footway", "footway": null, "name": null, "surface": "dirt", "lit": "no", "length_m": 65.0, "type_element": "Way", "__fid": 122409}, "geometry": {"type": "LineString", "coordinates": [[2.4441708, 48.8447368], [2.4446187, 48.8445126], [2.444889, 48.8443953]]}}, {"type": "Feature", "properties": {"highway": "footway", "footway": null, "name": null, "surface": "compacted", "lit": "no", "length_m": 120.32, "type_element": "Way", "__fid": 122410}, "geometry": {"type": "LineString", "coordinates": [[2.4441708, 48.8447368], [2.4448441, 48.8446132], [2.4457676, 48.8444954]]}}, {"type": "Feature", "properties": {"highway": "track", "footway": null, "name": null, "surface": "asphalt", "lit": "yes", "length_m": 61.19, "type_element": "Way", "__fid": 122416}, "geometry": {"type": "LineString", "coordinates": [[2.4441941, 48.8454123], [2.444376, 48.845447600000014], [2.4450037, 48.845543]]}}, {"type": "Feature", "properties": {"highway": "footway", "footway": null, "name": null, "surface": "dirt", "lit": "no", "length_m": 77.98, "type_element": "Way", "__fid": 122417}, "geometry": {"type": "LineString", "coordinates": [[2.4441941, 48.8454123], [2.444635, 48.8452406], [2.4447591, 48.8451709], [2.4448925, 48.8449877], [2.4449426, 48.84494680000001]]}}, {"type": "Feature", "properties": {"highway": "service", "footway": null, "name": null, "surface": "asphalt", "lit": null, "length_m": 59.07, "type_element": "Way", "__fid": 122418}, "geometry": {"type": "LineString", "coordinates": [[2.444238, 48.8415915], [2.4447362, 48.84185140000001], [2.4447597, 48.84196239999998]]}}, {"type": "Feature", "properties": {"highway": "service", "footway": null, "name": null, "surface": null, "lit": null, "length_m": 27.29, "type_element": "Way", "__fid": 122419}, "geometry": {"type": "LineString", "coordinates": [[2.444238, 48.8415915], [2.4444644, 48.8413968]]}}, {"type": "Feature", "properties": {"highway": "service", "footway": null, "name": null, "surface": null, "lit": null, "length_m": 27.84, "type_element": "Way", "__fid": 122427}, "geometry": {"type": "LineString", "coordinates": [[2.4447597, 48.84196239999998], [2.4443845, 48.8419989]]}}, {"type": "Feature", "properties": {"highway": "service", "footway": null, "name": null, "surface": null, "lit": null, "length_m": 32.99, "type_element": "Way", "__fid": 122431}, "geometry": {"type": "LineString", "coordinates": [[2.444401, 48.8424206], [2.4447708, 48.8425892]]}}, {"type": "Feature", "properties": {"highway": "service", "footway": null, "name": null, "surface": "asphalt", "lit": null, "length_m": 60.67, "type_element": "Way", "__fid": 122432}, "geometry": {"type": "LineString", "coordinates": [[2.4447597, 48.84196239999998], [2.4447864, 48.8420882], [2.444401, 48.8424206]]}}, {"type": "Feature", "properties": {"highway": "service", "footway": null, "name": null, "surface": null, "lit": null, "length_m": 161.91, "type_element": "Way", "__fid": 122437}, "geometry": {"type": "LineString", "coordinates": [[2.4450105, 48.8414891], [2.44491, 48.8410954], [2.4448697, 48.8410477], [2.4447276, 48.8409736], [2.4446551, 48.8409674], [2.4441321, 48.8410151], [2.4441764, 48.8412719], [2.4444644, 48.8413968]]}}, {"type": "Feature", "properties": {"highway": "footway", "footway": null, "name": null, "surface": "dirt", "lit": "no", "length_m": 54.65, "type_element": "Way", "__fid": 122449}, "geometry": {"type": "LineString", "coordinates": [[2.4451419, 48.84555539999999], [2.4445345, 48.8458398]]}}, {"type": "Feature", "properties": {"highway": "service", "footway": null, "name": null, "surface": null, "lit": null, "length_m": 9.37, "type_element": "Way", "__fid": 122474}, "geometry": {"type": "LineString", "coordinates": [[2.4448606, 48.8426507], [2.4447527, 48.842605700000014]]}}, {"type": "Feature", "properties": {"highway": "service", "footway": null, "name": null, "surface": null, "lit": null, "length_m": 86.49, "type_element": "Way", "__fid": 122475}, "geometry": {"type": "LineString", "coordinates": [[2.4450972, 48.8429687], [2.4446026, 48.843013], [2.4445666, 48.842775], [2.4447527, 48.842605700000014]]}}, {"type": "Feature", "properties": {"highway": "service", "footway": null, "name": null, "surface": null, "lit": null, "length_m": 2.27, "type_element": "Way", "__fid": 122476}, "geometry": {"type": "LineString", "coordinates": [[2.4447527, 48.842605700000014], [2.4447708, 48.8425892]]}}, {"type": "Feature", "properties": {"highway": "service", "footway": null, "name": null, "surface": null, "lit": null, "length_m": 166.55, "type_element": "Way", "__fid": 122477}, "geometry": {"type": "LineString", "coordinates": [[2.4469173, 48.8420947], [2.4467072, 48.8420658], [2.4463329, 48.8420769], [2.4462169, 48.8420508], [2.4459594, 48.8419012], [2.445901, 48.8418818], [2.4457223, 48.8418816], [2.4447597, 48.84196239999998]]}}, {"type": "Feature", "properties": {"highway": "service", "footway": null, "name": null, "surface": null, "lit": null, "length_m": 50.83, "type_element": "Way", "__fid": 122479}, "geometry": {"type": "LineString", "coordinates": [[2.4447708, 48.8425892], [2.4449904, 48.8423893], [2.4450749, 48.8423655], [2.4452975, 48.8423936]]}}, {"type": "Feature", "properties": {"highway": "footway", "footway": null, "name": null, "surface": null, "lit": null, "length_m": 5.57, "type_element": "Way", "__fid": 122489}, "geometry": {"type": "LineString", "coordinates": [[2.4449016, 48.8426845], [2.4448644, 48.84267389999998], [2.4448606, 48.8426507]]}}, {"type": "Feature", "properties": {"highway": "footway", "footway": null, "name": null, "surface": null, "lit": null, "length_m": 7.58, "type_element": "Way", "__fid": 122490}, "geometry": {"type": "LineString", "coordinates": [[2.4448606, 48.8426507], [2.4448756, 48.8426391], [2.4448981, 48.8426356], [2.4449269, 48.84264740000001], [2.444932, 48.842662299999986]]}}, {"type": "Feature", "properties": {"highway": "footway", "footway": null, "name": null, "surface": null, "lit": null, "length_m": 31.63, "type_element": "Way", "__fid": 122496}, "geometry": {"type": "LineString", "coordinates": [[2.4449016, 48.8426845], [2.4450119, 48.8428377], [2.4450575, 48.8428735], [2.4451413, 48.84291320000001]]}}, {"type": "Feature", "properties": {"highway": "footway", "footway": null, "name": null, "surface": null, "lit": null, "length_m": 3.5, "type_element": "Way", "__fid": 122497}, "geometry": {"type": "LineString", "coordinates": [[2.444932, 48.842662299999986], [2.4449241, 48.84267530000001], [2.4449016, 48.8426845]]}}, {"type": "Feature", "properties": {"highway": "track", "footway": null, "name": "Route du Donjon", "surface": "asphalt", "lit": "yes", "length_m": 123.91, "type_element": "Way", "__fid": 122498}, "geometry": {"type": "LineString", "coordinates": [[2.4465727, 48.8443125], [2.444889, 48.8443953]]}}, {"type": "Feature", "properties": {"highway": "footway", "footway": null, "name": null, "surface": null, "lit": null, "length_m": 31.97, "type_element": "Way", "__fid": 122499}, "geometry": {"type": "LineString", "coordinates": [[2.444932, 48.842662299999986], [2.4450283, 48.8426883], [2.4451158, 48.8426976], [2.4453565, 48.8426762]]}}, {"type": "Feature", "properties": {"highway": "track", "footway": null, "name": "Route de la Dame Blanche", "surface": "asphalt", "lit": "no", "length_m": 26.95, "type_element": "Way", "__fid": 122504}, "geometry": {"type": "LineString", "coordinates": [[2.4453, 48.8448921], [2.445182, 48.84490490000001], [2.4449426, 48.84494680000001]]}}, {"type": "Feature", "properties": {"highway": "service", "footway": null, "name": null, "surface": null, "lit": null, "length_m": 25.45, "type_element": "Way", "__fid": 122509}, "geometry": {"type": "LineString", "coordinates": [[2.4450105, 48.8414891], [2.4450568, 48.8417159]]}}, {"type": "Feature", "properties": {"highway": "track", "footway": null, "name": null, "surface": "asphalt", "lit": "yes", "length_m": 10.24, "type_element": "Way", "__fid": 122514}, "geometry": {"type": "LineString", "coordinates": [[2.4450037, 48.845543], [2.4451419, 48.84555539999999]]}}, {"type": "Feature", "properties": {"highway": "path", "footway": null, "name": null, "surface": "dirt", "lit": "no", "length_m": 107.57, "type_element": "Way", "__fid": 122515}, "geometry": {"type": "LineString", "coordinates": [[2.4462467, 48.845045200000015], [2.4460721, 48.8451521], [2.4454889, 48.8454108], [2.4450037, 48.845543]]}}, {"type": "Feature", "properties": {"highway": "footway", "footway": null, "name": null, "surface": null, "lit": null, "length_m": 6.97, "type_element": "Way", "__fid": 122520}, "geometry": {"type": "LineString", "coordinates": [[2.4451413, 48.84291320000001], [2.4450972, 48.8429687]]}}, {"type": "Feature", "properties": {"highway": "service", "footway": null, "name": null, "surface": null, "lit": null, "length_m": 11.9, "type_element": "Way", "__fid": 122521}, "geometry": {"type": "LineString", "coordinates": [[2.4452578, 48.8429543], [2.4450972, 48.8429687]]}}, {"type": "Feature", "properties": {"highway": "footway", "footway": null, "name": null, "surface": null, "lit": null, "length_m": 37.27, "type_element": "Way", "__fid": 122525}, "geometry": {"type": "LineString", "coordinates": [[2.4452975, 48.8423936], [2.4452513, 48.8421722], [2.4452224, 48.842156799999984], [2.445146, 48.8421382], [2.4451393, 48.8421051]]}}, {"type": "Feature", "properties": {"highway": "footway", "footway": null, "name": null, "surface": null, "lit": null, "length_m": 9.69, "type_element": "Way", "__fid": 122528}, "geometry": {"type": "LineString", "coordinates": [[2.4451413, 48.84291320000001], [2.4452578, 48.8429543]]}}, {"type": "Feature", "properties": {"highway": "track", "footway": null, "name": null, "surface": "asphalt", "lit": "yes", "length_m": 71.91, "type_element": "Way", "__fid": 122531}, "geometry": {"type": "LineString", "coordinates": [[2.4451419, 48.84555539999999], [2.4453979, 48.8455783], [2.4461077, 48.84566370000001]]}}, {"type": "Feature", "properties": {"highway": "service", "footway": null, "name": null, "surface": null, "lit": null, "length_m": 9.08, "type_element": "Way", "__fid": 122545}, "geometry": {"type": "LineString", "coordinates": [[2.4453804, 48.8429433], [2.4452578, 48.8429543]]}}, {"type": "Feature", "properties": {"highway": "footway", "footway": null, "name": null, "surface": null, "lit": null, "length_m": 31.72, "type_element": "Way", "__fid": 122549}, "geometry": {"type": "LineString", "coordinates": [[2.4453565, 48.8426762], [2.4452975, 48.8423936]]}}, {"type": "Feature", "properties": {"highway": "footway", "footway": null, "name": null, "surface": "dirt", "lit": "no", "length_m": 49.7, "type_element": "Way", "__fid": 122550}, "geometry": {"type": "LineString", "coordinates": [[2.4458942, 48.8446795], [2.4457587, 48.8447416], [2.4453, 48.8448921]]}}, {"type": "Feature", "properties": {"highway": "track", "footway": null, "name": "Route de la Dame Blanche", "surface": "asphalt", "lit": "no", "length_m": 63.42, "type_element": "Way", "__fid": 122551}, "geometry": {"type": "LineString", "coordinates": [[2.4461541, 48.8449305], [2.4455924, 48.8448691], [2.4454784, 48.84487350000001], [2.4453, 48.8448921]]}}, {"type": "Feature", "properties": {"highway": "service", "footway": null, "name": null, "surface": null, "lit": null, "length_m": 18.73, "type_element": "Way", "__fid": 122552}, "geometry": {"type": "LineString", "coordinates": [[2.4453804, 48.8429433], [2.4453418, 48.84277680000001]]}}, {"type": "Feature", "properties": {"highway": "footway", "footway": null, "name": null, "surface": null, "lit": null, "length_m": 12.2, "type_element": "Way", "__fid": 122553}, "geometry": {"type": "LineString", "coordinates": [[2.4453565, 48.8426762], [2.4454058, 48.8426742], [2.4454534, 48.8426841], [2.4454833, 48.8427236]]}}, {"type": "Feature", "properties": {"highway": "service", "footway": null, "name": null, "surface": null, "lit": null, "length_m": 17.71, "type_element": "Way", "__fid": 122556}, "geometry": {"type": "LineString", "coordinates": [[2.4454169, 48.843100700000015], [2.4453804, 48.8429433]]}}, {"type": "Feature", "properties": {"highway": "path", "footway": null, "name": null, "surface": null, "lit": "no", "length_m": 24.89, "type_element": "Way", "__fid": 122593}, "geometry": {"type": "LineString", "coordinates": [[2.4457676, 48.8444954], [2.4458153, 48.84453220000001], [2.4458653, 48.8445954], [2.446017500000566, 48.84462293333361]]}}, {"type": "Feature", "properties": {"highway": "footway", "footway": null, "name": null, "surface": "compacted", "lit": "no", "length_m": 12.63, "type_element": "Way", "__fid": 122594}, "geometry": {"type": "LineString", "coordinates": [[2.4457676, 48.8444954], [2.4459362, 48.8444728]]}}, {"type": "Feature", "properties": {"highway": "path", "footway": null, "name": null, "surface": null, "lit": "no", "length_m": 39.68, "type_element": "Way", "__fid": 122617}, "geometry": {"type": "LineString", "coordinates": [[2.4461771, 48.8449336], [2.446169, 48.844885199999986], [2.4461328, 48.8448646], [2.4461091, 48.8448355], [2.4461225, 48.8447911], [2.4461153, 48.8447816], [2.4460733, 48.8447558], [2.4459446, 48.8447252], [2.4459249, 48.8447125], [2.445911, 48.8446851], [2.4458942, 48.8446795]]}}, {"type": "Feature", "properties": {"highway": "footway", "footway": null, "name": null, "surface": "dirt", "lit": "no", "length_m": 11.02, "type_element": "Way", "__fid": 122618}, "geometry": {"type": "LineString", "coordinates": [[2.446017528144476, 48.8446229508435], [2.4458942, 48.8446795]]}}, {"type": "Feature", "properties": {"highway": "path", "footway": null, "name": null, "surface": null, "lit": "no", "length_m": 18.16, "type_element": "Way", "__fid": 122622}, "geometry": {"type": "LineString", "coordinates": [[2.446017500000566, 48.84462293333361], [2.4459865, 48.8445813], [2.4459731, 48.8445063], [2.4459362, 48.8444728]]}}, {"type": "Feature", "properties": {"highway": "footway", "footway": null, "name": null, "surface": "compacted", "lit": "no", "length_m": 43.53, "type_element": "Way", "__fid": 122623}, "geometry": {"type": "LineString", "coordinates": [[2.4459362, 48.8444728], [2.4462844, 48.844426099999986], [2.4465204, 48.8444067]]}}, {"type": "Feature", "properties": {"highway": "footway", "footway": null, "name": null, "surface": "dirt", "lit": "no", "length_m": 47.63, "type_element": "Way", "__fid": 122631}, "geometry": {"type": "LineString", "coordinates": [[2.446017528144476, 48.8446229508435], [2.4462853, 48.8447966], [2.4463295, 48.844840799999986], [2.4463788, 48.8449642]]}}, {"type": "Feature", "properties": {"highway": "footway", "footway": null, "name": null, "surface": "dirt", "lit": "no", "length_m": 44.05, "type_element": "Way", "__fid": 122632}, "geometry": {"type": "LineString", "coordinates": [[2.4465204, 48.8444067], [2.446017528144476, 48.8446229508435]]}}, {"type": "Feature", "properties": {"highway": "track", "footway": null, "name": null, "surface": "asphalt", "lit": "yes", "length_m": 28.22, "type_element": "Way", "__fid": 122650}, "geometry": {"type": "LineString", "coordinates": [[2.4461077, 48.84566370000001], [2.4464789, 48.8457301]]}}, {"type": "Feature", "properties": {"highway": "path", "footway": null, "name": null, "surface": "dirt", "lit": "no", "length_m": 32.04, "type_element": "Way", "__fid": 122651}, "geometry": {"type": "LineString", "coordinates": [[2.4464476, 48.8454845], [2.4463877, 48.8455139], [2.4463403, 48.8455504], [2.4461077, 48.84566370000001]]}}, {"type": "Feature", "properties": {"highway": "track", "footway": null, "name": "Route de la Dame Blanche", "surface": "asphalt", "lit": "no", "length_m": 1.72, "type_element": "Way", "__fid": 122655}, "geometry": {"type": "LineString", "coordinates": [[2.4461771, 48.8449336], [2.4461541, 48.8449305]]}}, {"type": "Feature", "properties": {"highway": "path", "footway": null, "name": null, "surface": "dirt", "lit": "no", "length_m": 16.24, "type_element": "Way", "__fid": 122656}, "geometry": {"type": "LineString", "coordinates": [[2.4461541, 48.8449305], [2.4461472, 48.844985], [2.4461713, 48.8450126], [2.4462467, 48.845045200000015]]}}, {"type": "Feature", "properties": {"highway": "track", "footway": null, "name": "Route de la Dame Blanche", "surface": "asphalt", "lit": "no", "length_m": 15.19, "type_element": "Way", "__fid": 122663}, "geometry": {"type": "LineString", "coordinates": [[2.4463788, 48.8449642], [2.4461771, 48.8449336]]}}, {"type": "Feature", "properties": {"highway": "path", "footway": null, "name": null, "surface": "dirt", "lit": "no", "length_m": 51.53, "type_element": "Way", "__fid": 122677}, "geometry": {"type": "LineString", "coordinates": [[2.4462467, 48.845045200000015], [2.4463197, 48.8451374], [2.4463457, 48.84517970000001], [2.4463609, 48.8452333], [2.4463922, 48.8452751], [2.4464476, 48.8454845]]}}, {"type": "Feature", "properties": {"highway": "path", "footway": null, "name": null, "surface": "dirt", "lit": "no", "length_m": 13.23, "type_element": "Way", "__fid": 122678}, "geometry": {"type": "LineString", "coordinates": [[2.4463788, 48.8449642], [2.4462467, 48.845045200000015]]}}, {"type": "Feature", "properties": {"highway": "track", "footway": null, "name": "Route de la Dame Blanche", "surface": "asphalt", "lit": "no", "length_m": 0.63, "type_element": "Way", "__fid": 122704}, "geometry": {"type": "LineString", "coordinates": [[2.4463874, 48.8449639], [2.4463788, 48.8449642]]}}, {"type": "Feature", "properties": {"highway": "footway", "footway": "sidewalk", "name": null, "surface": "dirt", "lit": "no", "length_m": 14.29, "type_element": "Way", "__fid": 122708}, "geometry": {"type": "LineString", "coordinates": [[2.4464458, 48.845085], [2.446393, 48.8450054], [2.4463874, 48.8449639]]}}, {"type": "Feature", "properties": {"highway": "footway", "footway": "sidewalk", "name": null, "surface": "dirt", "lit": "no", "length_m": 77.94, "type_element": "Way", "__fid": 122709}, "geometry": {"type": "LineString", "coordinates": [[2.4463874, 48.8449639], [2.4463888, 48.8449293], [2.4464124, 48.8448894], [2.4464027, 48.844817], [2.4464191, 48.8447293], [2.4464816, 48.8445751], [2.4466081, 48.84442329999999], [2.4467447, 48.8443302]]}}, {"type": "Feature", "properties": {"highway": "track", "footway": null, "name": "Route de la Dame Blanche", "surface": "asphalt", "lit": "no", "length_m": 8.05, "type_element": "Way", "__fid": 122710}, "geometry": {"type": "LineString", "coordinates": [[2.4464969, 48.84496030000001], [2.4463874, 48.8449639]]}}, {"type": "Feature", "properties": {"highway": "path", "footway": null, "name": null, "surface": "dirt", "lit": "no", "length_m": 27.59, "type_element": "Way", "__fid": 122719}, "geometry": {"type": "LineString", "coordinates": [[2.4464476, 48.8454845], [2.4464771, 48.8456346], [2.4464664, 48.8456699], [2.4464789, 48.8457301]]}}, {"type": "Feature", "properties": {"highway": "track", "footway": null, "name": null, "surface": "asphalt", "lit": "yes", "length_m": 3.55, "type_element": "Way", "__fid": 122723}, "geometry": {"type": "LineString", "coordinates": [[2.4464789, 48.8457301], [2.4464956, 48.8457601]]}}, {"type": "Feature", "properties": {"highway": "service", "footway": null, "name": "Route des Sabotiers", "surface": "asphalt", "lit": "no", "length_m": 225.9, "type_element": "Way", "__fid": 122728}, "geometry": {"type": "LineString", "coordinates": [[2.4470288, 48.8419348], [2.4465642, 48.8399265]]}}, {"type": "Feature", "properties": {"highway": "footway", "footway": null, "name": null, "surface": "dirt", "lit": "no", "length_m": 11.25, "type_element": "Way", "__fid": 122730}, "geometry": {"type": "LineString", "coordinates": [[2.4465204, 48.8444067], [2.4466535, 48.844356500000025]]}}, {"type": "Feature", "properties": {"highway": "footway", "footway": null, "name": null, "surface": null, "lit": null, "length_m": 7.69, "type_element": "Way", "__fid": 122731}, "geometry": {"type": "LineString", "coordinates": [[2.4466535, 48.844356500000025], [2.4465727, 48.8443125]]}}, {"type": "Feature", "properties": {"highway": "track", "footway": null, "name": "Route du Donjon", "surface": "asphalt", "lit": "yes", "length_m": 20.69, "type_element": "Way", "__fid": 122732}, "geometry": {"type": "LineString", "coordinates": [[2.4468538, 48.8442987], [2.4465727, 48.8443125]]}}, {"type": "Feature", "properties": {"highway": "path", "footway": null, "name": null, "surface": "dirt", "lit": "no", "length_m": 3.63, "type_element": "Way", "__fid": 122738}, "geometry": {"type": "LineString", "coordinates": [[2.4466253, 48.844883500000016], [2.4466298, 48.844916]]}}, {"type": "Feature", "properties": {"highway": "footway", "footway": "sidewalk", "name": null, "surface": "dirt", "lit": "no", "length_m": 82.95, "type_element": "Way", "__fid": 122739}, "geometry": {"type": "LineString", "coordinates": [[2.4469941, 48.8442921], [2.4468466, 48.84438750000001], [2.4466598, 48.844564], [2.4465453, 48.8447698], [2.4465308, 48.8448822], [2.4466253, 48.844883500000016]]}}, {"type": "Feature", "properties": {"highway": "path", "footway": null, "name": null, "surface": "dirt", "lit": "no", "length_m": 77.79, "type_element": "Way", "__fid": 122740}, "geometry": {"type": "LineString", "coordinates": [[2.4471627, 48.8442842], [2.446866, 48.8445551], [2.4467032, 48.8447554], [2.4466253, 48.844883500000016]]}}, {"type": "Feature", "properties": {"highway": "footway", "footway": null, "name": null, "surface": "dirt", "lit": "no", "length_m": 7.3, "type_element": "Way", "__fid": 122746}, "geometry": {"type": "LineString", "coordinates": [[2.4466535, 48.844356500000025], [2.4467447, 48.8443302]]}}, {"type": "Feature", "properties": {"highway": "path", "footway": null, "name": null, "surface": null, "lit": null, "length_m": 26.75, "type_element": "Way", "__fid": 122750}, "geometry": {"type": "LineString", "coordinates": [[2.4466866, 48.8434338], [2.4467359, 48.8434713], [2.4468238, 48.8435027], [2.4468833, 48.8435507], [2.4469686, 48.8435788]]}}, {"type": "Feature", "properties": {"highway": "path", "footway": null, "name": null, "surface": "ground", "lit": null, "length_m": 149.92, "type_element": "Way", "__fid": 122751}, "geometry": {"type": "LineString", "coordinates": [[2.4469173, 48.8420947], [2.4467868, 48.8430123], [2.4466866, 48.8434338]]}}, {"type": "Feature", "properties": {"highway": "footway", "footway": null, "name": null, "surface": "dirt", "lit": "no", "length_m": 8.74, "type_element": "Way", "__fid": 122758}, "geometry": {"type": "LineString", "coordinates": [[2.4467447, 48.8443302], [2.4468538, 48.8442987]]}}, {"type": "Feature", "properties": {"highway": "path", "footway": null, "name": null, "surface": "dirt", "lit": "yes", "length_m": 59.17, "type_element": "Way", "__fid": 122774}, "geometry": {"type": "LineString", "coordinates": [[2.4468538, 48.8442987], [2.4468499, 48.844251], [2.4469939, 48.844171], [2.4471553, 48.8440223], [2.447205, 48.8439373], [2.4472174, 48.8438981], [2.44721, 48.8438523]]}}, {"type": "Feature", "properties": {"highway": "track", "footway": null, "name": "Route du Donjon", "surface": "asphalt", "lit": null, "length_m": 10.32, "type_element": "Way", "__fid": 122775}, "geometry": {"type": "LineString", "coordinates": [[2.4469941, 48.8442921], [2.4468538, 48.8442987]]}}, {"type": "Feature", "properties": {"highway": "track", "footway": null, "name": null, "surface": "dirt", "lit": null, "length_m": 11.41, "type_element": "Way", "__fid": 122784}, "geometry": {"type": "LineString", "coordinates": [[2.4470703, 48.84211310000001], [2.4469173, 48.8420947]]}}, {"type": "Feature", "properties": {"highway": "path", "footway": null, "name": null, "surface": "ground", "lit": null, "length_m": 19.57, "type_element": "Way", "__fid": 122785}, "geometry": {"type": "LineString", "coordinates": [[2.4470288, 48.8419348], [2.4469173, 48.8420947]]}}, {"type": "Feature", "properties": {"highway": "path", "footway": null, "name": null, "surface": "dirt", "lit": null, "length_m": 3.33, "type_element": "Way", "__fid": 122790}, "geometry": {"type": "LineString", "coordinates": [[2.4469686, 48.8435788], [2.4470031, 48.8435593]]}}, {"type": "Feature", "properties": {"highway": "track", "footway": null, "name": "Route du Donjon", "surface": "asphalt", "lit": null, "length_m": 12.4, "type_element": "Way", "__fid": 122793}, "geometry": {"type": "LineString", "coordinates": [[2.4471627, 48.8442842], [2.4469941, 48.8442921]]}}, {"type": "Feature", "properties": {"highway": "footway", "footway": "crossing", "name": null, "surface": null, "lit": null, "length_m": 29.27, "type_element": "Way", "__fid": 122794}, "geometry": {"type": "LineString", "coordinates": [[2.4470759, 48.843816400000016], [2.4470595, 48.8436774], [2.4470031, 48.8435593]]}}, {"type": "Feature", "properties": {"highway": "path", "footway": null, "name": null, "surface": "dirt", "lit": null, "length_m": 35.22, "type_element": "Way", "__fid": 122795}, "geometry": {"type": "LineString", "coordinates": [[2.4470031, 48.8435593], [2.4473568, 48.8433452]]}}, {"type": "Feature", "properties": {"highway": "service", "footway": null, "name": "Route des Sabotiers", "surface": "asphalt", "lit": "no", "length_m": 20.06, "type_element": "Way", "__fid": 122801}, "geometry": {"type": "LineString", "coordinates": [[2.4470703, 48.84211310000001], [2.4470288, 48.8419348]]}}, {"type": "Feature", "properties": {"highway": "path", "footway": null, "name": null, "surface": "ground", "lit": null, "length_m": 361.65, "type_element": "Way", "__fid": 122802}, "geometry": {"type": "LineString", "coordinates": [[2.4503808, 48.83965850000001], [2.4489665, 48.84057050000001], [2.4487519, 48.840990599999984], [2.4480929, 48.841410400000015], [2.4474101, 48.8416364], [2.4471176, 48.8419014], [2.4470288, 48.8419348]]}}, {"type": "Feature", "properties": {"highway": "service", "footway": null, "name": "Route des Sabotiers", "surface": "asphalt", "lit": "no", "length_m": 138.61, "type_element": "Way", "__fid": 122819}, "geometry": {"type": "LineString", "coordinates": [[2.4473568, 48.8433452], [2.4470703, 48.84211310000001]]}}, {"type": "Feature", "properties": {"highway": "path", "footway": null, "name": null, "surface": "dirt", "lit": "yes", "length_m": 11.09, "type_element": "Way", "__fid": 122830}, "geometry": {"type": "LineString", "coordinates": [[2.44721, 48.8438523], [2.4471578, 48.8438229], [2.4470759, 48.843816400000016]]}}, {"type": "Feature", "properties": {"highway": "path", "footway": null, "name": null, "surface": "dirt", "lit": "no", "length_m": 87.49, "type_element": "Way", "__fid": 122844}, "geometry": {"type": "LineString", "coordinates": [[2.4480774, 48.8437818], [2.4478711, 48.8438726], [2.4476163, 48.84401], [2.4471627, 48.8442842]]}}, {"type": "Feature", "properties": {"highway": "track", "footway": null, "name": "Route du Donjon", "surface": "asphalt", "lit": null, "length_m": 42.71, "type_element": "Way", "__fid": 122845}, "geometry": {"type": "LineString", "coordinates": [[2.4477432, 48.844257], [2.4471627, 48.8442842]]}}, {"type": "Feature", "properties": {"highway": "footway", "footway": "crossing", "name": "Avenue de Nogent", "surface": null, "lit": null, "length_m": 14.79, "type_element": "Way", "__fid": 122851}, "geometry": {"type": "LineString", "coordinates": [[2.4473927, 48.8437961], [2.44721, 48.8438523]]}}, {"type": "Feature", "properties": {"highway": "track", "footway": null, "name": "Route du Grand Maréchal", "surface": "asphalt", "lit": null, "length_m": 16.56, "type_element": "Way", "__fid": 122872}, "geometry": {"type": "LineString", "coordinates": [[2.4473084, 48.8439614], [2.4474326, 48.8439483], [2.447522, 48.843919]]}}, {"type": "Feature", "properties": {"highway": "service", "footway": null, "name": "Route des Sabotiers", "surface": "asphalt", "lit": "no", "length_m": 18.83, "type_element": "Way", "__fid": 122875}, "geometry": {"type": "LineString", "coordinates": [[2.4473923, 48.8435129], [2.4473568, 48.8433452]]}}, {"type": "Feature", "properties": {"highway": "footway", "footway": null, "name": null, "surface": "compacted", "lit": "no", "length_m": 8.07, "type_element": "Way", "__fid": 122876}, "geometry": {"type": "LineString", "coordinates": [[2.4473568, 48.8433452], [2.4474426, 48.8432998]]}}, {"type": "Feature", "properties": {"highway": "footway", "footway": null, "name": null, "surface": null, "lit": null, "length_m": 4.94, "type_element": "Way", "__fid": 122886}, "geometry": {"type": "LineString", "coordinates": [[2.447444, 48.8438249], [2.4473927, 48.8437961]]}}, {"type": "Feature", "properties": {"highway": "path", "footway": null, "name": "Avenue de Nogent", "surface": "compacted", "lit": null, "length_m": 4.06, "type_element": "Way", "__fid": 122887}, "geometry": {"type": "LineString", "coordinates": [[2.4474419, 48.84377940000001], [2.4473927, 48.8437961]]}}, {"type": "Feature", "properties": {"highway": "footway", "footway": null, "name": null, "surface": "compacted", "lit": "no", "length_m": 28.38, "type_element": "Way", "__fid": 122890}, "geometry": {"type": "LineString", "coordinates": [[2.4474426, 48.8432998], [2.4476629, 48.8434394], [2.4477135, 48.8434814]]}}, {"type": "Feature", "properties": {"highway": "path", "footway": null, "name": null, "surface": "dirt", "lit": null, "length_m": 175.07, "type_element": "Way", "__fid": 122891}, "geometry": {"type": "LineString", "coordinates": [[2.4487931, 48.8420363], [2.4485926, 48.842350500000016], [2.4484874, 48.8424344], [2.4483861, 48.8425019], [2.4482264, 48.842581], [2.4482178, 48.842606], [2.4481367, 48.842689], [2.4480535, 48.8428148], [2.4479771, 48.8429079], [2.4478101, 48.843065], [2.447625, 48.8431991], [2.4474426, 48.8432998]]}}, {"type": "Feature", "properties": {"highway": "footway", "footway": null, "name": null, "surface": "compacted", "lit": null, "length_m": 5.06, "type_element": "Way", "__fid": 122892}, "geometry": {"type": "LineString", "coordinates": [[2.4474419, 48.84377940000001], [2.447444, 48.8438249]]}}, {"type": "Feature", "properties": {"highway": "path", "footway": null, "name": "Avenue de Nogent", "surface": "compacted", "lit": null, "length_m": 39.15, "type_element": "Way", "__fid": 122893}, "geometry": {"type": "LineString", "coordinates": [[2.4477135, 48.8434814], [2.4476339, 48.8435817], [2.4475199, 48.8436589], [2.4474419, 48.84377940000001]]}}, {"type": "Feature", "properties": {"highway": "footway", "footway": null, "name": null, "surface": "compacted", "lit": null, "length_m": 11.93, "type_element": "Way", "__fid": 122894}, "geometry": {"type": "LineString", "coordinates": [[2.447444, 48.8438249], [2.447522, 48.843919]]}}, {"type": "Feature", "properties": {"highway": "track", "footway": null, "name": "Route du Grand Maréchal", "surface": "asphalt", "lit": null, "length_m": 43.57, "type_element": "Way", "__fid": 122904}, "geometry": {"type": "LineString", "coordinates": [[2.447522, 48.843919], [2.4477571, 48.8438509], [2.4480774, 48.8437818]]}}, {"type": "Feature", "properties": {"highway": "path", "footway": null, "name": null, "surface": "dirt", "lit": null, "length_m": 65.04, "type_element": "Way", "__fid": 122923}, "geometry": {"type": "LineString", "coordinates": [[2.4477432, 48.844257], [2.447739, 48.84430850000001], [2.4477524, 48.844378], [2.4477143, 48.84447769999998], [2.4477827, 48.8445604], [2.447721, 48.8446992], [2.4476831, 48.8448182]]}}, {"type": "Feature", "properties": {"highway": "footway", "footway": null, "name": null, "surface": "compacted", "lit": "no", "length_m": 46.34, "type_element": "Way", "__fid": 122924}, "geometry": {"type": "LineString", "coordinates": [[2.4477135, 48.8434814], [2.4477279, 48.8435465], [2.4477892, 48.8435741], [2.4478803, 48.84360129999999], [2.4479596, 48.843644], [2.448125, 48.8437723]]}}, {"type": "Feature", "properties": {"highway": "path", "footway": null, "name": "Avenue de Nogent", "surface": "compacted", "lit": null, "length_m": 167.26, "type_element": "Way", "__fid": 122925}, "geometry": {"type": "LineString", "coordinates": [[2.449098, 48.8422923], [2.4482509, 48.8431073], [2.44802, 48.8432807], [2.4477135, 48.8434814]]}}, {"type": "Feature", "properties": {"highway": "track", "footway": null, "name": "Route du Donjon", "surface": "asphalt", "lit": null, "length_m": 41.02, "type_element": "Way", "__fid": 122927}, "geometry": {"type": "LineString", "coordinates": [[2.4483007, 48.844230899999985], [2.4477432, 48.844257]]}}, {"type": "Feature", "properties": {"highway": "path", "footway": null, "name": null, "surface": "dirt", "lit": null, "length_m": 14.42, "type_element": "Way", "__fid": 122946}, "geometry": {"type": "LineString", "coordinates": [[2.4480774, 48.8437818], [2.4482721, 48.8437993]]}}, {"type": "Feature", "properties": {"highway": "track", "footway": null, "name": "Route du Grand Maréchal", "surface": "asphalt", "lit": null, "length_m": 3.65, "type_element": "Way", "__fid": 122947}, "geometry": {"type": "LineString", "coordinates": [[2.4480774, 48.8437818], [2.448125, 48.8437723]]}}, {"type": "Feature", "properties": {"highway": "track", "footway": null, "name": "Route du Grand Maréchal", "surface": "asphalt", "lit": null, "length_m": 15.5, "type_element": "Way", "__fid": 122951}, "geometry": {"type": "LineString", "coordinates": [[2.448125, 48.8437723], [2.4483271, 48.8437318]]}}, {"type": "Feature", "properties": {"highway": "path", "footway": null, "name": null, "surface": "dirt", "lit": null, "length_m": 4.64, "type_element": "Way", "__fid": 122964}, "geometry": {"type": "LineString", "coordinates": [[2.4482721, 48.8437993], [2.4483351, 48.8438023]]}}, {"type": "Feature", "properties": {"highway": "footway", "footway": null, "name": null, "surface": "dirt", "lit": "no", "length_m": 6.92, "type_element": "Way", "__fid": 122965}, "geometry": {"type": "LineString", "coordinates": [[2.4482721, 48.8437993], [2.448307, 48.8438571]]}}, {"type": "Feature", "properties": {"highway": "footway", "footway": null, "name": null, "surface": "dirt", "lit": "no", "length_m": 41.63, "type_element": "Way", "__fid": 122966}, "geometry": {"type": "LineString", "coordinates": [[2.448307, 48.8438571], [2.4482895, 48.8440054], [2.4483007, 48.844230899999985]]}}, {"type": "Feature", "properties": {"highway": "track", "footway": null, "name": "Route du Donjon", "surface": "asphalt", "lit": null, "length_m": 102.6, "type_element": "Way", "__fid": 122967}, "geometry": {"type": "LineString", "coordinates": [[2.4496958, 48.8441717], [2.4483007, 48.844230899999985]]}}, {"type": "Feature", "properties": {"highway": "footway", "footway": null, "name": null, "surface": "dirt", "lit": "no", "length_m": 6.43, "type_element": "Way", "__fid": 122968}, "geometry": {"type": "LineString", "coordinates": [[2.448307, 48.8438571], [2.4483351, 48.8438023]]}}, {"type": "Feature", "properties": {"highway": "path", "footway": null, "name": null, "surface": "dirt", "lit": null, "length_m": 109.32, "type_element": "Way", "__fid": 122969}, "geometry": {"type": "LineString", "coordinates": [[2.448966, 48.8431911], [2.4489087, 48.84316720000002], [2.4488795, 48.8431724], [2.4488054, 48.8432233], [2.4487448, 48.8432352], [2.4487022, 48.8432359], [2.4486202, 48.8432093], [2.448572, 48.84321], [2.4485428, 48.8432196], [2.448508, 48.84329790000002], [2.4484856, 48.8433039], [2.4484362, 48.843346], [2.4483969, 48.8433659], [2.4482645, 48.8434139], [2.448214, 48.84342350000002], [2.4481736, 48.8434427], [2.4481758, 48.8434907], [2.4482353, 48.8435587], [2.4482746, 48.8435882], [2.4483271, 48.8437318]]}}, {"type": "Feature", "properties": {"highway": "track", "footway": null, "name": "Route du Grand Maréchal", "surface": "asphalt", "lit": null, "length_m": 1.58, "type_element": "Way", "__fid": 122970}, "geometry": {"type": "LineString", "coordinates": [[2.4483271, 48.8437318], [2.4483477, 48.8437277]]}}, {"type": "Feature", "properties": {"highway": "footway", "footway": null, "name": null, "surface": "dirt", "lit": "no", "length_m": 8.35, "type_element": "Way", "__fid": 122971}, "geometry": {"type": "LineString", "coordinates": [[2.4483351, 48.8438023], [2.4483477, 48.8437277]]}}, {"type": "Feature", "properties": {"highway": "path", "footway": null, "name": null, "surface": "dirt", "lit": null, "length_m": 160.09, "type_element": "Way", "__fid": 122972}, "geometry": {"type": "LineString", "coordinates": [[2.4483351, 48.8438023], [2.4505081, 48.8436773]]}}, {"type": "Feature", "properties": {"highway": "track", "footway": null, "name": "Route du Grand Maréchal", "surface": "asphalt", "lit": null, "length_m": 11.86, "type_element": "Way", "__fid": 122973}, "geometry": {"type": "LineString", "coordinates": [[2.4483477, 48.8437277], [2.4485024, 48.84369679999999]]}}, {"type": "Feature", "properties": {"highway": "path", "footway": null, "name": null, "surface": "dirt", "lit": null, "length_m": 78.8, "type_element": "Way", "__fid": 122984}, "geometry": {"type": "LineString", "coordinates": [[2.448966, 48.8431911], [2.4489396, 48.843278], [2.4489249, 48.8432872], [2.4488412, 48.8433008], [2.4487112, 48.8432974], [2.4486407, 48.843359699999986], [2.4485974, 48.8434327], [2.4484894, 48.84349120000002], [2.4484476, 48.843562699999985], [2.4485024, 48.84369679999999]]}}, {"type": "Feature", "properties": {"highway": "track", "footway": null, "name": "Route du Grand Maréchal", "surface": "asphalt", "lit": null, "length_m": 92.89, "type_element": "Way", "__fid": 122985}, "geometry": {"type": "LineString", "coordinates": [[2.4485024, 48.84369679999999], [2.4487754, 48.8436422], [2.4496361, 48.84343479999998], [2.4496875, 48.843409399999985]]}}, {"type": "Feature", "properties": {"highway": "path", "footway": null, "name": "Avenue de Nogent", "surface": null, "lit": null, "length_m": 19.39, "type_element": "Way", "__fid": 122996}, "geometry": {"type": "LineString", "coordinates": [[2.4488494, 48.8422067], [2.4487931, 48.8420363]]}}, {"type": "Feature", "properties": {"highway": "path", "footway": null, "name": null, "surface": null, "lit": null, "length_m": 32.51, "type_element": "Way", "__fid": 122997}, "geometry": {"type": "LineString", "coordinates": [[2.448985, 48.8417728], [2.4487931, 48.8420363]]}}, {"type": "Feature", "properties": {"highway": "path", "footway": null, "name": null, "surface": "dirt", "lit": null, "length_m": 14.58, "type_element": "Way", "__fid": 123009}, "geometry": {"type": "LineString", "coordinates": [[2.449082, 48.8430915], [2.4490411, 48.8431236], [2.4490063, 48.843179], [2.448966, 48.8431911]]}}, {"type": "Feature", "properties": {"highway": "path", "footway": null, "name": null, "surface": null, "lit": null, "length_m": 5.61, "type_element": "Way", "__fid": 123010}, "geometry": {"type": "LineString", "coordinates": [[2.448985, 48.8417728], [2.4490555, 48.8417924]]}}, {"type": "Feature", "properties": {"highway": "path", "footway": null, "name": null, "surface": "dirt", "lit": null, "length_m": 4.16, "type_element": "Way", "__fid": 123011}, "geometry": {"type": "LineString", "coordinates": [[2.4490065, 48.8417382], [2.448985, 48.8417728]]}}, {"type": "Feature", "properties": {"highway": "footway", "footway": "crossing", "name": null, "surface": null, "lit": null, "length_m": 20.8, "type_element": "Way", "__fid": 123016}, "geometry": {"type": "LineString", "coordinates": [[2.4492585, 48.8418237], [2.4490065, 48.8417382]]}}, {"type": "Feature", "properties": {"highway": "path", "footway": null, "name": null, "surface": "dirt", "lit": null, "length_m": 252.32, "type_element": "Way", "__fid": 123017}, "geometry": {"type": "LineString", "coordinates": [[2.4503808, 48.83965850000001], [2.449929, 48.8403407], [2.4496917, 48.840680100000014], [2.4493651, 48.8412101], [2.4490065, 48.8417382]]}}, {"type": "Feature", "properties": {"highway": "footway", "footway": null, "name": null, "surface": "asphalt", "lit": "yes", "length_m": 6.49, "type_element": "Way", "__fid": 123018}, "geometry": {"type": "LineString", "coordinates": [[2.449098, 48.8422923], [2.4490147, 48.8422728]]}}, {"type": "Feature", "properties": {"highway": "path", "footway": null, "name": null, "surface": "dirt", "lit": null, "length_m": 70.6, "type_element": "Way", "__fid": 123021}, "geometry": {"type": "LineString", "coordinates": [[2.4496673, 48.84260350000001], [2.4495388, 48.842657], [2.4494499, 48.84270440000003], [2.4493589, 48.842806399999986], [2.449284, 48.842860500000015], [2.4491459, 48.8429973], [2.449082, 48.8430915]]}}, {"type": "Feature", "properties": {"highway": "path", "footway": null, "name": null, "surface": "dirt", "lit": null, "length_m": 61.9, "type_element": "Way", "__fid": 123022}, "geometry": {"type": "LineString", "coordinates": [[2.4496875, 48.843409399999985], [2.4495955, 48.8433327], [2.4495057, 48.8432802], [2.4494564, 48.8432603], [2.4494642, 48.8432196], [2.4494148, 48.8432167], [2.44938, 48.8431842], [2.4493464, 48.8431775], [2.4491724, 48.8430889], [2.449082, 48.8430915]]}}, {"type": "Feature", "properties": {"highway": "footway", "footway": null, "name": null, "surface": "asphalt", "lit": "yes", "length_m": 21.66, "type_element": "Way", "__fid": 123023}, "geometry": {"type": "LineString", "coordinates": [[2.4493742, 48.8423608], [2.449098, 48.8422923]]}}, {"type": "Feature", "properties": {"highway": "footway", "footway": null, "name": "Avenue de la Pépinière", "surface": "asphalt", "lit": "yes", "length_m": 76.67, "type_element": "Way", "__fid": 123024}, "geometry": {"type": "LineString", "coordinates": [[2.4497127, 48.8425399], [2.4492946, 48.84220770000002], [2.4492601, 48.8421721], [2.4492593, 48.8421414], [2.449098, 48.8422923]]}}, {"type": "Feature", "properties": {"highway": "footway", "footway": "crossing", "name": null, "surface": "asphalt", "lit": "no", "length_m": 27.97, "type_element": "Way", "__fid": 123036}, "geometry": {"type": "LineString", "coordinates": [[2.4492442, 48.8418635], [2.4492341, 48.84200580000001], [2.4493041, 48.8421046]]}}, {"type": "Feature", "properties": {"highway": "path", "footway": null, "name": null, "surface": "asphalt", "lit": "no", "length_m": 4.55, "type_element": "Way", "__fid": 123037}, "geometry": {"type": "LineString", "coordinates": [[2.4492585, 48.8418237], [2.4492442, 48.8418635]]}}, {"type": "Feature", "properties": {"highway": "path", "footway": null, "name": "Avenue de Nogent", "surface": "dirt", "lit": null, "length_m": 292.19, "type_element": "Way", "__fid": 123038}, "geometry": {"type": "LineString", "coordinates": [[2.4528691, 48.8407858], [2.4522699, 48.84094049999998], [2.4505775, 48.8414273], [2.4501101, 48.8415742], [2.4497648, 48.8416709], [2.4495904, 48.8417305], [2.449292, 48.8418545], [2.4492442, 48.8418635]]}}, {"type": "Feature", "properties": {"highway": "path", "footway": null, "name": null, "surface": "asphalt", "lit": "no", "length_m": 39.07, "type_element": "Way", "__fid": 123039}, "geometry": {"type": "LineString", "coordinates": [[2.44951, 48.8415177], [2.4494357, 48.8415685], [2.4492585, 48.8418237]]}}, {"type": "Feature", "properties": {"highway": "path", "footway": null, "name": null, "surface": "dirt", "lit": null, "length_m": 233.03, "type_element": "Way", "__fid": 123052}, "geometry": {"type": "LineString", "coordinates": [[2.44951, 48.8415177], [2.4495462, 48.8414423], [2.4496655, 48.8412763], [2.4498063, 48.8411245], [2.4499887, 48.8409639], [2.4502355, 48.8406541], [2.4504018, 48.8403275], [2.450619, 48.8399682], [2.4508138, 48.8396183]]}}, {"type": "Feature", "properties": {"highway": "path", "footway": null, "name": null, "surface": "asphalt", "lit": "no", "length_m": 79.65, "type_element": "Way", "__fid": 123053}, "geometry": {"type": "LineString", "coordinates": [[2.44951, 48.8415177], [2.4496828, 48.8414662], [2.4504242, 48.841331299999986], [2.4505435, 48.8413035]]}}, {"type": "Feature", "properties": {"highway": "track", "footway": null, "name": "Route du Grand Maréchal", "surface": "asphalt", "lit": null, "length_m": 49.28, "type_element": "Way", "__fid": 123066}, "geometry": {"type": "LineString", "coordinates": [[2.4496875, 48.843409399999985], [2.4499109, 48.8432993], [2.4501896, 48.84311679999998]]}}, {"type": "Feature", "properties": {"highway": "footway", "footway": null, "name": "Avenue de la Pépinière", "surface": "asphalt", "lit": "yes", "length_m": 60.45, "type_element": "Way", "__fid": 123068}, "geometry": {"type": "LineString", "coordinates": [[2.4497127, 48.8425399], [2.449793, 48.8426029], [2.4501829, 48.8429858]]}}, {"type": "Feature", "properties": {"highway": "path", "footway": null, "name": null, "surface": "dirt", "lit": null, "length_m": 108.38, "type_element": "Way", "__fid": 123069}, "geometry": {"type": "LineString", "coordinates": [[2.4497127, 48.8425399], [2.4498163, 48.8425102], [2.4498248, 48.84248509999998], [2.4498637, 48.842458399999984], [2.449933, 48.8424623], [2.4499939, 48.842456200000015], [2.4501656, 48.8424267], [2.4503001, 48.84243449999999], [2.4503653, 48.8424489], [2.4504329, 48.842502400000015], [2.4505251, 48.8425257], [2.4505446, 48.8425491], [2.450542, 48.842582], [2.4504693, 48.8426877], [2.4505657, 48.8428085], [2.450587, 48.8428587]]}}, {"type": "Feature", "properties": {"highway": "footway", "footway": null, "name": null, "surface": "dirt", "lit": "no", "length_m": 87.78, "type_element": "Way", "__fid": 123070}, "geometry": {"type": "LineString", "coordinates": [[2.4507952, 48.84443850000001], [2.4506086, 48.8444533], [2.4504192, 48.8444048], [2.4496958, 48.8441717]]}}, {"type": "Feature", "properties": {"highway": "track", "footway": null, "name": "Route du Donjon", "surface": "asphalt", "lit": null, "length_m": 82.25, "type_element": "Way", "__fid": 123071}, "geometry": {"type": "LineString", "coordinates": [[2.4508143, 48.8441256], [2.4496958, 48.8441717]]}}, {"type": "Feature", "properties": {"highway": "path", "footway": null, "name": null, "surface": "compacted", "lit": null, "length_m": 11.2, "type_element": "Way", "__fid": 123092}, "geometry": {"type": "LineString", "coordinates": [[2.4502541, 48.84307490000001], [2.4501829, 48.8429858]]}}, {"type": "Feature", "properties": {"highway": "footway", "footway": null, "name": "Avenue de la Pépinière", "surface": "asphalt", "lit": "yes", "length_m": 14.57, "type_element": "Way", "__fid": 123093}, "geometry": {"type": "LineString", "coordinates": [[2.4501829, 48.8429858], [2.4501896, 48.84311679999998]]}}, {"type": "Feature", "properties": {"highway": "track", "footway": null, "name": "Route du Grand Maréchal", "surface": "asphalt", "lit": null, "length_m": 6.64, "type_element": "Way", "__fid": 123094}, "geometry": {"type": "LineString", "coordinates": [[2.4501896, 48.84311679999998], [2.4502541, 48.84307490000001]]}}, {"type": "Feature", "properties": {"highway": "path", "footway": null, "name": null, "surface": "compacted", "lit": null, "length_m": 68.25, "type_element": "Way", "__fid": 123101}, "geometry": {"type": "LineString", "coordinates": [[2.4505687, 48.84365159999999], [2.4505436, 48.8436148], [2.4504322, 48.8433654], [2.4502541, 48.84307490000001]]}}, {"type": "Feature", "properties": {"highway": "track", "footway": null, "name": "Route du Grand Maréchal", "surface": "asphalt", "lit": null, "length_m": 34.28, "type_element": "Way", "__fid": 123102}, "geometry": {"type": "LineString", "coordinates": [[2.4502541, 48.84307490000001], [2.450587, 48.8428587]]}}, {"type": "Feature", "properties": {"highway": "footway", "footway": null, "name": null, "surface": "dirt", "lit": "no", "length_m": 5.29, "type_element": "Way", "__fid": 123111}, "geometry": {"type": "LineString", "coordinates": [[2.4505081, 48.8436773], [2.4505687, 48.84365159999999]]}}, {"type": "Feature", "properties": {"highway": "footway", "footway": null, "name": null, "surface": "dirt", "lit": "no", "length_m": 5.23, "type_element": "Way", "__fid": 123112}, "geometry": {"type": "LineString", "coordinates": [[2.4505081, 48.8436773], [2.4505792, 48.84367480000003]]}}, {"type": "Feature", "properties": {"highway": "path", "footway": null, "name": null, "surface": "compacted", "lit": null, "length_m": 2.69, "type_element": "Way", "__fid": 123117}, "geometry": {"type": "LineString", "coordinates": [[2.4505792, 48.84367480000003], [2.4505687, 48.84365159999999]]}}, {"type": "Feature", "properties": {"highway": "footway", "footway": null, "name": null, "surface": "dirt", "lit": "no", "length_m": 63.83, "type_element": "Way", "__fid": 123118}, "geometry": {"type": "LineString", "coordinates": [[2.4505687, 48.84365159999999], [2.4513002, 48.8433411]]}}, {"type": "Feature", "properties": {"highway": "track", "footway": null, "name": "Route du Grand Maréchal", "surface": "asphalt", "lit": null, "length_m": 48.96, "type_element": "Way", "__fid": 123119}, "geometry": {"type": "LineString", "coordinates": [[2.450587, 48.8428587], [2.4510187, 48.8425782], [2.4510706, 48.842556600000016]]}}, {"type": "Feature", "properties": {"highway": "path", "footway": null, "name": null, "surface": "compacted", "lit": null, "length_m": 53.4, "type_element": "Way", "__fid": 123120}, "geometry": {"type": "LineString", "coordinates": [[2.4508143, 48.8441256], [2.4507929, 48.8440711], [2.4507046, 48.8439761], [2.4505792, 48.84367480000003]]}}, {"type": "Feature", "properties": {"highway": "footway", "footway": null, "name": null, "surface": "dirt", "lit": "no", "length_m": 44.83, "type_element": "Way", "__fid": 123121}, "geometry": {"type": "LineString", "coordinates": [[2.4505792, 48.84367480000003], [2.4511892, 48.8436538]]}}, {"type": "Feature", "properties": {"highway": "footway", "footway": null, "name": null, "surface": "dirt", "lit": "no", "length_m": 9.61, "type_element": "Way", "__fid": 123145}, "geometry": {"type": "LineString", "coordinates": [[2.4508815, 48.8444057], [2.4508088, 48.8444776]]}}, {"type": "Feature", "properties": {"highway": "path", "footway": null, "name": null, "surface": "compacted", "lit": null, "length_m": 32.06, "type_element": "Way", "__fid": 123148}, "geometry": {"type": "LineString", "coordinates": [[2.4508815, 48.8444057], [2.4508152, 48.8442743], [2.4508061, 48.844233], [2.4508185, 48.84417649999999], [2.4508143, 48.8441256]]}}, {"type": "Feature", "properties": {"highway": "track", "footway": null, "name": "Route du Donjon", "surface": "asphalt", "lit": null, "length_m": 22.56, "type_element": "Way", "__fid": 123149}, "geometry": {"type": "LineString", "coordinates": [[2.4511213, 48.8441158], [2.4508143, 48.8441256]]}}, {"type": "Feature", "properties": {"highway": "footway", "footway": null, "name": null, "surface": "dirt", "lit": "no", "length_m": 36.91, "type_element": "Way", "__fid": 123151}, "geometry": {"type": "LineString", "coordinates": [[2.4511213, 48.8441158], [2.45101, 48.84428430000002], [2.4508815, 48.8444057]]}}, {"type": "Feature", "properties": {"highway": "footway", "footway": null, "name": null, "surface": "dirt", "lit": "no", "length_m": 91.7, "type_element": "Way", "__fid": 123161}, "geometry": {"type": "LineString", "coordinates": [[2.4510706, 48.842556600000016], [2.4510978, 48.8425835], [2.4512252, 48.8427848], [2.4513325, 48.8430125], [2.4513593, 48.8431652], [2.4513446, 48.8432675], [2.4513002, 48.8433411]]}}, {"type": "Feature", "properties": {"highway": "track", "footway": null, "name": "Route du Grand Maréchal", "surface": "asphalt", "lit": null, "length_m": 88.82, "type_element": "Way", "__fid": 123162}, "geometry": {"type": "LineString", "coordinates": [[2.4510706, 48.842556600000016], [2.4520926, 48.8421288]]}}, {"type": "Feature", "properties": {"highway": "footway", "footway": null, "name": null, "surface": "dirt", "lit": "no", "length_m": 15.68, "type_element": "Way", "__fid": 123168}, "geometry": {"type": "LineString", "coordinates": [[2.45114, 48.8439753], [2.4511213, 48.8441158]]}}, {"type": "Feature", "properties": {"highway": "track", "footway": null, "name": "Route du Donjon", "surface": "asphalt", "lit": null, "length_m": 181.68, "type_element": "Way", "__fid": 123169}, "geometry": {"type": "LineString", "coordinates": [[2.4535896, 48.8439913], [2.4511213, 48.8441158]]}}, {"type": "Feature", "properties": {"highway": "footway", "footway": null, "name": null, "surface": "dirt", "lit": "no", "length_m": 35.93, "type_element": "Way", "__fid": 123170}, "geometry": {"type": "LineString", "coordinates": [[2.4511892, 48.8436538], [2.45114, 48.8439753]]}}, {"type": "Feature", "properties": {"highway": "footway", "footway": null, "name": null, "surface": "dirt", "lit": "no", "length_m": 49.71, "type_element": "Way", "__fid": 123171}, "geometry": {"type": "LineString", "coordinates": [[2.4515778, 48.8436358], [2.4515558, 48.8436664], [2.45114, 48.8439753]]}}, {"type": "Feature", "properties": {"highway": "footway", "footway": null, "name": null, "surface": "dirt", "lit": "no", "length_m": 35.71, "type_element": "Way", "__fid": 123175}, "geometry": {"type": "LineString", "coordinates": [[2.4513002, 48.8433411], [2.4511892, 48.8436538]]}}, {"type": "Feature", "properties": {"highway": "footway", "footway": null, "name": null, "surface": "dirt", "lit": "no", "length_m": 28.59, "type_element": "Way", "__fid": 123176}, "geometry": {"type": "LineString", "coordinates": [[2.4511892, 48.8436538], [2.4515778, 48.8436358]]}}, {"type": "Feature", "properties": {"highway": "footway", "footway": null, "name": null, "surface": "dirt", "lit": "no", "length_m": 118.02, "type_element": "Way", "__fid": 123178}, "geometry": {"type": "LineString", "coordinates": [[2.4513002, 48.8433411], [2.4517586, 48.84314], [2.45234, 48.8429661], [2.4527467, 48.842898500000025]]}}, {"type": "Feature", "properties": {"highway": "footway", "footway": null, "name": null, "surface": "dirt", "lit": "no", "length_m": 120.04, "type_element": "Way", "__fid": 123191}, "geometry": {"type": "LineString", "coordinates": [[2.4527467, 48.842898500000025], [2.4521485, 48.8432198], [2.4516818, 48.843491600000014], [2.4515778, 48.8436358]]}}, {"type": "Feature", "properties": {"highway": "footway", "footway": null, "name": null, "surface": "dirt", "lit": "no", "length_m": 290.01, "type_element": "Way", "__fid": 123192}, "geometry": {"type": "LineString", "coordinates": [[2.4515778, 48.8436358], [2.4530231, 48.8435655], [2.4533544, 48.8435399], [2.4537735, 48.8434936], [2.4543005, 48.8435073], [2.4549838, 48.8434711], [2.4552561, 48.8434384], [2.4553352, 48.8434371], [2.4555085, 48.8434529]]}}, {"type": "Feature", "properties": {"highway": "path", "footway": null, "name": null, "surface": "gravel", "lit": null, "length_m": 33.57, "type_element": "Way", "__fid": 123227}, "geometry": {"type": "LineString", "coordinates": [[2.4520926, 48.8421288], [2.4521383, 48.84219130000001], [2.452377, 48.8423623]]}}, {"type": "Feature", "properties": {"highway": "path", "footway": null, "name": "Route des Dames", "surface": "sand", "lit": null, "length_m": 160.34, "type_element": "Way", "__fid": 123228}, "geometry": {"type": "LineString", "coordinates": [[2.4520926, 48.8421288], [2.4521021, 48.8420756], [2.4527888, 48.840979], [2.452795, 48.840922], [2.4528691, 48.8407858]]}}, {"type": "Feature", "properties": {"highway": "track", "footway": null, "name": "Route du Grand Maréchal", "surface": "asphalt", "lit": null, "length_m": 309.19, "type_element": "Way", "__fid": 123229}, "geometry": {"type": "LineString", "coordinates": [[2.4520926, 48.8421288], [2.4523504, 48.8420421], [2.452606, 48.8419819], [2.4528081, 48.8419517], [2.453369, 48.8418956], [2.4535978, 48.8418463], [2.4540073, 48.8417351], [2.4544648, 48.8416292], [2.4546504, 48.841595400000024], [2.455388, 48.8414979], [2.4560063, 48.8413717], [2.4561122, 48.8413385]]}}]}