{"type": "FeatureCollection", "features": [{"type": "Feature", "properties": {"@id": "node/2994567174", "amenity": "drinking_water", "type_element": "Fontaines à boire", "__fid": 412}, "geometry": {"type": "Point", "coordinates": [2.4454995, 48.8209696]}, "id": "node/2994567174"}, {"type": "Feature", "properties": {"highway": "path", "footway": null, "name": null, "surface": null, "lit": null, "length_m": 274.78, "type_element": "Way", "__fid": 121932}, "geometry": {"type": "LineString", "coordinates": [[2.4439535, 48.8192353], [2.443755, 48.8192356], [2.4434788, 48.819272], [2.4431169, 48.819276], [2.442673, 48.8192937], [2.4415947, 48.8193475], [2.4402273, 48.8194365]]}}, {"type": "Feature", "properties": {"highway": "path", "footway": null, "name": null, "surface": null, "lit": null, "length_m": 277.31, "type_element": "Way", "__fid": 121945}, "geometry": {"type": "LineString", "coordinates": [[2.4402979, 48.8198827], [2.4417248, 48.8197795], [2.4432611, 48.819706], [2.4439351, 48.8197089], [2.4440441, 48.8197519]]}}, {"type": "Feature", "properties": {"highway": "service", "footway": null, "name": "Route de la Tourelle", "surface": "asphalt", "lit": null, "length_m": 172.41, "type_element": "Way", "__fid": 122089}, "geometry": {"type": "LineString", "coordinates": [[2.4416966, 48.82120230000003], [2.4427382, 48.8210729], [2.4439821, 48.8208514]]}}, {"type": "Feature", "properties": {"highway": "path", "footway": null, "name": null, "surface": null, "lit": null, "length_m": 126.36, "type_element": "Way", "__fid": 122149}, "geometry": {"type": "LineString", "coordinates": [[2.4422002, 48.8216857], [2.4425992, 48.8214668], [2.4427133, 48.8214259], [2.442903, 48.8213874], [2.4430593, 48.8213165], [2.4432416, 48.8212557], [2.4433744, 48.821261700000015], [2.4435789, 48.8212385], [2.4437016, 48.82119460000001]]}}, {"type": "Feature", "properties": {"highway": "path", "footway": null, "name": null, "surface": "ground", "lit": null, "length_m": 200.33, "type_element": "Way", "__fid": 122152}, "geometry": {"type": "LineString", "coordinates": [[2.4422652, 48.8180086], [2.442707, 48.8180486], [2.4433373, 48.8181669], [2.4436968, 48.81826049999999], [2.4440244, 48.8183325], [2.4447497, 48.8185122], [2.4447876, 48.8185375], [2.4447963, 48.8185812]]}}, {"type": "Feature", "properties": {"highway": "path", "footway": null, "name": null, "surface": null, "lit": null, "length_m": 543.23, "type_element": "Way", "__fid": 122153}, "geometry": {"type": "LineString", "coordinates": [[2.4422652, 48.8180086], [2.44412, 48.8179943], [2.4458621, 48.8180088], [2.4476042, 48.8180738], [2.4489882, 48.8180279], [2.4496555, 48.817986]]}}, {"type": "Feature", "properties": {"highway": "path", "footway": null, "name": null, "surface": "asphalt", "lit": null, "length_m": 135.07, "type_element": "Way", "__fid": 122176}, "geometry": {"type": "LineString", "coordinates": [[2.4423988, 48.822009100000024], [2.44263, 48.821849], [2.4428366, 48.8217944], [2.4430753, 48.8217131], [2.4433456, 48.821612], [2.4436036, 48.8215037], [2.4438832, 48.8213175]]}}, {"type": "Feature", "properties": {"highway": "path", "footway": null, "name": null, "surface": "compacted", "lit": null, "length_m": 82.46, "type_element": "Way", "__fid": 122248}, "geometry": {"type": "LineString", "coordinates": [[2.4430814, 48.8187796], [2.4432215, 48.8188266], [2.4435122, 48.8189433], [2.4436798, 48.819039], [2.4439535, 48.8192353]]}}, {"type": "Feature", "properties": {"highway": "footway", "footway": null, "name": "Sentier Laurent Fignon", "surface": null, "lit": null, "length_m": 116.97, "type_element": "Way", "__fid": 122261}, "geometry": {"type": "LineString", "coordinates": [[2.4432061, 48.8185429], [2.4433662, 48.818559399999984], [2.4435192, 48.81856539999998], [2.4442147, 48.8185647], [2.4447963, 48.8185812]]}}, {"type": "Feature", "properties": {"highway": "path", "footway": null, "name": "Avenue de Gravelle", "surface": "asphalt", "lit": "yes", "length_m": 116.58, "type_element": "Way", "__fid": 122265}, "geometry": {"type": "LineString", "coordinates": [[2.4432154, 48.8186796], [2.4432569, 48.818669100000015], [2.4438334, 48.818667], [2.4447998, 48.818684900000015]]}}, {"type": "Feature", "properties": {"highway": "service", "footway": null, "name": null, "surface": null, "lit": null, "length_m": 25.68, "type_element": "Way", "__fid": 122338}, "geometry": {"type": "LineString", "coordinates": [[2.4436688, 48.8206178], [2.4439692, 48.8207361]]}}, {"type": "Feature", "properties": {"highway": "path", "footway": null, "name": null, "surface": null, "lit": null, "length_m": 43.68, "type_element": "Way", "__fid": 122340}, "geometry": {"type": "LineString", "coordinates": [[2.4437016, 48.82119460000001], [2.4437901, 48.8210535], [2.4439222, 48.8209392], [2.4439821, 48.8208514]]}}, {"type": "Feature", "properties": {"highway": "path", "footway": null, "name": null, "surface": null, "lit": null, "length_m": 11.44, "type_element": "Way", "__fid": 122341}, "geometry": {"type": "LineString", "coordinates": [[2.4437016, 48.82119460000001], [2.4438451, 48.8211546]]}}, {"type": "Feature", "properties": {"highway": "path", "footway": null, "name": null, "surface": null, "lit": null, "length_m": 19.33, "type_element": "Way", "__fid": 122360}, "geometry": {"type": "LineString", "coordinates": [[2.4438832, 48.8213175], [2.4438944, 48.8211985], [2.4438451, 48.8211546]]}}, {"type": "Feature", "properties": {"highway": "path", "footway": null, "name": null, "surface": null, "lit": null, "length_m": 62.08, "type_element": "Way", "__fid": 122361}, "geometry": {"type": "LineString", "coordinates": [[2.4438451, 48.8211546], [2.4441791, 48.82105689999999], [2.4446371, 48.82096150000002]]}}, {"type": "Feature", "properties": {"highway": "service", "footway": null, "name": null, "surface": null, "lit": null, "length_m": 33.44, "type_element": "Way", "__fid": 122365}, "geometry": {"type": "LineString", "coordinates": [[2.4439764, 48.8200824], [2.4439408, 48.8200964], [2.4439001, 48.8201016], [2.4438592, 48.820097400000016], [2.4438229, 48.8200841], [2.4437957, 48.82006350000001], [2.4437809, 48.820038], [2.4437802, 48.8200107], [2.4437937, 48.8199849], [2.4438198, 48.8199637], [2.4438554, 48.819949700000016], [2.4438961, 48.8199445]]}}, {"type": "Feature", "properties": {"highway": "service", "footway": null, "name": null, "surface": null, "lit": null, "length_m": 25.03, "type_element": "Way", "__fid": 122366}, "geometry": {"type": "LineString", "coordinates": [[2.4440441, 48.8197519], [2.4439448, 48.8198206], [2.4439041, 48.8198774], [2.4438961, 48.8199445]]}}, {"type": "Feature", "properties": {"highway": "path", "footway": null, "name": null, "surface": "compacted", "lit": null, "length_m": 68.06, "type_element": "Way", "__fid": 122367}, "geometry": {"type": "LineString", "coordinates": [[2.4438832, 48.8213175], [2.4441298, 48.8211954], [2.4446371, 48.82096150000002]]}}, {"type": "Feature", "properties": {"highway": "service", "footway": null, "name": "Route du Point de Vue", "surface": null, "lit": null, "length_m": 63.97, "type_element": "Way", "__fid": 122371}, "geometry": {"type": "LineString", "coordinates": [[2.4439535, 48.8192353], [2.4440526, 48.8192361], [2.4444761, 48.8193281], [2.4447926, 48.8193806]]}}, {"type": "Feature", "properties": {"highway": "path", "footway": null, "name": null, "surface": "compacted", "lit": null, "length_m": 63.02, "type_element": "Way", "__fid": 122372}, "geometry": {"type": "LineString", "coordinates": [[2.4439535, 48.8192353], [2.4442145, 48.8194428], [2.4444669, 48.8196887]]}}, {"type": "Feature", "properties": {"highway": "service", "footway": null, "name": null, "surface": "asphalt", "lit": null, "length_m": 12.86, "type_element": "Way", "__fid": 122373}, "geometry": {"type": "LineString", "coordinates": [[2.4439692, 48.8207361], [2.4439821, 48.8208514]]}}, {"type": "Feature", "properties": {"highway": "path", "footway": null, "name": null, "surface": null, "lit": null, "length_m": 104.63, "type_element": "Way", "__fid": 122374}, "geometry": {"type": "LineString", "coordinates": [[2.4439692, 48.8207361], [2.4440098, 48.8206224], [2.4441321, 48.8204986], [2.4442876, 48.8203946], [2.4445125, 48.8202845], [2.4446994, 48.8202774], [2.445034, 48.8202956]]}}, {"type": "Feature", "properties": {"highway": "service", "footway": null, "name": null, "surface": null, "lit": null, "length_m": 16.54, "type_element": "Way", "__fid": 122375}, "geometry": {"type": "LineString", "coordinates": [[2.4439764, 48.8200824], [2.4440357, 48.8202259]]}}, {"type": "Feature", "properties": {"highway": "footway", "footway": null, "name": null, "surface": "compacted", "lit": "no", "length_m": 107.82, "type_element": "Way", "__fid": 122376}, "geometry": {"type": "LineString", "coordinates": [[2.4439601, 48.822798800000015], [2.4440665, 48.8233919], [2.4441438, 48.82343140000001], [2.4446077, 48.8234007]]}}, {"type": "Feature", "properties": {"highway": "footway", "footway": null, "name": null, "surface": "compacted", "lit": null, "length_m": 155.87, "type_element": "Way", "__fid": 122377}, "geometry": {"type": "LineString", "coordinates": [[2.4447789, 48.82196219999999], [2.4438288, 48.8220333], [2.4439601, 48.822798800000015]]}}, {"type": "Feature", "properties": {"highway": "footway", "footway": null, "name": null, "surface": null, "lit": null, "length_m": 39.57, "type_element": "Way", "__fid": 122378}, "geometry": {"type": "LineString", "coordinates": [[2.4444957, 48.822759], [2.4439601, 48.822798800000015]]}}, {"type": "Feature", "properties": {"highway": "service", "footway": null, "name": "Route de la Tourelle", "surface": "asphalt", "lit": null, "length_m": 72.83, "type_element": "Way", "__fid": 122379}, "geometry": {"type": "LineString", "coordinates": [[2.4439821, 48.8208514], [2.4449402, 48.820681700000016]]}}, {"type": "Feature", "properties": {"highway": "service", "footway": null, "name": null, "surface": null, "lit": null, "length_m": 31.83, "type_element": "Way", "__fid": 122386}, "geometry": {"type": "LineString", "coordinates": [[2.4444669, 48.8196887], [2.4440441, 48.8197519]]}}, {"type": "Feature", "properties": {"highway": "track", "footway": null, "name": null, "surface": null, "lit": null, "length_m": 23.49, "type_element": "Way", "__fid": 122391}, "geometry": {"type": "LineString", "coordinates": [[2.4440295, 48.8238196], [2.4440411, 48.823608499999985]]}}, {"type": "Feature", "properties": {"highway": "footway", "footway": null, "name": null, "surface": null, "lit": null, "length_m": 28.95, "type_element": "Way", "__fid": 122411}, "geometry": {"type": "LineString", "coordinates": [[2.4444379, 48.8201087], [2.4448242, 48.8200564]]}}, {"type": "Feature", "properties": {"highway": "path", "footway": null, "name": null, "surface": "compacted", "lit": null, "length_m": 48.58, "type_element": "Way", "__fid": 122414}, "geometry": {"type": "LineString", "coordinates": [[2.4444669, 48.8196887], [2.4448242, 48.8200564]]}}, {"type": "Feature", "properties": {"highway": "service", "footway": null, "name": null, "surface": null, "lit": null, "length_m": 6.78, "type_element": "Way", "__fid": 122415}, "geometry": {"type": "LineString", "coordinates": [[2.4445585, 48.8196811], [2.4444669, 48.8196887]]}}, {"type": "Feature", "properties": {"highway": "footway", "footway": null, "name": null, "surface": "dirt", "lit": "no", "length_m": 71.82, "type_element": "Way", "__fid": 122421}, "geometry": {"type": "LineString", "coordinates": [[2.4444957, 48.822759], [2.4446077, 48.8234007]]}}, {"type": "Feature", "properties": {"highway": "footway", "footway": null, "name": null, "surface": null, "lit": null, "length_m": 31.56, "type_element": "Way", "__fid": 122422}, "geometry": {"type": "LineString", "coordinates": [[2.4449248, 48.822742], [2.4444957, 48.822759]]}}, {"type": "Feature", "properties": {"highway": "footway", "footway": null, "name": null, "surface": "compacted", "lit": null, "length_m": 32.16, "type_element": "Way", "__fid": 122433}, "geometry": {"type": "LineString", "coordinates": [[2.4446077, 48.8234007], [2.4450436, 48.8233718]]}}, {"type": "Feature", "properties": {"highway": "footway", "footway": null, "name": null, "surface": null, "lit": null, "length_m": 111.76, "type_element": "Way", "__fid": 122434}, "geometry": {"type": "LineString", "coordinates": [[2.4447789, 48.82196219999999], [2.4446371, 48.82096150000002]]}}, {"type": "Feature", "properties": {"highway": "path", "footway": null, "name": null, "surface": "compacted", "lit": null, "length_m": 39.46, "type_element": "Way", "__fid": 122435}, "geometry": {"type": "LineString", "coordinates": [[2.4446371, 48.82096150000002], [2.4449442, 48.820725], [2.4449402, 48.820681700000016]]}}, {"type": "Feature", "properties": {"highway": "path", "footway": null, "name": null, "surface": "compacted", "lit": null, "length_m": 59.5, "type_element": "Way", "__fid": 122436}, "geometry": {"type": "LineString", "coordinates": [[2.4446371, 48.82096150000002], [2.4448017, 48.8209205], [2.4454276, 48.8208522]]}}, {"type": "Feature", "properties": {"highway": "footway", "footway": null, "name": "Sentier Laurent Fignon", "surface": null, "lit": null, "length_m": 66.26, "type_element": "Way", "__fid": 122441}, "geometry": {"type": "LineString", "coordinates": [[2.4447963, 48.8185812], [2.4454045, 48.8185939], [2.445698, 48.8185832]]}}, {"type": "Feature", "properties": {"highway": "footway", "footway": "crossing", "name": null, "surface": "ground", "lit": null, "length_m": 11.53, "type_element": "Way", "__fid": 122442}, "geometry": {"type": "LineString", "coordinates": [[2.4447963, 48.8185812], [2.4447998, 48.818684900000015]]}}, {"type": "Feature", "properties": {"highway": "path", "footway": null, "name": null, "surface": "ground", "lit": null, "length_m": 9.14, "type_element": "Way", "__fid": 122443}, "geometry": {"type": "LineString", "coordinates": [[2.4447998, 48.818684900000015], [2.444924, 48.81869020000001]]}}, {"type": "Feature", "properties": {"highway": "service", "footway": null, "name": "Route du Point de Vue", "surface": null, "lit": null, "length_m": 23.69, "type_element": "Way", "__fid": 122444}, "geometry": {"type": "LineString", "coordinates": [[2.4447926, 48.8193806], [2.4451143, 48.8193971]]}}, {"type": "Feature", "properties": {"highway": "service", "footway": null, "name": null, "surface": null, "lit": null, "length_m": 54.98, "type_element": "Way", "__fid": 122445}, "geometry": {"type": "LineString", "coordinates": [[2.4447926, 48.8193806], [2.4448515, 48.8193054], [2.4448825, 48.819293799999976], [2.4452824, 48.8192615], [2.4453076, 48.8192716], [2.445387, 48.8193576]]}}, {"type": "Feature", "properties": {"highway": "footway", "footway": null, "name": null, "surface": null, "lit": null, "length_m": 6.02, "type_element": "Way", "__fid": 122448}, "geometry": {"type": "LineString", "coordinates": [[2.4447789, 48.82196219999999], [2.4447889, 48.8220159]]}}, {"type": "Feature", "properties": {"highway": "footway", "footway": null, "name": null, "surface": null, "lit": null, "length_m": 35.24, "type_element": "Way", "__fid": 122450}, "geometry": {"type": "LineString", "coordinates": [[2.4447889, 48.8220159], [2.4448481, 48.822330399999984]]}}, {"type": "Feature", "properties": {"highway": "footway", "footway": null, "name": null, "surface": "compacted", "lit": null, "length_m": 67.45, "type_element": "Way", "__fid": 122451}, "geometry": {"type": "LineString", "coordinates": [[2.4452757, 48.82230220000001], [2.4452261, 48.8219874], [2.4447889, 48.8220159]]}}, {"type": "Feature", "properties": {"highway": "path", "footway": null, "name": null, "surface": "compacted", "lit": null, "length_m": 30.74, "type_element": "Way", "__fid": 122452}, "geometry": {"type": "LineString", "coordinates": [[2.4448242, 48.8200564], [2.445034, 48.8202956]]}}, {"type": "Feature", "properties": {"highway": "footway", "footway": null, "name": null, "surface": null, "lit": null, "length_m": 4.99, "type_element": "Way", "__fid": 122453}, "geometry": {"type": "LineString", "coordinates": [[2.4448242, 48.8200564], [2.4448832, 48.8200341]]}}, {"type": "Feature", "properties": {"highway": "service", "footway": null, "name": "Route du Point de Vue", "surface": null, "lit": null, "length_m": 73.61, "type_element": "Way", "__fid": 122459}, "geometry": {"type": "LineString", "coordinates": [[2.4451143, 48.8193971], [2.4449498, 48.8195046], [2.4448556, 48.8196612], [2.4448567, 48.8200019]]}}, {"type": "Feature", "properties": {"highway": "footway", "footway": null, "name": null, "surface": null, "lit": null, "length_m": 46.11, "type_element": "Way", "__fid": 122462}, "geometry": {"type": "LineString", "coordinates": [[2.4448481, 48.822330399999984], [2.4449248, 48.822742]]}}, {"type": "Feature", "properties": {"highway": "track", "footway": null, "name": null, "surface": null, "lit": null, "length_m": 31.55, "type_element": "Way", "__fid": 122463}, "geometry": {"type": "LineString", "coordinates": [[2.4448481, 48.822330399999984], [2.4452757, 48.82230220000001]]}}, {"type": "Feature", "properties": {"highway": "path", "footway": null, "name": "Avenue de Gravelle", "surface": "asphalt", "lit": "yes", "length_m": 56.42, "type_element": "Way", "__fid": 122464}, "geometry": {"type": "LineString", "coordinates": [[2.444924, 48.81869020000001], [2.4456915, 48.8187144]]}}, {"type": "Feature", "properties": {"highway": "path", "footway": null, "name": null, "surface": "ground", "lit": null, "length_m": 87.42, "type_element": "Way", "__fid": 122465}, "geometry": {"type": "LineString", "coordinates": [[2.444924, 48.81869020000001], [2.4449393, 48.8187104], [2.445513, 48.81910169999998], [2.4456826, 48.81915870000001], [2.4457991, 48.819211500000016]]}}, {"type": "Feature", "properties": {"highway": "path", "footway": null, "name": null, "surface": "compacted", "lit": null, "length_m": 40.35, "type_element": "Way", "__fid": 122470}, "geometry": {"type": "LineString", "coordinates": [[2.4449402, 48.820681700000016], [2.4449274, 48.8206226], [2.444959, 48.820478500000014], [2.445073, 48.82034009999999]]}}, {"type": "Feature", "properties": {"highway": "service", "footway": null, "name": "Route de la Tourelle", "surface": "asphalt", "lit": null, "length_m": 23.24, "type_element": "Way", "__fid": 122471}, "geometry": {"type": "LineString", "coordinates": [[2.4449402, 48.820681700000016], [2.4452459, 48.8206277]]}}, {"type": "Feature", "properties": {"highway": "footway", "footway": null, "name": null, "surface": null, "lit": null, "length_m": 70.57, "type_element": "Way", "__fid": 122472}, "geometry": {"type": "LineString", "coordinates": [[2.4449248, 48.822742], [2.4450436, 48.8233718]]}}, {"type": "Feature", "properties": {"highway": "footway", "footway": null, "name": null, "surface": null, "lit": null, "length_m": 30.77, "type_element": "Way", "__fid": 122473}, "geometry": {"type": "LineString", "coordinates": [[2.4453427, 48.822721], [2.4449248, 48.822742]]}}, {"type": "Feature", "properties": {"highway": "footway", "footway": null, "name": null, "surface": null, "lit": null, "length_m": 5.18, "type_element": "Way", "__fid": 122480}, "geometry": {"type": "LineString", "coordinates": [[2.445034, 48.8202956], [2.4451037, 48.8203027]]}}, {"type": "Feature", "properties": {"highway": "path", "footway": null, "name": null, "surface": "compacted", "lit": null, "length_m": 5.72, "type_element": "Way", "__fid": 122481}, "geometry": {"type": "LineString", "coordinates": [[2.445034, 48.8202956], [2.445073, 48.82034009999999]]}}, {"type": "Feature", "properties": {"highway": "path", "footway": null, "name": null, "surface": "compacted", "lit": null, "length_m": 25.46, "type_element": "Way", "__fid": 122486}, "geometry": {"type": "LineString", "coordinates": [[2.445073, 48.82034009999999], [2.4452195, 48.82054759999998]]}}, {"type": "Feature", "properties": {"highway": "path", "footway": null, "name": null, "surface": "compacted", "lit": null, "length_m": 4.73, "type_element": "Way", "__fid": 122487}, "geometry": {"type": "LineString", "coordinates": [[2.445073, 48.82034009999999], [2.4451037, 48.8203027]]}}, {"type": "Feature", "properties": {"highway": "footway", "footway": null, "name": null, "surface": "compacted", "lit": null, "length_m": 95.81, "type_element": "Way", "__fid": 122488}, "geometry": {"type": "LineString", "coordinates": [[2.4450436, 48.8233718], [2.4453687, 48.8233418], [2.4454353, 48.8233061], [2.4453427, 48.822721]]}}, {"type": "Feature", "properties": {"highway": "path", "footway": null, "name": null, "surface": "ground", "lit": null, "length_m": 136.34, "type_element": "Way", "__fid": 122491}, "geometry": {"type": "LineString", "coordinates": [[2.4456986, 48.8193143], [2.4455331, 48.8194277], [2.4453789, 48.8195151], [2.4452139, 48.81959190000002], [2.4451093, 48.819664299999985], [2.444998, 48.81976670000001], [2.4449417, 48.819833], [2.4449243, 48.8199442], [2.4449806, 48.82005810000001], [2.4451227, 48.8202551], [2.4451037, 48.8203027]]}}, {"type": "Feature", "properties": {"highway": "footway", "footway": null, "name": null, "surface": "compacted", "lit": null, "length_m": 25.79, "type_element": "Way", "__fid": 122492}, "geometry": {"type": "LineString", "coordinates": [[2.4451037, 48.8203027], [2.4452627, 48.820237400000025], [2.4454196, 48.8202058]]}}, {"type": "Feature", "properties": {"highway": "service", "footway": null, "name": "Route du Point de Vue", "surface": null, "lit": null, "length_m": 20.5, "type_element": "Way", "__fid": 122493}, "geometry": {"type": "LineString", "coordinates": [[2.445387, 48.8193576], [2.4451143, 48.8193971]]}}, {"type": "Feature", "properties": {"highway": "path", "footway": null, "name": null, "surface": "compacted", "lit": null, "length_m": 9.11, "type_element": "Way", "__fid": 122505}, "geometry": {"type": "LineString", "coordinates": [[2.4452195, 48.82054759999998], [2.4452459, 48.8206277]]}}, {"type": "Feature", "properties": {"highway": "footway", "footway": null, "name": null, "surface": "compacted", "lit": null, "length_m": 173.71, "type_element": "Way", "__fid": 122506}, "geometry": {"type": "LineString", "coordinates": [[2.4452195, 48.82054759999998], [2.4452941, 48.8205296], [2.4455505, 48.8204405], [2.4459661, 48.82032440000001], [2.4464006, 48.8202178], [2.4466326, 48.8202054], [2.4467634, 48.820171], [2.446923, 48.8201153], [2.4471449, 48.8200601], [2.4472911, 48.8200385], [2.4474319, 48.82003980000001]]}}, {"type": "Feature", "properties": {"highway": "service", "footway": null, "name": "Route de la Tourelle", "surface": "asphalt", "lit": null, "length_m": 9.63, "type_element": "Way", "__fid": 122512}, "geometry": {"type": "LineString", "coordinates": [[2.4452459, 48.8206277], [2.4453732, 48.8206069]]}}, {"type": "Feature", "properties": {"highway": "path", "footway": null, "name": null, "surface": "ground", "lit": null, "length_m": 32.06, "type_element": "Way", "__fid": 122513}, "geometry": {"type": "LineString", "coordinates": [[2.4454196, 48.8202058], [2.4453351, 48.8203771], [2.4452523, 48.8204704]]}}, {"type": "Feature", "properties": {"highway": "footway", "footway": null, "name": null, "surface": "compacted", "lit": null, "length_m": 46.83, "type_element": "Way", "__fid": 122518}, "geometry": {"type": "LineString", "coordinates": [[2.4453427, 48.822721], [2.4452757, 48.82230220000001]]}}, {"type": "Feature", "properties": {"highway": "track", "footway": null, "name": null, "surface": null, "lit": null, "length_m": 46.76, "type_element": "Way", "__fid": 122519}, "geometry": {"type": "LineString", "coordinates": [[2.4452757, 48.82230220000001], [2.4459099, 48.82226390000001]]}}, {"type": "Feature", "properties": {"highway": "footway", "footway": null, "name": "Route du Point de Vue", "surface": "compacted", "lit": null, "length_m": 24.0, "type_element": "Way", "__fid": 122527}, "geometry": {"type": "LineString", "coordinates": [[2.4456986, 48.8193143], [2.4454665, 48.8193241], [2.445387, 48.8193576]]}}, {"type": "Feature", "properties": {"highway": "path", "footway": null, "name": null, "surface": "ground", "lit": null, "length_m": 106.3, "type_element": "Way", "__fid": 122532}, "geometry": {"type": "LineString", "coordinates": [[2.445991, 48.8193407], [2.4458393, 48.8194376], [2.4454196, 48.8202058]]}}, {"type": "Feature", "properties": {"highway": "footway", "footway": null, "name": null, "surface": "compacted", "lit": null, "length_m": 135.16, "type_element": "Way", "__fid": 122533}, "geometry": {"type": "LineString", "coordinates": [[2.4454196, 48.8202058], [2.4456301, 48.820182], [2.4458621, 48.820133], [2.4460432, 48.8200884], [2.4463825, 48.81998380000001], [2.44665, 48.8198632], [2.4469243, 48.8196959], [2.4469901, 48.8196723], [2.4470202, 48.8196513]]}}, {"type": "Feature", "properties": {"highway": "path", "footway": null, "name": null, "surface": null, "lit": null, "length_m": 162.47, "type_element": "Way", "__fid": 122535}, "geometry": {"type": "LineString", "coordinates": [[2.4454276, 48.8208522], [2.4456337, 48.82112569999999], [2.4456744, 48.8211988], [2.4457437, 48.8213968], [2.4458818, 48.8219989], [2.4459099, 48.82226390000001]]}}, {"type": "Feature", "properties": {"highway": "path", "footway": null, "name": null, "surface": "compacted", "lit": null, "length_m": 7.4, "type_element": "Way", "__fid": 122536}, "geometry": {"type": "LineString", "coordinates": [[2.4454276, 48.8208522], [2.4455262, 48.8208384]]}}, {"type": "Feature", "properties": {"highway": "service", "footway": null, "name": null, "surface": "paved", "lit": null, "length_m": 52.27, "type_element": "Way", "__fid": 122544}, "geometry": {"type": "LineString", "coordinates": [[2.4454934, 48.8207887], [2.446205, 48.8207758]]}}, {"type": "Feature", "properties": {"highway": "path", "footway": null, "name": "Avenue de Gravelle", "surface": "asphalt", "lit": "yes", "length_m": 9.74, "type_element": "Way", "__fid": 122559}, "geometry": {"type": "LineString", "coordinates": [[2.4456915, 48.8187144], [2.4458238, 48.8187201]]}}, {"type": "Feature", "properties": {"highway": "footway", "footway": "crossing", "name": null, "surface": null, "lit": null, "length_m": 14.6, "type_element": "Way", "__fid": 122560}, "geometry": {"type": "LineString", "coordinates": [[2.4456915, 48.8187144], [2.445698, 48.8185832]]}}, {"type": "Feature", "properties": {"highway": "footway", "footway": null, "name": "Sentier Laurent Fignon", "surface": null, "lit": null, "length_m": 22.65, "type_element": "Way", "__fid": 122561}, "geometry": {"type": "LineString", "coordinates": [[2.445698, 48.8185832], [2.446005, 48.8186028]]}}, {"type": "Feature", "properties": {"highway": "footway", "footway": null, "name": "Route du Point de Vue", "surface": "compacted", "lit": null, "length_m": 21.67, "type_element": "Way", "__fid": 122563}, "geometry": {"type": "LineString", "coordinates": [[2.445991, 48.8193407], [2.4456986, 48.8193143]]}}, {"type": "Feature", "properties": {"highway": "path", "footway": null, "name": null, "surface": null, "lit": null, "length_m": 13.85, "type_element": "Way", "__fid": 122564}, "geometry": {"type": "LineString", "coordinates": [[2.4457991, 48.819211500000016], [2.4457689, 48.8192636], [2.4456986, 48.8193143]]}}, {"type": "Feature", "properties": {"highway": "path", "footway": null, "name": "Route des Barrières", "surface": "paved", "lit": null, "length_m": 18.9, "type_element": "Way", "__fid": 122567}, "geometry": {"type": "LineString", "coordinates": [[2.4457489, 48.8186198], [2.446005, 48.8186028]]}}, {"type": "Feature", "properties": {"highway": "service", "footway": null, "name": null, "surface": "paved", "lit": null, "length_m": 57.37, "type_element": "Way", "__fid": 122568}, "geometry": {"type": "LineString", "coordinates": [[2.446205, 48.8207758], [2.4460821, 48.8208256], [2.4460211, 48.820861], [2.4458458, 48.8210467], [2.4457532, 48.8211818]]}}, {"type": "Feature", "properties": {"highway": "path", "footway": null, "name": null, "surface": null, "lit": null, "length_m": 23.59, "type_element": "Way", "__fid": 122571}, "geometry": {"type": "LineString", "coordinates": [[2.4460699, 48.8193257], [2.4457991, 48.819211500000016]]}}, {"type": "Feature", "properties": {"highway": "path", "footway": null, "name": null, "surface": null, "lit": null, "length_m": 56.0, "type_element": "Way", "__fid": 122572}, "geometry": {"type": "LineString", "coordinates": [[2.4457991, 48.819211500000016], [2.4458789, 48.818808], [2.4458599, 48.818755], [2.4458238, 48.8187201]]}}, {"type": "Feature", "properties": {"highway": "path", "footway": null, "name": "Avenue de Gravelle", "surface": "asphalt", "lit": "yes", "length_m": 225.3, "type_element": "Way", "__fid": 122578}, "geometry": {"type": "LineString", "coordinates": [[2.4458238, 48.8187201], [2.4462829, 48.8187367], [2.4468207, 48.818746], [2.4475607, 48.8187468], [2.4488902, 48.8187114]]}}, {"type": "Feature", "properties": {"highway": "path", "footway": null, "name": null, "surface": null, "lit": null, "length_m": 161.92, "type_element": "Way", "__fid": 122586}, "geometry": {"type": "LineString", "coordinates": [[2.4459099, 48.82226390000001], [2.4459998, 48.823115], [2.4460494, 48.8237172]]}}, {"type": "Feature", "properties": {"highway": "track", "footway": null, "name": null, "surface": null, "lit": null, "length_m": 6.84, "type_element": "Way", "__fid": 122587}, "geometry": {"type": "LineString", "coordinates": [[2.4459099, 48.82226390000001], [2.4460019, 48.8222544]]}}, {"type": "Feature", "properties": {"highway": "footway", "footway": null, "name": "Route du Point de Vue", "surface": "compacted", "lit": null, "length_m": 10.8, "type_element": "Way", "__fid": 122588}, "geometry": {"type": "LineString", "coordinates": [[2.4461367, 48.8193538], [2.445991, 48.8193407]]}}, {"type": "Feature", "properties": {"highway": "path", "footway": null, "name": null, "surface": "ground", "lit": null, "length_m": 6.03, "type_element": "Way", "__fid": 122589}, "geometry": {"type": "LineString", "coordinates": [[2.4460699, 48.8193257], [2.445991, 48.8193407]]}}, {"type": "Feature", "properties": {"highway": "path", "footway": null, "name": "Route des Barrières", "surface": "paved", "lit": null, "length_m": 178.86, "type_element": "Way", "__fid": 122590}, "geometry": {"type": "LineString", "coordinates": [[2.446005, 48.8186028], [2.4463258, 48.81857189999998], [2.4466123, 48.8185345], [2.4478354, 48.8184545], [2.4484247, 48.81842860000001]]}}, {"type": "Feature", "properties": {"highway": "service", "footway": null, "name": "Route du Pesage", "surface": "asphalt", "lit": null, "length_m": 162.52, "type_element": "Way", "__fid": 122591}, "geometry": {"type": "LineString", "coordinates": [[2.4460019, 48.8222544], [2.4461128, 48.8237142]]}}, {"type": "Feature", "properties": {"highway": "service", "footway": null, "name": "Route du Pesage", "surface": "asphalt", "lit": null, "length_m": 188.45, "type_element": "Way", "__fid": 122592}, "geometry": {"type": "LineString", "coordinates": [[2.44664498582006, 48.82093214692704], [2.4464677, 48.8210677], [2.4462725, 48.8211701], [2.4461263, 48.82122], [2.4458756, 48.821239], [2.4457802, 48.82125460000002], [2.4458918, 48.8216558], [2.4460019, 48.8222544]]}}, {"type": "Feature", "properties": {"highway": "path", "footway": null, "name": null, "surface": null, "lit": null, "length_m": 5.82, "type_element": "Way", "__fid": 122602}, "geometry": {"type": "LineString", "coordinates": [[2.4461367, 48.8193538], [2.4460699, 48.8193257]]}}, {"type": "Feature", "properties": {"highway": "path", "footway": null, "name": null, "surface": "ground", "lit": null, "length_m": 285.45, "type_element": "Way", "__fid": 122603}, "geometry": {"type": "LineString", "coordinates": [[2.4498593, 48.8191408], [2.4495757, 48.8190544], [2.4489239, 48.818989], [2.4480092, 48.8190014], [2.447167, 48.81912679999998], [2.4460699, 48.8193257]]}}, {"type": "Feature", "properties": {"highway": "footway", "footway": null, "name": "Route du Point de Vue", "surface": "compacted", "lit": null, "length_m": 45.31, "type_element": "Way", "__fid": 122610}, "geometry": {"type": "LineString", "coordinates": [[2.4467292, 48.8194667], [2.4462886, 48.819389], [2.4461367, 48.8193538]]}}, {"type": "Feature", "properties": {"highway": "service", "footway": null, "name": null, "surface": null, "lit": null, "length_m": 37.83, "type_element": "Way", "__fid": 122625}, "geometry": {"type": "LineString", "coordinates": [[2.44664498582006, 48.82093214692704], [2.4465174, 48.82085210000002], [2.4464314, 48.8208143], [2.44633, 48.8207862], [2.446205, 48.8207758]]}}, {"type": "Feature", "properties": {"highway": "service", "footway": null, "name": null, "surface": null, "lit": null, "length_m": 56.42, "type_element": "Way", "__fid": 122644}, "geometry": {"type": "LineString", "coordinates": [[2.4466413, 48.8234175], [2.4463262, 48.82345080000001], [2.4462806, 48.82350289999999], [2.4463221, 48.82373779999999]]}}, {"type": "Feature", "properties": {"highway": "service", "footway": null, "name": null, "surface": "paved", "lit": null, "length_m": 62.67, "type_element": "Way", "__fid": 122711}, "geometry": {"type": "LineString", "coordinates": [[2.447263729826914, 48.82132033939935], [2.44664498582006, 48.82093214692704]]}}, {"type": "Feature", "properties": {"highway": "service", "footway": null, "name": null, "surface": null, "lit": null, "length_m": 12.39, "type_element": "Way", "__fid": 122712}, "geometry": {"type": "LineString", "coordinates": [[2.4467553, 48.8208478], [2.44664498582006, 48.82093214692704]]}}, {"type": "Feature", "properties": {"highway": "footway", "footway": null, "name": "Route du Point de Vue", "surface": "compacted", "lit": null, "length_m": 55.24, "type_element": "Way", "__fid": 122720}, "geometry": {"type": "LineString", "coordinates": [[2.4474768, 48.8195127], [2.4472763, 48.81951270000001], [2.4470671, 48.8195016], [2.4467292, 48.8194667]]}}, {"type": "Feature", "properties": {"highway": "footway", "footway": null, "name": null, "surface": "compacted", "lit": null, "length_m": 29.82, "type_element": "Way", "__fid": 122721}, "geometry": {"type": "LineString", "coordinates": [[2.4467292, 48.8194667], [2.4469672, 48.81960009999999], [2.4470202, 48.8196513]]}}, {"type": "Feature", "properties": {"highway": "path", "footway": null, "name": null, "surface": "compacted", "lit": null, "length_m": 53.64, "type_element": "Way", "__fid": 122761}, "geometry": {"type": "LineString", "coordinates": [[2.4474319, 48.82003980000001], [2.4472891, 48.8199586], [2.4472435, 48.8199136], [2.4471349, 48.819744], [2.4470202, 48.8196513]]}}, {"type": "Feature", "properties": {"highway": "footway", "footway": null, "name": null, "surface": "compacted", "lit": null, "length_m": 36.92, "type_element": "Way", "__fid": 122762}, "geometry": {"type": "LineString", "coordinates": [[2.4470202, 48.8196513], [2.4471107, 48.8196186], [2.4474768, 48.8195127]]}}, {"type": "Feature", "properties": {"highway": "footway", "footway": null, "name": null, "surface": "compacted", "lit": null, "length_m": 230.42, "type_element": "Way", "__fid": 122763}, "geometry": {"type": "LineString", "coordinates": [[2.4470202, 48.8196513], [2.4473555, 48.81962259999999], [2.447568, 48.81962130000002], [2.4481582, 48.81970149999998], [2.4485779, 48.8196935], [2.4490285, 48.8195734], [2.449447, 48.819396800000014], [2.4496166, 48.8193135], [2.4497064, 48.8192818], [2.4497963, 48.8192323], [2.4498593, 48.8191408]]}}, {"type": "Feature", "properties": {"highway": "service", "footway": null, "name": null, "surface": null, "lit": null, "length_m": 28.55, "type_element": "Way", "__fid": 122806}, "geometry": {"type": "LineString", "coordinates": [[2.4475242, 48.8215107], [2.4473338, 48.8213643], [2.447263729826914, 48.82132033939935]]}}, {"type": "Feature", "properties": {"highway": "service", "footway": null, "name": null, "surface": null, "lit": null, "length_m": 346.2, "type_element": "Way", "__fid": 122807}, "geometry": {"type": "LineString", "coordinates": [[2.4491861, 48.8234868], [2.4475904, 48.8229494], [2.4473342, 48.8228345], [2.4471642, 48.82272850000001], [2.4469964, 48.8225703], [2.4468626, 48.8223986], [2.4467833, 48.8222568], [2.4467606, 48.8221314], [2.4467651, 48.8219567], [2.446815, 48.8217731], [2.446908, 48.8216358], [2.4470576, 48.82147310000001], [2.4471936, 48.821355199999985], [2.447263729826914, 48.82132033939935]]}}, {"type": "Feature", "properties": {"highway": "service", "footway": null, "name": null, "surface": null, "lit": null, "length_m": 242.77, "type_element": "Way", "__fid": 122808}, "geometry": {"type": "LineString", "coordinates": [[2.447263729826914, 48.82132033939935], [2.447434, 48.8212357], [2.4476426, 48.8211686], [2.447935, 48.821099900000014], [2.4482797, 48.8211029], [2.4486651, 48.82118349999999], [2.450261039477807, 48.82173602836134]]}}, {"type": "Feature", "properties": {"highway": "service", "footway": null, "name": null, "surface": null, "lit": null, "length_m": 141.03, "type_element": "Way", "__fid": 122810}, "geometry": {"type": "LineString", "coordinates": [[2.4477524, 48.82268850000001], [2.4474729, 48.8225791], [2.4473068, 48.8224642], [2.4471849, 48.8223402], [2.4471545, 48.8222108], [2.4472874, 48.82199749999999], [2.4471739, 48.82173310000002], [2.4472821, 48.8216485]]}}, {"type": "Feature", "properties": {"highway": "service", "footway": null, "name": null, "surface": null, "lit": null, "length_m": 16.63, "type_element": "Way", "__fid": 122811}, "geometry": {"type": "LineString", "coordinates": [[2.4472821, 48.8216485], [2.4473511, 48.821594500000025], [2.4474475, 48.8215478]]}}, {"type": "Feature", "properties": {"highway": "footway", "footway": null, "name": null, "surface": "compacted", "lit": null, "length_m": 147.51, "type_element": "Way", "__fid": 122848}, "geometry": {"type": "LineString", "coordinates": [[2.4474319, 48.82003980000001], [2.4476532, 48.82011580000001], [2.4478262, 48.8201652], [2.4479234, 48.8201727], [2.4480971, 48.820161200000015], [2.4489046, 48.8201831], [2.4493945, 48.82016760000001]]}}, {"type": "Feature", "properties": {"highway": "service", "footway": null, "name": null, "surface": null, "lit": null, "length_m": 147.47, "type_element": "Way", "__fid": 122852}, "geometry": {"type": "LineString", "coordinates": [[2.4474475, 48.8215478], [2.4475073, 48.8216335], [2.4478345, 48.822274], [2.4480624, 48.8227684], [2.448056, 48.82280730000002]]}}, {"type": "Feature", "properties": {"highway": "service", "footway": null, "name": null, "surface": null, "lit": null, "length_m": 6.98, "type_element": "Way", "__fid": 122853}, "geometry": {"type": "LineString", "coordinates": [[2.4474475, 48.8215478], [2.4475242, 48.8215107]]}}, {"type": "Feature", "properties": {"highway": "footway", "footway": null, "name": "Route du Point de Vue", "surface": "compacted", "lit": null, "length_m": 180.8, "type_element": "Way", "__fid": 122856}, "geometry": {"type": "LineString", "coordinates": [[2.4498593, 48.8191408], [2.4493443, 48.8192747], [2.4490426, 48.81934140000002], [2.4486751, 48.8194036], [2.4483995, 48.8194429], [2.4481025, 48.8194734], [2.4478289, 48.81949630000001], [2.4474768, 48.8195127]]}}, {"type": "Feature", "properties": {"highway": "service", "footway": null, "name": null, "surface": null, "lit": null, "length_m": 8.39, "type_element": "Way", "__fid": 122869}, "geometry": {"type": "LineString", "coordinates": [[2.4475242, 48.8215107], [2.447623, 48.8214728]]}}, {"type": "Feature", "properties": {"highway": "service", "footway": null, "name": null, "surface": null, "lit": null, "length_m": 169.21, "type_element": "Way", "__fid": 122882}, "geometry": {"type": "LineString", "coordinates": [[2.447623, 48.8214728], [2.4476793, 48.8215491], [2.4480401, 48.822239400000015], [2.448339, 48.82287380000001], [2.4483334, 48.8229159]]}}, {"type": "Feature", "properties": {"highway": "service", "footway": null, "name": null, "surface": null, "lit": null, "length_m": 17.91, "type_element": "Way", "__fid": 122883}, "geometry": {"type": "LineString", "coordinates": [[2.447623, 48.8214728], [2.4478398, 48.821399]]}}, {"type": "Feature", "properties": {"highway": "service", "footway": null, "name": null, "surface": null, "lit": null, "length_m": 25.91, "type_element": "Way", "__fid": 122905}, "geometry": {"type": "LineString", "coordinates": [[2.448056, 48.82280730000002], [2.4477524, 48.82268850000001]]}}, {"type": "Feature", "properties": {"highway": "service", "footway": null, "name": null, "surface": null, "lit": null, "length_m": 192.59, "type_element": "Way", "__fid": 122913}, "geometry": {"type": "LineString", "coordinates": [[2.4478398, 48.821399], [2.4486609, 48.823044]]}}, {"type": "Feature", "properties": {"highway": "service", "footway": null, "name": null, "surface": null, "lit": null, "length_m": 18.94, "type_element": "Way", "__fid": 122914}, "geometry": {"type": "LineString", "coordinates": [[2.4478398, 48.821399], [2.4479188, 48.8213757], [2.4480882, 48.8213932]]}}, {"type": "Feature", "properties": {"highway": "service", "footway": null, "name": null, "surface": null, "lit": null, "length_m": 587.48, "type_element": "Way", "__fid": 122920}, "geometry": {"type": "LineString", "coordinates": [[2.4479086, 48.823413], [2.4483121, 48.8237529], [2.4489093, 48.8241825], [2.4498319, 48.8247772], [2.4503177, 48.8250364], [2.4507922, 48.8252575], [2.4514271, 48.8255361], [2.4520612, 48.8257726], [2.4525045, 48.82591080000001], [2.4530191, 48.8260417], [2.4531786, 48.82607069999998], [2.4534375, 48.8260871], [2.4536628, 48.82608659999998], [2.4539121, 48.826047], [2.4540948, 48.8259984], [2.4543353, 48.82591450000001], [2.454384694748414, 48.825890335011806]]}}, {"type": "Feature", "properties": {"highway": "service", "footway": null, "name": null, "surface": null, "lit": null, "length_m": 23.68, "type_element": "Way", "__fid": 122932}, "geometry": {"type": "LineString", "coordinates": [[2.4483334, 48.8229159], [2.448056, 48.82280730000002]]}}, {"type": "Feature", "properties": {"highway": "service", "footway": null, "name": null, "surface": null, "lit": null, "length_m": 24.32, "type_element": "Way", "__fid": 122933}, "geometry": {"type": "LineString", "coordinates": [[2.4480882, 48.8213932], [2.4481486, 48.82139940000001], [2.44839, 48.8214794]]}}, {"type": "Feature", "properties": {"highway": "service", "footway": null, "name": null, "surface": null, "lit": null, "length_m": 201.56, "type_element": "Way", "__fid": 122934}, "geometry": {"type": "LineString", "coordinates": [[2.4480882, 48.8213932], [2.4480789, 48.8214369], [2.4484485, 48.8221427], [2.4489323, 48.82311330000001]]}}, {"type": "Feature", "properties": {"highway": "service", "footway": null, "name": null, "surface": null, "lit": null, "length_m": 27.95, "type_element": "Way", "__fid": 122948}, "geometry": {"type": "LineString", "coordinates": [[2.4486609, 48.823044], [2.4483334, 48.8229159]]}}, {"type": "Feature", "properties": {"highway": "service", "footway": null, "name": null, "surface": null, "lit": null, "length_m": 23.85, "type_element": "Way", "__fid": 122954}, "geometry": {"type": "LineString", "coordinates": [[2.44839, 48.8214794], [2.4486803, 48.8215756]]}}, {"type": "Feature", "properties": {"highway": "service", "footway": null, "name": null, "surface": null, "lit": null, "length_m": 168.73, "type_element": "Way", "__fid": 122955}, "geometry": {"type": "LineString", "coordinates": [[2.44839, 48.8214794], [2.448359, 48.8215157], [2.4490245, 48.8228442], [2.44909, 48.82290730000001]]}}, {"type": "Feature", "properties": {"highway": "footway", "footway": null, "name": null, "surface": "asphalt", "lit": null, "length_m": 63.31, "type_element": "Way", "__fid": 122956}, "geometry": {"type": "LineString", "coordinates": [[2.4484247, 48.81842860000001], [2.4484532, 48.8183797], [2.4487811, 48.81830380000001], [2.4491769, 48.818183900000015]]}}, {"type": "Feature", "properties": {"highway": "path", "footway": null, "name": "Route des Barrières", "surface": "paved", "lit": null, "length_m": 111.52, "type_element": "Way", "__fid": 122957}, "geometry": {"type": "LineString", "coordinates": [[2.4484247, 48.81842860000001], [2.449182, 48.81836819999999], [2.4499261, 48.8182802]]}}, {"type": "Feature", "properties": {"highway": "service", "footway": null, "name": null, "surface": null, "lit": null, "length_m": 21.36, "type_element": "Way", "__fid": 122979}, "geometry": {"type": "LineString", "coordinates": [[2.4489323, 48.82311330000001], [2.4486609, 48.823044]]}}, {"type": "Feature", "properties": {"highway": "service", "footway": null, "name": null, "surface": null, "lit": null, "length_m": 21.74, "type_element": "Way", "__fid": 122980}, "geometry": {"type": "LineString", "coordinates": [[2.4486803, 48.8215756], [2.4489449, 48.8216634]]}}, {"type": "Feature", "properties": {"highway": "service", "footway": null, "name": null, "surface": null, "lit": null, "length_m": 135.75, "type_element": "Way", "__fid": 122981}, "geometry": {"type": "LineString", "coordinates": [[2.4486803, 48.8215756], [2.4486468, 48.8216136], [2.4491425, 48.82265970000001], [2.4492533, 48.822694]]}}, {"type": "Feature", "properties": {"highway": "footway", "footway": null, "name": "Route de la Gerbe", "surface": "compacted", "lit": null, "length_m": 102.67, "type_element": "Way", "__fid": 122986}, "geometry": {"type": "LineString", "coordinates": [[2.4501876, 48.819034], [2.4499136, 48.8189493], [2.4493712, 48.818827], [2.4489561, 48.8187453], [2.4489051, 48.8187321], [2.4488902, 48.8187114]]}}, {"type": "Feature", "properties": {"highway": "path", "footway": null, "name": "Avenue de Gravelle", "surface": "asphalt", "lit": "yes", "length_m": 172.26, "type_element": "Way", "__fid": 122987}, "geometry": {"type": "LineString", "coordinates": [[2.4488902, 48.8187114], [2.4498976, 48.8186824], [2.450543, 48.8186208], [2.450996, 48.8185545], [2.4512081, 48.81851229999999]]}}, {"type": "Feature", "properties": {"highway": "service", "footway": null, "name": null, "surface": null, "lit": null, "length_m": 20.81, "type_element": "Way", "__fid": 122991}, "geometry": {"type": "LineString", "coordinates": [[2.4489449, 48.8216634], [2.4491983, 48.8217473]]}}, {"type": "Feature", "properties": {"highway": "service", "footway": null, "name": null, "surface": null, "lit": null, "length_m": 105.09, "type_element": "Way", "__fid": 122992}, "geometry": {"type": "LineString", "coordinates": [[2.4489449, 48.8216634], [2.4489073, 48.8217021], [2.4493218, 48.8225169], [2.4493759, 48.8225339]]}}, {"type": "Feature", "properties": {"highway": "service", "footway": null, "name": null, "surface": null, "lit": null, "length_m": 67.43, "type_element": "Way", "__fid": 122993}, "geometry": {"type": "LineString", "coordinates": [[2.4497548, 48.8233831], [2.4489323, 48.82311330000001]]}}, {"type": "Feature", "properties": {"highway": "service", "footway": null, "name": null, "surface": null, "lit": null, "length_m": 25.67, "type_element": "Way", "__fid": 122994}, "geometry": {"type": "LineString", "coordinates": [[2.44909, 48.82290730000001], [2.4489323, 48.82311330000001]]}}, {"type": "Feature", "properties": {"highway": "service", "footway": null, "name": null, "surface": null, "lit": null, "length_m": 26.58, "type_element": "Way", "__fid": 123001}, "geometry": {"type": "LineString", "coordinates": [[2.4492533, 48.822694], [2.44909, 48.82290730000001]]}}, {"type": "Feature", "properties": {"highway": "path", "footway": null, "name": null, "surface": null, "lit": null, "length_m": 59.0, "type_element": "Way", "__fid": 123004}, "geometry": {"type": "LineString", "coordinates": [[2.4491769, 48.818183900000015], [2.4498613, 48.81823759999999], [2.4499601, 48.8182755]]}}, {"type": "Feature", "properties": {"highway": "footway", "footway": null, "name": null, "surface": "asphalt", "lit": null, "length_m": 43.99, "type_element": "Way", "__fid": 123005}, "geometry": {"type": "LineString", "coordinates": [[2.4491769, 48.818183900000015], [2.4496581, 48.8180274], [2.4496555, 48.817986]]}}, {"type": "Feature", "properties": {"highway": "service", "footway": null, "name": null, "surface": null, "lit": null, "length_m": 23.79, "type_element": "Way", "__fid": 123012}, "geometry": {"type": "LineString", "coordinates": [[2.4491983, 48.8217473], [2.4494878, 48.8218433]]}}, {"type": "Feature", "properties": {"highway": "service", "footway": null, "name": null, "surface": null, "lit": null, "length_m": 73.6, "type_element": "Way", "__fid": 123013}, "geometry": {"type": "LineString", "coordinates": [[2.4491983, 48.8217473], [2.4491747, 48.8217864], [2.4494228, 48.8223056], [2.4495265, 48.8223371]]}}, {"type": "Feature", "properties": {"highway": "service", "footway": null, "name": null, "surface": null, "lit": null, "length_m": 276.36, "type_element": "Way", "__fid": 123014}, "geometry": {"type": "LineString", "coordinates": [[2.452588136023782, 48.82382430880956], [2.4525444, 48.8238585], [2.4523381, 48.82398089999998], [2.4520365, 48.8240794], [2.4517554, 48.8241257], [2.45154, 48.8241421], [2.451209, 48.8241212], [2.4509165, 48.8240615], [2.4506648, 48.8239839], [2.4496329, 48.82364530000001], [2.4491861, 48.8234868]]}}, {"type": "Feature", "properties": {"highway": "service", "footway": null, "name": null, "surface": null, "lit": null, "length_m": 41.14, "type_element": "Way", "__fid": 123015}, "geometry": {"type": "LineString", "coordinates": [[2.4497452, 48.823462], [2.4491861, 48.8234868]]}}, {"type": "Feature", "properties": {"highway": "service", "footway": null, "name": null, "surface": null, "lit": null, "length_m": 19.95, "type_element": "Way", "__fid": 123019}, "geometry": {"type": "LineString", "coordinates": [[2.4493759, 48.8225339], [2.4492533, 48.822694]]}}, {"type": "Feature", "properties": {"highway": "path", "footway": null, "name": null, "surface": "compacted", "lit": null, "length_m": 83.71, "type_element": "Way", "__fid": 123027}, "geometry": {"type": "LineString", "coordinates": [[2.4493945, 48.82016760000001], [2.449404, 48.8202654], [2.4497413, 48.8202694], [2.4498714, 48.8202804], [2.4502254, 48.8203255], [2.450381, 48.8203568]]}}, {"type": "Feature", "properties": {"highway": "footway", "footway": null, "name": null, "surface": "compacted", "lit": null, "length_m": 83.59, "type_element": "Way", "__fid": 123028}, "geometry": {"type": "LineString", "coordinates": [[2.4493945, 48.82016760000001], [2.4496897, 48.820158200000016], [2.4498702, 48.8201168], [2.4501116, 48.8200207], [2.4503956, 48.8198642]]}}, {"type": "Feature", "properties": {"highway": "service", "footway": null, "name": null, "surface": null, "lit": null, "length_m": 24.52, "type_element": "Way", "__fid": 123030}, "geometry": {"type": "LineString", "coordinates": [[2.4495265, 48.8223371], [2.4493759, 48.8225339]]}}, {"type": "Feature", "properties": {"highway": "service", "footway": null, "name": null, "surface": null, "lit": null, "length_m": 54.33, "type_element": "Way", "__fid": 123041}, "geometry": {"type": "LineString", "coordinates": [[2.4501341, 48.8220813], [2.4494878, 48.8218433]]}}, {"type": "Feature", "properties": {"highway": "service", "footway": null, "name": null, "surface": null, "lit": null, "length_m": 57.74, "type_element": "Way", "__fid": 123042}, "geometry": {"type": "LineString", "coordinates": [[2.4494878, 48.8218433], [2.4496218, 48.8222126], [2.4495265, 48.8223371]]}}, {"type": "Feature", "properties": {"highway": "path", "footway": null, "name": null, "surface": null, "lit": null, "length_m": 12.6, "type_element": "Way", "__fid": 123048}, "geometry": {"type": "LineString", "coordinates": [[2.4496555, 48.817986], [2.4497647, 48.8179715], [2.4497543, 48.81793230000001]]}}, {"type": "Feature", "properties": {"highway": "service", "footway": null, "name": null, "surface": null, "lit": null, "length_m": 223.84, "type_element": "Way", "__fid": 123056}, "geometry": {"type": "LineString", "coordinates": [[2.4524298, 48.8237204], [2.4521003, 48.8238717], [2.4517237, 48.8239702], [2.4514467, 48.8239957], [2.4510812, 48.823972], [2.4497381, 48.8235198], [2.4497452, 48.823462]]}}, {"type": "Feature", "properties": {"highway": "service", "footway": null, "name": null, "surface": null, "lit": null, "length_m": 8.8, "type_element": "Way", "__fid": 123057}, "geometry": {"type": "LineString", "coordinates": [[2.4497452, 48.823462], [2.4497548, 48.8233831]]}}, {"type": "Feature", "properties": {"highway": "service", "footway": null, "name": null, "surface": null, "lit": null, "length_m": 147.4, "type_element": "Way", "__fid": 123059}, "geometry": {"type": "LineString", "coordinates": [[2.4497548, 48.8233831], [2.4501341, 48.8220813]]}}, {"type": "Feature", "properties": {"highway": "footway", "footway": null, "name": "Route du Point de Vue", "surface": "compacted", "lit": null, "length_m": 26.87, "type_element": "Way", "__fid": 123061}, "geometry": {"type": "LineString", "coordinates": [[2.4501876, 48.819034], [2.4498593, 48.8191408]]}}, {"type": "Feature", "properties": {"highway": "footway", "footway": null, "name": null, "surface": null, "lit": null, "length_m": 78.37, "type_element": "Way", "__fid": 123063}, "geometry": {"type": "LineString", "coordinates": [[2.4509387, 48.81844750000002], [2.4502536, 48.81840670000001], [2.4499261, 48.8182802]]}}, {"type": "Feature", "properties": {"highway": "path", "footway": null, "name": "Route des Barrières", "surface": "paved", "lit": null, "length_m": 2.55, "type_element": "Way", "__fid": 123064}, "geometry": {"type": "LineString", "coordinates": [[2.4499261, 48.8182802], [2.4499601, 48.8182755]]}}, {"type": "Feature", "properties": {"highway": "path", "footway": null, "name": "Route des Barrières", "surface": "paved", "lit": null, "length_m": 166.95, "type_element": "Way", "__fid": 123067}, "geometry": {"type": "LineString", "coordinates": [[2.4499601, 48.8182755], [2.4513587, 48.8180102], [2.4520359, 48.8178415], [2.45212, 48.8178127]]}}, {"type": "Feature", "properties": {"highway": "service", "footway": null, "name": null, "surface": null, "lit": null, "length_m": 301.93, "type_element": "Way", "__fid": 123073}, "geometry": {"type": "LineString", "coordinates": [[2.4501341, 48.8220813], [2.4505384, 48.8221743], [2.452632, 48.8229091], [2.4527372, 48.82305310000002], [2.4527067, 48.8232847], [2.4526347, 48.823456], [2.4524298, 48.8237204]]}}, {"type": "Feature", "properties": {"highway": "service", "footway": null, "name": null, "surface": "paved", "lit": null, "length_m": 39.51, "type_element": "Way", "__fid": 123074}, "geometry": {"type": "LineString", "coordinates": [[2.4501341, 48.8220813], [2.450261039477807, 48.82173602836134]]}}, {"type": "Feature", "properties": {"highway": "footway", "footway": null, "name": "Route de la Gerbe", "surface": "compacted", "lit": null, "length_m": 42.62, "type_element": "Way", "__fid": 123075}, "geometry": {"type": "LineString", "coordinates": [[2.4506539, 48.8192584], [2.4505104, 48.8191665], [2.4503575, 48.8190968], [2.4501876, 48.819034]]}}, {"type": "Feature", "properties": {"highway": "footway", "footway": null, "name": "Route du Point de Vue", "surface": "compacted", "lit": null, "length_m": 95.05, "type_element": "Way", "__fid": 123076}, "geometry": {"type": "LineString", "coordinates": [[2.4512596, 48.8185587], [2.4511099, 48.8186508], [2.4504601, 48.81892850000001], [2.4501876, 48.819034]]}}, {"type": "Feature", "properties": {"highway": "service", "footway": null, "name": null, "surface": null, "lit": null, "length_m": 203.51, "type_element": "Way", "__fid": 123078}, "geometry": {"type": "LineString", "coordinates": [[2.450261039477807, 48.82173602836134], [2.4525625, 48.822527], [2.4527076, 48.8225942]]}}, {"type": "Feature", "properties": {"highway": "service", "footway": null, "name": null, "surface": "paved", "lit": null, "length_m": 55.98, "type_element": "Way", "__fid": 123079}, "geometry": {"type": "LineString", "coordinates": [[2.450261039477807, 48.82173602836134], [2.4504409, 48.8212468]]}}, {"type": "Feature", "properties": {"highway": "steps", "footway": null, "name": null, "surface": null, "lit": null, "length_m": 10.76, "type_element": "Way", "__fid": 123082}, "geometry": {"type": "LineString", "coordinates": [[2.4504409, 48.8212468], [2.4503111, 48.8212019]]}}, {"type": "Feature", "properties": {"highway": "service", "footway": null, "name": null, "surface": null, "lit": null, "length_m": 2.22, "type_element": "Way", "__fid": 123085}, "geometry": {"type": "LineString", "coordinates": [[2.4503691, 48.8203752], [2.450381, 48.8203568]]}}, {"type": "Feature", "properties": {"highway": "footway", "footway": "sidewalk", "name": null, "surface": "asphalt", "lit": null, "length_m": 132.76, "type_element": "Way", "__fid": 123086}, "geometry": {"type": "LineString", "coordinates": [[2.4519738, 48.8209128], [2.451356, 48.8206522], [2.4510971, 48.8205564], [2.4508571, 48.820479099999986], [2.4505701, 48.820398300000015], [2.450381, 48.8203568]]}}, {"type": "Feature", "properties": {"highway": "service", "footway": null, "name": null, "surface": null, "lit": null, "length_m": 7.5, "type_element": "Way", "__fid": 123087}, "geometry": {"type": "LineString", "coordinates": [[2.450381, 48.8203568], [2.4504172, 48.8202937]]}}, {"type": "Feature", "properties": {"highway": "footway", "footway": null, "name": "Route de la Gerbe", "surface": "compacted", "lit": null, "length_m": 75.04, "type_element": "Way", "__fid": 123088}, "geometry": {"type": "LineString", "coordinates": [[2.4503956, 48.8198642], [2.4505301, 48.8197645], [2.4506655, 48.81956940000001], [2.4507192, 48.81941840000001], [2.4507223, 48.81934049999999], [2.4506539, 48.8192584]]}}, {"type": "Feature", "properties": {"highway": "footway", "footway": null, "name": null, "surface": "compacted", "lit": null, "length_m": 93.61, "type_element": "Way", "__fid": 123089}, "geometry": {"type": "LineString", "coordinates": [[2.4503956, 48.8198642], [2.4506492, 48.8197979], [2.4508215, 48.8197687], [2.4510636, 48.819763], [2.451191, 48.8197374], [2.4514217, 48.8196685], [2.45159, 48.8196027]]}}, {"type": "Feature", "properties": {"highway": "steps", "footway": null, "name": null, "surface": null, "lit": null, "length_m": 11.26, "type_element": "Way", "__fid": 123097}, "geometry": {"type": "LineString", "coordinates": [[2.4504409, 48.8212468], [2.4505766, 48.8212939]]}}, {"type": "Feature", "properties": {"highway": "service", "footway": null, "name": null, "surface": "paved", "lit": null, "length_m": 35.8, "type_element": "Way", "__fid": 123098}, "geometry": {"type": "LineString", "coordinates": [[2.4504409, 48.8212468], [2.4505559, 48.8209339]]}}, {"type": "Feature", "properties": {"highway": "footway", "footway": null, "name": null, "surface": "compacted", "lit": null, "length_m": 79.49, "type_element": "Way", "__fid": 123106}, "geometry": {"type": "LineString", "coordinates": [[2.45159, 48.8196027], [2.4514626, 48.8195294], [2.451244, 48.81942520000001], [2.4510777, 48.8193608], [2.4506539, 48.8192584]]}}, {"type": "Feature", "properties": {"highway": "footway", "footway": null, "name": null, "surface": null, "lit": null, "length_m": 23.49, "type_element": "Way", "__fid": 123128}, "geometry": {"type": "LineString", "coordinates": [[2.4509387, 48.81844750000002], [2.4510207, 48.818461], [2.4511893, 48.81847039999999], [2.4512081, 48.81851229999999]]}}, {"type": "Feature", "properties": {"highway": "footway", "footway": null, "name": null, "surface": null, "lit": null, "length_m": 113.52, "type_element": "Way", "__fid": 123129}, "geometry": {"type": "LineString", "coordinates": [[2.45212, 48.8178127], [2.4520727, 48.8178896], [2.4515901, 48.8180737], [2.4509387, 48.81844750000002]]}}, {"type": "Feature", "properties": {"highway": "path", "footway": null, "name": null, "surface": null, "lit": null, "length_m": 6.4, "type_element": "Way", "__fid": 123153}, "geometry": {"type": "LineString", "coordinates": [[2.4512081, 48.81851229999999], [2.4512596, 48.8185587]]}}, {"type": "Feature", "properties": {"highway": "path", "footway": null, "name": "Avenue de Gravelle", "surface": "asphalt", "lit": "yes", "length_m": 13.86, "type_element": "Way", "__fid": 123154}, "geometry": {"type": "LineString", "coordinates": [[2.4512081, 48.81851229999999], [2.4513883, 48.8184752]]}}, {"type": "Feature", "properties": {"highway": "path", "footway": null, "name": null, "surface": "dirt", "lit": null, "length_m": 24.61, "type_element": "Way", "__fid": 123157}, "geometry": {"type": "LineString", "coordinates": [[2.4512596, 48.8185587], [2.4513225, 48.818597], [2.4514103, 48.8185762], [2.4514988, 48.8185687], [2.4515651, 48.81857560000001]]}}, {"type": "Feature", "properties": {"highway": "path", "footway": null, "name": "Route du Point de Vue", "surface": null, "lit": null, "length_m": 13.25, "type_element": "Way", "__fid": 123158}, "geometry": {"type": "LineString", "coordinates": [[2.4513883, 48.8184752], [2.4512596, 48.8185587]]}}, {"type": "Feature", "properties": {"highway": "path", "footway": null, "name": "Avenue de Gravelle", "surface": "asphalt", "lit": null, "length_m": 584.31, "type_element": "Way", "__fid": 123167}, "geometry": {"type": "LineString", "coordinates": [[2.4513883, 48.8184752], [2.4523806, 48.8182888], [2.4531222, 48.8181749], [2.4535286, 48.818122799999976], [2.4545773, 48.817947], [2.4552619, 48.8178196], [2.4575077, 48.8173718], [2.4577612, 48.8173405], [2.4586637, 48.817283], [2.4587591, 48.8172937], [2.4590397, 48.81743189999999]]}}, {"type": "Feature", "properties": {"highway": "footway", "footway": null, "name": null, "surface": "compacted", "lit": null, "length_m": 193.2, "type_element": "Way", "__fid": 123179}, "geometry": {"type": "LineString", "coordinates": [[2.4535501, 48.82069869999999], [2.4534441, 48.82067079999999], [2.4533423, 48.8206233], [2.4531925, 48.8205737], [2.4529163, 48.8204394], [2.4527697, 48.8203774], [2.452563, 48.820318100000016], [2.4523819, 48.820252500000024], [2.4521814, 48.8201511], [2.4520081, 48.82002319999998], [2.4517449, 48.81973019999999], [2.45159, 48.8196027]]}}, {"type": "Feature", "properties": {"highway": "footway", "footway": null, "name": null, "surface": "compacted", "lit": null, "length_m": 44.36, "type_element": "Way", "__fid": 123180}, "geometry": {"type": "LineString", "coordinates": [[2.45159, 48.8196027], [2.451875, 48.8195573], [2.4520701, 48.8195082], [2.4521459, 48.819463]]}}, {"type": "Feature", "properties": {"highway": "service", "footway": null, "name": null, "surface": null, "lit": null, "length_m": 2.31, "type_element": "Way", "__fid": 123202}, "geometry": {"type": "LineString", "coordinates": [[2.4519576, 48.8209306], [2.4519738, 48.8209128]]}}, {"type": "Feature", "properties": {"highway": "footway", "footway": "sidewalk", "name": null, "surface": "asphalt", "lit": null, "length_m": 116.57, "type_element": "Way", "__fid": 123203}, "geometry": {"type": "LineString", "coordinates": [[2.4532422, 48.82154040000001], [2.4525134, 48.8211423], [2.4519738, 48.8209128]]}}, {"type": "Feature", "properties": {"highway": "service", "footway": null, "name": null, "surface": null, "lit": null, "length_m": 8.45, "type_element": "Way", "__fid": 123204}, "geometry": {"type": "LineString", "coordinates": [[2.4519738, 48.8209128], [2.4520328, 48.8208475]]}}, {"type": "Feature", "properties": {"highway": "path", "footway": null, "name": "Route des Barrières", "surface": "paved", "lit": null, "length_m": 101.19, "type_element": "Way", "__fid": 123209}, "geometry": {"type": "LineString", "coordinates": [[2.45212, 48.8178127], [2.4527517, 48.8176211], [2.4533495, 48.8174031]]}}]}