{"type": "FeatureCollection", "features": [{"type": "Feature", "properties": {"@id": "node/8205219129", "amenity": "drinking_water", "man_made": "water_tap", "type_element": "Fontaines à boire", "__fid": 745}, "geometry": {"type": "Point", "coordinates": [2.4601663, 48.822977]}, "id": "node/8205219129"}, {"type": "Feature", "geometry": {"type": "Point", "coordinates": [2.457096, 48.823505]}, "properties": {"id": 19170, "name": "Le jardin de l'École Du Breuil", "categorie": "Parcs, jardins et bois", "photo_url": "https://cdn.paris.fr/eqpts-prod/2022/11/07/6dc3a24a73d308410de3a89d536f576b.jpg", "photo_credit": "Sonia Yassa / Ville de Paris", "photo_alt": null, "address_street": "Route de la Ferme", "address_postcode": "75012", "address_city": "Paris", "phone": "0153661400", "accessibility": "{\"handicaps\": [{\"name\": \"Personnes déficientes visuelles\", \"status\": \"undefined\"}, {\"name\": \"Personnes déficientes auditives\", \"status\": \"undefined\"}, {\"name\": \"Personnes déficientes mentales\", \"status\": \"undefined\"}, {\"name\": \"Personnes à mobilité réduite\", \"status\": \"undefined\"}, {\"name\": \"Accueil en langue des signes\", \"status\": \"undefined\"}]}", "latitude": 48.823505, "longitude": 2.457096, "url": "https://www.paris.fr/lieux/le-jardin-de-l-ecole-du-breuil-19170", "type_element": "Parcs, Jardins et Bois", "__fid": 1426}}, {"type": "Feature", "properties": {"highway": "service", "footway": null, "name": null, "surface": null, "lit": null, "length_m": 587.48, "type_element": "Way", "__fid": 122920}, "geometry": {"type": "LineString", "coordinates": [[2.4479086, 48.823413], [2.4483121, 48.8237529], [2.4489093, 48.8241825], [2.4498319, 48.8247772], [2.4503177, 48.8250364], [2.4507922, 48.8252575], [2.4514271, 48.8255361], [2.4520612, 48.8257726], [2.4525045, 48.82591080000001], [2.4530191, 48.8260417], [2.4531786, 48.82607069999998], [2.4534375, 48.8260871], [2.4536628, 48.82608659999998], [2.4539121, 48.826047], [2.4540948, 48.8259984], [2.4543353, 48.82591450000001], [2.454384694748414, 48.825890335011806]]}}, {"type": "Feature", "properties": {"highway": "service", "footway": null, "name": null, "surface": null, "lit": null, "length_m": 276.36, "type_element": "Way", "__fid": 123014}, "geometry": {"type": "LineString", "coordinates": [[2.452588136023782, 48.82382430880956], [2.4525444, 48.8238585], [2.4523381, 48.82398089999998], [2.4520365, 48.8240794], [2.4517554, 48.8241257], [2.45154, 48.8241421], [2.451209, 48.8241212], [2.4509165, 48.8240615], [2.4506648, 48.8239839], [2.4496329, 48.82364530000001], [2.4491861, 48.8234868]]}}, {"type": "Feature", "properties": {"highway": "service", "footway": null, "name": null, "surface": null, "lit": null, "length_m": 223.84, "type_element": "Way", "__fid": 123056}, "geometry": {"type": "LineString", "coordinates": [[2.4524298, 48.8237204], [2.4521003, 48.8238717], [2.4517237, 48.8239702], [2.4514467, 48.8239957], [2.4510812, 48.823972], [2.4497381, 48.8235198], [2.4497452, 48.823462]]}}, {"type": "Feature", "properties": {"highway": "service", "footway": null, "name": null, "surface": null, "lit": null, "length_m": 301.93, "type_element": "Way", "__fid": 123073}, "geometry": {"type": "LineString", "coordinates": [[2.4501341, 48.8220813], [2.4505384, 48.8221743], [2.452632, 48.8229091], [2.4527372, 48.82305310000002], [2.4527067, 48.8232847], [2.4526347, 48.823456], [2.4524298, 48.8237204]]}}, {"type": "Feature", "properties": {"highway": "service", "footway": null, "name": null, "surface": null, "lit": null, "length_m": 203.51, "type_element": "Way", "__fid": 123078}, "geometry": {"type": "LineString", "coordinates": [[2.450261039477807, 48.82173602836134], [2.4525625, 48.822527], [2.4527076, 48.8225942]]}}, {"type": "Feature", "properties": {"highway": "path", "footway": null, "name": "Avenue de Gravelle", "surface": "asphalt", "lit": null, "length_m": 584.31, "type_element": "Way", "__fid": 123167}, "geometry": {"type": "LineString", "coordinates": [[2.4513883, 48.8184752], [2.4523806, 48.8182888], [2.4531222, 48.8181749], [2.4535286, 48.818122799999976], [2.4545773, 48.817947], [2.4552619, 48.8178196], [2.4575077, 48.8173718], [2.4577612, 48.8173405], [2.4586637, 48.817283], [2.4587591, 48.8172937], [2.4590397, 48.81743189999999]]}}, {"type": "Feature", "properties": {"highway": "footway", "footway": null, "name": null, "surface": "compacted", "lit": null, "length_m": 193.2, "type_element": "Way", "__fid": 123179}, "geometry": {"type": "LineString", "coordinates": [[2.4535501, 48.82069869999999], [2.4534441, 48.82067079999999], [2.4533423, 48.8206233], [2.4531925, 48.8205737], [2.4529163, 48.8204394], [2.4527697, 48.8203774], [2.452563, 48.820318100000016], [2.4523819, 48.820252500000024], [2.4521814, 48.8201511], [2.4520081, 48.82002319999998], [2.4517449, 48.81973019999999], [2.45159, 48.8196027]]}}, {"type": "Feature", "properties": {"highway": "footway", "footway": "sidewalk", "name": null, "surface": "asphalt", "lit": null, "length_m": 116.57, "type_element": "Way", "__fid": 123203}, "geometry": {"type": "LineString", "coordinates": [[2.4532422, 48.82154040000001], [2.4525134, 48.8211423], [2.4519738, 48.8209128]]}}, {"type": "Feature", "properties": {"highway": "path", "footway": null, "name": "Route des Barrières", "surface": "paved", "lit": null, "length_m": 101.19, "type_element": "Way", "__fid": 123209}, "geometry": {"type": "LineString", "coordinates": [[2.45212, 48.8178127], [2.4527517, 48.8176211], [2.4533495, 48.8174031]]}}, {"type": "Feature", "properties": {"highway": "service", "footway": null, "name": null, "surface": null, "lit": null, "length_m": 147.1, "type_element": "Way", "__fid": 123240}, "geometry": {"type": "LineString", "coordinates": [[2.4527076, 48.8225942], [2.4528097, 48.822727], [2.4529094, 48.8229375], [2.4529706, 48.8231868], [2.4529298, 48.8234181], [2.4527144, 48.8237256], [2.452588136023782, 48.82382430880956]]}}, {"type": "Feature", "properties": {"highway": "service", "footway": null, "name": null, "surface": null, "lit": null, "length_m": 17.86, "type_element": "Way", "__fid": 123247}, "geometry": {"type": "LineString", "coordinates": [[2.4527076, 48.8225942], [2.4529277, 48.8226625]]}}, {"type": "Feature", "properties": {"highway": "path", "footway": null, "name": null, "surface": "compacted", "lit": null, "length_m": 414.11, "type_element": "Way", "__fid": 123252}, "geometry": {"type": "LineString", "coordinates": [[2.4528816, 48.821114], [2.4534521, 48.8214473], [2.4538169, 48.8216994], [2.4542782, 48.8219815], [2.4547812, 48.8222319], [2.4558051, 48.8227113], [2.4572462, 48.823463]]}}, {"type": "Feature", "properties": {"highway": "service", "footway": null, "name": null, "surface": null, "lit": null, "length_m": 20.4, "type_element": "Way", "__fid": 123254}, "geometry": {"type": "LineString", "coordinates": [[2.4531551, 48.8215339], [2.4530678, 48.8215058], [2.4529298, 48.8214288]]}}, {"type": "Feature", "properties": {"highway": "service", "footway": null, "name": null, "surface": null, "lit": null, "length_m": 17.89, "type_element": "Way", "__fid": 123264}, "geometry": {"type": "LineString", "coordinates": [[2.4532237, 48.82159750000001], [2.4531082, 48.82173920000002]]}}, {"type": "Feature", "properties": {"highway": "service", "footway": null, "name": null, "surface": null, "lit": null, "length_m": 44.23, "type_element": "Way", "__fid": 123269}, "geometry": {"type": "LineString", "coordinates": [[2.4534132, 48.8217018], [2.453129, 48.8220525]]}}, {"type": "Feature", "properties": {"highway": "service", "footway": null, "name": null, "surface": "paving_stones", "lit": null, "length_m": 6.44, "type_element": "Way", "__fid": 123270}, "geometry": {"type": "LineString", "coordinates": [[2.4532422, 48.82154040000001], [2.4531551, 48.8215339]]}}, {"type": "Feature", "properties": {"highway": "service", "footway": null, "name": null, "surface": null, "lit": null, "length_m": 9.44, "type_element": "Way", "__fid": 123271}, "geometry": {"type": "LineString", "coordinates": [[2.4532237, 48.82159750000001], [2.45323, 48.8215826], [2.4531551, 48.8215339]]}}, {"type": "Feature", "properties": {"highway": "service", "footway": null, "name": null, "surface": null, "lit": null, "length_m": 18.25, "type_element": "Way", "__fid": 123276}, "geometry": {"type": "LineString", "coordinates": [[2.4534132, 48.8217018], [2.4532739, 48.8216141], [2.4532237, 48.82159750000001]]}}, {"type": "Feature", "properties": {"highway": "footway", "footway": "sidewalk", "name": null, "surface": "asphalt", "lit": null, "length_m": 40.1, "type_element": "Way", "__fid": 123278}, "geometry": {"type": "LineString", "coordinates": [[2.4536352, 48.8217908], [2.4532422, 48.82154040000001]]}}, {"type": "Feature", "properties": {"highway": "service", "footway": null, "name": null, "surface": "paving_stones", "lit": null, "length_m": 9.27, "type_element": "Way", "__fid": 123279}, "geometry": {"type": "LineString", "coordinates": [[2.453329, 48.8214798], [2.4532422, 48.82154040000001]]}}, {"type": "Feature", "properties": {"highway": "service", "footway": null, "name": null, "surface": null, "lit": null, "length_m": 479.87, "type_element": "Way", "__fid": 123287}, "geometry": {"type": "LineString", "coordinates": [[2.454384694748414, 48.825890335011806], [2.4544884, 48.8258396], [2.4546872, 48.8257013], [2.4556259, 48.82495089999997], [2.4557365, 48.8248379], [2.4558824, 48.8245825], [2.4559225, 48.82443580000002], [2.4559329, 48.824316], [2.4559016, 48.8241592], [2.4558591, 48.824059], [2.4557758, 48.8239318], [2.4557068, 48.823845800000015], [2.4555834, 48.8237397], [2.4552074, 48.8235164], [2.454773, 48.8233138], [2.4540059, 48.82303090000001], [2.4533421, 48.8228056]]}}, {"type": "Feature", "properties": {"highway": "service", "footway": null, "name": null, "surface": null, "lit": null, "length_m": 18.55, "type_element": "Way", "__fid": 123292}, "geometry": {"type": "LineString", "coordinates": [[2.4535944, 48.8218181], [2.4534132, 48.8217018]]}}, {"type": "Feature", "properties": {"highway": "service", "footway": null, "name": null, "surface": null, "lit": null, "length_m": 18.49, "type_element": "Way", "__fid": 123295}, "geometry": {"type": "LineString", "coordinates": [[2.4535944, 48.8218181], [2.4534731, 48.8219638]]}}, {"type": "Feature", "properties": {"highway": "footway", "footway": "path", "name": null, "surface": "compacted", "lit": "no", "length_m": 451.26, "type_element": "Way", "__fid": 123300}, "geometry": {"type": "LineString", "coordinates": [[2.4535501, 48.82069869999999], [2.4535373, 48.8207736], [2.4535336, 48.8209239], [2.4535612, 48.8209697], [2.4536271, 48.8210404], [2.4536542, 48.8211198], [2.4536969, 48.821160100000014], [2.45388, 48.8212814], [2.4539242, 48.8213003], [2.4541183, 48.8213347], [2.4542078, 48.8213785], [2.4542377, 48.8214041], [2.4542791, 48.8214579], [2.4543138, 48.8215277], [2.4543732, 48.821704], [2.454404, 48.8218427], [2.4544738, 48.8219155], [2.4545846, 48.82198], [2.4546479, 48.822006], [2.4547242, 48.8220257], [2.4548341, 48.8220398], [2.4549471, 48.822027900000016], [2.4550134, 48.82201], [2.4550956, 48.8220045], [2.4553424, 48.8220354], [2.4553679, 48.8220557], [2.4554685, 48.822194300000014], [2.4555194, 48.822242], [2.4557139, 48.8223718], [2.4559204, 48.822461], [2.4561994, 48.8226138], [2.4563844, 48.82265790000001], [2.4564327, 48.82267719999999], [2.4565607, 48.8227648], [2.4567944, 48.8228463], [2.4568649, 48.82290480000001], [2.4568944, 48.8229426], [2.4569558, 48.8230623], [2.4570953, 48.8231464], [2.4571611, 48.8232527], [2.4572487, 48.8233425], [2.4572864, 48.8234286]]}}, {"type": "Feature", "properties": {"highway": "track", "footway": null, "name": null, "surface": "gravel", "lit": "no", "length_m": 60.4, "type_element": "Way", "__fid": 123301}, "geometry": {"type": "LineString", "coordinates": [[2.4535501, 48.82069869999999], [2.4535616, 48.820684], [2.4537799, 48.820594100000015], [2.4539798, 48.8204895], [2.4540504, 48.8204642], [2.4541618, 48.8204528], [2.4542496, 48.8204713]]}}, {"type": "Feature", "properties": {"highway": "service", "footway": null, "name": null, "surface": null, "lit": null, "length_m": 99.13, "type_element": "Way", "__fid": 123307}, "geometry": {"type": "LineString", "coordinates": [[2.4545545, 48.8224261], [2.4545257, 48.8223705], [2.4543936, 48.82225260000001], [2.4540604, 48.8221073], [2.4538598, 48.8219913], [2.4535944, 48.8218181]]}}, {"type": "Feature", "properties": {"highway": "path", "footway": null, "name": null, "surface": "compacted", "lit": null, "length_m": 363.72, "type_element": "Way", "__fid": 123309}, "geometry": {"type": "LineString", "coordinates": [[2.4575386, 48.8237999], [2.4574037, 48.823713], [2.4564562, 48.823211100000016], [2.4557434, 48.822857], [2.4541522, 48.82209809999998], [2.4538384, 48.82191969999999], [2.4536352, 48.8217908]]}}, {"type": "Feature", "properties": {"highway": "service", "footway": null, "name": null, "surface": null, "lit": null, "length_m": 8.19, "type_element": "Way", "__fid": 123310}, "geometry": {"type": "LineString", "coordinates": [[2.4537125, 48.8217377], [2.4536352, 48.8217908]]}}, {"type": "Feature", "properties": {"highway": "track", "footway": null, "name": null, "surface": "gravel", "lit": "no", "length_m": 178.05, "type_element": "Way", "__fid": 123357}, "geometry": {"type": "LineString", "coordinates": [[2.4542496, 48.8204713], [2.4563081, 48.8213178]]}}, {"type": "Feature", "properties": {"highway": "footway", "footway": "path", "name": null, "surface": "compacted", "lit": "no", "length_m": 161.15, "type_element": "Way", "__fid": 123358}, "geometry": {"type": "LineString", "coordinates": [[2.4542496, 48.8204713], [2.4542929, 48.8204526], [2.454331, 48.820447399999985], [2.4544061, 48.820453], [2.4545702, 48.8204846], [2.4546503, 48.8204894], [2.4549481, 48.8204893], [2.4550715, 48.8205016], [2.4553263, 48.82048659999999], [2.4554443, 48.8204999], [2.4555543, 48.8204902], [2.4558172, 48.8204354], [2.4558668, 48.8204363], [2.4559486, 48.8204654], [2.4562402, 48.8205349], [2.4563786, 48.8205479]]}}, {"type": "Feature", "properties": {"highway": "service", "footway": null, "name": null, "surface": null, "lit": null, "length_m": 20.69, "type_element": "Way", "__fid": 123372}, "geometry": {"type": "LineString", "coordinates": [[2.4545545, 48.8224261], [2.45447, 48.8224758], [2.4543896, 48.822573699999985]]}}, {"type": "Feature", "properties": {"highway": "service", "footway": null, "name": null, "surface": null, "lit": null, "length_m": 243.72, "type_element": "Way", "__fid": 123386}, "geometry": {"type": "LineString", "coordinates": [[2.4568042, 48.82395539999999], [2.4564617, 48.8234627], [2.4555038, 48.8227991], [2.4551151, 48.8226071], [2.4546456, 48.8224483], [2.4545545, 48.8224261]]}}, {"type": "Feature", "properties": {"highway": "track", "footway": null, "name": null, "surface": "gravel", "lit": "no", "length_m": 48.62, "type_element": "Way", "__fid": 123518}, "geometry": {"type": "LineString", "coordinates": [[2.456656, 48.8214694], [2.4565991, 48.821509099999986], [2.456523, 48.82153120000001], [2.4564399, 48.82153190000001], [2.4563629, 48.82151120000001], [2.4563054, 48.8214734], [2.4562735, 48.8214215], [2.4562752, 48.8213668], [2.4563081, 48.8213178]]}}, {"type": "Feature", "properties": {"highway": "track", "footway": null, "name": null, "surface": "gravel", "lit": "no", "length_m": 22.53, "type_element": "Way", "__fid": 123519}, "geometry": {"type": "LineString", "coordinates": [[2.4563081, 48.8213178], [2.4563473, 48.821290200000014], [2.456421, 48.8212649], [2.4565039, 48.821260500000015], [2.456583, 48.8212779]]}}, {"type": "Feature", "properties": {"highway": "track", "footway": null, "name": null, "surface": "grass", "lit": "no", "length_m": 93.92, "type_element": "Way", "__fid": 123525}, "geometry": {"type": "LineString", "coordinates": [[2.4563786, 48.8205479], [2.4568019, 48.82105350000001], [2.456583, 48.8212779]]}}, {"type": "Feature", "properties": {"highway": "footway", "footway": "path", "name": null, "surface": "compacted", "lit": "no", "length_m": 96.95, "type_element": "Way", "__fid": 123526}, "geometry": {"type": "LineString", "coordinates": [[2.4563786, 48.8205479], [2.4564549, 48.820536699999984], [2.4566349, 48.8204852], [2.4568168, 48.8204476], [2.4569424, 48.8204133], [2.4570505, 48.8203974], [2.4571533, 48.82039], [2.4573931, 48.8203905], [2.4576478, 48.8204403]]}}, {"type": "Feature", "properties": {"highway": "track", "footway": null, "name": "Avenue de l'École de Joinville", "surface": "asphalt", "lit": null, "length_m": 3.98, "type_element": "Way", "__fid": 123529}, "geometry": {"type": "LineString", "coordinates": [[2.4565235, 48.8198484], [2.4565774, 48.819851900000025]]}}, {"type": "Feature", "properties": {"highway": "path", "footway": null, "name": null, "surface": "ground", "lit": null, "length_m": 183.62, "type_element": "Way", "__fid": 123538}, "geometry": {"type": "LineString", "coordinates": [[2.4585059, 48.81998020000001], [2.4583865, 48.8198727], [2.4583468, 48.8198543], [2.458284, 48.81984170000001], [2.4573376, 48.8195614], [2.4571961, 48.8194893], [2.457035, 48.8194467], [2.4569747, 48.8194519], [2.4569222, 48.819472200000014], [2.4568693, 48.81950830000001], [2.4568113, 48.81956060000001], [2.4565774, 48.819851900000025]]}}, {"type": "Feature", "properties": {"highway": "track", "footway": null, "name": null, "surface": "gravel", "lit": "no", "length_m": 24.35, "type_element": "Way", "__fid": 123539}, "geometry": {"type": "LineString", "coordinates": [[2.456583, 48.8212779], [2.4566451, 48.821314], [2.4566811, 48.8213633], [2.4566849, 48.821418], [2.456656, 48.8214694]]}}, {"type": "Feature", "properties": {"highway": "track", "footway": null, "name": null, "surface": "gravel", "lit": "no", "length_m": 158.5, "type_element": "Way", "__fid": 123546}, "geometry": {"type": "LineString", "coordinates": [[2.456656, 48.8214694], [2.4584761, 48.8222359]]}}, {"type": "Feature", "properties": {"highway": "path", "footway": null, "name": null, "surface": "compacted", "lit": null, "length_m": 41.38, "type_element": "Way", "__fid": 123573}, "geometry": {"type": "LineString", "coordinates": [[2.4572462, 48.823463], [2.4576766, 48.8237033]]}}, {"type": "Feature", "properties": {"highway": "footway", "footway": "path", "name": null, "surface": "compacted", "lit": "no", "length_m": 4.83, "type_element": "Way", "__fid": 123574}, "geometry": {"type": "LineString", "coordinates": [[2.4572864, 48.8234286], [2.4572462, 48.823463]]}}, {"type": "Feature", "properties": {"highway": "footway", "footway": "path", "name": null, "surface": "compacted", "lit": "no", "length_m": 173.52, "type_element": "Way", "__fid": 123575}, "geometry": {"type": "LineString", "coordinates": [[2.4584761, 48.8222359], [2.4583927, 48.8224844], [2.4583419, 48.8225959], [2.4582193, 48.82276130000001], [2.458021, 48.8229589], [2.457979, 48.8230963], [2.4579569, 48.823127600000014], [2.4579267, 48.8231435], [2.4577473, 48.8231727], [2.4576656, 48.8231972], [2.4576137, 48.8232378], [2.4575981, 48.8233161], [2.4575828, 48.823332700000016], [2.4574642, 48.823415200000014], [2.4573956, 48.8234332], [2.4573521, 48.82343619999999], [2.4572864, 48.8234286]]}}, {"type": "Feature", "properties": {"highway": "footway", "footway": "path", "name": null, "surface": "compacted", "lit": "no", "length_m": 203.0, "type_element": "Way", "__fid": 123594}, "geometry": {"type": "LineString", "coordinates": [[2.4576478, 48.8204403], [2.4577462, 48.8206138], [2.457843, 48.8206917], [2.4580759, 48.8208498], [2.458185, 48.8209659], [2.4582665, 48.82107649999998], [2.4583039, 48.8211435], [2.4584328, 48.821471], [2.4584799, 48.8216335], [2.4585016, 48.821798], [2.4585194, 48.82211689999998]]}}, {"type": "Feature", "properties": {"highway": "footway", "footway": "path", "name": null, "surface": "compacted", "lit": "no", "length_m": 207.08, "type_element": "Way", "__fid": 123595}, "geometry": {"type": "LineString", "coordinates": [[2.4576478, 48.8204403], [2.4577913, 48.8204363], [2.4581708, 48.820499], [2.4583116, 48.8205546], [2.4584055, 48.820612900000015], [2.4585463, 48.8207507], [2.4586792, 48.8208294], [2.4588454, 48.8208919], [2.4589647, 48.8209273], [2.4590747, 48.8209237], [2.4592048, 48.820896300000015], [2.4594904, 48.82080190000001], [2.4595588, 48.8207939], [2.4601224, 48.820774599999986], [2.4601563, 48.820789]]}}, {"type": "Feature", "properties": {"highway": "path", "footway": "sidewalk", "name": "Route de la Pyramide", "surface": null, "lit": null, "length_m": 13.48, "type_element": "Way", "__fid": 123600}, "geometry": {"type": "LineString", "coordinates": [[2.4578555, 48.82368], [2.4577943, 48.82368129999998], [2.4576766, 48.8237033]]}}, {"type": "Feature", "properties": {"highway": "path", "footway": "crossing", "name": null, "surface": "compacted", "lit": "yes", "length_m": 15.72, "type_element": "Way", "__fid": 123611}, "geometry": {"type": "LineString", "coordinates": [[2.4578555, 48.82368], [2.4579039, 48.82368429999998], [2.4579878, 48.8237144], [2.4580377, 48.8237466]]}}, {"type": "Feature", "properties": {"highway": "footway", "footway": "sidewalk", "name": "Route de la Pyramide", "surface": null, "lit": null, "length_m": 160.51, "type_element": "Way", "__fid": 123612}, "geometry": {"type": "LineString", "coordinates": [[2.4588426, 48.822392200000024], [2.4587113, 48.8225798], [2.4581815, 48.8232747], [2.4578555, 48.82368]]}}, {"type": "Feature", "properties": {"highway": "footway", "footway": "sidewalk", "name": null, "surface": null, "lit": null, "length_m": 85.68, "type_element": "Way", "__fid": 123620}, "geometry": {"type": "LineString", "coordinates": [[2.4585397, 48.8230646], [2.4580642, 48.82366180000002], [2.4580669, 48.8237353], [2.4580377, 48.8237466]]}}, {"type": "Feature", "properties": {"highway": "track", "footway": null, "name": null, "surface": "gravel", "lit": "no", "length_m": 32.03, "type_element": "Way", "__fid": 123640}, "geometry": {"type": "LineString", "coordinates": [[2.4584761, 48.8222359], [2.4588426, 48.822392200000024]]}}, {"type": "Feature", "properties": {"highway": "footway", "footway": "path", "name": null, "surface": "compacted", "lit": "no", "length_m": 13.61, "type_element": "Way", "__fid": 123641}, "geometry": {"type": "LineString", "coordinates": [[2.4585194, 48.82211689999998], [2.4584761, 48.8222359]]}}, {"type": "Feature", "properties": {"highway": "track", "footway": null, "name": "Avenue de l'École de Joinville", "surface": "asphalt", "lit": null, "length_m": 157.4, "type_element": "Way", "__fid": 123643}, "geometry": {"type": "LineString", "coordinates": [[2.4585059, 48.81998020000001], [2.4586818, 48.8199921], [2.4588679, 48.8200289], [2.4591057, 48.82009170000002], [2.4592375, 48.8201548], [2.4602509, 48.82074739999999]]}}, {"type": "Feature", "properties": {"highway": "footway", "footway": null, "name": null, "surface": "compacted", "lit": null, "length_m": 5.16, "type_element": "Way", "__fid": 123644}, "geometry": {"type": "LineString", "coordinates": [[2.4585397, 48.8230646], [2.4584818, 48.8230383]]}}, {"type": "Feature", "properties": {"highway": "footway", "footway": null, "name": null, "surface": null, "lit": null, "length_m": 67.8, "type_element": "Way", "__fid": 123648}, "geometry": {"type": "LineString", "coordinates": [[2.4585053, 48.8233682], [2.458525, 48.8235216], [2.4586135, 48.8236625], [2.4586815, 48.8237329], [2.4587633, 48.8237875], [2.458874, 48.82384110000001], [2.4589445, 48.823864899999975]]}}, {"type": "Feature", "properties": {"highway": "footway", "footway": null, "name": null, "surface": "compacted", "lit": null, "length_m": 101.78, "type_element": "Way", "__fid": 123649}, "geometry": {"type": "LineString", "coordinates": [[2.4586853, 48.8241477], [2.4585524, 48.82408690000001], [2.4584114, 48.8239885], [2.4583171, 48.8238656], [2.4582883, 48.82375280000003], [2.4582937, 48.82364130000002], [2.4583225, 48.8235737], [2.4584278, 48.8234362], [2.4585053, 48.8233682]]}}, {"type": "Feature", "properties": {"highway": "footway", "footway": null, "name": null, "surface": "compacted", "lit": null, "length_m": 31.45, "type_element": "Way", "__fid": 123650}, "geometry": {"type": "LineString", "coordinates": [[2.4585053, 48.8233682], [2.4586656, 48.82325740000001], [2.458754, 48.8232118], [2.4587925, 48.8231857], [2.458804, 48.8231682]]}}, {"type": "Feature", "properties": {"highway": "footway", "footway": null, "name": null, "surface": null, "lit": "no", "length_m": 52.25, "type_element": "Way", "__fid": 123651}, "geometry": {"type": "LineString", "coordinates": [[2.4585194, 48.82211689999998], [2.4587094, 48.8218681], [2.4588503, 48.821701]]}}, {"type": "Feature", "properties": {"highway": "footway", "footway": null, "name": null, "surface": "compacted", "lit": null, "length_m": 22.57, "type_element": "Way", "__fid": 123652}, "geometry": {"type": "LineString", "coordinates": [[2.458804, 48.8231682], [2.4585397, 48.8230646]]}}, {"type": "Feature", "properties": {"highway": "footway", "footway": "sidewalk", "name": null, "surface": null, "lit": null, "length_m": 76.55, "type_element": "Way", "__fid": 123653}, "geometry": {"type": "LineString", "coordinates": [[2.4589942, 48.822445], [2.4585397, 48.8230646]]}}, {"type": "Feature", "properties": {"highway": "footway", "footway": null, "name": null, "surface": "compacted", "lit": null, "length_m": 30.19, "type_element": "Way", "__fid": 123664}, "geometry": {"type": "LineString", "coordinates": [[2.4591477, 48.8233173], [2.458804, 48.8231682]]}}, {"type": "Feature", "properties": {"highway": "footway", "footway": null, "name": null, "surface": "compacted", "lit": null, "length_m": 82.54, "type_element": "Way", "__fid": 123665}, "geometry": {"type": "LineString", "coordinates": [[2.458804, 48.8231682], [2.4588574, 48.82306930000002], [2.4588963, 48.822959], [2.458931, 48.8229151], [2.4590385, 48.82281420000002], [2.4591027, 48.82272080000001], [2.4591162, 48.8226412], [2.4591109, 48.8225776], [2.4590797, 48.8224748]]}}, {"type": "Feature", "properties": {"highway": "track", "footway": null, "name": null, "surface": "gravel", "lit": "no", "length_m": 12.58, "type_element": "Way", "__fid": 123666}, "geometry": {"type": "LineString", "coordinates": [[2.4588426, 48.822392200000024], [2.4589942, 48.822445]]}}, {"type": "Feature", "properties": {"highway": "footway", "footway": "sidewalk", "name": "Route de la Pyramide", "surface": null, "lit": null, "length_m": 210.75, "type_element": "Way", "__fid": 123667}, "geometry": {"type": "LineString", "coordinates": [[2.4602509, 48.82074739999999], [2.4600604, 48.8209012], [2.4598029, 48.8211502], [2.4595635, 48.821423500000016], [2.4593168, 48.8217427], [2.4588426, 48.822392200000024]]}}, {"type": "Feature", "properties": {"highway": "footway", "footway": null, "name": null, "surface": null, "lit": null, "length_m": 66.09, "type_element": "Way", "__fid": 123671}, "geometry": {"type": "LineString", "coordinates": [[2.4589445, 48.823864899999975], [2.4591565, 48.8236458], [2.4591837, 48.8236011], [2.459193, 48.8235273], [2.4591477, 48.8233173]]}}, {"type": "Feature", "properties": {"highway": "footway", "footway": null, "name": null, "surface": "compacted", "lit": null, "length_m": 7.1, "type_element": "Way", "__fid": 123674}, "geometry": {"type": "LineString", "coordinates": [[2.4589942, 48.822445], [2.4590797, 48.8224748]]}}, {"type": "Feature", "properties": {"highway": "footway", "footway": "sidewalk", "name": null, "surface": null, "lit": null, "length_m": 205.59, "type_element": "Way", "__fid": 123675}, "geometry": {"type": "LineString", "coordinates": [[2.4603917, 48.82085390000001], [2.460212, 48.8209696], [2.4600571, 48.82110740000002], [2.4599109, 48.8212641], [2.4595555, 48.82168], [2.4589942, 48.822445]]}}, {"type": "Feature", "properties": {"highway": "footway", "footway": null, "name": null, "surface": "compacted", "lit": null, "length_m": 37.31, "type_element": "Way", "__fid": 123678}, "geometry": {"type": "LineString", "coordinates": [[2.4590797, 48.8224748], [2.4595029, 48.8226605]]}}, {"type": "Feature", "properties": {"highway": "footway", "footway": null, "name": null, "surface": "compacted", "lit": null, "length_m": 45.14, "type_element": "Way", "__fid": 123681}, "geometry": {"type": "LineString", "coordinates": [[2.4596668, 48.8235349], [2.4591477, 48.8233173]]}}, {"type": "Feature", "properties": {"highway": "footway", "footway": null, "name": null, "surface": "compacted", "lit": null, "length_m": 42.71, "type_element": "Way", "__fid": 123690}, "geometry": {"type": "LineString", "coordinates": [[2.4595531, 48.8236631], [2.4592324, 48.8239836]]}}, {"type": "Feature", "properties": {"highway": "footway", "footway": null, "name": null, "surface": "compacted", "lit": null, "length_m": 63.03, "type_element": "Way", "__fid": 123709}, "geometry": {"type": "LineString", "coordinates": [[2.4595029, 48.8226605], [2.4602243, 48.8229678]]}}, {"type": "Feature", "properties": {"highway": "footway", "footway": null, "name": null, "surface": "sett", "lit": null, "length_m": 76.83, "type_element": "Way", "__fid": 123710}, "geometry": {"type": "LineString", "coordinates": [[2.4598879, 48.8233022], [2.4597278, 48.8229925], [2.4595029, 48.8226605]]}}, {"type": "Feature", "properties": {"highway": "footway", "footway": null, "name": null, "surface": "compacted", "lit": null, "length_m": 9.36, "type_element": "Way", "__fid": 123713}, "geometry": {"type": "LineString", "coordinates": [[2.4595531, 48.8236631], [2.4596683, 48.8236991]]}}, {"type": "Feature", "properties": {"highway": "footway", "footway": null, "name": null, "surface": "compacted", "lit": null, "length_m": 16.52, "type_element": "Way", "__fid": 123714}, "geometry": {"type": "LineString", "coordinates": [[2.4596668, 48.8235349], [2.4595531, 48.8236631]]}}, {"type": "Feature", "properties": {"highway": "footway", "footway": null, "name": null, "surface": "fine_gravel", "lit": null, "length_m": 9.65, "type_element": "Way", "__fid": 123727}, "geometry": {"type": "LineString", "coordinates": [[2.4597782, 48.823581], [2.4596668, 48.8235349]]}}, {"type": "Feature", "properties": {"highway": "footway", "footway": null, "name": null, "surface": "compacted", "lit": null, "length_m": 30.55, "type_element": "Way", "__fid": 123728}, "geometry": {"type": "LineString", "coordinates": [[2.4598879, 48.8233022], [2.4596668, 48.8235349]]}}, {"type": "Feature", "properties": {"highway": "footway", "footway": null, "name": null, "surface": "compacted", "lit": null, "length_m": 17.17, "type_element": "Way", "__fid": 123729}, "geometry": {"type": "LineString", "coordinates": [[2.4596683, 48.8236991], [2.4598665, 48.823781]]}}, {"type": "Feature", "properties": {"highway": "footway", "footway": null, "name": null, "surface": "compacted", "lit": null, "length_m": 15.41, "type_element": "Way", "__fid": 123730}, "geometry": {"type": "LineString", "coordinates": [[2.4597782, 48.823581], [2.4596683, 48.8236991]]}}, {"type": "Feature", "properties": {"highway": "footway", "footway": null, "name": null, "surface": "fine_gravel", "lit": null, "length_m": 16.9, "type_element": "Way", "__fid": 123741}, "geometry": {"type": "LineString", "coordinates": [[2.4599732, 48.82366180000001], [2.4597782, 48.823581]]}}, {"type": "Feature", "properties": {"highway": "footway", "footway": null, "name": null, "surface": "compacted", "lit": null, "length_m": 30.54, "type_element": "Way", "__fid": 123742}, "geometry": {"type": "LineString", "coordinates": [[2.4599979, 48.8233478], [2.4597782, 48.823581]]}}, {"type": "Feature", "properties": {"highway": "footway", "footway": null, "name": null, "surface": "compacted", "lit": null, "length_m": 15.4, "type_element": "Way", "__fid": 123746}, "geometry": {"type": "LineString", "coordinates": [[2.4599732, 48.82366180000001], [2.4598665, 48.823781]]}}, {"type": "Feature", "properties": {"highway": "footway", "footway": null, "name": null, "surface": "compacted", "lit": null, "length_m": 9.54, "type_element": "Way", "__fid": 123748}, "geometry": {"type": "LineString", "coordinates": [[2.4598879, 48.8233022], [2.4599979, 48.8233478]]}}, {"type": "Feature", "properties": {"highway": "footway", "footway": null, "name": null, "surface": "compacted", "lit": null, "length_m": 44.64, "type_element": "Way", "__fid": 123749}, "geometry": {"type": "LineString", "coordinates": [[2.4602243, 48.8229678], [2.4598879, 48.8233022]]}}, {"type": "Feature", "properties": {"highway": "footway", "footway": null, "name": null, "surface": "compacted", "lit": null, "length_m": 30.48, "type_element": "Way", "__fid": 123752}, "geometry": {"type": "LineString", "coordinates": [[2.4601934, 48.8234294], [2.4599732, 48.82366180000001]]}}, {"type": "Feature", "properties": {"highway": "footway", "footway": null, "name": null, "surface": "compacted", "lit": null, "length_m": 16.98, "type_element": "Way", "__fid": 123759}, "geometry": {"type": "LineString", "coordinates": [[2.4599979, 48.8233478], [2.4601934, 48.8234294]]}}, {"type": "Feature", "properties": {"highway": "footway", "footway": null, "name": null, "surface": "compacted", "lit": null, "length_m": 9.05, "type_element": "Way", "__fid": 123760}, "geometry": {"type": "LineString", "coordinates": [[2.4600627, 48.8232786], [2.4599979, 48.8233478]]}}, {"type": "Feature", "properties": {"highway": "footway", "footway": null, "name": null, "surface": "compacted", "lit": null, "length_m": 9.25, "type_element": "Way", "__fid": 123764}, "geometry": {"type": "LineString", "coordinates": [[2.4601693, 48.8233229], [2.4600627, 48.8232786]]}}, {"type": "Feature", "properties": {"highway": "footway", "footway": null, "name": null, "surface": "compacted", "lit": null, "length_m": 26.39, "type_element": "Way", "__fid": 123765}, "geometry": {"type": "LineString", "coordinates": [[2.4600627, 48.8232786], [2.4601863, 48.82314790000002], [2.4602914, 48.8231939]]}}, {"type": "Feature", "properties": {"highway": "footway", "footway": null, "name": null, "surface": "compacted", "lit": null, "length_m": 30.57, "type_element": "Way", "__fid": 123772}, "geometry": {"type": "LineString", "coordinates": [[2.4603504, 48.8234942], [2.4601306, 48.8237277]]}}, {"type": "Feature", "properties": {"highway": "footway", "footway": null, "name": null, "surface": "compacted", "lit": null, "length_m": 7.86, "type_element": "Way", "__fid": 123775}, "geometry": {"type": "LineString", "coordinates": [[2.4602599, 48.8233605], [2.4601693, 48.8233229]]}}, {"type": "Feature", "properties": {"highway": "footway", "footway": null, "name": null, "surface": "fine_gravel", "lit": null, "length_m": 16.91, "type_element": "Way", "__fid": 123776}, "geometry": {"type": "LineString", "coordinates": [[2.4601693, 48.8233229], [2.4602914, 48.8231939]]}}, {"type": "Feature", "properties": {"highway": "footway", "footway": null, "name": null, "surface": "compacted", "lit": null, "length_m": 13.59, "type_element": "Way", "__fid": 123779}, "geometry": {"type": "LineString", "coordinates": [[2.4601934, 48.8234294], [2.4603504, 48.8234942]]}}, {"type": "Feature", "properties": {"highway": "footway", "footway": null, "name": null, "surface": "compacted", "lit": null, "length_m": 9.08, "type_element": "Way", "__fid": 123780}, "geometry": {"type": "LineString", "coordinates": [[2.4602599, 48.8233605], [2.4601934, 48.8234294]]}}, {"type": "Feature", "properties": {"highway": "footway", "footway": null, "name": null, "surface": "fine_gravel", "lit": null, "length_m": 17.49, "type_element": "Way", "__fid": 123783}, "geometry": {"type": "LineString", "coordinates": [[2.4602243, 48.8229678], [2.460425, 48.8230526]]}}, {"type": "Feature", "properties": {"highway": "footway", "footway": null, "name": null, "surface": "compacted", "lit": null, "length_m": 154.48, "type_element": "Way", "__fid": 123784}, "geometry": {"type": "LineString", "coordinates": [[2.4605146, 48.82192220000001], [2.4599068, 48.8220126], [2.4602243, 48.8229678]]}}, {"type": "Feature", "properties": {"highway": "footway", "footway": null, "name": null, "surface": null, "lit": null, "length_m": 45.94, "type_element": "Way", "__fid": 123785}, "geometry": {"type": "LineString", "coordinates": [[2.4608339, 48.8228747], [2.4602243, 48.8229678]]}}, {"type": "Feature", "properties": {"highway": "path", "footway": null, "name": "Route de la Pyramide", "surface": "asphalt", "lit": null, "length_m": 5.76, "type_element": "Way", "__fid": 123786}, "geometry": {"type": "LineString", "coordinates": [[2.4603058, 48.8207104], [2.4602509, 48.82074739999999]]}}, {"type": "Feature", "properties": {"highway": "footway", "footway": null, "name": null, "surface": "compacted", "lit": null, "length_m": 16.71, "type_element": "Way", "__fid": 123791}, "geometry": {"type": "LineString", "coordinates": [[2.4603812, 48.8232333], [2.4602599, 48.8233605]]}}, {"type": "Feature", "properties": {"highway": "footway", "footway": null, "name": null, "surface": null, "lit": null, "length_m": 14.6, "type_element": "Way", "__fid": 123793}, "geometry": {"type": "LineString", "coordinates": [[2.4603058, 48.8207104], [2.4603313, 48.82072639999998], [2.4603863, 48.8207299], [2.4604654, 48.8207789]]}}, {"type": "Feature", "properties": {"highway": "path", "footway": null, "name": "Route de la Pyramide", "surface": "asphalt", "lit": null, "length_m": 179.54, "type_element": "Way", "__fid": 123794}, "geometry": {"type": "LineString", "coordinates": [[2.4619078, 48.8195091], [2.4616758, 48.8197886], [2.4615906, 48.81987250000001], [2.4615034, 48.8199413], [2.4612587, 48.8201034], [2.4609952, 48.8202354], [2.4603058, 48.8207104]]}}, {"type": "Feature", "properties": {"highway": "footway", "footway": null, "name": null, "surface": "compacted", "lit": null, "length_m": 7.92, "type_element": "Way", "__fid": 123795}, "geometry": {"type": "LineString", "coordinates": [[2.4602914, 48.8231939], [2.4603812, 48.8232333]]}}, {"type": "Feature", "properties": {"highway": "footway", "footway": null, "name": null, "surface": "fine_gravel", "lit": null, "length_m": 18.52, "type_element": "Way", "__fid": 123796}, "geometry": {"type": "LineString", "coordinates": [[2.4602914, 48.8231939], [2.460425, 48.8230526]]}}, {"type": "Feature", "properties": {"highway": "track", "footway": null, "name": "Avenue de l'École de Joinville", "surface": "asphalt", "lit": null, "length_m": 6.36, "type_element": "Way", "__fid": 123800}, "geometry": {"type": "LineString", "coordinates": [[2.4603406, 48.8208077], [2.4603917, 48.82085390000001]]}}, {"type": "Feature", "properties": {"highway": "footway", "footway": null, "name": null, "surface": "fine_gravel", "lit": null, "length_m": 31.86, "type_element": "Way", "__fid": 123801}, "geometry": {"type": "LineString", "coordinates": [[2.4605507, 48.823568399999985], [2.4603188, 48.8238106]]}}, {"type": "Feature", "properties": {"highway": "service", "footway": null, "name": null, "surface": "compacted", "lit": null, "length_m": 47.26, "type_element": "Way", "__fid": 123802}, "geometry": {"type": "LineString", "coordinates": [[2.4606601, 48.82361550000001], [2.4603199, 48.8239763]]}}, {"type": "Feature", "properties": {"highway": "footway", "footway": null, "name": null, "surface": "compacted", "lit": null, "length_m": 16.86, "type_element": "Way", "__fid": 123803}, "geometry": {"type": "LineString", "coordinates": [[2.4603504, 48.8234942], [2.4605507, 48.823568399999985]]}}, {"type": "Feature", "properties": {"highway": "footway", "footway": null, "name": null, "surface": "compacted", "lit": null, "length_m": 8.85, "type_element": "Way", "__fid": 123804}, "geometry": {"type": "LineString", "coordinates": [[2.4604156, 48.823427299999985], [2.4603504, 48.8234942]]}}, {"type": "Feature", "properties": {"highway": "track", "footway": null, "name": "Avenue de l'École de Joinville", "surface": "asphalt", "lit": null, "length_m": 16.62, "type_element": "Way", "__fid": 123805}, "geometry": {"type": "LineString", "coordinates": [[2.4603917, 48.82085390000001], [2.4605543, 48.82095789999999]]}}, {"type": "Feature", "properties": {"highway": "footway", "footway": null, "name": null, "surface": null, "lit": null, "length_m": 9.94, "type_element": "Way", "__fid": 123806}, "geometry": {"type": "LineString", "coordinates": [[2.4604654, 48.8207789], [2.4603917, 48.82085390000001]]}}, {"type": "Feature", "properties": {"highway": "footway", "footway": null, "name": null, "surface": "compacted", "lit": null, "length_m": 18.64, "type_element": "Way", "__fid": 123810}, "geometry": {"type": "LineString", "coordinates": [[2.4605168, 48.82309160000001], [2.4603812, 48.8232333]]}}, {"type": "Feature", "properties": {"highway": "footway", "footway": null, "name": null, "surface": "compacted", "lit": null, "length_m": 36.62, "type_element": "Way", "__fid": 123811}, "geometry": {"type": "LineString", "coordinates": [[2.4604068, 48.8216006], [2.4605146, 48.82192220000001]]}}, {"type": "Feature", "properties": {"highway": "footway", "footway": null, "name": null, "surface": "fine_gravel", "lit": null, "length_m": 7.92, "type_element": "Way", "__fid": 123814}, "geometry": {"type": "LineString", "coordinates": [[2.4604156, 48.823427299999985], [2.4605097, 48.8234622]]}}, {"type": "Feature", "properties": {"highway": "footway", "footway": null, "name": null, "surface": "compacted", "lit": null, "length_m": 17.45, "type_element": "Way", "__fid": 123815}, "geometry": {"type": "LineString", "coordinates": [[2.4605416, 48.8232942], [2.4604156, 48.823427299999985]]}}, {"type": "Feature", "properties": {"highway": "footway", "footway": null, "name": null, "surface": "fine_gravel", "lit": null, "length_m": 8.01, "type_element": "Way", "__fid": 123816}, "geometry": {"type": "LineString", "coordinates": [[2.460425, 48.8230526], [2.4605168, 48.82309160000001]]}}, {"type": "Feature", "properties": {"highway": "footway", "footway": null, "name": null, "surface": null, "lit": null, "length_m": 8.46, "type_element": "Way", "__fid": 123821}, "geometry": {"type": "LineString", "coordinates": [[2.4604654, 48.8207789], [2.4605516, 48.820728400000014]]}}, {"type": "Feature", "properties": {"highway": "footway", "footway": null, "name": null, "surface": "compacted", "lit": null, "length_m": 108.47, "type_element": "Way", "__fid": 123826}, "geometry": {"type": "LineString", "coordinates": [[2.4605146, 48.82192220000001], [2.4608339, 48.8228747]]}}, {"type": "Feature", "properties": {"highway": "footway", "footway": null, "name": null, "surface": "compacted", "lit": null, "length_m": 70.93, "type_element": "Way", "__fid": 123827}, "geometry": {"type": "LineString", "coordinates": [[2.4614594, 48.821789], [2.4605146, 48.82192220000001]]}}, {"type": "Feature", "properties": {"highway": "footway", "footway": null, "name": null, "surface": "fine_gravel", "lit": null, "length_m": 8.87, "type_element": "Way", "__fid": 123828}, "geometry": {"type": "LineString", "coordinates": [[2.4605097, 48.8234622], [2.4606105, 48.82350619999998]]}}, {"type": "Feature", "properties": {"highway": "footway", "footway": null, "name": null, "surface": "fine_gravel", "lit": null, "length_m": 17.09, "type_element": "Way", "__fid": 123829}, "geometry": {"type": "LineString", "coordinates": [[2.4605097, 48.8234622], [2.4606329, 48.8233318]]}}, {"type": "Feature", "properties": {"highway": "footway", "footway": null, "name": null, "surface": "fine_gravel", "lit": null, "length_m": 13.27, "type_element": "Way", "__fid": 123830}, "geometry": {"type": "LineString", "coordinates": [[2.4605168, 48.82309160000001], [2.460669, 48.823156]]}}, {"type": "Feature", "properties": {"highway": "footway", "footway": null, "name": null, "surface": null, "lit": null, "length_m": 18.75, "type_element": "Way", "__fid": 123833}, "geometry": {"type": "LineString", "coordinates": [[2.4605516, 48.820728400000014], [2.4607913, 48.8207866]]}}, {"type": "Feature", "properties": {"highway": "footway", "footway": "sidewalk", "name": null, "surface": null, "lit": null, "length_m": 88.69, "type_element": "Way", "__fid": 123834}, "geometry": {"type": "LineString", "coordinates": [[2.4605516, 48.820728400000014], [2.461397, 48.8201587]]}}, {"type": "Feature", "properties": {"highway": "track", "footway": null, "name": "Avenue de l'École de Joinville", "surface": "asphalt", "lit": null, "length_m": 603.7, "type_element": "Way", "__fid": 123835}, "geometry": {"type": "LineString", "coordinates": [[2.4605543, 48.82095789999999], [2.4608927, 48.8211799], [2.4615535, 48.821657], [2.4617048, 48.8218145], [2.4618697, 48.8220593], [2.4619289, 48.8226737], [2.4621807, 48.823693], [2.4623033, 48.8243133], [2.4622732, 48.824528], [2.4622717, 48.8247311], [2.4623457, 48.8250613], [2.4623926, 48.825177], [2.4625789, 48.8258298], [2.4625679, 48.8259859], [2.4625172, 48.8260183]]}}, {"type": "Feature", "properties": {"highway": "footway", "footway": null, "name": null, "surface": null, "lit": null, "length_m": 25.8, "type_element": "Way", "__fid": 123836}, "geometry": {"type": "LineString", "coordinates": [[2.4607913, 48.8207866], [2.4605543, 48.82095789999999]]}}, {"type": "Feature", "properties": {"highway": "footway", "footway": null, "name": null, "surface": "fine_gravel", "lit": null, "length_m": 7.9, "type_element": "Way", "__fid": 123838}, "geometry": {"type": "LineString", "coordinates": [[2.4605416, 48.8232942], [2.4606329, 48.8233318]]}}, {"type": "Feature", "properties": {"highway": "footway", "footway": null, "name": null, "surface": "compacted", "lit": null, "length_m": 17.99, "type_element": "Way", "__fid": 123839}, "geometry": {"type": "LineString", "coordinates": [[2.460669, 48.823156], [2.4605416, 48.8232942]]}}, {"type": "Feature", "properties": {"highway": "footway", "footway": null, "name": null, "surface": "compacted", "lit": null, "length_m": 9.59, "type_element": "Way", "__fid": 123840}, "geometry": {"type": "LineString", "coordinates": [[2.4605507, 48.823568399999985], [2.4606601, 48.82361550000001]]}}, {"type": "Feature", "properties": {"highway": "footway", "footway": null, "name": null, "surface": "fine_gravel", "lit": null, "length_m": 8.19, "type_element": "Way", "__fid": 123841}, "geometry": {"type": "LineString", "coordinates": [[2.4606105, 48.82350619999998], [2.4605507, 48.823568399999985]]}}, {"type": "Feature", "properties": {"highway": "footway", "footway": null, "name": null, "surface": "fine_gravel", "lit": null, "length_m": 26.09, "type_element": "Way", "__fid": 123845}, "geometry": {"type": "LineString", "coordinates": [[2.4606329, 48.8233318], [2.460735, 48.82337589999998], [2.4606105, 48.82350619999998]]}}, {"type": "Feature", "properties": {"highway": "footway", "footway": null, "name": null, "surface": "fine_gravel", "lit": null, "length_m": 17.88, "type_element": "Way", "__fid": 123851}, "geometry": {"type": "LineString", "coordinates": [[2.4606329, 48.8233318], [2.4607608, 48.823195]]}}, {"type": "Feature", "properties": {"highway": "service", "footway": null, "name": null, "surface": "compacted", "lit": null, "length_m": 18.26, "type_element": "Way", "__fid": 123854}, "geometry": {"type": "LineString", "coordinates": [[2.4607916, 48.8234761], [2.4606601, 48.82361550000001]]}}, {"type": "Feature", "properties": {"highway": "footway", "footway": null, "name": null, "surface": "fine_gravel", "lit": null, "length_m": 8.01, "type_element": "Way", "__fid": 123855}, "geometry": {"type": "LineString", "coordinates": [[2.460669, 48.823156], [2.4607608, 48.823195]]}}, {"type": "Feature", "properties": {"highway": "footway", "footway": null, "name": null, "surface": "fine_gravel", "lit": null, "length_m": 18.45, "type_element": "Way", "__fid": 123867}, "geometry": {"type": "LineString", "coordinates": [[2.4607608, 48.823195], [2.4609725, 48.8232844]]}}, {"type": "Feature", "properties": {"highway": "footway", "footway": null, "name": null, "surface": null, "lit": null, "length_m": 27.43, "type_element": "Way", "__fid": 123868}, "geometry": {"type": "LineString", "coordinates": [[2.4611125, 48.820671800000014], [2.4610958, 48.82068969999999], [2.4610142, 48.8207325], [2.4607913, 48.8207866]]}}, {"type": "Feature", "properties": {"highway": "service", "footway": null, "name": null, "surface": "compacted", "lit": null, "length_m": 25.11, "type_element": "Way", "__fid": 123869}, "geometry": {"type": "LineString", "coordinates": [[2.4609725, 48.8232844], [2.4607916, 48.8234761]]}}, {"type": "Feature", "properties": {"highway": "footway", "footway": null, "name": null, "surface": null, "lit": null, "length_m": 17.54, "type_element": "Way", "__fid": 123870}, "geometry": {"type": "LineString", "coordinates": [[2.4610252, 48.823443], [2.4607916, 48.8234761]]}}, {"type": "Feature", "properties": {"highway": "footway", "footway": null, "name": null, "surface": "compacted", "lit": null, "length_m": 46.68, "type_element": "Way", "__fid": 123873}, "geometry": {"type": "LineString", "coordinates": [[2.4608339, 48.8228747], [2.4609725, 48.8232844]]}}, {"type": "Feature", "properties": {"highway": "footway", "footway": null, "name": null, "surface": null, "lit": null, "length_m": 43.05, "type_element": "Way", "__fid": 123874}, "geometry": {"type": "LineString", "coordinates": [[2.4614065, 48.8227913], [2.4608339, 48.8228747]]}}, {"type": "Feature", "properties": {"highway": "footway", "footway": null, "name": null, "surface": "compacted", "lit": null, "length_m": 18.05, "type_element": "Way", "__fid": 123875}, "geometry": {"type": "LineString", "coordinates": [[2.4609725, 48.8232844], [2.4610252, 48.823443]]}}, {"type": "Feature", "properties": {"highway": "footway", "footway": null, "name": null, "surface": "compacted", "lit": null, "length_m": 38.92, "type_element": "Way", "__fid": 123878}, "geometry": {"type": "LineString", "coordinates": [[2.4610252, 48.823443], [2.46114, 48.823784699999976]]}}, {"type": "Feature", "properties": {"highway": "footway", "footway": null, "name": null, "surface": null, "lit": null, "length_m": 42.44, "type_element": "Way", "__fid": 123879}, "geometry": {"type": "LineString", "coordinates": [[2.4615904, 48.823363], [2.4610252, 48.823443]]}}, {"type": "Feature", "properties": {"highway": "path", "footway": null, "name": null, "surface": null, "lit": null, "length_m": 63.43, "type_element": "Way", "__fid": 123880}, "geometry": {"type": "LineString", "coordinates": [[2.4611125, 48.820671800000014], [2.4611293, 48.82055819999999], [2.4611615, 48.8204416], [2.4612205, 48.8203842], [2.461305, 48.820326799999975], [2.4613935, 48.8202526], [2.461397, 48.8201587]]}}, {"type": "Feature", "properties": {"highway": "footway", "footway": null, "name": null, "surface": null, "lit": null, "length_m": 116.51, "type_element": "Way", "__fid": 123881}, "geometry": {"type": "LineString", "coordinates": [[2.462512, 48.8206972], [2.4622468, 48.8206761], [2.4617275, 48.8205045], [2.4616266, 48.8205311], [2.4614175, 48.8204981], [2.4613433, 48.8205161], [2.4611896, 48.8205894], [2.4611125, 48.820671800000014]]}}, {"type": "Feature", "properties": {"highway": "footway", "footway": null, "name": null, "surface": null, "lit": null, "length_m": 80.25, "type_element": "Way", "__fid": 123883}, "geometry": {"type": "LineString", "coordinates": [[2.46114, 48.823784699999976], [2.4616984, 48.8236986], [2.4615904, 48.823363]]}}, {"type": "Feature", "properties": {"highway": "footway", "footway": null, "name": null, "surface": null, "lit": null, "length_m": 51.96, "type_element": "Way", "__fid": 123890}, "geometry": {"type": "LineString", "coordinates": [[2.4614065, 48.8227913], [2.4612594, 48.8223342]]}}]}