{"type": "FeatureCollection", "features": [{"type": "Feature", "properties": {"highway": "path", "footway": null, "name": "Avenue de Gravelle", "surface": "asphalt", "lit": null, "length_m": 584.31, "type_element": "Way", "__fid": 123167}, "geometry": {"type": "LineString", "coordinates": [[2.4513883, 48.8184752], [2.4523806, 48.8182888], [2.4531222, 48.8181749], [2.4535286, 48.818122799999976], [2.4545773, 48.817947], [2.4552619, 48.8178196], [2.4575077, 48.8173718], [2.4577612, 48.8173405], [2.4586637, 48.817283], [2.4587591, 48.8172937], [2.4590397, 48.81743189999999]]}}, {"type": "Feature", "properties": {"highway": "path", "footway": null, "name": "Route des Barrières", "surface": "paved", "lit": null, "length_m": 101.19, "type_element": "Way", "__fid": 123209}, "geometry": {"type": "LineString", "coordinates": [[2.45212, 48.8178127], [2.4527517, 48.8176211], [2.4533495, 48.8174031]]}}, {"type": "Feature", "properties": {"highway": "path", "footway": null, "name": "Route des Barrières", "surface": "paved", "lit": null, "length_m": 44.84, "type_element": "Way", "__fid": 123246}, "geometry": {"type": "LineString", "coordinates": [[2.4533495, 48.8174031], [2.4533238, 48.8173824], [2.453021, 48.817366], [2.4527588, 48.81733540000002]]}}, {"type": "Feature", "properties": {"highway": "steps", "footway": null, "name": null, "surface": null, "lit": null, "length_m": 32.03, "type_element": "Way", "__fid": 123263}, "geometry": {"type": "LineString", "coordinates": [[2.4531346, 48.817271], [2.453432, 48.8173492], [2.4533495, 48.8174031]]}}]}