{"type": "FeatureCollection", "features": [{"type": "Feature", "properties": {"@id": "node/918204999", "amenity": "drinking_water", "check_date": "2022-04-10", "man_made": "water_tap", "type_element": "Fontaines à boire", "__fid": 206}, "geometry": {"type": "Point", "coordinates": [2.4606113, 48.8385501]}, "id": "node/918204999"}, {"type": "Feature", "properties": {"@id": "node/918205134", "amenity": "drinking_water", "man_made": "water_tap", "type_element": "Fontaines à boire", "__fid": 212}, "geometry": {"type": "Point", "coordinates": [2.4556165, 48.8355661]}, "id": "node/918205134"}, {"type": "Feature", "properties": {"@id": "node/5936853224", "amenity": "drinking_water", "image": "https://photos.app.goo.gl/TNictUyNbi6B61gC7", "man_made": "water_tap", "type_element": "Fontaines à boire", "__fid": 583}, "geometry": {"type": "Point", "coordinates": [2.4563868, 48.8412899]}, "id": "node/5936853224"}, {"type": "Feature", "properties": {"highway": "path", "footway": null, "name": "Avenue de Nogent", "surface": "dirt", "lit": null, "length_m": 292.19, "type_element": "Way", "__fid": 123038}, "geometry": {"type": "LineString", "coordinates": [[2.4528691, 48.8407858], [2.4522699, 48.84094049999998], [2.4505775, 48.8414273], [2.4501101, 48.8415742], [2.4497648, 48.8416709], [2.4495904, 48.8417305], [2.449292, 48.8418545], [2.4492442, 48.8418635]]}}, {"type": "Feature", "properties": {"highway": "path", "footway": null, "name": null, "surface": "asphalt", "lit": "no", "length_m": 189.45, "type_element": "Way", "__fid": 123114}, "geometry": {"type": "LineString", "coordinates": [[2.4505435, 48.8413035], [2.4511295, 48.841172], [2.4522237, 48.8408818], [2.4529327, 48.8406623]]}}, {"type": "Feature", "properties": {"highway": "path", "footway": null, "name": null, "surface": "compacted", "lit": "no", "length_m": 176.18, "type_element": "Way", "__fid": 123137}, "geometry": {"type": "LineString", "coordinates": [[2.450848, 48.8351544], [2.4509758, 48.8352012], [2.4510891, 48.8352824], [2.4527427, 48.8358173], [2.4529761, 48.83586709999999]]}}, {"type": "Feature", "properties": {"highway": "path", "footway": null, "name": null, "surface": null, "lit": null, "length_m": 250.05, "type_element": "Way", "__fid": 123207}, "geometry": {"type": "LineString", "coordinates": [[2.4534188, 48.8379473], [2.4532852, 48.83805370000001], [2.4532411, 48.8381709], [2.4531828, 48.838232], [2.4530081, 48.8382992], [2.452947, 48.838418], [2.4529321, 48.8385215], [2.4528329, 48.838765600000016], [2.4525951, 48.8389773], [2.4522954, 48.8390608], [2.4520513, 48.83903969999999], [2.4518403, 48.8390878], [2.4516651, 48.8391868], [2.4518477, 48.8395277]]}}, {"type": "Feature", "properties": {"highway": "track", "footway": null, "name": "Avenue des Minimes", "surface": "asphalt", "lit": "no", "length_m": 221.69, "type_element": "Way", "__fid": 123214}, "geometry": {"type": "LineString", "coordinates": [[2.4519754, 48.8375178], [2.4527651, 48.83707409999999], [2.4532297, 48.8368361], [2.4533211, 48.836801399999985], [2.4535011, 48.83675030000002], [2.4537037, 48.8367217], [2.4545864, 48.8366672]]}}, {"type": "Feature", "properties": {"highway": "path", "footway": null, "name": null, "surface": "dirt", "lit": null, "length_m": 117.98, "type_element": "Way", "__fid": 123221}, "geometry": {"type": "LineString", "coordinates": [[2.4536272, 48.8377842], [2.4533764, 48.83768610000001], [2.4532657, 48.8376675], [2.4530627, 48.83764720000002], [2.4523405, 48.8376695], [2.4520717, 48.837702]]}}, {"type": "Feature", "properties": {"highway": "path", "footway": null, "name": "Route des Dames", "surface": "sand", "lit": null, "length_m": 160.34, "type_element": "Way", "__fid": 123228}, "geometry": {"type": "LineString", "coordinates": [[2.4520926, 48.8421288], [2.4521021, 48.8420756], [2.4527888, 48.840979], [2.452795, 48.840922], [2.4528691, 48.8407858]]}}, {"type": "Feature", "properties": {"highway": "track", "footway": null, "name": "Route du Grand Maréchal", "surface": "asphalt", "lit": null, "length_m": 309.19, "type_element": "Way", "__fid": 123229}, "geometry": {"type": "LineString", "coordinates": [[2.4520926, 48.8421288], [2.4523504, 48.8420421], [2.452606, 48.8419819], [2.4528081, 48.8419517], [2.453369, 48.8418956], [2.4535978, 48.8418463], [2.4540073, 48.8417351], [2.4544648, 48.8416292], [2.4546504, 48.841595400000024], [2.455388, 48.8414979], [2.4560063, 48.8413717], [2.4561122, 48.8413385]]}}, {"type": "Feature", "properties": {"highway": "path", "footway": null, "name": null, "surface": "dirt", "lit": null, "length_m": 108.13, "type_element": "Way", "__fid": 123234}, "geometry": {"type": "LineString", "coordinates": [[2.4522023, 48.83971790000001], [2.45221, 48.83983039999998], [2.4521822, 48.83996530000001], [2.4521946, 48.8400515], [2.4522377, 48.8400951], [2.4530126, 48.84031909999998], [2.4530529, 48.84032]]}}, {"type": "Feature", "properties": {"highway": "track", "footway": null, "name": null, "surface": "compacted", "lit": null, "length_m": 96.2, "type_element": "Way", "__fid": 123238}, "geometry": {"type": "LineString", "coordinates": [[2.452356, 48.8394831], [2.4536553, 48.8393692]]}}, {"type": "Feature", "properties": {"highway": "path", "footway": null, "name": null, "surface": "compacted", "lit": "yes", "length_m": 47.94, "type_element": "Way", "__fid": 123249}, "geometry": {"type": "LineString", "coordinates": [[2.4530877, 48.8357362], [2.4529145, 48.8355961], [2.4526338, 48.8354278]]}}, {"type": "Feature", "properties": {"highway": "path", "footway": null, "name": "Route des Dames", "surface": "sand", "lit": null, "length_m": 14.5, "type_element": "Way", "__fid": 123259}, "geometry": {"type": "LineString", "coordinates": [[2.4528691, 48.8407858], [2.4529327, 48.8406623]]}}, {"type": "Feature", "properties": {"highway": "path", "footway": null, "name": "Avenue de Nogent", "surface": "dirt", "lit": null, "length_m": 345.48, "type_element": "Way", "__fid": 123260}, "geometry": {"type": "LineString", "coordinates": [[2.4572693, 48.839684499999976], [2.4553679, 48.8401293], [2.4545961, 48.84032220000001], [2.4535346, 48.8405998], [2.4528691, 48.8407858]]}}, {"type": "Feature", "properties": {"highway": "path", "footway": null, "name": null, "surface": "compacted", "lit": null, "length_m": 30.69, "type_element": "Way", "__fid": 123265}, "geometry": {"type": "LineString", "coordinates": [[2.4529761, 48.83586709999999], [2.4530952, 48.8358925], [2.4532295, 48.835933], [2.4533715, 48.8359126]]}}, {"type": "Feature", "properties": {"highway": "path", "footway": null, "name": null, "surface": "compacted", "lit": "yes", "length_m": 16.78, "type_element": "Way", "__fid": 123266}, "geometry": {"type": "LineString", "coordinates": [[2.4529761, 48.83586709999999], [2.4530471, 48.8357989], [2.4530877, 48.8357362]]}}, {"type": "Feature", "properties": {"highway": "path", "footway": null, "name": "Route des Dames", "surface": "compacted", "lit": null, "length_m": 39.07, "type_element": "Way", "__fid": 123267}, "geometry": {"type": "LineString", "coordinates": [[2.4529327, 48.8406623], [2.4530529, 48.84032]]}}, {"type": "Feature", "properties": {"highway": "path", "footway": null, "name": null, "surface": "dirt", "lit": "no", "length_m": 360.7, "type_element": "Way", "__fid": 123268}, "geometry": {"type": "LineString", "coordinates": [[2.4529327, 48.8406623], [2.4533207, 48.8405402], [2.453721, 48.84043470000002], [2.4545076, 48.8402675], [2.4562872, 48.8398041], [2.4570866, 48.8396101], [2.4575075, 48.839483799999975]]}}, {"type": "Feature", "properties": {"highway": "footway", "footway": null, "name": null, "surface": "dirt", "lit": "yes", "length_m": 32.08, "type_element": "Way", "__fid": 123277}, "geometry": {"type": "LineString", "coordinates": [[2.4530877, 48.8357362], [2.4533038, 48.83548540000001]]}}, {"type": "Feature", "properties": {"highway": "track", "footway": null, "name": "Route des Dames", "surface": "sand", "lit": null, "length_m": 115.26, "type_element": "Way", "__fid": 123280}, "geometry": {"type": "LineString", "coordinates": [[2.4530529, 48.84032], [2.453143, 48.8401675], [2.4533928, 48.839659], [2.4535376, 48.8394792], [2.4536553, 48.8393692]]}}, {"type": "Feature", "properties": {"highway": "track", "footway": null, "name": "Route du Champ de Manœuvre", "surface": "asphalt", "lit": "no", "length_m": 18.91, "type_element": "Way", "__fid": 123284}, "geometry": {"type": "LineString", "coordinates": [[2.4533715, 48.8359126], [2.4531443, 48.8358325]]}}, {"type": "Feature", "properties": {"highway": "track", "footway": null, "name": "Route du Champ de Manœuvre", "surface": "asphalt", "lit": "no", "length_m": 1.46, "type_element": "Way", "__fid": 123297}, "geometry": {"type": "LineString", "coordinates": [[2.4533909, 48.8359153], [2.4533715, 48.8359126]]}}, {"type": "Feature", "properties": {"highway": "track", "footway": null, "name": "Route du Champ de Manœuvre", "surface": "asphalt", "lit": "no", "length_m": 84.3, "type_element": "Way", "__fid": 123302}, "geometry": {"type": "LineString", "coordinates": [[2.454527, 48.8359024], [2.4537266, 48.8359619], [2.4533909, 48.8359153]]}}, {"type": "Feature", "properties": {"highway": "path", "footway": null, "name": null, "surface": null, "lit": null, "length_m": 221.5, "type_element": "Way", "__fid": 123303}, "geometry": {"type": "LineString", "coordinates": [[2.4551163, 48.83431010000001], [2.4547646, 48.8345623], [2.454723, 48.834636400000015], [2.454597, 48.834738799999975], [2.4545534, 48.8348214], [2.454312, 48.8350884], [2.4541377, 48.8352283], [2.4541028, 48.8353409], [2.4538366, 48.8355567], [2.4536998, 48.8356807], [2.4534398, 48.8358609], [2.4533909, 48.8359153]]}}, {"type": "Feature", "properties": {"highway": "path", "footway": null, "name": null, "surface": null, "lit": null, "length_m": 23.73, "type_element": "Way", "__fid": 123305}, "geometry": {"type": "LineString", "coordinates": [[2.4536272, 48.8377842], [2.4534188, 48.8379473]]}}, {"type": "Feature", "properties": {"highway": "path", "footway": null, "name": null, "surface": "dirt", "lit": null, "length_m": 31.38, "type_element": "Way", "__fid": 123306}, "geometry": {"type": "LineString", "coordinates": [[2.4534188, 48.8379473], [2.4538324, 48.837876]]}}, {"type": "Feature", "properties": {"highway": "path", "footway": null, "name": null, "surface": "dirt", "lit": null, "length_m": 18.19, "type_element": "Way", "__fid": 123320}, "geometry": {"type": "LineString", "coordinates": [[2.4538324, 48.837876], [2.4536272, 48.8377842]]}}, {"type": "Feature", "properties": {"highway": "track", "footway": null, "name": "Route des Dames", "surface": "compacted", "lit": null, "length_m": 143.03, "type_element": "Way", "__fid": 123323}, "geometry": {"type": "LineString", "coordinates": [[2.4536553, 48.8393692], [2.4548422, 48.838722200000014], [2.4549656, 48.83863490000001], [2.4551056, 48.8385157]]}}, {"type": "Feature", "properties": {"highway": "track", "footway": null, "name": null, "surface": "asphalt", "lit": null, "length_m": 207.85, "type_element": "Way", "__fid": 123324}, "geometry": {"type": "LineString", "coordinates": [[2.4536553, 48.8393692], [2.4564621, 48.839121]]}}, {"type": "Feature", "properties": {"highway": "path", "footway": null, "name": null, "surface": "dirt", "lit": null, "length_m": 117.44, "type_element": "Way", "__fid": 123339}, "geometry": {"type": "LineString", "coordinates": [[2.4551056, 48.8385157], [2.4538324, 48.837876]]}}, {"type": "Feature", "properties": {"highway": "path", "footway": null, "name": null, "surface": "dirt", "lit": null, "length_m": 127.54, "type_element": "Way", "__fid": 123340}, "geometry": {"type": "LineString", "coordinates": [[2.4538324, 48.837876], [2.454387, 48.83779370000002], [2.45454, 48.83778059999999], [2.4546332, 48.8377887], [2.4548378, 48.8378278], [2.4550285, 48.837884], [2.4555248, 48.8379188]]}}, {"type": "Feature", "properties": {"highway": "track", "footway": null, "name": "Route Circulaire", "surface": "asphalt", "lit": "no", "length_m": 85.27, "type_element": "Way", "__fid": 123397}, "geometry": {"type": "LineString", "coordinates": [[2.454527, 48.8359024], [2.454526, 48.8362824], [2.4545864, 48.8366672]]}}, {"type": "Feature", "properties": {"highway": "track", "footway": null, "name": "Route Circulaire", "surface": "asphalt", "lit": "no", "length_m": 66.25, "type_element": "Way", "__fid": 123398}, "geometry": {"type": "LineString", "coordinates": [[2.4546885, 48.8353171], [2.4545739, 48.8356405], [2.454527, 48.8359024]]}}, {"type": "Feature", "properties": {"highway": "track", "footway": null, "name": "Route du Champ de Manœuvre", "surface": "asphalt", "lit": "no", "length_m": 64.17, "type_element": "Way", "__fid": 123399}, "geometry": {"type": "LineString", "coordinates": [[2.4553978, 48.83585160000001], [2.454527, 48.8359024]]}}, {"type": "Feature", "properties": {"highway": "track", "footway": null, "name": "Route Circulaire", "surface": "asphalt", "lit": "no", "length_m": 157.44, "type_element": "Way", "__fid": 123404}, "geometry": {"type": "LineString", "coordinates": [[2.4555248, 48.8379188], [2.4551967, 48.8376501], [2.4549009, 48.837322599999986], [2.4547029, 48.8369961], [2.4545864, 48.8366672]]}}, {"type": "Feature", "properties": {"highway": "track", "footway": null, "name": "Avenue des Minimes", "surface": "asphalt", "lit": "no", "length_m": 67.07, "type_element": "Way", "__fid": 123405}, "geometry": {"type": "LineString", "coordinates": [[2.4545864, 48.8366672], [2.4554941, 48.836597800000014]]}}, {"type": "Feature", "properties": {"highway": "path", "footway": null, "name": null, "surface": null, "lit": null, "length_m": 120.18, "type_element": "Way", "__fid": 123453}, "geometry": {"type": "LineString", "coordinates": [[2.4564621, 48.839121], [2.4551056, 48.8385157]]}}, {"type": "Feature", "properties": {"highway": "track", "footway": null, "name": "Route des Dames", "surface": "compacted", "lit": null, "length_m": 72.53, "type_element": "Way", "__fid": 123454}, "geometry": {"type": "LineString", "coordinates": [[2.4551056, 48.8385157], [2.4552661, 48.838355599999986], [2.4554302, 48.8381232], [2.4555437, 48.8379336]]}}, {"type": "Feature", "properties": {"highway": "track", "footway": null, "name": null, "surface": "compacted", "lit": null, "length_m": 83.27, "type_element": "Way", "__fid": 123469}, "geometry": {"type": "LineString", "coordinates": [[2.4553978, 48.83585160000001], [2.4554941, 48.836597800000014]]}}, {"type": "Feature", "properties": {"highway": "track", "footway": null, "name": null, "surface": "asphalt", "lit": null, "length_m": 53.16, "type_element": "Way", "__fid": 123470}, "geometry": {"type": "LineString", "coordinates": [[2.4557714, 48.8354445], [2.4556181, 48.8356552], [2.4553978, 48.83585160000001]]}}, {"type": "Feature", "properties": {"highway": "track", "footway": null, "name": null, "surface": "asphalt", "lit": null, "length_m": 42.59, "type_element": "Way", "__fid": 123479}, "geometry": {"type": "LineString", "coordinates": [[2.4554941, 48.836597800000014], [2.4557255, 48.8367378], [2.4559391, 48.8368428]]}}, {"type": "Feature", "properties": {"highway": "track", "footway": null, "name": "Route Circulaire", "surface": "asphalt", "lit": "no", "length_m": 2.15, "type_element": "Way", "__fid": 123480}, "geometry": {"type": "LineString", "coordinates": [[2.4555437, 48.8379336], [2.4555248, 48.8379188]]}}, {"type": "Feature", "properties": {"highway": "track", "footway": null, "name": "Route Circulaire", "surface": "asphalt", "lit": "no", "length_m": 8.02, "type_element": "Way", "__fid": 123482}, "geometry": {"type": "LineString", "coordinates": [[2.4556186, 48.83798609999999], [2.4555437, 48.8379336]]}}, {"type": "Feature", "properties": {"highway": "track", "footway": null, "name": "Route des Dames", "surface": "compacted", "lit": null, "length_m": 114.63, "type_element": "Way", "__fid": 123483}, "geometry": {"type": "LineString", "coordinates": [[2.4555437, 48.8379336], [2.4556816, 48.8377237], [2.4557543, 48.837577300000014], [2.4558277, 48.837369299999985], [2.4559463, 48.8369419]]}}, {"type": "Feature", "properties": {"highway": "path", "footway": null, "name": null, "surface": "dirt", "lit": null, "length_m": 77.08, "type_element": "Way", "__fid": 123486}, "geometry": {"type": "LineString", "coordinates": [[2.4555656, 48.8419076], [2.4556696, 48.8418359], [2.4557327, 48.841750300000015], [2.4557649, 48.8416841], [2.4558869, 48.8416294], [2.4560411, 48.8414943], [2.4561122, 48.8413385]]}}, {"type": "Feature", "properties": {"highway": "track", "footway": null, "name": "Route Circulaire", "surface": "asphalt", "lit": "no", "length_m": 52.93, "type_element": "Way", "__fid": 123490}, "geometry": {"type": "LineString", "coordinates": [[2.4561546, 48.8383039], [2.4559303, 48.8381838], [2.4556186, 48.83798609999999]]}}, {"type": "Feature", "properties": {"highway": "path", "footway": null, "name": null, "surface": null, "lit": null, "length_m": 72.0, "type_element": "Way", "__fid": 123491}, "geometry": {"type": "LineString", "coordinates": [[2.4556186, 48.83798609999999], [2.4557366, 48.837975], [2.4558184, 48.837988], [2.4562336, 48.8382068], [2.4563831, 48.8382655], [2.4564533, 48.838277]]}}, {"type": "Feature", "properties": {"highway": "track", "footway": null, "name": "Route du Grand Prieur", "surface": "asphalt", "lit": null, "length_m": 156.84, "type_element": "Way", "__fid": 123499}, "geometry": {"type": "LineString", "coordinates": [[2.4557714, 48.8354445], [2.4558646, 48.8356556], [2.4559199, 48.8358762], [2.4559484, 48.836292], [2.4559391, 48.8368428]]}}, {"type": "Feature", "properties": {"highway": "path", "footway": null, "name": null, "surface": "compacted", "lit": null, "length_m": 22.37, "type_element": "Way", "__fid": 123509}, "geometry": {"type": "LineString", "coordinates": [[2.4559391, 48.8368428], [2.4561851, 48.8369616]]}}, {"type": "Feature", "properties": {"highway": "track", "footway": null, "name": "Route du Grand Prieur", "surface": "asphalt", "lit": null, "length_m": 11.03, "type_element": "Way", "__fid": 123510}, "geometry": {"type": "LineString", "coordinates": [[2.4559391, 48.8368428], [2.4559463, 48.8369419]]}}, {"type": "Feature", "properties": {"highway": "track", "footway": null, "name": "Route du Grand Prieur", "surface": "asphalt", "lit": null, "length_m": 113.79, "type_element": "Way", "__fid": 123511}, "geometry": {"type": "LineString", "coordinates": [[2.4559463, 48.8369419], [2.4560791, 48.8371658], [2.4562131, 48.837338400000014], [2.4564042, 48.8375246], [2.4564686, 48.8375755], [2.4565924, 48.8376655], [2.4567855, 48.8377871]]}}, {"type": "Feature", "properties": {"highway": "footway", "footway": null, "name": null, "surface": "compacted", "lit": "no", "length_m": 168.9, "type_element": "Way", "__fid": 123512}, "geometry": {"type": "LineString", "coordinates": [[2.4561851, 48.8369616], [2.4561408, 48.8368247], [2.4561018, 48.8366516], [2.4561035, 48.8365761], [2.4561374, 48.836411], [2.4561365, 48.8362844], [2.4561214, 48.8361994], [2.4560821, 48.8360843], [2.4560078, 48.8355808], [2.4559696, 48.83545749999997]]}}, {"type": "Feature", "properties": {"highway": "track", "footway": null, "name": "Route du Grand Maréchal", "surface": "asphalt", "lit": null, "length_m": 16.0, "type_element": "Way", "__fid": 123520}, "geometry": {"type": "LineString", "coordinates": [[2.4561122, 48.8413385], [2.4563092, 48.84127680000001]]}}, {"type": "Feature", "properties": {"highway": "track", "footway": null, "name": "Route Circulaire", "surface": "asphalt", "lit": "no", "length_m": 153.0, "type_element": "Way", "__fid": 123521}, "geometry": {"type": "LineString", "coordinates": [[2.458047, 48.8388348], [2.4576888, 48.8387996], [2.4572789, 48.838718], [2.4570153, 48.8386499], [2.4567529, 48.8385704], [2.4563065, 48.83838249999999], [2.4561546, 48.8383039]]}}, {"type": "Feature", "properties": {"highway": "path", "footway": null, "name": null, "surface": "dirt", "lit": null, "length_m": 22.13, "type_element": "Way", "__fid": 123522}, "geometry": {"type": "LineString", "coordinates": [[2.4561546, 48.8383039], [2.4564533, 48.838277]]}}, {"type": "Feature", "properties": {"highway": "footway", "footway": null, "name": null, "surface": "compacted", "lit": "no", "length_m": 102.28, "type_element": "Way", "__fid": 123524}, "geometry": {"type": "LineString", "coordinates": [[2.4567855, 48.8377871], [2.4566759, 48.8376191], [2.4565234, 48.83744120000002], [2.4563889, 48.8373085], [2.4563406, 48.8372476], [2.4562656, 48.8371265], [2.4561851, 48.8369616]]}}, {"type": "Feature", "properties": {"highway": "track", "footway": null, "name": "Route de la Porte Jaune", "surface": "compacted", "lit": null, "length_m": 58.43, "type_element": "Way", "__fid": 123530}, "geometry": {"type": "LineString", "coordinates": [[2.4563092, 48.84127680000001], [2.4562925, 48.8415869], [2.4563157, 48.8418015]]}}, {"type": "Feature", "properties": {"highway": "track", "footway": null, "name": "Route de la Porte Jaune", "surface": "compacted", "lit": null, "length_m": 195.5, "type_element": "Way", "__fid": 123531}, "geometry": {"type": "LineString", "coordinates": [[2.4572693, 48.839684499999976], [2.4573286, 48.83979010000002], [2.4572731, 48.8398422], [2.4571452, 48.839994], [2.4568422, 48.8402994], [2.4567022, 48.8404734], [2.4565715, 48.84067779999999], [2.4564749, 48.8409002], [2.4563328, 48.841188], [2.4563092, 48.84127680000001]]}}, {"type": "Feature", "properties": {"highway": "track", "footway": null, "name": "Route du Grand Maréchal", "surface": "asphalt", "lit": null, "length_m": 308.01, "type_element": "Way", "__fid": 123532}, "geometry": {"type": "LineString", "coordinates": [[2.4563092, 48.84127680000001], [2.4568889, 48.8410545], [2.4578073, 48.8408273], [2.4584537, 48.84075319999999], [2.4592043, 48.84074750000001], [2.4596017, 48.8407234], [2.4602961, 48.840555399999985]]}}, {"type": "Feature", "properties": {"highway": "path", "footway": null, "name": null, "surface": "dirt", "lit": null, "length_m": 61.27, "type_element": "Way", "__fid": 123540}, "geometry": {"type": "LineString", "coordinates": [[2.4564533, 48.838277], [2.4566943, 48.8382331], [2.4568602, 48.8381696], [2.4569043, 48.8381372], [2.4569528, 48.838084], [2.4570515, 48.8379447]]}}, {"type": "Feature", "properties": {"highway": "path", "footway": null, "name": null, "surface": null, "lit": null, "length_m": 87.25, "type_element": "Way", "__fid": 123542}, "geometry": {"type": "LineString", "coordinates": [[2.4575075, 48.839483799999975], [2.4573306, 48.8394135], [2.4570329, 48.8393543], [2.4564621, 48.839121]]}}, {"type": "Feature", "properties": {"highway": "track", "footway": null, "name": null, "surface": "asphalt", "lit": null, "length_m": 108.99, "type_element": "Way", "__fid": 123543}, "geometry": {"type": "LineString", "coordinates": [[2.4564621, 48.839121], [2.4579362, 48.83900280000001]]}}, {"type": "Feature", "properties": {"highway": "track", "footway": null, "name": "Route du Grand Prieur", "surface": "asphalt", "lit": null, "length_m": 26.24, "type_element": "Way", "__fid": 123557}, "geometry": {"type": "LineString", "coordinates": [[2.4567855, 48.8377871], [2.4570515, 48.8379447]]}}, {"type": "Feature", "properties": {"highway": "track", "footway": null, "name": "Route du Grand Prieur", "surface": "asphalt", "lit": null, "length_m": 62.91, "type_element": "Way", "__fid": 123569}, "geometry": {"type": "LineString", "coordinates": [[2.4570515, 48.8379447], [2.457393, 48.83811750000001], [2.4575331, 48.838214700000016], [2.4576627, 48.8383349]]}}, {"type": "Feature", "properties": {"highway": "path", "footway": null, "name": "Avenue de Nogent", "surface": "dirt", "lit": null, "length_m": 19.25, "type_element": "Way", "__fid": 123585}, "geometry": {"type": "LineString", "coordinates": [[2.4575161, 48.8396258], [2.4572693, 48.839684499999976]]}}, {"type": "Feature", "properties": {"highway": "path", "footway": null, "name": null, "surface": "dirt", "lit": "no", "length_m": 14.04, "type_element": "Way", "__fid": 123599}, "geometry": {"type": "LineString", "coordinates": [[2.4575075, 48.839483799999975], [2.4576774, 48.839425699999985]]}}, {"type": "Feature", "properties": {"highway": "track", "footway": null, "name": "Route de la Porte Jaune", "surface": "compacted", "lit": null, "length_m": 25.26, "type_element": "Way", "__fid": 123601}, "geometry": {"type": "LineString", "coordinates": [[2.4576774, 48.839425699999985], [2.4575876, 48.83955260000001], [2.4575161, 48.8396258]]}}, {"type": "Feature", "properties": {"highway": "path", "footway": null, "name": "Avenue de Nogent", "surface": "dirt", "lit": null, "length_m": 142.09, "type_element": "Way", "__fid": 123602}, "geometry": {"type": "LineString", "coordinates": [[2.459329, 48.8391777], [2.4575161, 48.8396258]]}}, {"type": "Feature", "properties": {"highway": "footway", "footway": null, "name": null, "surface": "compacted", "lit": "no", "length_m": 52.96, "type_element": "Way", "__fid": 123605}, "geometry": {"type": "LineString", "coordinates": [[2.4576627, 48.8383349], [2.4578181, 48.8383788], [2.4581073, 48.8385771], [2.4582123, 48.83863369999999]]}}, {"type": "Feature", "properties": {"highway": "track", "footway": null, "name": "Route de la Porte Jaune", "surface": "asphalt", "lit": null, "length_m": 56.08, "type_element": "Way", "__fid": 123606}, "geometry": {"type": "LineString", "coordinates": [[2.4580155, 48.8387821], [2.4578718, 48.8385862], [2.4576627, 48.8383349]]}}, {"type": "Feature", "properties": {"highway": "track", "footway": null, "name": "Route de la Porte Jaune", "surface": "compacted", "lit": null, "length_m": 50.74, "type_element": "Way", "__fid": 123607}, "geometry": {"type": "LineString", "coordinates": [[2.4579362, 48.83900280000001], [2.4579029, 48.8390721], [2.4576774, 48.839425699999985]]}}, {"type": "Feature", "properties": {"highway": "path", "footway": null, "name": null, "surface": "asphalt", "lit": "no", "length_m": 119.42, "type_element": "Way", "__fid": 123608}, "geometry": {"type": "LineString", "coordinates": [[2.4576774, 48.839425699999985], [2.4591951, 48.83903870000001]]}}, {"type": "Feature", "properties": {"highway": "track", "footway": null, "name": "Route de la Porte Jaune", "surface": "compacted", "lit": null, "length_m": 20.37, "type_element": "Way", "__fid": 123624}, "geometry": {"type": "LineString", "coordinates": [[2.458047, 48.8388348], [2.4579362, 48.83900280000001]]}}, {"type": "Feature", "properties": {"highway": "track", "footway": null, "name": "Route de la Porte Jaune", "surface": "asphalt", "lit": null, "length_m": 6.3, "type_element": "Way", "__fid": 123626}, "geometry": {"type": "LineString", "coordinates": [[2.458047, 48.8388348], [2.4580155, 48.8387821]]}}, {"type": "Feature", "properties": {"highway": "footway", "footway": null, "name": null, "surface": "compacted", "lit": null, "length_m": 10.95, "type_element": "Way", "__fid": 123627}, "geometry": {"type": "LineString", "coordinates": [[2.4580155, 48.8387821], [2.4581354, 48.8387235]]}}, {"type": "Feature", "properties": {"highway": "track", "footway": null, "name": "Route Circulaire", "surface": "asphalt", "lit": "no", "length_m": 16.01, "type_element": "Way", "__fid": 123628}, "geometry": {"type": "LineString", "coordinates": [[2.4582635, 48.8388526], [2.458047, 48.8388348]]}}, {"type": "Feature", "properties": {"highway": "footway", "footway": null, "name": null, "surface": "compacted", "lit": null, "length_m": 14.98, "type_element": "Way", "__fid": 123631}, "geometry": {"type": "LineString", "coordinates": [[2.4581354, 48.8387235], [2.4583086, 48.8387948]]}}, {"type": "Feature", "properties": {"highway": "footway", "footway": null, "name": null, "surface": "compacted", "lit": null, "length_m": 11.47, "type_element": "Way", "__fid": 123632}, "geometry": {"type": "LineString", "coordinates": [[2.4581354, 48.8387235], [2.4582123, 48.83863369999999]]}}, {"type": "Feature", "properties": {"highway": "footway", "footway": null, "name": null, "surface": "compacted", "lit": "no", "length_m": 14.5, "type_element": "Way", "__fid": 123633}, "geometry": {"type": "LineString", "coordinates": [[2.4582123, 48.83863369999999], [2.4583835, 48.8386987]]}}, {"type": "Feature", "properties": {"highway": "track", "footway": null, "name": "Route Circulaire", "surface": "asphalt", "lit": "no", "length_m": 60.91, "type_element": "Way", "__fid": 123636}, "geometry": {"type": "LineString", "coordinates": [[2.4590922, 48.8388812], [2.4582635, 48.8388526]]}}, {"type": "Feature", "properties": {"highway": "footway", "footway": null, "name": null, "surface": "compacted", "lit": "no", "length_m": 7.23, "type_element": "Way", "__fid": 123637}, "geometry": {"type": "LineString", "coordinates": [[2.4583086, 48.8387948], [2.4582635, 48.8388526]]}}, {"type": "Feature", "properties": {"highway": "path", "footway": null, "name": null, "surface": "dirt", "lit": null, "length_m": 217.31, "type_element": "Way", "__fid": 123638}, "geometry": {"type": "LineString", "coordinates": [[2.4582583, 48.8421146], [2.4591085, 48.8418283], [2.4596946, 48.84158640000001], [2.4603538, 48.8413578], [2.4608341, 48.841154600000024]]}}, {"type": "Feature", "properties": {"highway": "footway", "footway": null, "name": null, "surface": "compacted", "lit": "no", "length_m": 12.02, "type_element": "Way", "__fid": 123642}, "geometry": {"type": "LineString", "coordinates": [[2.4583835, 48.8386987], [2.4583086, 48.8387948]]}}, {"type": "Feature", "properties": {"highway": "footway", "footway": null, "name": null, "surface": null, "lit": null, "length_m": 148.47, "type_element": "Way", "__fid": 123645}, "geometry": {"type": "LineString", "coordinates": [[2.4595723, 48.8382488], [2.4595702, 48.8381097], [2.4595602, 48.838074], [2.4595387, 48.8380396], [2.4594837, 48.83800690000001], [2.45941, 48.8379822], [2.4592732, 48.8379548], [2.4590358, 48.83792479999999], [2.4587649, 48.8379213], [2.4584511, 48.8379698], [2.4583626, 48.8379963], [2.4583036, 48.8380246], [2.4582754, 48.838054600000014], [2.4582566, 48.838128699999984], [2.4582888, 48.838194], [2.4583425, 48.8382682]]}}, {"type": "Feature", "properties": {"highway": "footway", "footway": null, "name": null, "surface": "compacted", "lit": "no", "length_m": 52.41, "type_element": "Way", "__fid": 123654}, "geometry": {"type": "LineString", "coordinates": [[2.4583835, 48.8386987], [2.4587836, 48.8387738], [2.4588718, 48.8387802], [2.4590811, 48.83877910000001]]}}, {"type": "Feature", "properties": {"highway": "footway", "footway": null, "name": null, "surface": null, "lit": null, "length_m": 17.77, "type_element": "Way", "__fid": 123672}, "geometry": {"type": "LineString", "coordinates": [[2.459003, 48.8381596], [2.4589507, 48.8381022], [2.4589171, 48.8380846], [2.4588796, 48.8380736], [2.4588243, 48.8380818]]}}, {"type": "Feature", "properties": {"highway": "footway", "footway": null, "name": null, "surface": null, "lit": null, "length_m": 3.77, "type_element": "Way", "__fid": 123680}, "geometry": {"type": "LineString", "coordinates": [[2.4589618, 48.83817979999998], [2.459003, 48.8381596]]}}, {"type": "Feature", "properties": {"highway": "footway", "footway": null, "name": null, "surface": null, "lit": null, "length_m": 12.3, "type_element": "Way", "__fid": 123682}, "geometry": {"type": "LineString", "coordinates": [[2.4591136, 48.8382417], [2.4590727, 48.8382205], [2.459003, 48.8381596]]}}, {"type": "Feature", "properties": {"highway": "footway", "footway": null, "name": null, "surface": null, "lit": null, "length_m": 5.91, "type_element": "Way", "__fid": 123686}, "geometry": {"type": "LineString", "coordinates": [[2.4591136, 48.8382417], [2.4590541, 48.8382775]]}}, {"type": "Feature", "properties": {"highway": "footway", "footway": null, "name": "Route Ronde des Minimes", "surface": "compacted", "lit": null, "length_m": 11.38, "type_element": "Way", "__fid": 123691}, "geometry": {"type": "LineString", "coordinates": [[2.4590922, 48.8388812], [2.4590811, 48.83877910000001]]}}, {"type": "Feature", "properties": {"highway": "footway", "footway": null, "name": "Route Ronde des Minimes", "surface": "compacted", "lit": "no", "length_m": 42.67, "type_element": "Way", "__fid": 123692}, "geometry": {"type": "LineString", "coordinates": [[2.4590811, 48.83877910000001], [2.4592112, 48.8387683], [2.4596503, 48.8387026]]}}, {"type": "Feature", "properties": {"highway": "track", "footway": null, "name": "Route Circulaire", "surface": "asphalt", "lit": "no", "length_m": 45.75, "type_element": "Way", "__fid": 123695}, "geometry": {"type": "LineString", "coordinates": [[2.4597148, 48.8388726], [2.4593095, 48.8388865], [2.4590922, 48.8388812]]}}, {"type": "Feature", "properties": {"highway": "path", "footway": null, "name": null, "surface": "compacted", "lit": null, "length_m": 19.87, "type_element": "Way", "__fid": 123696}, "geometry": {"type": "LineString", "coordinates": [[2.4590922, 48.8388812], [2.4591035, 48.8389563], [2.4591646, 48.8389991], [2.4591951, 48.83903870000001]]}}, {"type": "Feature", "properties": {"highway": "footway", "footway": null, "name": null, "surface": null, "lit": null, "length_m": 11.6, "type_element": "Way", "__fid": 123697}, "geometry": {"type": "LineString", "coordinates": [[2.4592678, 48.8382616], [2.4591498, 48.8382514], [2.4591136, 48.8382417]]}}, {"type": "Feature", "properties": {"highway": "track", "footway": null, "name": null, "surface": null, "lit": null, "length_m": 28.78, "type_element": "Way", "__fid": 123698}, "geometry": {"type": "LineString", "coordinates": [[2.4592678, 48.8382616], [2.4592236, 48.8383022], [2.4591706, 48.83838650000001], [2.4591612, 48.8385039]]}}, {"type": "Feature", "properties": {"highway": "path", "footway": null, "name": null, "surface": "compacted", "lit": null, "length_m": 18.63, "type_element": "Way", "__fid": 123701}, "geometry": {"type": "LineString", "coordinates": [[2.4591951, 48.83903870000001], [2.4592122, 48.839081399999976], [2.459329, 48.8391777]]}}, {"type": "Feature", "properties": {"highway": "path", "footway": null, "name": null, "surface": "compacted", "lit": "no", "length_m": 43.31, "type_element": "Way", "__fid": 123702}, "geometry": {"type": "LineString", "coordinates": [[2.4591951, 48.83903870000001], [2.4596541, 48.8389249], [2.4597148, 48.8388726]]}}, {"type": "Feature", "properties": {"highway": "track", "footway": null, "name": null, "surface": null, "lit": null, "length_m": 6.72, "type_element": "Way", "__fid": 123705}, "geometry": {"type": "LineString", "coordinates": [[2.459357, 48.83825190000001], [2.4593121, 48.8382519], [2.4592678, 48.8382616]]}}, {"type": "Feature", "properties": {"highway": "steps", "footway": null, "name": null, "surface": "dirt", "lit": "no", "length_m": 11.99, "type_element": "Way", "__fid": 123706}, "geometry": {"type": "LineString", "coordinates": [[2.4594948, 48.8359673], [2.4593315, 48.8359645]]}}, {"type": "Feature", "properties": {"highway": "path", "footway": null, "name": null, "surface": "dirt", "lit": null, "length_m": 173.99, "type_element": "Way", "__fid": 123707}, "geometry": {"type": "LineString", "coordinates": [[2.459329, 48.8391777], [2.4594295, 48.8393321], [2.4594455, 48.8393892], [2.4594221, 48.839578100000026], [2.459465, 48.8396584], [2.4595495, 48.8397237], [2.459583, 48.83977929999999], [2.4599156, 48.840075], [2.4600162, 48.8402013], [2.4601476, 48.8404466], [2.4602294, 48.840516399999984], [2.4602961, 48.840555399999985]]}}, {"type": "Feature", "properties": {"highway": "path", "footway": null, "name": "Avenue de Nogent", "surface": "asphalt", "lit": "yes", "length_m": 62.96, "type_element": "Way", "__fid": 123708}, "geometry": {"type": "LineString", "coordinates": [[2.4601287, 48.838973199999984], [2.4596844, 48.8390937], [2.459329, 48.8391777]]}}, {"type": "Feature", "properties": {"highway": "footway", "footway": null, "name": null, "surface": null, "lit": null, "length_m": 9.79, "type_element": "Way", "__fid": 123711}, "geometry": {"type": "LineString", "coordinates": [[2.459357, 48.83825190000001], [2.459355, 48.8383399]]}}, {"type": "Feature", "properties": {"highway": "track", "footway": null, "name": null, "surface": null, "lit": null, "length_m": 18.92, "type_element": "Way", "__fid": 123712}, "geometry": {"type": "LineString", "coordinates": [[2.4595669, 48.838337], [2.4595387, 48.8383097], [2.4594596, 48.8382664], [2.459357, 48.83825190000001]]}}, {"type": "Feature", "properties": {"highway": "footway", "footway": null, "name": null, "surface": "compacted", "lit": "no", "length_m": 4.17, "type_element": "Way", "__fid": 123719}, "geometry": {"type": "LineString", "coordinates": [[2.4594948, 48.8359673], [2.4595213, 48.8360005]]}}, {"type": "Feature", "properties": {"highway": "footway", "footway": null, "name": null, "surface": "compacted", "lit": "no", "length_m": 48.6, "type_element": "Way", "__fid": 123720}, "geometry": {"type": "LineString", "coordinates": [[2.4596487, 48.8355424], [2.4595883, 48.8357401], [2.4594948, 48.8359673]]}}, {"type": "Feature", "properties": {"highway": "steps", "footway": null, "name": null, "surface": "compacted", "lit": "no", "length_m": 10.79, "type_element": "Way", "__fid": 123721}, "geometry": {"type": "LineString", "coordinates": [[2.4596487, 48.8355424], [2.4595204, 48.8354951]]}}, {"type": "Feature", "properties": {"highway": "track", "footway": null, "name": "Route de la Cascade", "surface": "asphalt", "lit": null, "length_m": 123.95, "type_element": "Way", "__fid": 123722}, "geometry": {"type": "LineString", "coordinates": [[2.4595253, 48.8371145], [2.4595039, 48.83689910000001], [2.4595025, 48.8365372], [2.4595039, 48.83629], [2.4595213, 48.8360005]]}}, {"type": "Feature", "properties": {"highway": "track", "footway": null, "name": "Route de la Cascade", "surface": "asphalt", "lit": null, "length_m": 6.32, "type_element": "Way", "__fid": 123723}, "geometry": {"type": "LineString", "coordinates": [[2.4595213, 48.8360005], [2.4595954, 48.8359715]]}}, {"type": "Feature", "properties": {"highway": "track", "footway": null, "name": "Route de la Cascade", "surface": "asphalt", "lit": null, "length_m": 120.65, "type_element": "Way", "__fid": 123725}, "geometry": {"type": "LineString", "coordinates": [[2.4604685, 48.837961800000016], [2.4598914, 48.8376291], [2.4597935, 48.8375594], [2.4596997, 48.8374693], [2.459587, 48.8373007], [2.4595253, 48.8371145]]}}, {"type": "Feature", "properties": {"highway": "footway", "footway": null, "name": null, "surface": "dirt", "lit": "no", "length_m": 150.51, "type_element": "Way", "__fid": 123726}, "geometry": {"type": "LineString", "coordinates": [[2.4595253, 48.8371145], [2.4594313, 48.837151], [2.4594792, 48.8374242], [2.4597318, 48.837713], [2.4600175, 48.8379276], [2.4602568, 48.8380369], [2.4604513, 48.838093], [2.4605333, 48.8381039]]}}, {"type": "Feature", "properties": {"highway": "track", "footway": null, "name": null, "surface": null, "lit": null, "length_m": 41.18, "type_element": "Way", "__fid": 123731}, "geometry": {"type": "LineString", "coordinates": [[2.4596503, 48.8387026], [2.459583, 48.8383666], [2.4595669, 48.838337]]}}, {"type": "Feature", "properties": {"highway": "track", "footway": null, "name": null, "surface": null, "lit": null, "length_m": 9.82, "type_element": "Way", "__fid": 123732}, "geometry": {"type": "LineString", "coordinates": [[2.4595723, 48.8382488], [2.4595669, 48.838337]]}}, {"type": "Feature", "properties": {"highway": "track", "footway": null, "name": null, "surface": null, "lit": null, "length_m": 8.16, "type_element": "Way", "__fid": 123733}, "geometry": {"type": "LineString", "coordinates": [[2.4595669, 48.838337], [2.4596749, 48.8383197]]}}, {"type": "Feature", "properties": {"highway": "track", "footway": null, "name": "Route de la Cascade", "surface": "asphalt", "lit": null, "length_m": 78.72, "type_element": "Way", "__fid": 123734}, "geometry": {"type": "LineString", "coordinates": [[2.4595954, 48.8359715], [2.4597573, 48.8357436], [2.4599397, 48.8355424], [2.460043, 48.8354417], [2.4601443, 48.8353671]]}}, {"type": "Feature", "properties": {"highway": "path", "footway": null, "name": "Avenue des Tilleuls", "surface": "compacted", "lit": null, "length_m": 117.48, "type_element": "Way", "__fid": 123735}, "geometry": {"type": "LineString", "coordinates": [[2.4611951, 48.8359377], [2.4595954, 48.8359715]]}}, {"type": "Feature", "properties": {"highway": "track", "footway": null, "name": null, "surface": null, "lit": null, "length_m": 15.71, "type_element": "Way", "__fid": 123736}, "geometry": {"type": "LineString", "coordinates": [[2.459699, 48.8381367], [2.4595991, 48.8382095], [2.4595723, 48.8382488]]}}, {"type": "Feature", "properties": {"highway": "footway", "footway": null, "name": null, "surface": "compacted", "lit": "no", "length_m": 35.74, "type_element": "Way", "__fid": 123740}, "geometry": {"type": "LineString", "coordinates": [[2.4600229, 48.8353526], [2.4597526, 48.835449199999985], [2.4596983, 48.835477], [2.4596487, 48.8355424]]}}, {"type": "Feature", "properties": {"highway": "track", "footway": null, "name": null, "surface": "asphalt", "lit": null, "length_m": 19.49, "type_element": "Way", "__fid": 123743}, "geometry": {"type": "LineString", "coordinates": [[2.4597148, 48.8388726], [2.4596503, 48.8387026]]}}, {"type": "Feature", "properties": {"highway": "footway", "footway": null, "name": "Route Ronde des Minimes", "surface": "compacted", "lit": "no", "length_m": 19.35, "type_element": "Way", "__fid": 123744}, "geometry": {"type": "LineString", "coordinates": [[2.4596503, 48.8387026], [2.4599085, 48.8386673]]}}, {"type": "Feature", "properties": {"highway": "track", "footway": null, "name": "Route Ronde des Minimes", "surface": "asphalt", "lit": "no", "length_m": 22.82, "type_element": "Way", "__fid": 123747}, "geometry": {"type": "LineString", "coordinates": [[2.4597148, 48.8388726], [2.4600185, 48.8388285]]}}, {"type": "Feature", "properties": {"highway": "footway", "footway": null, "name": null, "surface": "compacted", "lit": null, "length_m": 22.42, "type_element": "Way", "__fid": 123766}, "geometry": {"type": "LineString", "coordinates": [[2.4599085, 48.8386673], [2.460214, 48.8386692]]}}, {"type": "Feature", "properties": {"highway": "footway", "footway": null, "name": "Route Ronde des Minimes", "surface": "compacted", "lit": "no", "length_m": 31.23, "type_element": "Way", "__fid": 123767}, "geometry": {"type": "LineString", "coordinates": [[2.4599085, 48.8386673], [2.460273, 48.8385224]]}}, {"type": "Feature", "properties": {"highway": "path", "footway": null, "name": "Avenue de Fontenay", "surface": "asphalt", "lit": null, "length_m": 18.01, "type_element": "Way", "__fid": 123777}, "geometry": {"type": "LineString", "coordinates": [[2.4601287, 48.838973199999984], [2.4600185, 48.8388285]]}}, {"type": "Feature", "properties": {"highway": "track", "footway": null, "name": "Route Ronde des Minimes", "surface": "asphalt", "lit": "no", "length_m": 4.65, "type_element": "Way", "__fid": 123778}, "geometry": {"type": "LineString", "coordinates": [[2.4600185, 48.8388285], [2.460078, 48.8388141]]}}, {"type": "Feature", "properties": {"highway": "service", "footway": null, "name": null, "surface": "asphalt", "lit": null, "length_m": 18.47, "type_element": "Way", "__fid": 123789}, "geometry": {"type": "LineString", "coordinates": [[2.460078, 48.8388141], [2.460238, 48.8389423]]}}, {"type": "Feature", "properties": {"highway": "track", "footway": null, "name": "Route Ronde des Minimes", "surface": "asphalt", "lit": "no", "length_m": 15.58, "type_element": "Way", "__fid": 123790}, "geometry": {"type": "LineString", "coordinates": [[2.460078, 48.8388141], [2.4602748, 48.8387617]]}}, {"type": "Feature", "properties": {"highway": "path", "footway": "crossing", "name": "Avenue de Fontenay", "surface": "asphalt", "lit": null, "length_m": 22.5, "type_element": "Way", "__fid": 123797}, "geometry": {"type": "LineString", "coordinates": [[2.4602791, 48.8391403], [2.4602227, 48.8391213], [2.4601287, 48.838973199999984]]}}, {"type": "Feature", "properties": {"highway": "path", "footway": null, "name": "Avenue de Nogent", "surface": "asphalt", "lit": "yes", "length_m": 8.73, "type_element": "Way", "__fid": 123798}, "geometry": {"type": "LineString", "coordinates": [[2.460238, 48.8389423], [2.4601287, 48.838973199999984]]}}, {"type": "Feature", "properties": {"highway": "footway", "footway": null, "name": null, "surface": "compacted", "lit": null, "length_m": 17.97, "type_element": "Way", "__fid": 123807}, "geometry": {"type": "LineString", "coordinates": [[2.460214, 48.8386692], [2.4604584, 48.8386793]]}}, {"type": "Feature", "properties": {"highway": "footway", "footway": null, "name": null, "surface": "compacted", "lit": null, "length_m": 11.21, "type_element": "Way", "__fid": 123808}, "geometry": {"type": "LineString", "coordinates": [[2.460214, 48.8386692], [2.4602748, 48.8387617]]}}, {"type": "Feature", "properties": {"highway": "footway", "footway": null, "name": null, "surface": "compacted", "lit": null, "length_m": 17.08, "type_element": "Way", "__fid": 123809}, "geometry": {"type": "LineString", "coordinates": [[2.460273, 48.8385224], [2.46022, 48.838610199999984], [2.460214, 48.8386692]]}}, {"type": "Feature", "properties": {"highway": "service", "footway": null, "name": null, "surface": "asphalt", "lit": "yes", "length_m": 7.07, "type_element": "Way", "__fid": 123812}, "geometry": {"type": "LineString", "coordinates": [[2.460238, 48.8389423], [2.4602991, 48.83899149999997]]}}, {"type": "Feature", "properties": {"highway": "path", "footway": null, "name": "Avenue de Nogent", "surface": "asphalt", "lit": "yes", "length_m": 10.38, "type_element": "Way", "__fid": 123813}, "geometry": {"type": "LineString", "coordinates": [[2.4603695, 48.8389079], [2.460238, 48.8389423]]}}, {"type": "Feature", "properties": {"highway": "footway", "footway": null, "name": "Route Ronde des Minimes", "surface": "compacted", "lit": "no", "length_m": 10.19, "type_element": "Way", "__fid": 123817}, "geometry": {"type": "LineString", "coordinates": [[2.460273, 48.8385224], [2.4604118, 48.83852570000002]]}}, {"type": "Feature", "properties": {"highway": "footway", "footway": null, "name": null, "surface": "compacted", "lit": null, "length_m": 9.95, "type_element": "Way", "__fid": 123818}, "geometry": {"type": "LineString", "coordinates": [[2.4603427, 48.8384456], [2.460273, 48.8385224]]}}, {"type": "Feature", "properties": {"highway": "footway", "footway": null, "name": null, "surface": "compacted", "lit": null, "length_m": 17.68, "type_element": "Way", "__fid": 123819}, "geometry": {"type": "LineString", "coordinates": [[2.4602748, 48.8387617], [2.4603695, 48.8389079]]}}, {"type": "Feature", "properties": {"highway": "track", "footway": null, "name": "Route Ronde des Minimes", "surface": "asphalt", "lit": "no", "length_m": 16.3, "type_element": "Way", "__fid": 123820}, "geometry": {"type": "LineString", "coordinates": [[2.4602748, 48.8387617], [2.4604584, 48.8386793]]}}, {"type": "Feature", "properties": {"highway": "path", "footway": null, "name": null, "surface": "dirt", "lit": null, "length_m": 79.13, "type_element": "Way", "__fid": 123822}, "geometry": {"type": "LineString", "coordinates": [[2.4602961, 48.840555399999985], [2.460326, 48.84058609999999], [2.4603648, 48.840710600000016], [2.4605251, 48.840925900000016], [2.4606002, 48.84100179999999], [2.4607746, 48.8411086], [2.4608341, 48.841154600000024]]}}, {"type": "Feature", "properties": {"highway": "track", "footway": null, "name": "Route du Grand Maréchal", "surface": "asphalt", "lit": null, "length_m": 59.73, "type_element": "Way", "__fid": 123823}, "geometry": {"type": "LineString", "coordinates": [[2.4602961, 48.840555399999985], [2.461009, 48.8402963]]}}, {"type": "Feature", "properties": {"highway": "footway", "footway": null, "name": "Route de la Cascade", "surface": "compacted", "lit": null, "length_m": 10.25, "type_element": "Way", "__fid": 123824}, "geometry": {"type": "LineString", "coordinates": [[2.4604118, 48.83852570000002], [2.4603427, 48.8384456]]}}, {"type": "Feature", "properties": {"highway": "footway", "footway": null, "name": "Route de la Cascade", "surface": "compacted", "lit": null, "length_m": 35.05, "type_element": "Way", "__fid": 123825}, "geometry": {"type": "LineString", "coordinates": [[2.4603427, 48.8384456], [2.4604138, 48.8383119], [2.4604782, 48.8382325], [2.4605617, 48.83816980000001]]}}, {"type": "Feature", "properties": {"highway": "path", "footway": null, "name": "Avenue de Nogent", "surface": "asphalt", "lit": "yes", "length_m": 11.81, "type_element": "Way", "__fid": 123837}, "geometry": {"type": "LineString", "coordinates": [[2.4605183, 48.8388676], [2.4603695, 48.8389079]]}}, {"type": "Feature", "properties": {"highway": "footway", "footway": null, "name": "Route Ronde des Minimes", "surface": "compacted", "lit": "no", "length_m": 18.73, "type_element": "Way", "__fid": 123842}, "geometry": {"type": "LineString", "coordinates": [[2.4604118, 48.83852570000002], [2.46065, 48.8385861]]}}, {"type": "Feature", "properties": {"highway": "track", "footway": null, "name": "Route Ronde des Minimes", "surface": "asphalt", "lit": "no", "length_m": 11.88, "type_element": "Way", "__fid": 123846}, "geometry": {"type": "LineString", "coordinates": [[2.4604584, 48.8386793], [2.4605905, 48.8386175]]}}, {"type": "Feature", "properties": {"highway": "track", "footway": null, "name": "Route de la Cascade", "surface": "asphalt", "lit": null, "length_m": 16.5, "type_element": "Way", "__fid": 123847}, "geometry": {"type": "LineString", "coordinates": [[2.4605333, 48.8381039], [2.4604685, 48.837961800000016]]}}, {"type": "Feature", "properties": {"highway": "path", "footway": null, "name": "Route des Bosquets", "surface": "asphalt", "lit": null, "length_m": 243.12, "type_element": "Way", "__fid": 123848}, "geometry": {"type": "LineString", "coordinates": [[2.4611951, 48.8359377], [2.4608529, 48.8364959], [2.4604078, 48.8370527], [2.4603327, 48.8371613], [2.4602683, 48.8372866], [2.4602361, 48.8373934], [2.4602334, 48.8374614], [2.4602468, 48.837534699999985], [2.4602938, 48.8376362], [2.4603997, 48.83780119999999], [2.4604685, 48.837961800000016]]}}, {"type": "Feature", "properties": {"highway": "path", "footway": null, "name": null, "surface": "compacted", "lit": null, "length_m": 133.75, "type_element": "Way", "__fid": 123856}, "geometry": {"type": "LineString", "coordinates": [[2.4614894, 48.8400874], [2.4613036, 48.8398332], [2.4609751, 48.83946380000001], [2.4605144, 48.8390767]]}}, {"type": "Feature", "properties": {"highway": "path", "footway": null, "name": null, "surface": "compacted", "lit": null, "length_m": 153.61, "type_element": "Way", "__fid": 123857}, "geometry": {"type": "LineString", "coordinates": [[2.4605183, 48.8388676], [2.4605979, 48.8389733], [2.4612185, 48.8396253], [2.4615162, 48.8399806], [2.4616375, 48.8400157]]}}, {"type": "Feature", "properties": {"highway": "path", "footway": null, "name": "Avenue de Nogent", "surface": "asphalt", "lit": "yes", "length_m": 189.41, "type_element": "Way", "__fid": 123858}, "geometry": {"type": "LineString", "coordinates": [[2.4629052, 48.83822030000002], [2.4605183, 48.8388676]]}}, {"type": "Feature", "properties": {"highway": "service", "footway": null, "name": "Route de la Cascade", "surface": "asphalt", "lit": null, "length_m": 7.62, "type_element": "Way", "__fid": 123859}, "geometry": {"type": "LineString", "coordinates": [[2.4605617, 48.83816980000001], [2.4605333, 48.8381039]]}}, {"type": "Feature", "properties": {"highway": "path", "footway": null, "name": null, "surface": "compacted", "lit": null, "length_m": 263.77, "type_element": "Way", "__fid": 123860}, "geometry": {"type": "LineString", "coordinates": [[2.4605333, 48.8381039], [2.4606659, 48.8380677], [2.4611431, 48.8378819], [2.4612444, 48.8378585], [2.4614017, 48.8378466], [2.4615618, 48.8377867], [2.4617314, 48.8377496], [2.4618865, 48.8376782], [2.4619146, 48.83763], [2.4618907, 48.83744580000001], [2.4619079, 48.8373254], [2.4619663, 48.8372095], [2.4619768, 48.8371661], [2.4619637, 48.837031400000015], [2.4620321, 48.8367961], [2.4621025, 48.8367125], [2.4621244, 48.8366665], [2.4621477, 48.8365372], [2.4622595, 48.8364406], [2.4623081, 48.8363691]]}}, {"type": "Feature", "properties": {"highway": "track", "footway": null, "name": null, "surface": "asphalt", "lit": null, "length_m": 46.76, "type_element": "Way", "__fid": 123861}, "geometry": {"type": "LineString", "coordinates": [[2.4605617, 48.83816980000001], [2.4606143, 48.8384589], [2.46065, 48.8385861]]}}, {"type": "Feature", "properties": {"highway": "track", "footway": null, "name": "Route Ronde des Minimes", "surface": "asphalt", "lit": "no", "length_m": 5.59, "type_element": "Way", "__fid": 123863}, "geometry": {"type": "LineString", "coordinates": [[2.4605905, 48.8386175], [2.46065, 48.8385861]]}}, {"type": "Feature", "properties": {"highway": "path", "footway": null, "name": null, "surface": "dirt", "lit": null, "length_m": 185.28, "type_element": "Way", "__fid": 123864}, "geometry": {"type": "LineString", "coordinates": [[2.4605905, 48.8386175], [2.4608691, 48.83860360000001], [2.4629516, 48.838050200000026]]}}, {"type": "Feature", "properties": {"highway": "track", "footway": null, "name": "Route Ronde des Minimes", "surface": "asphalt", "lit": "no", "length_m": 255.21, "type_element": "Way", "__fid": 123872}, "geometry": {"type": "LineString", "coordinates": [[2.46065, 48.8385861], [2.4612967, 48.83825489999999], [2.4617322, 48.8379817], [2.46224, 48.837572], [2.4624167, 48.8373731], [2.4625576, 48.8371314], [2.462703, 48.8368059]]}}, {"type": "Feature", "properties": {"highway": "path", "footway": null, "name": null, "surface": "dirt", "lit": null, "length_m": 40.72, "type_element": "Way", "__fid": 123876}, "geometry": {"type": "LineString", "coordinates": [[2.4608341, 48.841154600000024], [2.4613044, 48.8413489]]}}, {"type": "Feature", "properties": {"highway": "path", "footway": null, "name": null, "surface": "dirt", "lit": null, "length_m": 36.11, "type_element": "Way", "__fid": 123877}, "geometry": {"type": "LineString", "coordinates": [[2.4608341, 48.841154600000024], [2.4611051, 48.841031], [2.4612239, 48.8409577]]}}, {"type": "Feature", "properties": {"highway": "path", "footway": null, "name": null, "surface": null, "lit": null, "length_m": 33.42, "type_element": "Way", "__fid": 123884}, "geometry": {"type": "LineString", "coordinates": [[2.4611213, 48.840585099999984], [2.4610793, 48.8405361], [2.461009, 48.8402963]]}}, {"type": "Feature", "properties": {"highway": "track", "footway": null, "name": "Route du Grand Maréchal", "surface": "asphalt", "lit": null, "length_m": 26.24, "type_element": "Way", "__fid": 123885}, "geometry": {"type": "LineString", "coordinates": [[2.461009, 48.8402963], [2.4613026, 48.84016159999999]]}}, {"type": "Feature", "properties": {"highway": "path", "footway": null, "name": "Route des Bosquets", "surface": "asphalt", "lit": null, "length_m": 48.5, "type_element": "Way", "__fid": 123887}, "geometry": {"type": "LineString", "coordinates": [[2.461109, 48.8351429], [2.461132, 48.8352272], [2.4611709, 48.83531110000001], [2.461258, 48.8354338], [2.4613544, 48.835544]]}}, {"type": "Feature", "properties": {"highway": "path", "footway": null, "name": null, "surface": null, "lit": null, "length_m": 42.12, "type_element": "Way", "__fid": 123894}, "geometry": {"type": "LineString", "coordinates": [[2.4611213, 48.840585099999984], [2.4611855, 48.8408443], [2.4612239, 48.8409577]]}}, {"type": "Feature", "properties": {"highway": "path", "footway": null, "name": null, "surface": null, "lit": null, "length_m": 30.67, "type_element": "Way", "__fid": 123895}, "geometry": {"type": "LineString", "coordinates": [[2.4615013, 48.8404749], [2.4613876, 48.84052430000001], [2.4611213, 48.840585099999984]]}}, {"type": "Feature", "properties": {"highway": "path", "footway": null, "name": "Route des Bosquets", "surface": "asphalt", "lit": null, "length_m": 45.33, "type_element": "Way", "__fid": 123896}, "geometry": {"type": "LineString", "coordinates": [[2.4613544, 48.835544], [2.4612842, 48.835737899999984], [2.4611951, 48.8359377]]}}, {"type": "Feature", "properties": {"highway": "path", "footway": null, "name": "Avenue des Tilleuls", "surface": "compacted", "lit": null, "length_m": 44.94, "type_element": "Way", "__fid": 123897}, "geometry": {"type": "LineString", "coordinates": [[2.4618074, 48.8359364], [2.4611951, 48.8359377]]}}, {"type": "Feature", "properties": {"highway": "path", "footway": null, "name": null, "surface": null, "lit": null, "length_m": 43.94, "type_element": "Way", "__fid": 123903}, "geometry": {"type": "LineString", "coordinates": [[2.4612239, 48.8409577], [2.4612662, 48.8411016], [2.4613044, 48.8413489]]}}, {"type": "Feature", "properties": {"highway": "path", "footway": null, "name": null, "surface": "dirt", "lit": null, "length_m": 40.01, "type_element": "Way", "__fid": 123904}, "geometry": {"type": "LineString", "coordinates": [[2.4612239, 48.8409577], [2.4614578, 48.8408134], [2.4616095, 48.8407037]]}}, {"type": "Feature", "properties": {"highway": "path", "footway": null, "name": "Avenue de Fontenay", "surface": "dirt", "lit": null, "length_m": 37.82, "type_element": "Way", "__fid": 123909}, "geometry": {"type": "LineString", "coordinates": [[2.4615013, 48.8404749], [2.4614223, 48.8403275], [2.4613026, 48.84016159999999]]}}, {"type": "Feature", "properties": {"highway": "track", "footway": null, "name": "Route du Grand Maréchal", "surface": "asphalt", "lit": null, "length_m": 16.0, "type_element": "Way", "__fid": 123910}, "geometry": {"type": "LineString", "coordinates": [[2.4613026, 48.84016159999999], [2.4614894, 48.8400874]]}}, {"type": "Feature", "properties": {"highway": "path", "footway": null, "name": "Route des Chênes", "surface": "compacted", "lit": null, "length_m": 54.86, "type_element": "Way", "__fid": 123911}, "geometry": {"type": "LineString", "coordinates": [[2.4618074, 48.8359364], [2.4613544, 48.835544]]}}, {"type": "Feature", "properties": {"highway": "path", "footway": null, "name": null, "surface": "dirt", "lit": null, "length_m": 91.41, "type_element": "Way", "__fid": 123913}, "geometry": {"type": "LineString", "coordinates": [[2.4613044, 48.8413489], [2.4618491, 48.841627], [2.4621713, 48.841766599999985], [2.4623239, 48.8418182]]}}]}