{"type": "FeatureCollection", "features": [{"type": "Feature", "properties": {"@id": "node/3995352228", "amenity": "drinking_water", "type_element": "Fontaines à boire", "__fid": 466}, "geometry": {"type": "Point", "coordinates": [2.4606536, 48.8253373]}, "id": "node/3995352228"}, {"type": "Feature", "properties": {"highway": "service", "footway": null, "name": "Route Saint-Hubert", "surface": "asphalt", "lit": null, "length_m": 532.09, "type_element": "Way", "__fid": 122742}, "geometry": {"type": "LineString", "coordinates": [[2.4468185, 48.8274851], [2.454038, 48.82706369999999]]}}, {"type": "Feature", "properties": {"highway": "service", "footway": null, "name": null, "surface": null, "lit": null, "length_m": 587.48, "type_element": "Way", "__fid": 122920}, "geometry": {"type": "LineString", "coordinates": [[2.4479086, 48.823413], [2.4483121, 48.8237529], [2.4489093, 48.8241825], [2.4498319, 48.8247772], [2.4503177, 48.8250364], [2.4507922, 48.8252575], [2.4514271, 48.8255361], [2.4520612, 48.8257726], [2.4525045, 48.82591080000001], [2.4530191, 48.8260417], [2.4531786, 48.82607069999998], [2.4534375, 48.8260871], [2.4536628, 48.82608659999998], [2.4539121, 48.826047], [2.4540948, 48.8259984], [2.4543353, 48.82591450000001], [2.454384694748414, 48.825890335011806]]}}, {"type": "Feature", "properties": {"highway": "service", "footway": null, "name": null, "surface": null, "lit": null, "length_m": 276.36, "type_element": "Way", "__fid": 123014}, "geometry": {"type": "LineString", "coordinates": [[2.452588136023782, 48.82382430880956], [2.4525444, 48.8238585], [2.4523381, 48.82398089999998], [2.4520365, 48.8240794], [2.4517554, 48.8241257], [2.45154, 48.8241421], [2.451209, 48.8241212], [2.4509165, 48.8240615], [2.4506648, 48.8239839], [2.4496329, 48.82364530000001], [2.4491861, 48.8234868]]}}, {"type": "Feature", "properties": {"highway": "service", "footway": null, "name": null, "surface": null, "lit": null, "length_m": 223.84, "type_element": "Way", "__fid": 123056}, "geometry": {"type": "LineString", "coordinates": [[2.4524298, 48.8237204], [2.4521003, 48.8238717], [2.4517237, 48.8239702], [2.4514467, 48.8239957], [2.4510812, 48.823972], [2.4497381, 48.8235198], [2.4497452, 48.823462]]}}, {"type": "Feature", "properties": {"highway": "service", "footway": null, "name": null, "surface": null, "lit": null, "length_m": 301.93, "type_element": "Way", "__fid": 123073}, "geometry": {"type": "LineString", "coordinates": [[2.4501341, 48.8220813], [2.4505384, 48.8221743], [2.452632, 48.8229091], [2.4527372, 48.82305310000002], [2.4527067, 48.8232847], [2.4526347, 48.823456], [2.4524298, 48.8237204]]}}, {"type": "Feature", "properties": {"highway": "path", "footway": null, "name": null, "surface": null, "lit": null, "length_m": 226.58, "type_element": "Way", "__fid": 123131}, "geometry": {"type": "LineString", "coordinates": [[2.4539396, 48.8271797], [2.4538803, 48.8271443], [2.4508864, 48.8273251]]}}, {"type": "Feature", "properties": {"highway": "path", "footway": null, "name": null, "surface": null, "lit": null, "length_m": 181.8, "type_element": "Way", "__fid": 123133}, "geometry": {"type": "LineString", "coordinates": [[2.4531871, 48.82765950000001], [2.4523115, 48.8274261], [2.4514707, 48.8275828], [2.4510625, 48.8274155], [2.4508982, 48.82746069999999]]}}, {"type": "Feature", "properties": {"highway": "path", "footway": null, "name": null, "surface": null, "lit": null, "length_m": 184.21, "type_element": "Way", "__fid": 123182}, "geometry": {"type": "LineString", "coordinates": [[2.4515539, 48.828917199999985], [2.451778, 48.8287375], [2.4531871, 48.82765950000001]]}}, {"type": "Feature", "properties": {"highway": "path", "footway": null, "name": "Route de la Pyramide", "surface": "asphalt", "lit": null, "length_m": 265.3, "type_element": "Way", "__fid": 123189}, "geometry": {"type": "LineString", "coordinates": [[2.4540832, 48.8271921], [2.4539235, 48.82733790000001], [2.4517125, 48.8289919]]}}, {"type": "Feature", "properties": {"highway": "path", "footway": null, "name": null, "surface": null, "lit": null, "length_m": 257.99, "type_element": "Way", "__fid": 123201}, "geometry": {"type": "LineString", "coordinates": [[2.451866, 48.8290843], [2.4524121, 48.82870680000001], [2.4531819, 48.8281426], [2.4541939, 48.8273472]]}}, {"type": "Feature", "properties": {"highway": "service", "footway": null, "name": null, "surface": null, "lit": null, "length_m": 127.71, "type_element": "Way", "__fid": 123223}, "geometry": {"type": "LineString", "coordinates": [[2.4538149, 48.8246216], [2.4535856, 48.8246225], [2.4534568, 48.8246499], [2.4531363, 48.824795499999986], [2.452907, 48.8249165], [2.452746, 48.8249333], [2.4525636, 48.82492709999999], [2.4524416, 48.8249059], [2.4522632, 48.824820299999985]]}}, {"type": "Feature", "properties": {"highway": "path", "footway": null, "name": null, "surface": null, "lit": null, "length_m": 499.38, "type_element": "Way", "__fid": 123231}, "geometry": {"type": "LineString", "coordinates": [[2.4572651, 48.8322342], [2.4571422, 48.83202979999999], [2.4569542, 48.8318869], [2.4565764, 48.831690400000014], [2.4562973, 48.8315663], [2.4561106, 48.8314449], [2.4554028, 48.8311099], [2.4549319, 48.83082730000001], [2.4547282, 48.83066320000002], [2.4541354, 48.8302588], [2.4537411, 48.830107], [2.4534515, 48.82994460000002], [2.4529038, 48.8294731], [2.4524121, 48.829373300000015], [2.4522732, 48.829307]]}}, {"type": "Feature", "properties": {"highway": "path", "footway": null, "name": null, "surface": null, "lit": null, "length_m": 237.46, "type_element": "Way", "__fid": 123232}, "geometry": {"type": "LineString", "coordinates": [[2.4549843, 48.8287343], [2.4548413, 48.828691], [2.4547265, 48.8287195], [2.454591, 48.8287356], [2.4543671, 48.8287058], [2.4542015, 48.8287343], [2.4540905, 48.8287207], [2.4539907, 48.828697199999986], [2.4538346, 48.8286996], [2.4536426, 48.8286835], [2.4534959, 48.8286451], [2.4531252, 48.82867730000001], [2.4530349, 48.82867730000002], [2.4529539, 48.8287244], [2.4527263, 48.8289152], [2.4525513, 48.8291109], [2.4522732, 48.829307]]}}, {"type": "Feature", "properties": {"highway": "service", "footway": null, "name": null, "surface": "asphalt", "lit": null, "length_m": 16.39, "type_element": "Way", "__fid": 123237}, "geometry": {"type": "LineString", "coordinates": [[2.4524298, 48.8237204], [2.452588136023782, 48.82382430880956]]}}, {"type": "Feature", "properties": {"highway": "service", "footway": null, "name": null, "surface": "asphalt", "lit": null, "length_m": 126.38, "type_element": "Way", "__fid": 123239}, "geometry": {"type": "LineString", "coordinates": [[2.452588136023782, 48.82382430880956], [2.4538149, 48.8246216]]}}, {"type": "Feature", "properties": {"highway": "service", "footway": null, "name": null, "surface": null, "lit": null, "length_m": 147.1, "type_element": "Way", "__fid": 123240}, "geometry": {"type": "LineString", "coordinates": [[2.4527076, 48.8225942], [2.4528097, 48.822727], [2.4529094, 48.8229375], [2.4529706, 48.8231868], [2.4529298, 48.8234181], [2.4527144, 48.8237256], [2.452588136023782, 48.82382430880956]]}}, {"type": "Feature", "properties": {"highway": "path", "footway": null, "name": null, "surface": null, "lit": null, "length_m": 79.01, "type_element": "Way", "__fid": 123281}, "geometry": {"type": "LineString", "coordinates": [[2.4531871, 48.82765950000001], [2.4536423, 48.8272661], [2.453756, 48.8272219], [2.4539396, 48.8271797]]}}, {"type": "Feature", "properties": {"highway": "service", "footway": null, "name": null, "surface": null, "lit": null, "length_m": 479.87, "type_element": "Way", "__fid": 123287}, "geometry": {"type": "LineString", "coordinates": [[2.454384694748414, 48.825890335011806], [2.4544884, 48.8258396], [2.4546872, 48.8257013], [2.4556259, 48.82495089999997], [2.4557365, 48.8248379], [2.4558824, 48.8245825], [2.4559225, 48.82443580000002], [2.4559329, 48.824316], [2.4559016, 48.8241592], [2.4558591, 48.824059], [2.4557758, 48.8239318], [2.4557068, 48.823845800000015], [2.4555834, 48.8237397], [2.4552074, 48.8235164], [2.454773, 48.8233138], [2.4540059, 48.82303090000001], [2.4533421, 48.8228056]]}}, {"type": "Feature", "properties": {"highway": "path", "footway": null, "name": null, "surface": "compacted", "lit": null, "length_m": 363.72, "type_element": "Way", "__fid": 123309}, "geometry": {"type": "LineString", "coordinates": [[2.4575386, 48.8237999], [2.4574037, 48.823713], [2.4564562, 48.823211100000016], [2.4557434, 48.822857], [2.4541522, 48.82209809999998], [2.4538384, 48.82191969999999], [2.4536352, 48.8217908]]}}, {"type": "Feature", "properties": {"highway": "service", "footway": null, "name": null, "surface": "asphalt", "lit": null, "length_m": 149.49, "type_element": "Way", "__fid": 123325}, "geometry": {"type": "LineString", "coordinates": [[2.4538149, 48.8246216], [2.4538621, 48.8246957], [2.4541151, 48.8256187], [2.4541971, 48.82572660000001], [2.454384694748414, 48.825890335011806]]}}, {"type": "Feature", "properties": {"highway": "footway", "footway": "sidewalk", "name": null, "surface": null, "lit": null, "length_m": 10.63, "type_element": "Way", "__fid": 123338}, "geometry": {"type": "LineString", "coordinates": [[2.4540832, 48.8271921], [2.4539396, 48.8271797]]}}, {"type": "Feature", "properties": {"highway": "path", "footway": null, "name": "Route de la Pyramide", "surface": "asphalt", "lit": null, "length_m": 14.75, "type_element": "Way", "__fid": 123342}, "geometry": {"type": "LineString", "coordinates": [[2.454038, 48.82706369999999], [2.454053, 48.82713870000002], [2.4540832, 48.8271921]]}}, {"type": "Feature", "properties": {"highway": "path", "footway": null, "name": "Route de la Pyramide", "surface": "asphalt", "lit": null, "length_m": 38.1, "type_element": "Way", "__fid": 123343}, "geometry": {"type": "LineString", "coordinates": [[2.4543247, 48.82680780000001], [2.4542227, 48.8268369], [2.4541209, 48.826895200000024], [2.4540605, 48.826964], [2.454038, 48.82706369999999]]}}, {"type": "Feature", "properties": {"highway": "service", "footway": null, "name": "Route Saint-Hubert", "surface": "asphalt", "lit": null, "length_m": 15.44, "type_element": "Way", "__fid": 123344}, "geometry": {"type": "LineString", "coordinates": [[2.454038, 48.82706369999999], [2.4542481, 48.8270578]]}}, {"type": "Feature", "properties": {"highway": "footway", "footway": "crossing", "name": null, "surface": null, "lit": null, "length_m": 17.88, "type_element": "Way", "__fid": 123351}, "geometry": {"type": "LineString", "coordinates": [[2.4542635, 48.8272974], [2.4541341, 48.82723750000001], [2.4540832, 48.8271921]]}}, {"type": "Feature", "properties": {"highway": "path", "footway": null, "name": null, "surface": null, "lit": null, "length_m": 28.38, "type_element": "Way", "__fid": 123361}, "geometry": {"type": "LineString", "coordinates": [[2.4545661, 48.8273948], [2.4544611, 48.827397900000015], [2.4543489, 48.827389], [2.4542736, 48.8273755], [2.4541939, 48.8273472]]}}, {"type": "Feature", "properties": {"highway": "path", "footway": null, "name": null, "surface": null, "lit": null, "length_m": 7.53, "type_element": "Way", "__fid": 123362}, "geometry": {"type": "LineString", "coordinates": [[2.4541939, 48.8273472], [2.4542635, 48.8272974]]}}, {"type": "Feature", "properties": {"highway": "footway", "footway": null, "name": null, "surface": null, "lit": null, "length_m": 22.29, "type_element": "Way", "__fid": 123366}, "geometry": {"type": "LineString", "coordinates": [[2.4545552, 48.8273338], [2.4544441, 48.8273359], [2.4543429, 48.82732530000001], [2.4542635, 48.8272974]]}}, {"type": "Feature", "properties": {"highway": "service", "footway": null, "name": null, "surface": "asphalt", "lit": null, "length_m": 11.83, "type_element": "Way", "__fid": 123369}, "geometry": {"type": "LineString", "coordinates": [[2.4543247, 48.82680780000001], [2.4543777, 48.8269083]]}}, {"type": "Feature", "properties": {"highway": "service", "footway": null, "name": null, "surface": "asphalt", "lit": null, "length_m": 84.53, "type_element": "Way", "__fid": 123370}, "geometry": {"type": "LineString", "coordinates": [[2.4548305, 48.8263287], [2.4547859, 48.82637769999999], [2.454227, 48.8265207], [2.4542022, 48.826544], [2.4541966, 48.8265736], [2.4543247, 48.82680780000001]]}}, {"type": "Feature", "properties": {"highway": "path", "footway": null, "name": "Route de la Pyramide", "surface": "asphalt", "lit": null, "length_m": 7.17, "type_element": "Way", "__fid": 123371}, "geometry": {"type": "LineString", "coordinates": [[2.4544189, 48.8267908], [2.4543247, 48.82680780000001]]}}, {"type": "Feature", "properties": {"highway": "service", "footway": null, "name": null, "surface": "asphalt", "lit": null, "length_m": 59.28, "type_element": "Way", "__fid": 123373}, "geometry": {"type": "LineString", "coordinates": [[2.454384694748414, 48.825890335011806], [2.4548174, 48.8262775], [2.4548305, 48.8263287]]}}, {"type": "Feature", "properties": {"highway": "path", "footway": null, "name": null, "surface": "dirt", "lit": null, "length_m": 11.72, "type_element": "Way", "__fid": 123378}, "geometry": {"type": "LineString", "coordinates": [[2.4545584, 48.82673960000001], [2.4544189, 48.8267908]]}}, {"type": "Feature", "properties": {"highway": "path", "footway": null, "name": "Route de la Pyramide", "surface": "asphalt", "lit": null, "length_m": 10.6, "type_element": "Way", "__fid": 123379}, "geometry": {"type": "LineString", "coordinates": [[2.4545616, 48.8267801], [2.4544657, 48.8267826], [2.4544189, 48.8267908]]}}, {"type": "Feature", "properties": {"highway": "track", "footway": null, "name": null, "surface": null, "lit": null, "length_m": 121.66, "type_element": "Way", "__fid": 123383}, "geometry": {"type": "LineString", "coordinates": [[2.4557423, 48.8294699], [2.455356, 48.8297201], [2.4548674, 48.8299559], [2.4545534, 48.8300619], [2.454406, 48.830099899999986]]}}, {"type": "Feature", "properties": {"highway": "service", "footway": null, "name": null, "surface": null, "lit": null, "length_m": 243.72, "type_element": "Way", "__fid": 123386}, "geometry": {"type": "LineString", "coordinates": [[2.4568042, 48.82395539999999], [2.4564617, 48.8234627], [2.4555038, 48.8227991], [2.4551151, 48.8226071], [2.4546456, 48.8224483], [2.4545545, 48.8224261]]}}, {"type": "Feature", "properties": {"highway": "path", "footway": null, "name": null, "surface": null, "lit": null, "length_m": 6.83, "type_element": "Way", "__fid": 123388}, "geometry": {"type": "LineString", "coordinates": [[2.4545661, 48.8273948], [2.4545552, 48.8273338]]}}, {"type": "Feature", "properties": {"highway": "footway", "footway": null, "name": null, "surface": null, "lit": null, "length_m": 29.57, "type_element": "Way", "__fid": 123389}, "geometry": {"type": "LineString", "coordinates": [[2.4548739, 48.827180900000016], [2.4548216, 48.8272268], [2.4546969, 48.8272961], [2.4545552, 48.8273338]]}}, {"type": "Feature", "properties": {"highway": "footway", "footway": "crossing", "name": null, "surface": null, "lit": null, "length_m": 18.87, "type_element": "Way", "__fid": 123390}, "geometry": {"type": "LineString", "coordinates": [[2.4545616, 48.8267801], [2.454659, 48.8267923], [2.454786, 48.826854200000014]]}}, {"type": "Feature", "properties": {"highway": "path", "footway": null, "name": "Route de la Pyramide", "surface": "asphalt", "lit": null, "length_m": 382.99, "type_element": "Way", "__fid": 123391}, "geometry": {"type": "LineString", "coordinates": [[2.4575526, 48.8239704], [2.4574734, 48.8240989], [2.457169, 48.8244318], [2.4566034, 48.8250119], [2.455954, 48.8256122], [2.4546839, 48.82670620000002], [2.4546287, 48.8267509], [2.4545616, 48.8267801]]}}, {"type": "Feature", "properties": {"highway": "path", "footway": null, "name": null, "surface": null, "lit": null, "length_m": 183.21, "type_element": "Way", "__fid": 123392}, "geometry": {"type": "LineString", "coordinates": [[2.455907, 48.8286971], [2.4558091, 48.8285982], [2.4557139, 48.8284605], [2.4556817, 48.8283828], [2.455502, 48.8282477], [2.4553746, 48.8281674], [2.4552177, 48.8280799], [2.4550326, 48.8280076], [2.4549924, 48.82797140000001], [2.4549642, 48.8279043], [2.4549642, 48.8278698], [2.4546705, 48.8277056], [2.4546263, 48.8276456], [2.4545901, 48.8275264], [2.4545661, 48.8273948]]}}, {"type": "Feature", "properties": {"highway": "path", "footway": null, "name": null, "surface": null, "lit": null, "length_m": 35.4, "type_element": "Way", "__fid": 123393}, "geometry": {"type": "LineString", "coordinates": [[2.4549484, 48.82721460000001], [2.4548954, 48.8272632], [2.4547551, 48.8273421], [2.4546744, 48.827375], [2.4545661, 48.8273948]]}}, {"type": "Feature", "properties": {"highway": "track", "footway": null, "name": "Route de Mortemart", "surface": null, "lit": null, "length_m": 18.04, "type_element": "Way", "__fid": 123400}, "geometry": {"type": "LineString", "coordinates": [[2.4548739, 48.827180900000016], [2.454661, 48.8270999]]}}, {"type": "Feature", "properties": {"highway": "footway", "footway": null, "name": null, "surface": null, "lit": null, "length_m": 8.35, "type_element": "Way", "__fid": 123414}, "geometry": {"type": "LineString", "coordinates": [[2.454786, 48.826854200000014], [2.4548644, 48.8269086]]}}, {"type": "Feature", "properties": {"highway": "path", "footway": null, "name": null, "surface": "dirt", "lit": null, "length_m": 12.35, "type_element": "Way", "__fid": 123415}, "geometry": {"type": "LineString", "coordinates": [[2.4548859, 48.8267648], [2.454786, 48.826854200000014]]}}, {"type": "Feature", "properties": {"highway": "service", "footway": null, "name": null, "surface": null, "lit": null, "length_m": 314.24, "type_element": "Way", "__fid": 123419}, "geometry": {"type": "LineString", "coordinates": [[2.4568042, 48.82395539999999], [2.4568618, 48.8243922], [2.4568512, 48.8245632], [2.4564967, 48.824936399999984], [2.4560422, 48.82536529999999], [2.4555072, 48.8258108], [2.4548305, 48.8263287]]}}, {"type": "Feature", "properties": {"highway": "footway", "footway": null, "name": null, "surface": null, "lit": null, "length_m": 16.14, "type_element": "Way", "__fid": 123422}, "geometry": {"type": "LineString", "coordinates": [[2.4548644, 48.8269086], [2.4548961, 48.8269695], [2.4549201, 48.8270487]]}}, {"type": "Feature", "properties": {"highway": "path", "footway": null, "name": null, "surface": "dirt", "lit": null, "length_m": 16.12, "type_element": "Way", "__fid": 123423}, "geometry": {"type": "LineString", "coordinates": [[2.4548859, 48.8267648], [2.4548697, 48.8268164], [2.4548644, 48.8269086]]}}, {"type": "Feature", "properties": {"highway": "track", "footway": null, "name": "Route de Mortemart", "surface": null, "lit": null, "length_m": 6.63, "type_element": "Way", "__fid": 123426}, "geometry": {"type": "LineString", "coordinates": [[2.4549484, 48.82721460000001], [2.4548739, 48.827180900000016]]}}, {"type": "Feature", "properties": {"highway": "footway", "footway": null, "name": null, "surface": null, "lit": null, "length_m": 15.16, "type_element": "Way", "__fid": 123427}, "geometry": {"type": "LineString", "coordinates": [[2.4549201, 48.8270487], [2.4549013, 48.8271319], [2.4548739, 48.827180900000016]]}}, {"type": "Feature", "properties": {"highway": "path", "footway": null, "name": null, "surface": "dirt", "lit": null, "length_m": 310.27, "type_element": "Way", "__fid": 123430}, "geometry": {"type": "LineString", "coordinates": [[2.4573898, 48.8245169], [2.4548859, 48.8267648]]}}, {"type": "Feature", "properties": {"highway": "path", "footway": null, "name": null, "surface": null, "lit": null, "length_m": 24.16, "type_element": "Way", "__fid": 123433}, "geometry": {"type": "LineString", "coordinates": [[2.4549201, 48.8270487], [2.4552434, 48.8270079]]}}, {"type": "Feature", "properties": {"highway": "track", "footway": null, "name": "Route de Mortemart", "surface": null, "lit": null, "length_m": 263.75, "type_element": "Way", "__fid": 123435}, "geometry": {"type": "LineString", "coordinates": [[2.4579606, 48.8285074], [2.4549484, 48.82721460000001]]}}, {"type": "Feature", "properties": {"highway": "path", "footway": null, "name": null, "surface": null, "lit": null, "length_m": 52.56, "type_element": "Way", "__fid": 123437}, "geometry": {"type": "LineString", "coordinates": [[2.4549843, 48.8287343], [2.4554171, 48.82877640000002], [2.4555883, 48.828828500000014], [2.4556208, 48.8288839]]}}, {"type": "Feature", "properties": {"highway": "path", "footway": null, "name": null, "surface": null, "lit": null, "length_m": 51.16, "type_element": "Way", "__fid": 123438}, "geometry": {"type": "LineString", "coordinates": [[2.455545, 48.82894119999999], [2.4553681, 48.82894370000001], [2.4552232, 48.8289164], [2.4550388, 48.8288024], [2.4549843, 48.8287343]]}}, {"type": "Feature", "properties": {"highway": "path", "footway": null, "name": null, "surface": null, "lit": null, "length_m": 354.89, "type_element": "Way", "__fid": 123456}, "geometry": {"type": "LineString", "coordinates": [[2.4581241, 48.824503], [2.458142, 48.8245439], [2.4581332, 48.8246137], [2.4581058, 48.8246304], [2.4579609, 48.82467190000002], [2.4578882, 48.82476060000001], [2.4568068, 48.82569520000001], [2.4564716, 48.8259663], [2.4553169, 48.8269755], [2.4552434, 48.8270079]]}}, {"type": "Feature", "properties": {"highway": "path", "footway": null, "name": null, "surface": null, "lit": null, "length_m": 265.81, "type_element": "Way", "__fid": 123457}, "geometry": {"type": "LineString", "coordinates": [[2.4552434, 48.8270079], [2.4553514, 48.8269999], [2.4554345, 48.8270132], [2.4557604, 48.8271306], [2.4564296, 48.827475800000016], [2.4565704, 48.82755620000001], [2.4576782, 48.8280806], [2.458043, 48.8282695], [2.4582119, 48.828331300000016]]}}, {"type": "Feature", "properties": {"highway": "footway", "footway": null, "name": null, "surface": null, "lit": null, "length_m": 96.72, "type_element": "Way", "__fid": 123459}, "geometry": {"type": "LineString", "coordinates": [[2.4552409, 48.8299918], [2.4554026, 48.82989180000001], [2.4555422, 48.829881499999985], [2.4556784, 48.8298374], [2.4558361, 48.829623], [2.4560106, 48.8294355], [2.4560948, 48.82938940000001]]}}, {"type": "Feature", "properties": {"highway": "path", "footway": null, "name": null, "surface": null, "lit": null, "length_m": 61.0, "type_element": "Way", "__fid": 123474}, "geometry": {"type": "LineString", "coordinates": [[2.455545, 48.82894119999999], [2.4556109, 48.8290353], [2.4556636, 48.82930039999999], [2.4556918, 48.8293785], [2.4557423, 48.8294699]]}}, {"type": "Feature", "properties": {"highway": "path", "footway": null, "name": null, "surface": null, "lit": null, "length_m": 8.46, "type_element": "Way", "__fid": 123475}, "geometry": {"type": "LineString", "coordinates": [[2.4556208, 48.8288839], [2.455545, 48.82894119999999]]}}, {"type": "Feature", "properties": {"highway": "path", "footway": null, "name": null, "surface": null, "lit": null, "length_m": 29.54, "type_element": "Way", "__fid": 123481}, "geometry": {"type": "LineString", "coordinates": [[2.455907, 48.8286971], [2.4556208, 48.8288839]]}}, {"type": "Feature", "properties": {"highway": "track", "footway": null, "name": null, "surface": null, "lit": null, "length_m": 26.45, "type_element": "Way", "__fid": 123495}, "geometry": {"type": "LineString", "coordinates": [[2.4559861, 48.8292948], [2.4557423, 48.8294699]]}}, {"type": "Feature", "properties": {"highway": "path", "footway": null, "name": null, "surface": null, "lit": null, "length_m": 147.87, "type_element": "Way", "__fid": 123503}, "geometry": {"type": "LineString", "coordinates": [[2.4578322, 48.8286937], [2.4576572, 48.828705], [2.4572126, 48.8287549], [2.4568498, 48.8288639], [2.456713, 48.8288684], [2.4566084, 48.82886040000001], [2.4562262, 48.8287907], [2.4560304, 48.8287412], [2.455907, 48.8286971]]}}, {"type": "Feature", "properties": {"highway": "service", "footway": null, "name": null, "surface": null, "lit": null, "length_m": 9.4, "type_element": "Way", "__fid": 123504}, "geometry": {"type": "LineString", "coordinates": [[2.4559366, 48.82921679999998], [2.4559861, 48.8292948]]}}, {"type": "Feature", "properties": {"highway": "service", "footway": null, "name": null, "surface": null, "lit": null, "length_m": 149.95, "type_element": "Way", "__fid": 123505}, "geometry": {"type": "LineString", "coordinates": [[2.4576027, 48.8289912], [2.4565849, 48.82902720000002], [2.4561315, 48.8289591], [2.4559663, 48.8289749], [2.455907, 48.8290499], [2.4558894, 48.8291406], [2.4559366, 48.82921679999998]]}}, {"type": "Feature", "properties": {"highway": "service", "footway": null, "name": null, "surface": null, "lit": null, "length_m": 65.68, "type_element": "Way", "__fid": 123506}, "geometry": {"type": "LineString", "coordinates": [[2.4559366, 48.82921679999998], [2.4568262, 48.8291538]]}}, {"type": "Feature", "properties": {"highway": "service", "footway": null, "name": null, "surface": null, "lit": null, "length_m": 13.2, "type_element": "Way", "__fid": 123508}, "geometry": {"type": "LineString", "coordinates": [[2.4559861, 48.8292948], [2.4560948, 48.82938940000001]]}}, {"type": "Feature", "properties": {"highway": "service", "footway": null, "name": null, "surface": null, "lit": null, "length_m": 7.86, "type_element": "Way", "__fid": 123515}, "geometry": {"type": "LineString", "coordinates": [[2.4561683, 48.8294408], [2.4560948, 48.82938940000001]]}}, {"type": "Feature", "properties": {"highway": "service", "footway": null, "name": null, "surface": null, "lit": null, "length_m": 29.43, "type_element": "Way", "__fid": 123516}, "geometry": {"type": "LineString", "coordinates": [[2.4564124, 48.8296449], [2.4562636, 48.8295603], [2.4561683, 48.8294408]]}}, {"type": "Feature", "properties": {"highway": "footway", "footway": null, "name": null, "surface": null, "lit": null, "length_m": 50.23, "type_element": "Way", "__fid": 123517}, "geometry": {"type": "LineString", "coordinates": [[2.4561683, 48.8294408], [2.4563453, 48.8293313], [2.4565484, 48.8292913], [2.4565811, 48.82929410000001], [2.4567294, 48.8293795]]}}, {"type": "Feature", "properties": {"highway": "service", "footway": null, "name": null, "surface": null, "lit": null, "length_m": 13.88, "type_element": "Way", "__fid": 123528}, "geometry": {"type": "LineString", "coordinates": [[2.4564124, 48.8296449], [2.4565825, 48.8295905]]}}, {"type": "Feature", "properties": {"highway": "footway", "footway": null, "name": null, "surface": null, "lit": null, "length_m": 27.6, "type_element": "Way", "__fid": 123547}, "geometry": {"type": "LineString", "coordinates": [[2.4565825, 48.8295905], [2.4565723, 48.829539], [2.4566029, 48.8294649], [2.4567294, 48.8293795]]}}, {"type": "Feature", "properties": {"highway": "service", "footway": null, "name": null, "surface": null, "lit": null, "length_m": 79.73, "type_element": "Way", "__fid": 123548}, "geometry": {"type": "LineString", "coordinates": [[2.4565825, 48.8295905], [2.4566296, 48.8295748], [2.456795, 48.8295639], [2.4569917, 48.8295908], [2.4572034, 48.8296579], [2.4573202, 48.8297337], [2.4574503, 48.8298519], [2.4574926, 48.829864399999984]]}}, {"type": "Feature", "properties": {"highway": "footway", "footway": null, "name": null, "surface": null, "lit": null, "length_m": 29.78, "type_element": "Way", "__fid": 123552}, "geometry": {"type": "LineString", "coordinates": [[2.4567294, 48.8293795], [2.4568739, 48.8292795], [2.4568262, 48.8291538]]}}, {"type": "Feature", "properties": {"highway": "service", "footway": null, "name": null, "surface": null, "lit": null, "length_m": 53.95, "type_element": "Way", "__fid": 123553}, "geometry": {"type": "LineString", "coordinates": [[2.4575342, 48.8238996], [2.4568042, 48.82395539999999]]}}, {"type": "Feature", "properties": {"highway": "service", "footway": null, "name": null, "surface": null, "lit": null, "length_m": 59.44, "type_element": "Way", "__fid": 123554}, "geometry": {"type": "LineString", "coordinates": [[2.4568262, 48.8291538], [2.457631, 48.8290952]]}}, {"type": "Feature", "properties": {"highway": "path", "footway": null, "name": null, "surface": "compacted", "lit": null, "length_m": 41.38, "type_element": "Way", "__fid": 123573}, "geometry": {"type": "LineString", "coordinates": [[2.4572462, 48.823463], [2.4576766, 48.8237033]]}}, {"type": "Feature", "properties": {"highway": "path", "footway": null, "name": null, "surface": "dirt", "lit": null, "length_m": 57.02, "type_element": "Way", "__fid": 123581}, "geometry": {"type": "LineString", "coordinates": [[2.4577505, 48.8240631], [2.4574942, 48.8243682], [2.4573898, 48.8245169]]}}, {"type": "Feature", "properties": {"highway": "path", "footway": null, "name": null, "surface": "dirt", "lit": null, "length_m": 35.77, "type_element": "Way", "__fid": 123582}, "geometry": {"type": "LineString", "coordinates": [[2.4573898, 48.8245169], [2.4575747, 48.8244499], [2.4578401, 48.8243993]]}}, {"type": "Feature", "properties": {"highway": "path", "footway": "sidewalk", "name": "Route de la Pyramide", "surface": "asphalt", "lit": null, "length_m": 7.99, "type_element": "Way", "__fid": 123588}, "geometry": {"type": "LineString", "coordinates": [[2.4575342, 48.8238996], [2.4575526, 48.8239704]]}}, {"type": "Feature", "properties": {"highway": "path", "footway": "sidewalk", "name": "Route de la Pyramide", "surface": "asphalt", "lit": null, "length_m": 11.22, "type_element": "Way", "__fid": 123589}, "geometry": {"type": "LineString", "coordinates": [[2.4575386, 48.8237999], [2.457527, 48.8238267], [2.4575342, 48.8238996]]}}, {"type": "Feature", "properties": {"highway": "service", "footway": null, "name": null, "surface": null, "lit": null, "length_m": 11.34, "type_element": "Way", "__fid": 123590}, "geometry": {"type": "LineString", "coordinates": [[2.4576866, 48.8238831], [2.4575342, 48.8238996]]}}, {"type": "Feature", "properties": {"highway": "path", "footway": "crossing", "name": "Route de la Pyramide", "surface": "asphalt", "lit": null, "length_m": 14.97, "type_element": "Way", "__fid": 123591}, "geometry": {"type": "LineString", "coordinates": [[2.4576766, 48.8237033], [2.4575579, 48.8237731], [2.4575386, 48.8237999]]}}, {"type": "Feature", "properties": {"highway": "path", "footway": "crossing", "name": null, "surface": "compacted", "lit": null, "length_m": 18.23, "type_element": "Way", "__fid": 123592}, "geometry": {"type": "LineString", "coordinates": [[2.4577505, 48.8240631], [2.457623, 48.824022100000015], [2.4575877, 48.8240039], [2.4575526, 48.8239704]]}}, {"type": "Feature", "properties": {"highway": "service", "footway": null, "name": null, "surface": null, "lit": null, "length_m": 11.75, "type_element": "Way", "__fid": 123596}, "geometry": {"type": "LineString", "coordinates": [[2.457631, 48.8290952], [2.4576027, 48.8289912]]}}, {"type": "Feature", "properties": {"highway": "path", "footway": null, "name": null, "surface": null, "lit": null, "length_m": 37.19, "type_element": "Way", "__fid": 123597}, "geometry": {"type": "LineString", "coordinates": [[2.4578322, 48.8286937], [2.4577403, 48.8288163], [2.4576451, 48.8289213], [2.4576027, 48.8289912]]}}, {"type": "Feature", "properties": {"highway": "service", "footway": null, "name": null, "surface": null, "lit": null, "length_m": 117.1, "type_element": "Way", "__fid": 123598}, "geometry": {"type": "LineString", "coordinates": [[2.4576027, 48.8289912], [2.4577747, 48.82898760000001], [2.4586842, 48.8288563], [2.4587443, 48.82884270000001], [2.4587319, 48.82890340000002], [2.4589733, 48.82905740000002]]}}, {"type": "Feature", "properties": {"highway": "path", "footway": "sidewalk", "name": "Route de la Pyramide", "surface": null, "lit": null, "length_m": 13.48, "type_element": "Way", "__fid": 123600}, "geometry": {"type": "LineString", "coordinates": [[2.4578555, 48.82368], [2.4577943, 48.82368129999998], [2.4576766, 48.8237033]]}}, {"type": "Feature", "properties": {"highway": "footway", "footway": null, "name": null, "surface": null, "lit": null, "length_m": 98.69, "type_element": "Way", "__fid": 123603}, "geometry": {"type": "LineString", "coordinates": [[2.457631, 48.8290952], [2.4578, 48.8290882], [2.4583093, 48.82908919999997], [2.4589733, 48.82905740000002]]}}, {"type": "Feature", "properties": {"highway": "path", "footway": "sidewalk", "name": null, "surface": "compacted", "lit": null, "length_m": 31.25, "type_element": "Way", "__fid": 123604}, "geometry": {"type": "LineString", "coordinates": [[2.458083, 48.8239236], [2.4580521, 48.8239616], [2.4579247, 48.8240486], [2.4578391, 48.8240631], [2.4577505, 48.8240631]]}}, {"type": "Feature", "properties": {"highway": "path", "footway": null, "name": null, "surface": "dirt", "lit": null, "length_m": 23.98, "type_element": "Way", "__fid": 123609}, "geometry": {"type": "LineString", "coordinates": [[2.4578401, 48.8243993], [2.4579918, 48.82444060000001], [2.4581241, 48.824503]]}}, {"type": "Feature", "properties": {"highway": "path", "footway": null, "name": null, "surface": "dirt", "lit": null, "length_m": 16.02, "type_element": "Way", "__fid": 123610}, "geometry": {"type": "LineString", "coordinates": [[2.4578401, 48.8243993], [2.4580481, 48.8243557]]}}, {"type": "Feature", "properties": {"highway": "path", "footway": "crossing", "name": null, "surface": "compacted", "lit": "yes", "length_m": 15.72, "type_element": "Way", "__fid": 123611}, "geometry": {"type": "LineString", "coordinates": [[2.4578555, 48.82368], [2.4579039, 48.82368429999998], [2.4579878, 48.8237144], [2.4580377, 48.8237466]]}}, {"type": "Feature", "properties": {"highway": "path", "footway": null, "name": null, "surface": null, "lit": null, "length_m": 22.76, "type_element": "Way", "__fid": 123613}, "geometry": {"type": "LineString", "coordinates": [[2.4579606, 48.8285074], [2.4578322, 48.8286937]]}}, {"type": "Feature", "properties": {"highway": "track", "footway": null, "name": "Route de Mortemart", "surface": null, "lit": null, "length_m": 52.89, "type_element": "Way", "__fid": 123614}, "geometry": {"type": "LineString", "coordinates": [[2.4585628, 48.8287685], [2.4579606, 48.8285074]]}}, {"type": "Feature", "properties": {"highway": "path", "footway": null, "name": null, "surface": null, "lit": null, "length_m": 27.22, "type_element": "Way", "__fid": 123615}, "geometry": {"type": "LineString", "coordinates": [[2.4582119, 48.828331300000016], [2.4581252, 48.8283678], [2.4579606, 48.8285074]]}}, {"type": "Feature", "properties": {"highway": "path", "footway": null, "name": null, "surface": null, "lit": null, "length_m": 30.96, "type_element": "Way", "__fid": 123616}, "geometry": {"type": "LineString", "coordinates": [[2.4580172, 48.8240809], [2.4580179, 48.8243024], [2.4580481, 48.8243557]]}}, {"type": "Feature", "properties": {"highway": "path", "footway": "sidewalk", "name": null, "surface": null, "lit": null, "length_m": 20.63, "type_element": "Way", "__fid": 123619}, "geometry": {"type": "LineString", "coordinates": [[2.4580377, 48.8237466], [2.4580682, 48.8237802], [2.458095, 48.8238393], [2.458083, 48.8239236]]}}, {"type": "Feature", "properties": {"highway": "footway", "footway": "sidewalk", "name": null, "surface": null, "lit": null, "length_m": 85.68, "type_element": "Way", "__fid": 123620}, "geometry": {"type": "LineString", "coordinates": [[2.4585397, 48.8230646], [2.4580642, 48.82366180000002], [2.4580669, 48.8237353], [2.4580377, 48.8237466]]}}, {"type": "Feature", "properties": {"highway": "path", "footway": null, "name": null, "surface": null, "lit": null, "length_m": 17.3, "type_element": "Way", "__fid": 123621}, "geometry": {"type": "LineString", "coordinates": [[2.4580481, 48.8243557], [2.4581241, 48.824503]]}}, {"type": "Feature", "properties": {"highway": "path", "footway": null, "name": null, "surface": "dirt", "lit": null, "length_m": 26.18, "type_element": "Way", "__fid": 123622}, "geometry": {"type": "LineString", "coordinates": [[2.4580481, 48.8243557], [2.4583857, 48.82428]]}}, {"type": "Feature", "properties": {"highway": "footway", "footway": null, "name": null, "surface": "dirt", "lit": null, "length_m": 110.29, "type_element": "Way", "__fid": 123623}, "geometry": {"type": "LineString", "coordinates": [[2.458083, 48.8239236], [2.4581131, 48.82395360000001], [2.459224, 48.8245665]]}}, {"type": "Feature", "properties": {"highway": "path", "footway": null, "name": null, "surface": "dirt", "lit": null, "length_m": 370.45, "type_element": "Way", "__fid": 123625}, "geometry": {"type": "LineString", "coordinates": [[2.4581241, 48.824503], [2.458384, 48.8247081], [2.4586268, 48.8248044], [2.4596501, 48.825282], [2.459699, 48.8254415], [2.4603857, 48.8258565], [2.4619194, 48.8266269]]}}, {"type": "Feature", "properties": {"highway": "path", "footway": null, "name": null, "surface": null, "lit": null, "length_m": 311.82, "type_element": "Way", "__fid": 123630}, "geometry": {"type": "LineString", "coordinates": [[2.4582119, 48.828331300000016], [2.4586894, 48.8283684], [2.4589415, 48.8284567], [2.4598079, 48.8288964], [2.4606561, 48.8292937], [2.4607075, 48.8293367], [2.4607225, 48.8293797], [2.4607135, 48.8294479], [2.4606468, 48.8295236], [2.4611158, 48.8298182], [2.4613551, 48.8299535]]}}, {"type": "Feature", "properties": {"highway": "footway", "footway": null, "name": null, "surface": null, "lit": null, "length_m": 67.8, "type_element": "Way", "__fid": 123648}, "geometry": {"type": "LineString", "coordinates": [[2.4585053, 48.8233682], [2.458525, 48.8235216], [2.4586135, 48.8236625], [2.4586815, 48.8237329], [2.4587633, 48.8237875], [2.458874, 48.82384110000001], [2.4589445, 48.823864899999975]]}}, {"type": "Feature", "properties": {"highway": "footway", "footway": null, "name": null, "surface": "compacted", "lit": null, "length_m": 101.78, "type_element": "Way", "__fid": 123649}, "geometry": {"type": "LineString", "coordinates": [[2.4586853, 48.8241477], [2.4585524, 48.82408690000001], [2.4584114, 48.8239885], [2.4583171, 48.8238656], [2.4582883, 48.82375280000003], [2.4582937, 48.82364130000002], [2.4583225, 48.8235737], [2.4584278, 48.8234362], [2.4585053, 48.8233682]]}}, {"type": "Feature", "properties": {"highway": "footway", "footway": null, "name": null, "surface": null, "lit": null, "length_m": 24.47, "type_element": "Way", "__fid": 123658}, "geometry": {"type": "LineString", "coordinates": [[2.4589713, 48.8242607], [2.4586853, 48.8241477]]}}, {"type": "Feature", "properties": {"highway": "footway", "footway": null, "name": null, "surface": "gravel", "lit": null, "length_m": 36.76, "type_element": "Way", "__fid": 123659}, "geometry": {"type": "LineString", "coordinates": [[2.4589445, 48.823864899999975], [2.4586853, 48.8241477]]}}, {"type": "Feature", "properties": {"highway": "footway", "footway": null, "name": null, "surface": null, "lit": null, "length_m": 5.9, "type_element": "Way", "__fid": 123670}, "geometry": {"type": "LineString", "coordinates": [[2.4589713, 48.8242607], [2.458931, 48.8243066]]}}, {"type": "Feature", "properties": {"highway": "footway", "footway": null, "name": null, "surface": null, "lit": null, "length_m": 66.09, "type_element": "Way", "__fid": 123671}, "geometry": {"type": "LineString", "coordinates": [[2.4589445, 48.823864899999975], [2.4591565, 48.8236458], [2.4591837, 48.8236011], [2.459193, 48.8235273], [2.4591477, 48.8233173]]}}, {"type": "Feature", "properties": {"highway": "footway", "footway": null, "name": null, "surface": null, "lit": null, "length_m": 36.29, "type_element": "Way", "__fid": 123673}, "geometry": {"type": "LineString", "coordinates": [[2.4592324, 48.8239836], [2.4589713, 48.8242607]]}}, {"type": "Feature", "properties": {"highway": "service", "footway": null, "name": null, "surface": null, "lit": null, "length_m": 22.78, "type_element": "Way", "__fid": 123677}, "geometry": {"type": "LineString", "coordinates": [[2.4592783, 48.829075], [2.4591263, 48.82908289999999], [2.4589733, 48.82905740000002]]}}, {"type": "Feature", "properties": {"highway": "service", "footway": null, "name": null, "surface": null, "lit": null, "length_m": 7.57, "type_element": "Way", "__fid": 123685}, "geometry": {"type": "LineString", "coordinates": [[2.459224, 48.8245665], [2.4591709, 48.82462489999999]]}}, {"type": "Feature", "properties": {"highway": "footway", "footway": null, "name": null, "surface": "dirt", "lit": null, "length_m": 65.47, "type_element": "Way", "__fid": 123687}, "geometry": {"type": "LineString", "coordinates": [[2.459224, 48.8245665], [2.4595233, 48.8247028], [2.4599818, 48.8248759]]}}, {"type": "Feature", "properties": {"highway": "service", "footway": null, "name": null, "surface": null, "lit": null, "length_m": 54.95, "type_element": "Way", "__fid": 123688}, "geometry": {"type": "LineString", "coordinates": [[2.4596152, 48.8241452], [2.459224, 48.8245665]]}}, {"type": "Feature", "properties": {"highway": "service", "footway": null, "name": null, "surface": null, "lit": null, "length_m": 33.36, "type_element": "Way", "__fid": 123689}, "geometry": {"type": "LineString", "coordinates": [[2.4592324, 48.8239836], [2.4596152, 48.8241452]]}}, {"type": "Feature", "properties": {"highway": "footway", "footway": null, "name": null, "surface": "compacted", "lit": null, "length_m": 42.71, "type_element": "Way", "__fid": 123690}, "geometry": {"type": "LineString", "coordinates": [[2.4595531, 48.8236631], [2.4592324, 48.8239836]]}}, {"type": "Feature", "properties": {"highway": "footway", "footway": null, "name": null, "surface": null, "lit": null, "length_m": 15.46, "type_element": "Way", "__fid": 123715}, "geometry": {"type": "LineString", "coordinates": [[2.4597364, 48.8240204], [2.4595573, 48.8239473]]}}, {"type": "Feature", "properties": {"highway": "service", "footway": null, "name": null, "surface": null, "lit": null, "length_m": 33.99, "type_element": "Way", "__fid": 123717}, "geometry": {"type": "LineString", "coordinates": [[2.4596152, 48.8241452], [2.4600053, 48.8243098]]}}, {"type": "Feature", "properties": {"highway": "service", "footway": null, "name": null, "surface": null, "lit": null, "length_m": 16.48, "type_element": "Way", "__fid": 123718}, "geometry": {"type": "LineString", "coordinates": [[2.4597364, 48.8240204], [2.4596152, 48.8241452]]}}, {"type": "Feature", "properties": {"highway": "service", "footway": null, "name": null, "surface": "asphalt", "lit": null, "length_m": 14.89, "type_element": "Way", "__fid": 123724}, "geometry": {"type": "LineString", "coordinates": [[2.4597517, 48.824578500000015], [2.4596427, 48.8246914]]}}, {"type": "Feature", "properties": {"highway": "footway", "footway": null, "name": null, "surface": "compacted", "lit": null, "length_m": 17.17, "type_element": "Way", "__fid": 123729}, "geometry": {"type": "LineString", "coordinates": [[2.4596683, 48.8236991], [2.4598665, 48.823781]]}}, {"type": "Feature", "properties": {"highway": "footway", "footway": null, "name": null, "surface": null, "lit": null, "length_m": 25.08, "type_element": "Way", "__fid": 123737}, "geometry": {"type": "LineString", "coordinates": [[2.4600253, 48.8241408], [2.4597364, 48.8240204]]}}, {"type": "Feature", "properties": {"highway": "service", "footway": null, "name": null, "surface": null, "lit": null, "length_m": 19.78, "type_element": "Way", "__fid": 123738}, "geometry": {"type": "LineString", "coordinates": [[2.4599826, 48.8246702], [2.4597517, 48.824578500000015]]}}, {"type": "Feature", "properties": {"highway": "service", "footway": null, "name": null, "surface": "asphalt", "lit": null, "length_m": 35.2, "type_element": "Way", "__fid": 123739}, "geometry": {"type": "LineString", "coordinates": [[2.4600053, 48.8243098], [2.4597517, 48.824578500000015]]}}, {"type": "Feature", "properties": {"highway": "footway", "footway": null, "name": null, "surface": "compacted", "lit": null, "length_m": 13.66, "type_element": "Way", "__fid": 123745}, "geometry": {"type": "LineString", "coordinates": [[2.4598665, 48.823781], [2.4600241, 48.8238463]]}}, {"type": "Feature", "properties": {"highway": "footway", "footway": null, "name": null, "surface": "compacted", "lit": null, "length_m": 15.4, "type_element": "Way", "__fid": 123746}, "geometry": {"type": "LineString", "coordinates": [[2.4599732, 48.82366180000001], [2.4598665, 48.823781]]}}, {"type": "Feature", "properties": {"highway": "service", "footway": null, "name": null, "surface": null, "lit": null, "length_m": 7.73, "type_element": "Way", "__fid": 123751}, "geometry": {"type": "LineString", "coordinates": [[2.4599263, 48.824935], [2.4599818, 48.8248759]]}}, {"type": "Feature", "properties": {"highway": "service", "footway": null, "name": null, "surface": null, "lit": null, "length_m": 14.89, "type_element": "Way", "__fid": 123755}, "geometry": {"type": "LineString", "coordinates": [[2.4600859, 48.82478140000001], [2.4600738, 48.8247461], [2.4600416, 48.824709], [2.4599826, 48.8246702]]}}, {"type": "Feature", "properties": {"highway": "service", "footway": null, "name": null, "surface": null, "lit": null, "length_m": 15.38, "type_element": "Way", "__fid": 123756}, "geometry": {"type": "LineString", "coordinates": [[2.4599826, 48.8246702], [2.4600953, 48.8245536]]}}, {"type": "Feature", "properties": {"highway": "footway", "footway": null, "name": null, "surface": "dirt", "lit": null, "length_m": 225.64, "type_element": "Way", "__fid": 123757}, "geometry": {"type": "LineString", "coordinates": [[2.4599818, 48.8248759], [2.4608007, 48.8251977], [2.4610803, 48.8253165], [2.4616295, 48.82556550000001], [2.4625172, 48.8260183]]}}, {"type": "Feature", "properties": {"highway": "service", "footway": null, "name": null, "surface": null, "lit": null, "length_m": 12.99, "type_element": "Way", "__fid": 123758}, "geometry": {"type": "LineString", "coordinates": [[2.4599818, 48.8248759], [2.4600859, 48.82478140000001]]}}, {"type": "Feature", "properties": {"highway": "service", "footway": null, "name": null, "surface": "asphalt", "lit": null, "length_m": 43.69, "type_element": "Way", "__fid": 123761}, "geometry": {"type": "LineString", "coordinates": [[2.4603199, 48.8239763], [2.4600053, 48.8243098]]}}, {"type": "Feature", "properties": {"highway": "footway", "footway": null, "name": null, "surface": "compacted", "lit": null, "length_m": 16.36, "type_element": "Way", "__fid": 123762}, "geometry": {"type": "LineString", "coordinates": [[2.4600241, 48.8238463], [2.4602104, 48.8239271]]}}, {"type": "Feature", "properties": {"highway": "footway", "footway": null, "name": null, "surface": "compacted", "lit": null, "length_m": 15.33, "type_element": "Way", "__fid": 123763}, "geometry": {"type": "LineString", "coordinates": [[2.4601306, 48.8237277], [2.4600241, 48.8238463]]}}, {"type": "Feature", "properties": {"highway": "service", "footway": null, "name": null, "surface": null, "lit": null, "length_m": 139.55, "type_element": "Way", "__fid": 123770}, "geometry": {"type": "LineString", "coordinates": [[2.4600859, 48.82478140000001], [2.4602227, 48.8247611], [2.4602868, 48.8247184], [2.4607503, 48.8242381], [2.4608155, 48.8241043], [2.4609305, 48.8239386], [2.4610189, 48.823847], [2.46114, 48.823784699999976]]}}, {"type": "Feature", "properties": {"highway": "footway", "footway": null, "name": null, "surface": "compacted", "lit": null, "length_m": 16.61, "type_element": "Way", "__fid": 123771}, "geometry": {"type": "LineString", "coordinates": [[2.4601306, 48.8237277], [2.4603188, 48.8238106]]}}, {"type": "Feature", "properties": {"highway": "footway", "footway": null, "name": null, "surface": "compacted", "lit": null, "length_m": 30.57, "type_element": "Way", "__fid": 123772}, "geometry": {"type": "LineString", "coordinates": [[2.4603504, 48.8234942], [2.4601306, 48.8237277]]}}, {"type": "Feature", "properties": {"highway": "footway", "footway": null, "name": null, "surface": "compacted", "lit": null, "length_m": 9.72, "type_element": "Way", "__fid": 123781}, "geometry": {"type": "LineString", "coordinates": [[2.4602104, 48.8239271], [2.4603199, 48.8239763]]}}, {"type": "Feature", "properties": {"highway": "footway", "footway": null, "name": null, "surface": "fine_gravel", "lit": null, "length_m": 15.2, "type_element": "Way", "__fid": 123782}, "geometry": {"type": "LineString", "coordinates": [[2.4603188, 48.8238106], [2.4602104, 48.8239271]]}}, {"type": "Feature", "properties": {"highway": "footway", "footway": null, "name": null, "surface": "fine_gravel", "lit": null, "length_m": 31.86, "type_element": "Way", "__fid": 123801}, "geometry": {"type": "LineString", "coordinates": [[2.4605507, 48.823568399999985], [2.4603188, 48.8238106]]}}, {"type": "Feature", "properties": {"highway": "service", "footway": null, "name": null, "surface": "compacted", "lit": null, "length_m": 47.26, "type_element": "Way", "__fid": 123802}, "geometry": {"type": "LineString", "coordinates": [[2.4606601, 48.82361550000001], [2.4603199, 48.8239763]]}}, {"type": "Feature", "properties": {"highway": "track", "footway": null, "name": "Avenue de l'École de Joinville", "surface": "asphalt", "lit": null, "length_m": 603.7, "type_element": "Way", "__fid": 123835}, "geometry": {"type": "LineString", "coordinates": [[2.4605543, 48.82095789999999], [2.4608927, 48.8211799], [2.4615535, 48.821657], [2.4617048, 48.8218145], [2.4618697, 48.8220593], [2.4619289, 48.8226737], [2.4621807, 48.823693], [2.4623033, 48.8243133], [2.4622732, 48.824528], [2.4622717, 48.8247311], [2.4623457, 48.8250613], [2.4623926, 48.825177], [2.4625789, 48.8258298], [2.4625679, 48.8259859], [2.4625172, 48.8260183]]}}, {"type": "Feature", "properties": {"highway": "footway", "footway": null, "name": null, "surface": "compacted", "lit": null, "length_m": 38.92, "type_element": "Way", "__fid": 123878}, "geometry": {"type": "LineString", "coordinates": [[2.4610252, 48.823443], [2.46114, 48.823784699999976]]}}, {"type": "Feature", "properties": {"highway": "footway", "footway": null, "name": null, "surface": null, "lit": null, "length_m": 115.62, "type_element": "Way", "__fid": 123882}, "geometry": {"type": "LineString", "coordinates": [[2.46114, 48.823784699999976], [2.4614646, 48.8248022]]}}, {"type": "Feature", "properties": {"highway": "footway", "footway": null, "name": null, "surface": null, "lit": null, "length_m": 80.25, "type_element": "Way", "__fid": 123883}, "geometry": {"type": "LineString", "coordinates": [[2.46114, 48.823784699999976], [2.4616984, 48.8236986], [2.4615904, 48.823363]]}}, {"type": "Feature", "properties": {"highway": "path", "footway": null, "name": null, "surface": null, "lit": null, "length_m": 102.76, "type_element": "Way", "__fid": 123906}, "geometry": {"type": "LineString", "coordinates": [[2.4625684, 48.8295978], [2.462486, 48.8296106], [2.4618851, 48.8296389], [2.4613551, 48.8299535]]}}]}