{"type": "FeatureCollection", "features": [{"type": "Feature", "properties": {"@id": "node/918204941", "amenity": "drinking_water", "check_date": "2024-08-23", "man_made": "water_tap", "type_element": "Fontaines à boire", "__fid": 203}, "geometry": {"type": "Point", "coordinates": [2.4612093, 48.8340546]}, "id": "node/918204941"}, {"type": "Feature", "properties": {"@id": "node/13730192524", "amenity": "drinking_water", "man_made": "water_tap", "type_element": "Fontaines à boire", "__fid": 1065}, "geometry": {"type": "Point", "coordinates": [2.454861, 48.8301253]}, "id": "node/13730192524"}, {"type": "Feature", "properties": {"highway": "path", "footway": null, "name": null, "surface": "compacted", "lit": "yes", "length_m": 168.93, "type_element": "Way", "__fid": 123107}, "geometry": {"type": "LineString", "coordinates": [[2.4526338, 48.8354278], [2.4524336, 48.8353905], [2.4522693, 48.8353124], [2.451932, 48.835259], [2.4516635, 48.8351841], [2.4514998, 48.8351227], [2.4512125, 48.8349597], [2.4510203, 48.8349131], [2.4505587, 48.8348247]]}}, {"type": "Feature", "properties": {"highway": "path", "footway": null, "name": null, "surface": "compacted", "lit": "no", "length_m": 176.18, "type_element": "Way", "__fid": 123137}, "geometry": {"type": "LineString", "coordinates": [[2.450848, 48.8351544], [2.4509758, 48.8352012], [2.4510891, 48.8352824], [2.4527427, 48.8358173], [2.4529761, 48.83586709999999]]}}, {"type": "Feature", "properties": {"highway": "service", "footway": null, "name": null, "surface": null, "lit": null, "length_m": 114.6, "type_element": "Way", "__fid": 123199}, "geometry": {"type": "LineString", "coordinates": [[2.4517593, 48.83375070000001], [2.4528206, 48.8329948]]}}, {"type": "Feature", "properties": {"highway": "service", "footway": null, "name": null, "surface": null, "lit": null, "length_m": 71.1, "type_element": "Way", "__fid": 123205}, "geometry": {"type": "LineString", "coordinates": [[2.4518939, 48.8307408], [2.4526065, 48.8311739]]}}, {"type": "Feature", "properties": {"highway": "service", "footway": null, "name": null, "surface": null, "lit": null, "length_m": 53.43, "type_element": "Way", "__fid": 123210}, "geometry": {"type": "LineString", "coordinates": [[2.452498, 48.834655], [2.4519648, 48.8343279]]}}, {"type": "Feature", "properties": {"highway": "service", "footway": null, "name": null, "surface": null, "lit": null, "length_m": 48.59, "type_element": "Way", "__fid": 123216}, "geometry": {"type": "LineString", "coordinates": [[2.4521091, 48.83153770000001], [2.4525526, 48.83121329999999]]}}, {"type": "Feature", "properties": {"highway": "service", "footway": null, "name": null, "surface": null, "lit": null, "length_m": 114.76, "type_element": "Way", "__fid": 123217}, "geometry": {"type": "LineString", "coordinates": [[2.4530396, 48.83479040000001], [2.4524675, 48.83519579999999], [2.4524289, 48.83519759999999], [2.4519776, 48.835069200000014], [2.4519762, 48.83505419999999], [2.4520745, 48.83496169999998]]}}, {"type": "Feature", "properties": {"highway": "service", "footway": null, "name": null, "surface": null, "lit": null, "length_m": 46.15, "type_element": "Way", "__fid": 123218}, "geometry": {"type": "LineString", "coordinates": [[2.452498, 48.834655], [2.4520745, 48.83496169999998]]}}, {"type": "Feature", "properties": {"highway": "footway", "footway": null, "name": null, "surface": null, "lit": null, "length_m": 124.08, "type_element": "Way", "__fid": 123224}, "geometry": {"type": "LineString", "coordinates": [[2.4533978, 48.8335976], [2.4529083, 48.8339355], [2.4521821, 48.833499]]}}, {"type": "Feature", "properties": {"highway": "footway", "footway": null, "name": null, "surface": null, "lit": null, "length_m": 140.98, "type_element": "Way", "__fid": 123225}, "geometry": {"type": "LineString", "coordinates": [[2.4535608, 48.8334829], [2.4528648, 48.8330644], [2.4528177, 48.833053800000016], [2.4527825, 48.833065], [2.4521821, 48.833499]]}}, {"type": "Feature", "properties": {"highway": "footway", "footway": null, "name": null, "surface": null, "lit": null, "length_m": 147.87, "type_element": "Way", "__fid": 123230}, "geometry": {"type": "LineString", "coordinates": [[2.4535487, 48.8324089], [2.4521928, 48.8333924]]}}, {"type": "Feature", "properties": {"highway": "path", "footway": null, "name": null, "surface": null, "lit": null, "length_m": 499.38, "type_element": "Way", "__fid": 123231}, "geometry": {"type": "LineString", "coordinates": [[2.4572651, 48.8322342], [2.4571422, 48.83202979999999], [2.4569542, 48.8318869], [2.4565764, 48.831690400000014], [2.4562973, 48.8315663], [2.4561106, 48.8314449], [2.4554028, 48.8311099], [2.4549319, 48.83082730000001], [2.4547282, 48.83066320000002], [2.4541354, 48.8302588], [2.4537411, 48.830107], [2.4534515, 48.82994460000002], [2.4529038, 48.8294731], [2.4524121, 48.829373300000015], [2.4522732, 48.829307]]}}, {"type": "Feature", "properties": {"highway": "footway", "footway": null, "name": null, "surface": null, "lit": null, "length_m": 22.08, "type_element": "Way", "__fid": 123233}, "geometry": {"type": "LineString", "coordinates": [[2.452226, 48.8341458], [2.4524443, 48.83428240000001]]}}, {"type": "Feature", "properties": {"highway": "footway", "footway": null, "name": null, "surface": null, "lit": null, "length_m": 70.94, "type_element": "Way", "__fid": 123236}, "geometry": {"type": "LineString", "coordinates": [[2.453146, 48.8318807], [2.4530981, 48.83185319999998], [2.4529894, 48.83181350000001], [2.4528506, 48.8317738], [2.4525784, 48.8317482], [2.4523745, 48.8316267], [2.4523213, 48.8316641]]}}, {"type": "Feature", "properties": {"highway": "service", "footway": null, "name": null, "surface": null, "lit": null, "length_m": 79.54, "type_element": "Way", "__fid": 123241}, "geometry": {"type": "LineString", "coordinates": [[2.453228, 48.8341264], [2.452498, 48.834655]]}}, {"type": "Feature", "properties": {"highway": "footway", "footway": null, "name": null, "surface": null, "lit": null, "length_m": 84.88, "type_element": "Way", "__fid": 123242}, "geometry": {"type": "LineString", "coordinates": [[2.4525526, 48.83121329999999], [2.4528238, 48.8314176], [2.4529921, 48.8316224], [2.45308, 48.8317535], [2.4531343, 48.831796299999986], [2.4532054, 48.83183289999999]]}}, {"type": "Feature", "properties": {"highway": "service", "footway": null, "name": null, "surface": null, "lit": null, "length_m": 5.9, "type_element": "Way", "__fid": 123243}, "geometry": {"type": "LineString", "coordinates": [[2.4525526, 48.83121329999999], [2.4526065, 48.8311739]]}}, {"type": "Feature", "properties": {"highway": "service", "footway": null, "name": null, "surface": null, "lit": null, "length_m": 15.08, "type_element": "Way", "__fid": 123244}, "geometry": {"type": "LineString", "coordinates": [[2.4526065, 48.8311739], [2.4527591, 48.831264699999984]]}}, {"type": "Feature", "properties": {"highway": "service", "footway": null, "name": null, "surface": null, "lit": null, "length_m": 265.2, "type_element": "Way", "__fid": 123245}, "geometry": {"type": "LineString", "coordinates": [[2.4526065, 48.8311739], [2.4537076, 48.8303745], [2.4537303, 48.8303681], [2.4551793, 48.8312309]]}}, {"type": "Feature", "properties": {"highway": "path", "footway": null, "name": null, "surface": "compacted", "lit": null, "length_m": 49.62, "type_element": "Way", "__fid": 123248}, "geometry": {"type": "LineString", "coordinates": [[2.4533038, 48.83548540000001], [2.4529204, 48.8354457], [2.4526338, 48.8354278]]}}, {"type": "Feature", "properties": {"highway": "path", "footway": null, "name": null, "surface": "compacted", "lit": "yes", "length_m": 47.94, "type_element": "Way", "__fid": 123249}, "geometry": {"type": "LineString", "coordinates": [[2.4530877, 48.8357362], [2.4529145, 48.8355961], [2.4526338, 48.8354278]]}}, {"type": "Feature", "properties": {"highway": "service", "footway": null, "name": null, "surface": null, "lit": null, "length_m": 21.49, "type_element": "Way", "__fid": 123250}, "geometry": {"type": "LineString", "coordinates": [[2.4527591, 48.831264699999984], [2.4529748, 48.8313954]]}}, {"type": "Feature", "properties": {"highway": "footway", "footway": null, "name": null, "surface": null, "lit": null, "length_m": 11.63, "type_element": "Way", "__fid": 123251}, "geometry": {"type": "LineString", "coordinates": [[2.4527591, 48.831264699999984], [2.4528585, 48.8311833]]}}, {"type": "Feature", "properties": {"highway": "footway", "footway": null, "name": null, "surface": null, "lit": null, "length_m": 5.11, "type_element": "Way", "__fid": 123253}, "geometry": {"type": "LineString", "coordinates": [[2.4528071, 48.8311523], [2.4528585, 48.8311833]]}}, {"type": "Feature", "properties": {"highway": "service", "footway": null, "name": null, "surface": null, "lit": null, "length_m": 43.09, "type_element": "Way", "__fid": 123255}, "geometry": {"type": "LineString", "coordinates": [[2.4532511, 48.8332582], [2.4528206, 48.8329948]]}}, {"type": "Feature", "properties": {"highway": "service", "footway": null, "name": null, "surface": null, "lit": null, "length_m": 24.69, "type_element": "Way", "__fid": 123256}, "geometry": {"type": "LineString", "coordinates": [[2.4528206, 48.8329948], [2.453046, 48.83283]]}}, {"type": "Feature", "properties": {"highway": "footway", "footway": null, "name": null, "surface": null, "lit": null, "length_m": 58.69, "type_element": "Way", "__fid": 123257}, "geometry": {"type": "LineString", "coordinates": [[2.4528585, 48.8311833], [2.4534253, 48.8315257], [2.4534045, 48.8315411]]}}, {"type": "Feature", "properties": {"highway": "footway", "footway": null, "name": null, "surface": null, "lit": null, "length_m": 35.46, "type_element": "Way", "__fid": 123261}, "geometry": {"type": "LineString", "coordinates": [[2.4534045, 48.8315411], [2.4529748, 48.8313954]]}}, {"type": "Feature", "properties": {"highway": "service", "footway": null, "name": null, "surface": null, "lit": null, "length_m": 47.12, "type_element": "Way", "__fid": 123262}, "geometry": {"type": "LineString", "coordinates": [[2.4529748, 48.8313954], [2.4534504, 48.83168]]}}, {"type": "Feature", "properties": {"highway": "service", "footway": null, "name": null, "surface": null, "lit": null, "length_m": 43.39, "type_element": "Way", "__fid": 123272}, "geometry": {"type": "LineString", "coordinates": [[2.453046, 48.83283], [2.4534841, 48.833092]]}}, {"type": "Feature", "properties": {"highway": "service", "footway": null, "name": null, "surface": null, "lit": null, "length_m": 59.9, "type_element": "Way", "__fid": 123273}, "geometry": {"type": "LineString", "coordinates": [[2.453046, 48.83283], [2.4535958, 48.83243190000001]]}}, {"type": "Feature", "properties": {"highway": "service", "footway": null, "name": null, "surface": null, "lit": null, "length_m": 71.24, "type_element": "Way", "__fid": 123274}, "geometry": {"type": "LineString", "coordinates": [[2.4533188, 48.83433], [2.4528463, 48.8346695], [2.4528466, 48.83468170000001], [2.4530396, 48.83479040000001]]}}, {"type": "Feature", "properties": {"highway": "service", "footway": null, "name": null, "surface": null, "lit": null, "length_m": 104.72, "type_element": "Way", "__fid": 123275}, "geometry": {"type": "LineString", "coordinates": [[2.4530396, 48.83479040000001], [2.4539688, 48.8340758]]}}, {"type": "Feature", "properties": {"highway": "footway", "footway": null, "name": null, "surface": "dirt", "lit": "yes", "length_m": 32.08, "type_element": "Way", "__fid": 123277}, "geometry": {"type": "LineString", "coordinates": [[2.4530877, 48.8357362], [2.4533038, 48.83548540000001]]}}, {"type": "Feature", "properties": {"highway": "footway", "footway": null, "name": null, "surface": null, "lit": null, "length_m": 69.55, "type_element": "Way", "__fid": 123282}, "geometry": {"type": "LineString", "coordinates": [[2.4535487, 48.8324089], [2.4535038, 48.8323842], [2.4535085, 48.8323264], [2.4533488, 48.8322284], [2.4533428, 48.83211450000001], [2.453308, 48.83203070000001], [2.453146, 48.8318807]]}}, {"type": "Feature", "properties": {"highway": "footway", "footway": null, "name": null, "surface": null, "lit": null, "length_m": 6.87, "type_element": "Way", "__fid": 123283}, "geometry": {"type": "LineString", "coordinates": [[2.453146, 48.8318807], [2.4532054, 48.83183289999999]]}}, {"type": "Feature", "properties": {"highway": "footway", "footway": null, "name": null, "surface": null, "lit": null, "length_m": 65.7, "type_element": "Way", "__fid": 123285}, "geometry": {"type": "LineString", "coordinates": [[2.4532054, 48.83183289999999], [2.4533462, 48.8318696], [2.4535963, 48.8319031], [2.4537666, 48.831964], [2.453998, 48.83208450000002]]}}, {"type": "Feature", "properties": {"highway": "footway", "footway": null, "name": null, "surface": null, "lit": null, "length_m": 24.81, "type_element": "Way", "__fid": 123286}, "geometry": {"type": "LineString", "coordinates": [[2.4532054, 48.83183289999999], [2.453312, 48.8317552], [2.4534504, 48.83168]]}}, {"type": "Feature", "properties": {"highway": "footway", "footway": null, "name": null, "surface": null, "lit": null, "length_m": 32.2, "type_element": "Way", "__fid": 123288}, "geometry": {"type": "LineString", "coordinates": [[2.453228, 48.8341264], [2.4533375, 48.8341935], [2.4532275, 48.8342774], [2.4533188, 48.83433]]}}, {"type": "Feature", "properties": {"highway": "service", "footway": null, "name": null, "surface": null, "lit": null, "length_m": 45.02, "type_element": "Way", "__fid": 123289}, "geometry": {"type": "LineString", "coordinates": [[2.4536412, 48.8338272], [2.453228, 48.8341264]]}}, {"type": "Feature", "properties": {"highway": "service", "footway": null, "name": null, "surface": null, "lit": null, "length_m": 33.8, "type_element": "Way", "__fid": 123290}, "geometry": {"type": "LineString", "coordinates": [[2.4535888, 48.83346479999999], [2.4532511, 48.8332582]]}}, {"type": "Feature", "properties": {"highway": "service", "footway": null, "name": null, "surface": null, "lit": null, "length_m": 25.18, "type_element": "Way", "__fid": 123291}, "geometry": {"type": "LineString", "coordinates": [[2.4532511, 48.8332582], [2.4534841, 48.833092]]}}, {"type": "Feature", "properties": {"highway": "footway", "footway": null, "name": null, "surface": "dirt", "lit": "yes", "length_m": 172.54, "type_element": "Way", "__fid": 123293}, "geometry": {"type": "LineString", "coordinates": [[2.4533038, 48.83548540000001], [2.4534685, 48.835313], [2.4545559, 48.8342588], [2.4546008, 48.8341926]]}}, {"type": "Feature", "properties": {"highway": "service", "footway": null, "name": null, "surface": null, "lit": null, "length_m": 51.91, "type_element": "Way", "__fid": 123294}, "geometry": {"type": "LineString", "coordinates": [[2.4538001, 48.833988], [2.4533188, 48.83433]]}}, {"type": "Feature", "properties": {"highway": "footway", "footway": null, "name": null, "surface": null, "lit": null, "length_m": 1.9, "type_element": "Way", "__fid": 123296}, "geometry": {"type": "LineString", "coordinates": [[2.4534045, 48.8315411], [2.4534239, 48.8315524]]}}, {"type": "Feature", "properties": {"highway": "footway", "footway": null, "name": null, "surface": null, "lit": null, "length_m": 8.17, "type_element": "Way", "__fid": 123298}, "geometry": {"type": "LineString", "coordinates": [[2.4533978, 48.8335976], [2.4534793, 48.8336477]]}}, {"type": "Feature", "properties": {"highway": "footway", "footway": null, "name": null, "surface": null, "lit": null, "length_m": 17.49, "type_element": "Way", "__fid": 123299}, "geometry": {"type": "LineString", "coordinates": [[2.4535608, 48.8334829], [2.4533978, 48.8335976]]}}, {"type": "Feature", "properties": {"highway": "path", "footway": null, "name": null, "surface": null, "lit": null, "length_m": 221.5, "type_element": "Way", "__fid": 123303}, "geometry": {"type": "LineString", "coordinates": [[2.4551163, 48.83431010000001], [2.4547646, 48.8345623], [2.454723, 48.834636400000015], [2.454597, 48.834738799999975], [2.4545534, 48.8348214], [2.454312, 48.8350884], [2.4541377, 48.8352283], [2.4541028, 48.8353409], [2.4538366, 48.8355567], [2.4536998, 48.8356807], [2.4534398, 48.8358609], [2.4533909, 48.8359153]]}}, {"type": "Feature", "properties": {"highway": "service", "footway": null, "name": null, "surface": null, "lit": null, "length_m": 53.23, "type_element": "Way", "__fid": 123304}, "geometry": {"type": "LineString", "coordinates": [[2.4534504, 48.83168], [2.4539876, 48.8320016]]}}, {"type": "Feature", "properties": {"highway": "service", "footway": null, "name": null, "surface": null, "lit": null, "length_m": 33.58, "type_element": "Way", "__fid": 123308}, "geometry": {"type": "LineString", "coordinates": [[2.4534841, 48.833092], [2.4538232, 48.83329469999999]]}}, {"type": "Feature", "properties": {"highway": "footway", "footway": null, "name": null, "surface": null, "lit": null, "length_m": 4.3, "type_element": "Way", "__fid": 123311}, "geometry": {"type": "LineString", "coordinates": [[2.4535958, 48.83243190000001], [2.4535487, 48.8324089]]}}, {"type": "Feature", "properties": {"highway": "footway", "footway": null, "name": null, "surface": null, "lit": null, "length_m": 48.88, "type_element": "Way", "__fid": 123312}, "geometry": {"type": "LineString", "coordinates": [[2.453998, 48.83208450000002], [2.4535487, 48.8324089]]}}, {"type": "Feature", "properties": {"highway": "footway", "footway": null, "name": null, "surface": null, "lit": null, "length_m": 31.88, "type_element": "Way", "__fid": 123313}, "geometry": {"type": "LineString", "coordinates": [[2.453835, 48.8336869], [2.4538022, 48.8336674], [2.4538142, 48.83365460000001], [2.4537981, 48.8336268], [2.4535608, 48.8334829]]}}, {"type": "Feature", "properties": {"highway": "footway", "footway": null, "name": null, "surface": null, "lit": null, "length_m": 2.88, "type_element": "Way", "__fid": 123314}, "geometry": {"type": "LineString", "coordinates": [[2.4535888, 48.83346479999999], [2.4535608, 48.8334829]]}}, {"type": "Feature", "properties": {"highway": "service", "footway": null, "name": null, "surface": null, "lit": null, "length_m": 54.99, "type_element": "Way", "__fid": 123315}, "geometry": {"type": "LineString", "coordinates": [[2.4535958, 48.83243190000001], [2.4541006, 48.83206650000002]]}}, {"type": "Feature", "properties": {"highway": "service", "footway": null, "name": null, "surface": null, "lit": null, "length_m": 26.33, "type_element": "Way", "__fid": 123316}, "geometry": {"type": "LineString", "coordinates": [[2.4538692, 48.8336106], [2.4537804, 48.833578], [2.4535888, 48.83346479999999]]}}, {"type": "Feature", "properties": {"highway": "footway", "footway": null, "name": null, "surface": null, "lit": null, "length_m": 25.57, "type_element": "Way", "__fid": 123317}, "geometry": {"type": "LineString", "coordinates": [[2.4538232, 48.83329469999999], [2.4535888, 48.83346479999999]]}}, {"type": "Feature", "properties": {"highway": "footway", "footway": null, "name": null, "surface": null, "lit": null, "length_m": 23.44, "type_element": "Way", "__fid": 123318}, "geometry": {"type": "LineString", "coordinates": [[2.4536412, 48.8338272], [2.4538129, 48.8339326], [2.4538001, 48.833988]]}}, {"type": "Feature", "properties": {"highway": "service", "footway": null, "name": null, "surface": null, "lit": null, "length_m": 21.11, "type_element": "Way", "__fid": 123319}, "geometry": {"type": "LineString", "coordinates": [[2.453835, 48.8336869], [2.4536412, 48.8338272]]}}, {"type": "Feature", "properties": {"highway": "footway", "footway": null, "name": null, "surface": null, "lit": null, "length_m": 72.16, "type_element": "Way", "__fid": 123326}, "geometry": {"type": "LineString", "coordinates": [[2.4537358, 48.8323772], [2.454466, 48.832811700000015]]}}, {"type": "Feature", "properties": {"highway": "footway", "footway": null, "name": null, "surface": null, "lit": null, "length_m": 139.72, "type_element": "Way", "__fid": 123327}, "geometry": {"type": "LineString", "coordinates": [[2.4537358, 48.8323772], [2.4531464, 48.8328018], [2.453135, 48.8328331], [2.4531477, 48.83285390000001], [2.45385, 48.8332745]]}}, {"type": "Feature", "properties": {"highway": "footway", "footway": null, "name": null, "surface": null, "lit": null, "length_m": 101.33, "type_element": "Way", "__fid": 123328}, "geometry": {"type": "LineString", "coordinates": [[2.4547101, 48.8323255], [2.4542166, 48.8320293], [2.4537358, 48.8323772]]}}, {"type": "Feature", "properties": {"highway": "service", "footway": null, "name": null, "surface": null, "lit": null, "length_m": 15.96, "type_element": "Way", "__fid": 123329}, "geometry": {"type": "LineString", "coordinates": [[2.4539688, 48.8340758], [2.4538142, 48.83398870000001], [2.4538001, 48.833988]]}}, {"type": "Feature", "properties": {"highway": "service", "footway": null, "name": null, "surface": null, "lit": null, "length_m": 25.75, "type_element": "Way", "__fid": 123330}, "geometry": {"type": "LineString", "coordinates": [[2.4538232, 48.83329469999999], [2.4540269, 48.833416599999985], [2.4540543, 48.8334633]]}}, {"type": "Feature", "properties": {"highway": "footway", "footway": null, "name": null, "surface": null, "lit": null, "length_m": 2.99, "type_element": "Way", "__fid": 123331}, "geometry": {"type": "LineString", "coordinates": [[2.45385, 48.8332745], [2.4538232, 48.83329469999999]]}}, {"type": "Feature", "properties": {"highway": "footway", "footway": null, "name": null, "surface": null, "lit": null, "length_m": 46.45, "type_element": "Way", "__fid": 123332}, "geometry": {"type": "LineString", "coordinates": [[2.4543485, 48.8338689], [2.4540845, 48.833709700000014], [2.4539872, 48.8337155], [2.4539014, 48.833698700000014], [2.4538773, 48.8337119], [2.453835, 48.8336869]]}}, {"type": "Feature", "properties": {"highway": "service", "footway": null, "name": null, "surface": null, "lit": null, "length_m": 6.84, "type_element": "Way", "__fid": 123333}, "geometry": {"type": "LineString", "coordinates": [[2.4538978, 48.8336414], [2.453835, 48.8336869]]}}, {"type": "Feature", "properties": {"highway": "footway", "footway": null, "name": null, "surface": null, "lit": null, "length_m": 33.03, "type_element": "Way", "__fid": 123334}, "geometry": {"type": "LineString", "coordinates": [[2.45385, 48.8332745], [2.4541026, 48.8334237], [2.4541394, 48.833422], [2.4541495, 48.8334149], [2.4541916, 48.8334425]]}}, {"type": "Feature", "properties": {"highway": "footway", "footway": null, "name": null, "surface": null, "lit": null, "length_m": 17.23, "type_element": "Way", "__fid": 123335}, "geometry": {"type": "LineString", "coordinates": [[2.4540047, 48.833158], [2.45385, 48.8332745]]}}, {"type": "Feature", "properties": {"highway": "service", "footway": null, "name": null, "surface": null, "lit": null, "length_m": 4.02, "type_element": "Way", "__fid": 123336}, "geometry": {"type": "LineString", "coordinates": [[2.4538978, 48.8336414], [2.4538692, 48.8336106]]}}, {"type": "Feature", "properties": {"highway": "service", "footway": null, "name": null, "surface": null, "lit": null, "length_m": 25.9, "type_element": "Way", "__fid": 123337}, "geometry": {"type": "LineString", "coordinates": [[2.4538692, 48.8336106], [2.4538577, 48.8335783], [2.4538616, 48.8335451], [2.4538805, 48.83351429999998], [2.4539127, 48.8334887], [2.4539551, 48.8334707], [2.4540038, 48.833462], [2.4540543, 48.8334633]]}}, {"type": "Feature", "properties": {"highway": "service", "footway": null, "name": null, "surface": null, "lit": null, "length_m": 20.46, "type_element": "Way", "__fid": 123341}, "geometry": {"type": "LineString", "coordinates": [[2.4541457, 48.83364250000001], [2.454102, 48.8336654], [2.4540492, 48.8336773], [2.4539934, 48.8336771], [2.453941, 48.833664599999985], [2.4538978, 48.8336414]]}}, {"type": "Feature", "properties": {"highway": "service", "footway": null, "name": null, "surface": null, "lit": null, "length_m": 6.87, "type_element": "Way", "__fid": 123345}, "geometry": {"type": "LineString", "coordinates": [[2.4539876, 48.8320016], [2.4540583, 48.83204210000001]]}}, {"type": "Feature", "properties": {"highway": "footway", "footway": null, "name": null, "surface": null, "lit": null, "length_m": 7.62, "type_element": "Way", "__fid": 123346}, "geometry": {"type": "LineString", "coordinates": [[2.4539876, 48.8320016], [2.4540569, 48.8319506]]}}, {"type": "Feature", "properties": {"highway": "service", "footway": null, "name": null, "surface": null, "lit": null, "length_m": 37.05, "type_element": "Way", "__fid": 123347}, "geometry": {"type": "LineString", "coordinates": [[2.4539688, 48.8340758], [2.4540967, 48.8340479], [2.4543485, 48.8338689]]}}, {"type": "Feature", "properties": {"highway": "footway", "footway": null, "name": null, "surface": null, "lit": null, "length_m": 6.47, "type_element": "Way", "__fid": 123348}, "geometry": {"type": "LineString", "coordinates": [[2.453998, 48.83208450000002], [2.4540583, 48.83204210000001]]}}, {"type": "Feature", "properties": {"highway": "footway", "footway": null, "name": null, "surface": null, "lit": null, "length_m": 9.08, "type_element": "Way", "__fid": 123349}, "geometry": {"type": "LineString", "coordinates": [[2.4540984, 48.83321129999998], [2.4540047, 48.833158]]}}, {"type": "Feature", "properties": {"highway": "footway", "footway": null, "name": null, "surface": null, "lit": null, "length_m": 51.44, "type_element": "Way", "__fid": 123350}, "geometry": {"type": "LineString", "coordinates": [[2.4540047, 48.833158], [2.454014, 48.8331403], [2.454466, 48.832811700000015]]}}, {"type": "Feature", "properties": {"highway": "service", "footway": null, "name": null, "surface": null, "lit": null, "length_m": 4.12, "type_element": "Way", "__fid": 123352}, "geometry": {"type": "LineString", "coordinates": [[2.4540583, 48.83204210000001], [2.4541006, 48.83206650000002]]}}, {"type": "Feature", "properties": {"highway": "footway", "footway": null, "name": null, "surface": null, "lit": null, "length_m": 122.1, "type_element": "Way", "__fid": 123353}, "geometry": {"type": "LineString", "coordinates": [[2.4540583, 48.83204210000001], [2.4551793, 48.8312309]]}}, {"type": "Feature", "properties": {"highway": "service", "footway": null, "name": null, "surface": null, "lit": null, "length_m": 6.13, "type_element": "Way", "__fid": 123354}, "geometry": {"type": "LineString", "coordinates": [[2.4540543, 48.8334633], [2.4541296, 48.833487199999986]]}}, {"type": "Feature", "properties": {"highway": "service", "footway": null, "name": null, "surface": null, "lit": null, "length_m": 21.64, "type_element": "Way", "__fid": 123355}, "geometry": {"type": "LineString", "coordinates": [[2.454406, 48.830099899999986], [2.4541113, 48.83010289999997]]}}, {"type": "Feature", "properties": {"highway": "service", "footway": null, "name": null, "surface": null, "lit": null, "length_m": 24.89, "type_element": "Way", "__fid": 123356}, "geometry": {"type": "LineString", "coordinates": [[2.4541006, 48.83206650000002], [2.4543306, 48.831902]]}}, {"type": "Feature", "properties": {"highway": "service", "footway": null, "name": null, "surface": null, "lit": null, "length_m": 19.22, "type_element": "Way", "__fid": 123359}, "geometry": {"type": "LineString", "coordinates": [[2.4541296, 48.833487199999986], [2.4541637, 48.8335135], [2.4541834, 48.8335455], [2.454187, 48.83358], [2.454174, 48.83361340000002], [2.4541457, 48.83364250000001]]}}, {"type": "Feature", "properties": {"highway": "service", "footway": null, "name": null, "surface": null, "lit": null, "length_m": 6.74, "type_element": "Way", "__fid": 123360}, "geometry": {"type": "LineString", "coordinates": [[2.4541296, 48.833487199999986], [2.4541916, 48.8334425]]}}, {"type": "Feature", "properties": {"highway": "service", "footway": null, "name": null, "surface": null, "lit": null, "length_m": 28.03, "type_element": "Way", "__fid": 123363}, "geometry": {"type": "LineString", "coordinates": [[2.4544195, 48.83381820000001], [2.4541457, 48.83364250000001]]}}, {"type": "Feature", "properties": {"highway": "footway", "footway": null, "name": null, "surface": null, "lit": null, "length_m": 45.09, "type_element": "Way", "__fid": 123364}, "geometry": {"type": "LineString", "coordinates": [[2.4541916, 48.8334425], [2.4542273, 48.83346610000001], [2.4542105, 48.8334789], [2.4542434, 48.8335438], [2.4542434, 48.8336025], [2.4545005, 48.8337549]]}}, {"type": "Feature", "properties": {"highway": "service", "footway": null, "name": null, "surface": null, "lit": null, "length_m": 13.97, "type_element": "Way", "__fid": 123365}, "geometry": {"type": "LineString", "coordinates": [[2.4541916, 48.8334425], [2.45432, 48.8333498]]}}, {"type": "Feature", "properties": {"highway": "service", "footway": null, "name": null, "surface": null, "lit": null, "length_m": 85.68, "type_element": "Way", "__fid": 123374}, "geometry": {"type": "LineString", "coordinates": [[2.4551416, 48.8315435], [2.4545015, 48.831999300000014], [2.4543306, 48.831902]]}}, {"type": "Feature", "properties": {"highway": "service", "footway": null, "name": null, "surface": null, "lit": null, "length_m": 97.12, "type_element": "Way", "__fid": 123375}, "geometry": {"type": "LineString", "coordinates": [[2.4543306, 48.831902], [2.4552195, 48.8312551]]}}, {"type": "Feature", "properties": {"highway": "service", "footway": null, "name": null, "surface": null, "lit": null, "length_m": 28.96, "type_element": "Way", "__fid": 123376}, "geometry": {"type": "LineString", "coordinates": [[2.45432, 48.8333498], [2.454511, 48.8334635], [2.4546026, 48.8333959]]}}, {"type": "Feature", "properties": {"highway": "service", "footway": null, "name": null, "surface": null, "lit": null, "length_m": 52.42, "type_element": "Way", "__fid": 123377}, "geometry": {"type": "LineString", "coordinates": [[2.45432, 48.8333498], [2.4548019, 48.8330019]]}}, {"type": "Feature", "properties": {"highway": "footway", "footway": null, "name": null, "surface": null, "lit": null, "length_m": 38.33, "type_element": "Way", "__fid": 123380}, "geometry": {"type": "LineString", "coordinates": [[2.4546417, 48.83412019999999], [2.454643, 48.834059299999986], [2.4545994, 48.8339799], [2.4543485, 48.8338689]]}}, {"type": "Feature", "properties": {"highway": "service", "footway": null, "name": null, "surface": null, "lit": null, "length_m": 7.68, "type_element": "Way", "__fid": 123381}, "geometry": {"type": "LineString", "coordinates": [[2.4543485, 48.8338689], [2.4544195, 48.83381820000001]]}}, {"type": "Feature", "properties": {"highway": "track", "footway": null, "name": null, "surface": null, "lit": null, "length_m": 12.39, "type_element": "Way", "__fid": 123382}, "geometry": {"type": "LineString", "coordinates": [[2.454406, 48.830099899999986], [2.4544729, 48.8302022]]}}, {"type": "Feature", "properties": {"highway": "track", "footway": null, "name": null, "surface": null, "lit": null, "length_m": 121.66, "type_element": "Way", "__fid": 123383}, "geometry": {"type": "LineString", "coordinates": [[2.4557423, 48.8294699], [2.455356, 48.8297201], [2.4548674, 48.8299559], [2.4545534, 48.8300619], [2.454406, 48.830099899999986]]}}, {"type": "Feature", "properties": {"highway": "service", "footway": null, "name": null, "surface": null, "lit": null, "length_m": 22.95, "type_element": "Way", "__fid": 123384}, "geometry": {"type": "LineString", "coordinates": [[2.4546437, 48.833962], [2.4544195, 48.83381820000001]]}}, {"type": "Feature", "properties": {"highway": "service", "footway": null, "name": null, "surface": null, "lit": null, "length_m": 9.21, "type_element": "Way", "__fid": 123385}, "geometry": {"type": "LineString", "coordinates": [[2.4544195, 48.83381820000001], [2.4545005, 48.8337549]]}}, {"type": "Feature", "properties": {"highway": "footway", "footway": null, "name": null, "surface": null, "lit": null, "length_m": 75.67, "type_element": "Way", "__fid": 123387}, "geometry": {"type": "LineString", "coordinates": [[2.454466, 48.832811700000015], [2.4549475, 48.832461], [2.4547101, 48.8323255]]}}, {"type": "Feature", "properties": {"highway": "footway", "footway": null, "name": null, "surface": null, "lit": null, "length_m": 35.76, "type_element": "Way", "__fid": 123394}, "geometry": {"type": "LineString", "coordinates": [[2.4545005, 48.8337549], [2.4546088, 48.8338576], [2.4546859, 48.8339163], [2.4548611, 48.8339434]]}}, {"type": "Feature", "properties": {"highway": "service", "footway": null, "name": null, "surface": null, "lit": null, "length_m": 37.71, "type_element": "Way", "__fid": 123395}, "geometry": {"type": "LineString", "coordinates": [[2.4545005, 48.8337549], [2.4547435, 48.83356229999998], [2.4547644, 48.833526100000014], [2.4547631, 48.8335001], [2.4547467, 48.833479]]}}, {"type": "Feature", "properties": {"highway": "service", "footway": null, "name": null, "surface": null, "lit": null, "length_m": 4.88, "type_element": "Way", "__fid": 123396}, "geometry": {"type": "LineString", "coordinates": [[2.4546026, 48.8333959], [2.4545532, 48.8333665]]}}, {"type": "Feature", "properties": {"highway": "track", "footway": null, "name": "Route Circulaire", "surface": "asphalt", "lit": "no", "length_m": 66.25, "type_element": "Way", "__fid": 123398}, "geometry": {"type": "LineString", "coordinates": [[2.4546885, 48.8353171], [2.4545739, 48.8356405], [2.454527, 48.8359024]]}}, {"type": "Feature", "properties": {"highway": "service", "footway": null, "name": null, "surface": null, "lit": null, "length_m": 5.34, "type_element": "Way", "__fid": 123401}, "geometry": {"type": "LineString", "coordinates": [[2.4546586, 48.8334265], [2.4546026, 48.8333959]]}}, {"type": "Feature", "properties": {"highway": "footway", "footway": "crossing", "name": null, "surface": null, "lit": null, "length_m": 17.58, "type_element": "Way", "__fid": 123402}, "geometry": {"type": "LineString", "coordinates": [[2.4547892, 48.8342884], [2.4546377, 48.8342213], [2.4546008, 48.8341926]]}}, {"type": "Feature", "properties": {"highway": "footway", "footway": null, "name": null, "surface": "dirt", "lit": "yes", "length_m": 8.59, "type_element": "Way", "__fid": 123403}, "geometry": {"type": "LineString", "coordinates": [[2.4546008, 48.8341926], [2.4546417, 48.83412019999999]]}}, {"type": "Feature", "properties": {"highway": "footway", "footway": null, "name": null, "surface": "dirt", "lit": "yes", "length_m": 7.45, "type_element": "Way", "__fid": 123406}, "geometry": {"type": "LineString", "coordinates": [[2.4546417, 48.83412019999999], [2.4547165, 48.8340749]]}}, {"type": "Feature", "properties": {"highway": "service", "footway": null, "name": null, "surface": null, "lit": "yes", "length_m": 13.67, "type_element": "Way", "__fid": 123407}, "geometry": {"type": "LineString", "coordinates": [[2.4546437, 48.833962], [2.4548292, 48.8339732]]}}, {"type": "Feature", "properties": {"highway": "service", "footway": null, "name": null, "surface": null, "lit": "yes", "length_m": 13.64, "type_element": "Way", "__fid": 123408}, "geometry": {"type": "LineString", "coordinates": [[2.4547165, 48.8340749], [2.4546437, 48.833962]]}}, {"type": "Feature", "properties": {"highway": "service", "footway": null, "name": null, "surface": null, "lit": null, "length_m": 8.71, "type_element": "Way", "__fid": 123409}, "geometry": {"type": "LineString", "coordinates": [[2.4547467, 48.833479], [2.4546586, 48.8334265]]}}, {"type": "Feature", "properties": {"highway": "service", "footway": null, "name": null, "surface": null, "lit": null, "length_m": 67.18, "type_element": "Way", "__fid": 123410}, "geometry": {"type": "LineString", "coordinates": [[2.4546586, 48.8334265], [2.454874, 48.8332731], [2.454827, 48.8332446], [2.4549807, 48.833135100000014], [2.4549368, 48.833108399999986], [2.4551059, 48.832988]]}}, {"type": "Feature", "properties": {"highway": "footway", "footway": null, "name": null, "surface": null, "lit": null, "length_m": 8.11, "type_element": "Way", "__fid": 123411}, "geometry": {"type": "LineString", "coordinates": [[2.4547101, 48.8323255], [2.4547854, 48.8322721]]}}, {"type": "Feature", "properties": {"highway": "track", "footway": null, "name": "Route Circulaire", "surface": "asphalt", "lit": "no", "length_m": 99.26, "type_element": "Way", "__fid": 123412}, "geometry": {"type": "LineString", "coordinates": [[2.4552731, 48.8345157], [2.4549009, 48.834939], [2.4546885, 48.8353171]]}}, {"type": "Feature", "properties": {"highway": "footway", "footway": null, "name": null, "surface": null, "lit": null, "length_m": 76.22, "type_element": "Way", "__fid": 123413}, "geometry": {"type": "LineString", "coordinates": [[2.4546885, 48.8353171], [2.4548381, 48.8352721], [2.4550019, 48.835202], [2.455072, 48.83519], [2.455228, 48.835232800000014], [2.4555684, 48.835214], [2.4556619, 48.8352279]]}}, {"type": "Feature", "properties": {"highway": "service", "footway": null, "name": null, "surface": null, "lit": "yes", "length_m": 12.69, "type_element": "Way", "__fid": 123416}, "geometry": {"type": "LineString", "coordinates": [[2.4548154, 48.8341652], [2.4547494, 48.83412610000001], [2.4547165, 48.8340749]]}}, {"type": "Feature", "properties": {"highway": "footway", "footway": null, "name": null, "surface": "dirt", "lit": "yes", "length_m": 14.01, "type_element": "Way", "__fid": 123417}, "geometry": {"type": "LineString", "coordinates": [[2.4547165, 48.8340749], [2.4548292, 48.8339732]]}}, {"type": "Feature", "properties": {"highway": "service", "footway": null, "name": null, "surface": null, "lit": null, "length_m": 6.41, "type_element": "Way", "__fid": 123418}, "geometry": {"type": "LineString", "coordinates": [[2.4547467, 48.833479], [2.454814, 48.8334423]]}}, {"type": "Feature", "properties": {"highway": "footway", "footway": null, "name": null, "surface": null, "lit": null, "length_m": 5.06, "type_element": "Way", "__fid": 123420}, "geometry": {"type": "LineString", "coordinates": [[2.4547854, 48.8322721], [2.4548359, 48.83230309999998]]}}, {"type": "Feature", "properties": {"highway": "steps", "footway": null, "name": null, "surface": null, "lit": null, "length_m": 19.83, "type_element": "Way", "__fid": 123421}, "geometry": {"type": "LineString", "coordinates": [[2.4547854, 48.8322721], [2.4549704, 48.8321421]]}}, {"type": "Feature", "properties": {"highway": "footway", "footway": null, "name": null, "surface": null, "lit": null, "length_m": 31.79, "type_element": "Way", "__fid": 123424}, "geometry": {"type": "LineString", "coordinates": [[2.4548019, 48.8330019], [2.4548998, 48.8330609], [2.4550501, 48.83295229999998], [2.4551059, 48.832988]]}}, {"type": "Feature", "properties": {"highway": "service", "footway": null, "name": null, "surface": null, "lit": null, "length_m": 48.16, "type_element": "Way", "__fid": 123425}, "geometry": {"type": "LineString", "coordinates": [[2.4548019, 48.8330019], [2.4552447, 48.8326823]]}}, {"type": "Feature", "properties": {"highway": "service", "footway": null, "name": null, "surface": null, "lit": null, "length_m": 70.05, "type_element": "Way", "__fid": 123428}, "geometry": {"type": "LineString", "coordinates": [[2.454814, 48.8334423], [2.4548529, 48.8333897], [2.45492, 48.8333341], [2.4550112, 48.83327980000002], [2.4552217, 48.833203900000015], [2.4553163, 48.8331924], [2.4553961, 48.83320350000001], [2.4555409, 48.83331069999998]]}}, {"type": "Feature", "properties": {"highway": "service", "footway": null, "name": null, "surface": null, "lit": null, "length_m": 35.55, "type_element": "Way", "__fid": 123429}, "geometry": {"type": "LineString", "coordinates": [[2.454814, 48.8334423], [2.4548717, 48.8334277], [2.4550232, 48.8334303], [2.4550963, 48.833459], [2.4552338, 48.8335416]]}}, {"type": "Feature", "properties": {"highway": "service", "footway": null, "name": null, "surface": null, "lit": "yes", "length_m": 13.57, "type_element": "Way", "__fid": 123431}, "geometry": {"type": "LineString", "coordinates": [[2.4548292, 48.8339732], [2.4549267, 48.8339777], [2.4549981, 48.8340106]]}}, {"type": "Feature", "properties": {"highway": "footway", "footway": null, "name": null, "surface": "dirt", "lit": "yes", "length_m": 4.06, "type_element": "Way", "__fid": 123432}, "geometry": {"type": "LineString", "coordinates": [[2.4548292, 48.8339732], [2.4548611, 48.8339434]]}}, {"type": "Feature", "properties": {"highway": "footway", "footway": null, "name": null, "surface": "dirt", "lit": "yes", "length_m": 11.5, "type_element": "Way", "__fid": 123434}, "geometry": {"type": "LineString", "coordinates": [[2.4548611, 48.8339434], [2.4549515, 48.8338589]]}}, {"type": "Feature", "properties": {"highway": "track", "footway": null, "name": "Route du Camp de Saint-Maur", "surface": "asphalt", "lit": null, "length_m": 9.41, "type_element": "Way", "__fid": 123436}, "geometry": {"type": "LineString", "coordinates": [[2.4549931, 48.8341487], [2.4549757, 48.8341259], [2.4549074, 48.8340877]]}}, {"type": "Feature", "properties": {"highway": "footway", "footway": null, "name": null, "surface": null, "lit": null, "length_m": 45.7, "type_element": "Way", "__fid": 123439}, "geometry": {"type": "LineString", "coordinates": [[2.4549931, 48.8341487], [2.4551898, 48.8339824], [2.4549515, 48.8338589]]}}, {"type": "Feature", "properties": {"highway": "footway", "footway": null, "name": null, "surface": "dirt", "lit": "yes", "length_m": 230.9, "type_element": "Way", "__fid": 123440}, "geometry": {"type": "LineString", "coordinates": [[2.4549515, 48.8338589], [2.4553297, 48.833595], [2.4556973, 48.8333076], [2.4570932, 48.8323388]]}}, {"type": "Feature", "properties": {"highway": "service", "footway": null, "name": null, "surface": null, "lit": null, "length_m": 27.37, "type_element": "Way", "__fid": 123441}, "geometry": {"type": "LineString", "coordinates": [[2.4552401, 48.832312], [2.4549704, 48.8321421]]}}, {"type": "Feature", "properties": {"highway": "service", "footway": null, "name": null, "surface": null, "lit": null, "length_m": 49.8, "type_element": "Way", "__fid": 123442}, "geometry": {"type": "LineString", "coordinates": [[2.4549704, 48.8321421], [2.4549493, 48.8321283], [2.4553763, 48.831826200000016], [2.4553932, 48.8318363]]}}, {"type": "Feature", "properties": {"highway": "track", "footway": null, "name": "Route du Camp de Saint-Maur", "surface": "asphalt", "lit": null, "length_m": 14.33, "type_element": "Way", "__fid": 123443}, "geometry": {"type": "LineString", "coordinates": [[2.4550809, 48.8342638], [2.4549931, 48.8341487]]}}, {"type": "Feature", "properties": {"highway": "track", "footway": null, "name": "Route du Camp de Saint-Maur", "surface": "asphalt", "lit": null, "length_m": 5.77, "type_element": "Way", "__fid": 123444}, "geometry": {"type": "LineString", "coordinates": [[2.4551163, 48.83431010000001], [2.4550809, 48.8342638]]}}, {"type": "Feature", "properties": {"highway": "path", "footway": null, "name": null, "surface": null, "lit": null, "length_m": 199.56, "type_element": "Way", "__fid": 123445}, "geometry": {"type": "LineString", "coordinates": [[2.4571047, 48.8331292], [2.4568987, 48.8332186], [2.4564058, 48.83350570000002], [2.4561014, 48.83359020000001], [2.4556484, 48.833808], [2.45536, 48.833983900000014], [2.45516, 48.8340899], [2.4550809, 48.8342638]]}}, {"type": "Feature", "properties": {"highway": "service", "footway": null, "name": null, "surface": null, "lit": null, "length_m": 5.34, "type_element": "Way", "__fid": 123446}, "geometry": {"type": "LineString", "coordinates": [[2.4551059, 48.832988], [2.4551161, 48.8329807], [2.4551585, 48.83300650000001]]}}, {"type": "Feature", "properties": {"highway": "footway", "footway": null, "name": null, "surface": null, "lit": null, "length_m": 13.45, "type_element": "Way", "__fid": 123447}, "geometry": {"type": "LineString", "coordinates": [[2.4551181, 48.8324022], [2.4552401, 48.832312]]}}, {"type": "Feature", "properties": {"highway": "footway", "footway": null, "name": null, "surface": null, "lit": null, "length_m": 29.54, "type_element": "Way", "__fid": 123448}, "geometry": {"type": "LineString", "coordinates": [[2.4554375, 48.83172359999999], [2.4551416, 48.8315435]]}}, {"type": "Feature", "properties": {"highway": "service", "footway": null, "name": null, "surface": null, "lit": null, "length_m": 27.77, "type_element": "Way", "__fid": 123449}, "geometry": {"type": "LineString", "coordinates": [[2.4553961, 48.83135870000001], [2.4551416, 48.8315435]]}}, {"type": "Feature", "properties": {"highway": "track", "footway": null, "name": "Route du Camp de Saint-Maur", "surface": "asphalt", "lit": null, "length_m": 25.6, "type_element": "Way", "__fid": 123450}, "geometry": {"type": "LineString", "coordinates": [[2.4552731, 48.8345157], [2.4551163, 48.83431010000001]]}}, {"type": "Feature", "properties": {"highway": "service", "footway": null, "name": null, "surface": null, "lit": null, "length_m": 61.99, "type_element": "Way", "__fid": 123451}, "geometry": {"type": "LineString", "coordinates": [[2.4557358, 48.8327299], [2.4556285, 48.832665], [2.4551585, 48.83300650000001]]}}, {"type": "Feature", "properties": {"highway": "service", "footway": null, "name": null, "surface": null, "lit": null, "length_m": 3.99, "type_element": "Way", "__fid": 123452}, "geometry": {"type": "LineString", "coordinates": [[2.4551793, 48.8312309], [2.4552195, 48.8312551]]}}, {"type": "Feature", "properties": {"highway": "footway", "footway": null, "name": null, "surface": null, "lit": null, "length_m": 7.57, "type_element": "Way", "__fid": 123455}, "geometry": {"type": "LineString", "coordinates": [[2.4551694, 48.8326358], [2.4552447, 48.8326823]]}}, {"type": "Feature", "properties": {"highway": "service", "footway": null, "name": null, "surface": null, "lit": null, "length_m": 17.34, "type_element": "Way", "__fid": 123458}, "geometry": {"type": "LineString", "coordinates": [[2.4552195, 48.8312551], [2.4553961, 48.83135870000001]]}}, {"type": "Feature", "properties": {"highway": "footway", "footway": null, "name": null, "surface": null, "lit": null, "length_m": 96.72, "type_element": "Way", "__fid": 123459}, "geometry": {"type": "LineString", "coordinates": [[2.4552409, 48.8299918], [2.4554026, 48.82989180000001], [2.4555422, 48.829881499999985], [2.4556784, 48.8298374], [2.4558361, 48.829623], [2.4560106, 48.8294355], [2.4560948, 48.82938940000001]]}}, {"type": "Feature", "properties": {"highway": "service", "footway": null, "name": null, "surface": null, "lit": null, "length_m": 28.04, "type_element": "Way", "__fid": 123460}, "geometry": {"type": "LineString", "coordinates": [[2.4555229, 48.8324815], [2.4552401, 48.832312]]}}, {"type": "Feature", "properties": {"highway": "footway", "footway": null, "name": null, "surface": null, "lit": null, "length_m": 47.38, "type_element": "Way", "__fid": 123461}, "geometry": {"type": "LineString", "coordinates": [[2.4552401, 48.832312], [2.4552593, 48.8322929], [2.4556957, 48.8320108]]}}, {"type": "Feature", "properties": {"highway": "service", "footway": null, "name": null, "surface": null, "lit": null, "length_m": 24.08, "type_element": "Way", "__fid": 123462}, "geometry": {"type": "LineString", "coordinates": [[2.4552447, 48.8326823], [2.455466, 48.83252250000002]]}}, {"type": "Feature", "properties": {"highway": "track", "footway": null, "name": "Route du Camp de Saint-Maur", "surface": "asphalt", "lit": null, "length_m": 84.25, "type_element": "Way", "__fid": 123463}, "geometry": {"type": "LineString", "coordinates": [[2.4556619, 48.8352279], [2.4554604, 48.8348114], [2.4552731, 48.8345157]]}}, {"type": "Feature", "properties": {"highway": "track", "footway": null, "name": "Route Circulaire", "surface": "asphalt", "lit": "no", "length_m": 174.83, "type_element": "Way", "__fid": 123464}, "geometry": {"type": "LineString", "coordinates": [[2.4571267, 48.8335619], [2.4564562, 48.8337793], [2.4558425, 48.83409359999999], [2.4555275, 48.8342994], [2.4552731, 48.8345157]]}}, {"type": "Feature", "properties": {"highway": "service", "footway": null, "name": null, "surface": null, "lit": null, "length_m": 29.78, "type_element": "Way", "__fid": 123465}, "geometry": {"type": "LineString", "coordinates": [[2.4553961, 48.83135870000001], [2.4556992, 48.8315367]]}}, {"type": "Feature", "properties": {"highway": "service", "footway": null, "name": null, "surface": null, "lit": null, "length_m": 12.74, "type_element": "Way", "__fid": 123466}, "geometry": {"type": "LineString", "coordinates": [[2.4553932, 48.8318363], [2.4555219, 48.8319131]]}}, {"type": "Feature", "properties": {"highway": "footway", "footway": null, "name": null, "surface": null, "lit": null, "length_m": 17.39, "type_element": "Way", "__fid": 123467}, "geometry": {"type": "LineString", "coordinates": [[2.4553932, 48.8318363], [2.4554973, 48.83176009999998], [2.4554375, 48.83172359999999]]}}, {"type": "Feature", "properties": {"highway": "footway", "footway": null, "name": null, "surface": null, "lit": null, "length_m": 28.3, "type_element": "Way", "__fid": 123468}, "geometry": {"type": "LineString", "coordinates": [[2.4556992, 48.8315367], [2.4554375, 48.83172359999999]]}}, {"type": "Feature", "properties": {"highway": "track", "footway": null, "name": null, "surface": "asphalt", "lit": null, "length_m": 53.16, "type_element": "Way", "__fid": 123470}, "geometry": {"type": "LineString", "coordinates": [[2.4557714, 48.8354445], [2.4556181, 48.8356552], [2.4553978, 48.83585160000001]]}}, {"type": "Feature", "properties": {"highway": "footway", "footway": null, "name": null, "surface": null, "lit": null, "length_m": 112.5, "type_element": "Way", "__fid": 123471}, "geometry": {"type": "LineString", "coordinates": [[2.455466, 48.83252250000002], [2.4557112, 48.832671599999976], [2.4557696, 48.832666300000014], [2.4557977, 48.83265], [2.4562886, 48.832292], [2.4560133, 48.8321275]]}}, {"type": "Feature", "properties": {"highway": "service", "footway": null, "name": null, "surface": null, "lit": null, "length_m": 6.18, "type_element": "Way", "__fid": 123472}, "geometry": {"type": "LineString", "coordinates": [[2.455466, 48.83252250000002], [2.4555229, 48.8324815]]}}, {"type": "Feature", "properties": {"highway": "service", "footway": null, "name": null, "surface": null, "lit": null, "length_m": 205.84, "type_element": "Way", "__fid": 123473}, "geometry": {"type": "LineString", "coordinates": [[2.455486, 48.8310123], [2.4551427, 48.83076470000002], [2.4551539, 48.8306879], [2.4565332, 48.8297241], [2.4564124, 48.8296449]]}}, {"type": "Feature", "properties": {"highway": "service", "footway": null, "name": null, "surface": null, "lit": null, "length_m": 14.92, "type_element": "Way", "__fid": 123476}, "geometry": {"type": "LineString", "coordinates": [[2.4555219, 48.8319131], [2.4556766, 48.8320001]]}}, {"type": "Feature", "properties": {"highway": "footway", "footway": null, "name": null, "surface": null, "lit": null, "length_m": 9.74, "type_element": "Way", "__fid": 123477}, "geometry": {"type": "LineString", "coordinates": [[2.4555219, 48.8319131], [2.4556076, 48.8318462]]}}, {"type": "Feature", "properties": {"highway": "service", "footway": null, "name": null, "surface": null, "lit": null, "length_m": 46.83, "type_element": "Way", "__fid": 123478}, "geometry": {"type": "LineString", "coordinates": [[2.4555229, 48.8324815], [2.4559534, 48.832170699999985]]}}, {"type": "Feature", "properties": {"highway": "service", "footway": null, "name": null, "surface": null, "lit": null, "length_m": 1.84, "type_element": "Way", "__fid": 123488}, "geometry": {"type": "LineString", "coordinates": [[2.4556766, 48.8320001], [2.4556957, 48.8320108]]}}, {"type": "Feature", "properties": {"highway": "footway", "footway": null, "name": null, "surface": null, "lit": null, "length_m": 10.54, "type_element": "Way", "__fid": 123489}, "geometry": {"type": "LineString", "coordinates": [[2.4557713, 48.8319289], [2.4556766, 48.8320001]]}}, {"type": "Feature", "properties": {"highway": "service", "footway": null, "name": null, "surface": null, "lit": null, "length_m": 61.35, "type_element": "Way", "__fid": 123492}, "geometry": {"type": "LineString", "coordinates": [[2.4556992, 48.8315367], [2.4563237, 48.8319034]]}}, {"type": "Feature", "properties": {"highway": "track", "footway": null, "name": "Route du Camp de Saint-Maur", "surface": "asphalt", "lit": null, "length_m": 25.39, "type_element": "Way", "__fid": 123493}, "geometry": {"type": "LineString", "coordinates": [[2.4557714, 48.8354445], [2.4556619, 48.8352279]]}}, {"type": "Feature", "properties": {"highway": "service", "footway": null, "name": null, "surface": null, "lit": null, "length_m": 12.87, "type_element": "Way", "__fid": 123494}, "geometry": {"type": "LineString", "coordinates": [[2.4556957, 48.8320108], [2.4558234, 48.83209009999999]]}}, {"type": "Feature", "properties": {"highway": "service", "footway": null, "name": null, "surface": null, "lit": null, "length_m": 74.3, "type_element": "Way", "__fid": 123496}, "geometry": {"type": "LineString", "coordinates": [[2.4564162, 48.8322352], [2.4557358, 48.8327299]]}}, {"type": "Feature", "properties": {"highway": "footway", "footway": null, "name": null, "surface": null, "lit": null, "length_m": 51.32, "type_element": "Way", "__fid": 123497}, "geometry": {"type": "LineString", "coordinates": [[2.4557713, 48.8319289], [2.4558869, 48.8319985], [2.4559069, 48.8319841], [2.4556704, 48.831841799999985], [2.4556504, 48.8318562], [2.4557713, 48.8319289]]}}, {"type": "Feature", "properties": {"highway": "track", "footway": null, "name": null, "surface": "compacted", "lit": null, "length_m": 14.62, "type_element": "Way", "__fid": 123498}, "geometry": {"type": "LineString", "coordinates": [[2.4559696, 48.83545749999997], [2.4557714, 48.8354445]]}}, {"type": "Feature", "properties": {"highway": "track", "footway": null, "name": "Route du Grand Prieur", "surface": "asphalt", "lit": null, "length_m": 156.84, "type_element": "Way", "__fid": 123499}, "geometry": {"type": "LineString", "coordinates": [[2.4557714, 48.8354445], [2.4558646, 48.8356556], [2.4559199, 48.8358762], [2.4559484, 48.836292], [2.4559391, 48.8368428]]}}, {"type": "Feature", "properties": {"highway": "track", "footway": null, "name": "Route du Grand Prieur", "surface": "asphalt", "lit": null, "length_m": 161.96, "type_element": "Way", "__fid": 123500}, "geometry": {"type": "LineString", "coordinates": [[2.456901, 48.8342003], [2.4565018, 48.83452980000001], [2.4561213, 48.834968], [2.4557714, 48.8354445]]}}, {"type": "Feature", "properties": {"highway": "service", "footway": null, "name": null, "surface": null, "lit": null, "length_m": 13.09, "type_element": "Way", "__fid": 123501}, "geometry": {"type": "LineString", "coordinates": [[2.4558234, 48.83209009999999], [2.4559534, 48.832170699999985]]}}, {"type": "Feature", "properties": {"highway": "footway", "footway": null, "name": null, "surface": null, "lit": null, "length_m": 9.38, "type_element": "Way", "__fid": 123502}, "geometry": {"type": "LineString", "coordinates": [[2.455907, 48.83202630000001], [2.4558234, 48.83209009999999]]}}, {"type": "Feature", "properties": {"highway": "service", "footway": null, "name": null, "surface": null, "lit": null, "length_m": 6.51, "type_element": "Way", "__fid": 123507}, "geometry": {"type": "LineString", "coordinates": [[2.4559534, 48.832170699999985], [2.4560133, 48.8321275]]}}, {"type": "Feature", "properties": {"highway": "footway", "footway": null, "name": null, "surface": "compacted", "lit": "no", "length_m": 168.9, "type_element": "Way", "__fid": 123512}, "geometry": {"type": "LineString", "coordinates": [[2.4561851, 48.8369616], [2.4561408, 48.8368247], [2.4561018, 48.8366516], [2.4561035, 48.8365761], [2.4561374, 48.836411], [2.4561365, 48.8362844], [2.4561214, 48.8361994], [2.4560821, 48.8360843], [2.4560078, 48.8355808], [2.4559696, 48.83545749999997]]}}, {"type": "Feature", "properties": {"highway": "footway", "footway": null, "name": null, "surface": "compacted", "lit": "no", "length_m": 117.92, "type_element": "Way", "__fid": 123513}, "geometry": {"type": "LineString", "coordinates": [[2.4559696, 48.83545749999997], [2.456014, 48.83537170000002], [2.4561946, 48.8351165], [2.4563632, 48.8349174], [2.4567925, 48.834555]]}}, {"type": "Feature", "properties": {"highway": "service", "footway": null, "name": null, "surface": null, "lit": null, "length_m": 33.77, "type_element": "Way", "__fid": 123514}, "geometry": {"type": "LineString", "coordinates": [[2.4560133, 48.8321275], [2.4563237, 48.8319034]]}}, {"type": "Feature", "properties": {"highway": "service", "footway": null, "name": null, "surface": null, "lit": null, "length_m": 29.43, "type_element": "Way", "__fid": 123516}, "geometry": {"type": "LineString", "coordinates": [[2.4564124, 48.8296449], [2.4562636, 48.8295603], [2.4561683, 48.8294408]]}}, {"type": "Feature", "properties": {"highway": "service", "footway": null, "name": null, "surface": null, "lit": null, "length_m": 31.63, "type_element": "Way", "__fid": 123523}, "geometry": {"type": "LineString", "coordinates": [[2.45652, 48.8320239], [2.4562255, 48.8322315]]}}, {"type": "Feature", "properties": {"highway": "service", "footway": null, "name": null, "surface": null, "lit": null, "length_m": 19.68, "type_element": "Way", "__fid": 123527}, "geometry": {"type": "LineString", "coordinates": [[2.4563237, 48.8319034], [2.45652, 48.8320239]]}}, {"type": "Feature", "properties": {"highway": "service", "footway": null, "name": null, "surface": null, "lit": null, "length_m": 13.88, "type_element": "Way", "__fid": 123528}, "geometry": {"type": "LineString", "coordinates": [[2.4564124, 48.8296449], [2.4565825, 48.8295905]]}}, {"type": "Feature", "properties": {"highway": "footway", "footway": null, "name": null, "surface": null, "lit": null, "length_m": 18.78, "type_element": "Way", "__fid": 123536}, "geometry": {"type": "LineString", "coordinates": [[2.4564162, 48.8322352], [2.4566059, 48.8323485]]}}, {"type": "Feature", "properties": {"highway": "service", "footway": null, "name": null, "surface": null, "lit": null, "length_m": 22.33, "type_element": "Way", "__fid": 123537}, "geometry": {"type": "LineString", "coordinates": [[2.4566227, 48.8320877], [2.4564162, 48.8322352]]}}, {"type": "Feature", "properties": {"highway": "service", "footway": null, "name": null, "surface": null, "lit": null, "length_m": 10.35, "type_element": "Way", "__fid": 123541}, "geometry": {"type": "LineString", "coordinates": [[2.45652, 48.8320239], [2.4566227, 48.8320877]]}}, {"type": "Feature", "properties": {"highway": "service", "footway": null, "name": null, "surface": null, "lit": null, "length_m": 79.73, "type_element": "Way", "__fid": 123548}, "geometry": {"type": "LineString", "coordinates": [[2.4565825, 48.8295905], [2.4566296, 48.8295748], [2.456795, 48.8295639], [2.4569917, 48.8295908], [2.4572034, 48.8296579], [2.4573202, 48.8297337], [2.4574503, 48.8298519], [2.4574926, 48.829864399999984]]}}, {"type": "Feature", "properties": {"highway": "service", "footway": null, "name": null, "surface": null, "lit": null, "length_m": 44.61, "type_element": "Way", "__fid": 123549}, "geometry": {"type": "LineString", "coordinates": [[2.4566227, 48.8320877], [2.4569068, 48.8322628], [2.4570932, 48.8323388]]}}, {"type": "Feature", "properties": {"highway": "footway", "footway": null, "name": null, "surface": "compacted", "lit": "no", "length_m": 40.24, "type_element": "Way", "__fid": 123555}, "geometry": {"type": "LineString", "coordinates": [[2.4567925, 48.834555], [2.456901, 48.8342003]]}}, {"type": "Feature", "properties": {"highway": "footway", "footway": null, "name": null, "surface": "compacted", "lit": "no", "length_m": 52.33, "type_element": "Way", "__fid": 123556}, "geometry": {"type": "LineString", "coordinates": [[2.4567925, 48.834555], [2.4572932, 48.83422]]}}, {"type": "Feature", "properties": {"highway": "footway", "footway": null, "name": null, "surface": "compacted", "lit": "no", "length_m": 28.87, "type_element": "Way", "__fid": 123560}, "geometry": {"type": "LineString", "coordinates": [[2.4572932, 48.83422], [2.456901, 48.8342003]]}}, {"type": "Feature", "properties": {"highway": "track", "footway": null, "name": "Route du Grand Prieur", "surface": "asphalt", "lit": null, "length_m": 12.12, "type_element": "Way", "__fid": 123561}, "geometry": {"type": "LineString", "coordinates": [[2.4570033, 48.8341148], [2.456901, 48.8342003]]}}, {"type": "Feature", "properties": {"highway": "track", "footway": null, "name": "Route de la Porte Noire", "surface": "asphalt", "lit": "no", "length_m": 62.14, "type_element": "Way", "__fid": 123562}, "geometry": {"type": "LineString", "coordinates": [[2.4571267, 48.8335619], [2.4570033, 48.8341148]]}}, {"type": "Feature", "properties": {"highway": "track", "footway": null, "name": "Route du Grand Prieur", "surface": "asphalt", "lit": null, "length_m": 153.42, "type_element": "Way", "__fid": 123563}, "geometry": {"type": "LineString", "coordinates": [[2.4587321, 48.8333632], [2.4583421, 48.8334644], [2.4576423, 48.83374110000002], [2.4572924, 48.8339225], [2.4570033, 48.8341148]]}}, {"type": "Feature", "properties": {"highway": "service", "footway": null, "name": null, "surface": null, "lit": null, "length_m": 10.78, "type_element": "Way", "__fid": 123564}, "geometry": {"type": "LineString", "coordinates": [[2.4570932, 48.8323388], [2.4572127, 48.8323952]]}}, {"type": "Feature", "properties": {"highway": "footway", "footway": null, "name": null, "surface": "dirt", "lit": "yes", "length_m": 17.16, "type_element": "Way", "__fid": 123565}, "geometry": {"type": "LineString", "coordinates": [[2.4570932, 48.8323388], [2.4572651, 48.8322342]]}}, {"type": "Feature", "properties": {"highway": "track", "footway": null, "name": "Route de la Porte Noire", "surface": "asphalt", "lit": "no", "length_m": 58.02, "type_element": "Way", "__fid": 123566}, "geometry": {"type": "LineString", "coordinates": [[2.4571059, 48.832609], [2.4570841, 48.8326853], [2.4571047, 48.8331292]]}}, {"type": "Feature", "properties": {"highway": "track", "footway": null, "name": "Route de la Porte Noire", "surface": "asphalt", "lit": "no", "length_m": 22.51, "type_element": "Way", "__fid": 123567}, "geometry": {"type": "LineString", "coordinates": [[2.4573192, 48.832465], [2.4572186, 48.8325184], [2.4571059, 48.832609]]}}, {"type": "Feature", "properties": {"highway": "path", "footway": null, "name": null, "surface": null, "lit": "no", "length_m": 37.45, "type_element": "Way", "__fid": 123568}, "geometry": {"type": "LineString", "coordinates": [[2.4575135, 48.8324183], [2.457339, 48.8325417], [2.4571059, 48.832609]]}}, {"type": "Feature", "properties": {"highway": "track", "footway": null, "name": "Route de la Porte Noire", "surface": "asphalt", "lit": "no", "length_m": 48.14, "type_element": "Way", "__fid": 123570}, "geometry": {"type": "LineString", "coordinates": [[2.4571047, 48.8331292], [2.4571267, 48.8335619]]}}, {"type": "Feature", "properties": {"highway": "path", "footway": null, "name": null, "surface": null, "lit": null, "length_m": 97.96, "type_element": "Way", "__fid": 123571}, "geometry": {"type": "LineString", "coordinates": [[2.4571047, 48.8331292], [2.4573473, 48.8330655], [2.4582774, 48.8327118]]}}, {"type": "Feature", "properties": {"highway": "track", "footway": null, "name": "Route Circulaire", "surface": "asphalt", "lit": "no", "length_m": 101.16, "type_element": "Way", "__fid": 123572}, "geometry": {"type": "LineString", "coordinates": [[2.4584702, 48.8333791], [2.4579313, 48.8334117], [2.4574291, 48.8334931], [2.4571267, 48.8335619]]}}, {"type": "Feature", "properties": {"highway": "track", "footway": null, "name": "Route de la Porte Noire", "surface": "asphalt", "lit": "no", "length_m": 11.02, "type_element": "Way", "__fid": 123578}, "geometry": {"type": "LineString", "coordinates": [[2.4572127, 48.8323952], [2.4573192, 48.832465]]}}, {"type": "Feature", "properties": {"highway": "path", "footway": null, "name": null, "surface": null, "lit": null, "length_m": 18.31, "type_element": "Way", "__fid": 123579}, "geometry": {"type": "LineString", "coordinates": [[2.4572127, 48.8323952], [2.4572651, 48.8322342]]}}, {"type": "Feature", "properties": {"highway": "path", "footway": null, "name": null, "surface": "ground", "lit": null, "length_m": 384.75, "type_element": "Way", "__fid": 123580}, "geometry": {"type": "LineString", "coordinates": [[2.4572651, 48.8322342], [2.4575077, 48.8317853], [2.4580048, 48.831285], [2.4587113, 48.830978], [2.4589634, 48.8308173], [2.459406, 48.83047480000001], [2.4599129, 48.8301993], [2.46009, 48.8300174], [2.4603126, 48.829855], [2.4604521, 48.8297279], [2.4605359, 48.8296219]]}}, {"type": "Feature", "properties": {"highway": "footway", "footway": null, "name": null, "surface": "compacted", "lit": "no", "length_m": 6.57, "type_element": "Way", "__fid": 123583}, "geometry": {"type": "LineString", "coordinates": [[2.4572932, 48.83422], [2.4573631, 48.83418310000001]]}}, {"type": "Feature", "properties": {"highway": "track", "footway": null, "name": "Route des Merisiers", "surface": "asphalt", "lit": "no", "length_m": 15.18, "type_element": "Way", "__fid": 123584}, "geometry": {"type": "LineString", "coordinates": [[2.4575135, 48.8324183], [2.4573192, 48.832465]]}}, {"type": "Feature", "properties": {"highway": "steps", "footway": null, "name": null, "surface": "compacted", "lit": "no", "length_m": 9.37, "type_element": "Way", "__fid": 123586}, "geometry": {"type": "LineString", "coordinates": [[2.4573631, 48.83418310000001], [2.4574506, 48.8342445]]}}, {"type": "Feature", "properties": {"highway": "footway", "footway": null, "name": null, "surface": "compacted", "lit": "no", "length_m": 50.53, "type_element": "Way", "__fid": 123587}, "geometry": {"type": "LineString", "coordinates": [[2.4573631, 48.83418310000001], [2.4576603, 48.8340259], [2.4579193, 48.8339164]]}}, {"type": "Feature", "properties": {"highway": "track", "footway": null, "name": "Route des Merisiers", "surface": "asphalt", "lit": "no", "length_m": 85.47, "type_element": "Way", "__fid": 123593}, "geometry": {"type": "LineString", "coordinates": [[2.4586441, 48.8322347], [2.4575135, 48.8324183]]}}, {"type": "Feature", "properties": {"highway": "steps", "footway": null, "name": null, "surface": "compacted", "lit": "no", "length_m": 10.14, "type_element": "Way", "__fid": 123617}, "geometry": {"type": "LineString", "coordinates": [[2.4579193, 48.8339164], [2.4579815, 48.8339978]]}}, {"type": "Feature", "properties": {"highway": "footway", "footway": null, "name": null, "surface": "compacted", "lit": "no", "length_m": 98.64, "type_element": "Way", "__fid": 123618}, "geometry": {"type": "LineString", "coordinates": [[2.4579193, 48.8339164], [2.4582028, 48.8338272], [2.4586328, 48.8336724], [2.4589029, 48.8335925], [2.4590211, 48.8335742], [2.4591434, 48.8335789]]}}, {"type": "Feature", "properties": {"highway": "path", "footway": null, "name": null, "surface": null, "lit": null, "length_m": 311.82, "type_element": "Way", "__fid": 123630}, "geometry": {"type": "LineString", "coordinates": [[2.4582119, 48.828331300000016], [2.4586894, 48.8283684], [2.4589415, 48.8284567], [2.4598079, 48.8288964], [2.4606561, 48.8292937], [2.4607075, 48.8293367], [2.4607225, 48.8293797], [2.4607135, 48.8294479], [2.4606468, 48.8295236], [2.4611158, 48.8298182], [2.4613551, 48.8299535]]}}, {"type": "Feature", "properties": {"highway": "path", "footway": null, "name": null, "surface": null, "lit": null, "length_m": 68.01, "type_element": "Way", "__fid": 123634}, "geometry": {"type": "LineString", "coordinates": [[2.4589285, 48.8330768], [2.4588691, 48.8329662], [2.458586, 48.8329313], [2.4584479, 48.8328707], [2.4582774, 48.8327118]]}}, {"type": "Feature", "properties": {"highway": "path", "footway": null, "name": null, "surface": null, "lit": null, "length_m": 59.87, "type_element": "Way", "__fid": 123635}, "geometry": {"type": "LineString", "coordinates": [[2.4582774, 48.8327118], [2.4583011, 48.832702], [2.4584587, 48.8324572], [2.4586441, 48.8322347]]}}, {"type": "Feature", "properties": {"highway": "path", "footway": null, "name": null, "surface": null, "lit": null, "length_m": 62.9, "type_element": "Way", "__fid": 123655}, "geometry": {"type": "LineString", "coordinates": [[2.4589285, 48.8330768], [2.4587296, 48.8330438], [2.4585944, 48.83305650000001], [2.4585034, 48.833158199999986], [2.4584702, 48.8333791]]}}, {"type": "Feature", "properties": {"highway": "track", "footway": null, "name": "Route Circulaire", "surface": "asphalt", "lit": "no", "length_m": 19.31, "type_element": "Way", "__fid": 123656}, "geometry": {"type": "LineString", "coordinates": [[2.4587321, 48.8333632], [2.4584702, 48.8333791]]}}, {"type": "Feature", "properties": {"highway": "path", "footway": null, "name": null, "surface": null, "lit": null, "length_m": 173.0, "type_element": "Way", "__fid": 123660}, "geometry": {"type": "LineString", "coordinates": [[2.4586441, 48.8322347], [2.458806, 48.83206840000003], [2.4590541, 48.8317612], [2.4592303, 48.8315883], [2.4593983, 48.83152910000001], [2.4594388, 48.8314827], [2.4594775, 48.8313621], [2.4596194, 48.8312755], [2.4597833, 48.8312144], [2.460015, 48.8311998], [2.4601504, 48.83117219999997]]}}, {"type": "Feature", "properties": {"highway": "track", "footway": null, "name": "Route des Merisiers", "surface": "asphalt", "lit": "no", "length_m": 93.23, "type_element": "Way", "__fid": 123661}, "geometry": {"type": "LineString", "coordinates": [[2.4599019, 48.8321189], [2.4586441, 48.8322347]]}}, {"type": "Feature", "properties": {"highway": "track", "footway": null, "name": "Route Circulaire", "surface": "asphalt", "lit": "no", "length_m": 24.03, "type_element": "Way", "__fid": 123668}, "geometry": {"type": "LineString", "coordinates": [[2.4590565, 48.8333921], [2.4587321, 48.8333632]]}}, {"type": "Feature", "properties": {"highway": "path", "footway": null, "name": null, "surface": null, "lit": null, "length_m": 142.32, "type_element": "Way", "__fid": 123676}, "geometry": {"type": "LineString", "coordinates": [[2.460699, 48.8334992], [2.4605217, 48.8334474], [2.4603976, 48.8334207], [2.4603149, 48.8333401], [2.4600955, 48.8332882], [2.4597702, 48.8332463], [2.4595681, 48.8331666], [2.4594283, 48.8331735], [2.4593372, 48.8331433], [2.4590907, 48.83312249999999], [2.4589285, 48.8330768]]}}, {"type": "Feature", "properties": {"highway": "track", "footway": null, "name": "Route Circulaire", "surface": "asphalt", "lit": "no", "length_m": 55.97, "type_element": "Way", "__fid": 123683}, "geometry": {"type": "LineString", "coordinates": [[2.4598027, 48.8334957], [2.4590565, 48.8333921]]}}, {"type": "Feature", "properties": {"highway": "path", "footway": null, "name": null, "surface": "compacted", "lit": null, "length_m": 25.35, "type_element": "Way", "__fid": 123684}, "geometry": {"type": "LineString", "coordinates": [[2.4593142, 48.8335439], [2.4590565, 48.8333921]]}}, {"type": "Feature", "properties": {"highway": "footway", "footway": null, "name": null, "surface": "compacted", "lit": "no", "length_m": 26.93, "type_element": "Way", "__fid": 123693}, "geometry": {"type": "LineString", "coordinates": [[2.4591434, 48.8335789], [2.4595042, 48.8336229]]}}, {"type": "Feature", "properties": {"highway": "path", "footway": null, "name": null, "surface": "compacted", "lit": null, "length_m": 13.13, "type_element": "Way", "__fid": 123694}, "geometry": {"type": "LineString", "coordinates": [[2.4593142, 48.8335439], [2.4591434, 48.8335789]]}}, {"type": "Feature", "properties": {"highway": "path", "footway": null, "name": null, "surface": "compacted", "lit": null, "length_m": 16.48, "type_element": "Way", "__fid": 123703}, "geometry": {"type": "LineString", "coordinates": [[2.4595042, 48.8336229], [2.4593142, 48.8335439]]}}, {"type": "Feature", "properties": {"highway": "path", "footway": null, "name": null, "surface": "compacted", "lit": null, "length_m": 36.26, "type_element": "Way", "__fid": 123704}, "geometry": {"type": "LineString", "coordinates": [[2.4598027, 48.8334957], [2.4593142, 48.8335439]]}}, {"type": "Feature", "properties": {"highway": "footway", "footway": null, "name": null, "surface": "compacted", "lit": "no", "length_m": 92.6, "type_element": "Way", "__fid": 123716}, "geometry": {"type": "LineString", "coordinates": [[2.4595042, 48.8336229], [2.4603786, 48.8338671], [2.4606454, 48.8339739]]}}, {"type": "Feature", "properties": {"highway": "steps", "footway": null, "name": null, "surface": "compacted", "lit": "no", "length_m": 10.79, "type_element": "Way", "__fid": 123721}, "geometry": {"type": "LineString", "coordinates": [[2.4596487, 48.8355424], [2.4595204, 48.8354951]]}}, {"type": "Feature", "properties": {"highway": "track", "footway": null, "name": "Route de la Cascade", "surface": "asphalt", "lit": null, "length_m": 78.72, "type_element": "Way", "__fid": 123734}, "geometry": {"type": "LineString", "coordinates": [[2.4595954, 48.8359715], [2.4597573, 48.8357436], [2.4599397, 48.8355424], [2.460043, 48.8354417], [2.4601443, 48.8353671]]}}, {"type": "Feature", "properties": {"highway": "footway", "footway": null, "name": null, "surface": "compacted", "lit": "no", "length_m": 35.74, "type_element": "Way", "__fid": 123740}, "geometry": {"type": "LineString", "coordinates": [[2.4600229, 48.8353526], [2.4597526, 48.835449199999985], [2.4596983, 48.835477], [2.4596487, 48.8355424]]}}, {"type": "Feature", "properties": {"highway": "track", "footway": null, "name": "Route Circulaire", "surface": "asphalt", "lit": "no", "length_m": 57.63, "type_element": "Way", "__fid": 123750}, "geometry": {"type": "LineString", "coordinates": [[2.4605282, 48.8336906], [2.4602394, 48.83359439999999], [2.4598027, 48.8334957]]}}, {"type": "Feature", "properties": {"highway": "path", "footway": null, "name": null, "surface": null, "lit": null, "length_m": 56.97, "type_element": "Way", "__fid": 123753}, "geometry": {"type": "LineString", "coordinates": [[2.4599019, 48.8321189], [2.4598592, 48.83202150000002], [2.4599216, 48.8319704], [2.4600022, 48.831877], [2.460095, 48.831747100000015], [2.4602246, 48.831707600000016]]}}, {"type": "Feature", "properties": {"highway": "track", "footway": null, "name": "Route des Merisiers", "surface": "asphalt", "lit": "no", "length_m": 7.46, "type_element": "Way", "__fid": 123754}, "geometry": {"type": "LineString", "coordinates": [[2.4600026, 48.8321096], [2.4599019, 48.8321189]]}}, {"type": "Feature", "properties": {"highway": "path", "footway": null, "name": null, "surface": null, "lit": null, "length_m": 199.16, "type_element": "Way", "__fid": 123768}, "geometry": {"type": "LineString", "coordinates": [[2.4617679, 48.833237899999986], [2.4613321, 48.8329209], [2.4612631, 48.8328848], [2.4611481, 48.83289760000001], [2.4611056, 48.83291280000002], [2.4609729, 48.8328988], [2.4608083, 48.8328487], [2.4607535, 48.8328126], [2.4606119, 48.8327928], [2.4604615, 48.8327217], [2.4603872, 48.832639], [2.4603306, 48.8326017], [2.4602492, 48.8324911], [2.4601483, 48.83243169999999], [2.4600616, 48.832349], [2.4600917, 48.83226040000001], [2.460028, 48.8322045], [2.4600026, 48.8321096]]}}, {"type": "Feature", "properties": {"highway": "track", "footway": null, "name": "Route des Merisiers", "surface": "asphalt", "lit": "no", "length_m": 108.92, "type_element": "Way", "__fid": 123769}, "geometry": {"type": "LineString", "coordinates": [[2.4614652, 48.8319459], [2.4604336, 48.8320699], [2.4600026, 48.8321096]]}}, {"type": "Feature", "properties": {"highway": "path", "footway": null, "name": null, "surface": "woodchips", "lit": null, "length_m": 49.22, "type_element": "Way", "__fid": 123773}, "geometry": {"type": "LineString", "coordinates": [[2.4600229, 48.8353526], [2.4602227, 48.8352608], [2.4604158, 48.83520470000001], [2.4606206, 48.8351592]]}}, {"type": "Feature", "properties": {"highway": "footway", "footway": null, "name": null, "surface": "compacted", "lit": "no", "length_m": 9.29, "type_element": "Way", "__fid": 123774}, "geometry": {"type": "LineString", "coordinates": [[2.4601443, 48.8353671], [2.4600698, 48.835349], [2.4600229, 48.8353526]]}}, {"type": "Feature", "properties": {"highway": "path", "footway": null, "name": null, "surface": null, "lit": null, "length_m": 61.27, "type_element": "Way", "__fid": 123787}, "geometry": {"type": "LineString", "coordinates": [[2.4601504, 48.83117219999997], [2.4602003, 48.83132910000001], [2.460261, 48.8314467], [2.460205, 48.83158430000001], [2.4602246, 48.831707600000016]]}}, {"type": "Feature", "properties": {"highway": "path", "footway": null, "name": null, "surface": null, "lit": null, "length_m": 111.01, "type_element": "Way", "__fid": 123788}, "geometry": {"type": "LineString", "coordinates": [[2.4601504, 48.83117219999997], [2.4603077, 48.8311422], [2.4603826, 48.8310951], [2.4604599, 48.8310041], [2.4609107, 48.8307798], [2.4610547, 48.83055610000001], [2.4611801, 48.8304967]]}}, {"type": "Feature", "properties": {"highway": "track", "footway": null, "name": "Route de la Cascade", "surface": "asphalt", "lit": null, "length_m": 29.35, "type_element": "Way", "__fid": 123792}, "geometry": {"type": "LineString", "coordinates": [[2.4601443, 48.8353671], [2.4602562, 48.83531460000001], [2.4604975, 48.8352462]]}}, {"type": "Feature", "properties": {"highway": "path", "footway": null, "name": null, "surface": null, "lit": null, "length_m": 89.39, "type_element": "Way", "__fid": 123799}, "geometry": {"type": "LineString", "coordinates": [[2.4602246, 48.831707600000016], [2.4603659, 48.8317068], [2.4606332, 48.8317464], [2.4608095, 48.8318094], [2.4610985, 48.8317687], [2.4612094, 48.8317283], [2.4613874, 48.83171140000002]]}}, {"type": "Feature", "properties": {"highway": "footway", "footway": null, "name": null, "surface": "compacted", "lit": "no", "length_m": 13.42, "type_element": "Way", "__fid": 123849}, "geometry": {"type": "LineString", "coordinates": [[2.4606206, 48.8351592], [2.4605412, 48.8352007], [2.4604975, 48.8352462]]}}, {"type": "Feature", "properties": {"highway": "track", "footway": null, "name": "Route de la Cascade", "surface": "asphalt", "lit": null, "length_m": 46.33, "type_element": "Way", "__fid": 123850}, "geometry": {"type": "LineString", "coordinates": [[2.4604975, 48.8352462], [2.461109, 48.8351429]]}}, {"type": "Feature", "properties": {"highway": "track", "footway": null, "name": "Route Circulaire", "surface": "asphalt", "lit": "no", "length_m": 75.03, "type_element": "Way", "__fid": 123852}, "geometry": {"type": "LineString", "coordinates": [[2.4613767, 48.8340629], [2.4610442, 48.833887], [2.4606784, 48.8337406], [2.4605282, 48.8336906]]}}, {"type": "Feature", "properties": {"highway": "path", "footway": null, "name": null, "surface": "dirt", "lit": null, "length_m": 24.7, "type_element": "Way", "__fid": 123853}, "geometry": {"type": "LineString", "coordinates": [[2.460699, 48.8334992], [2.4605282, 48.8336906]]}}, {"type": "Feature", "properties": {"highway": "footway", "footway": null, "name": null, "surface": "compacted", "lit": "no", "length_m": 40.76, "type_element": "Way", "__fid": 123862}, "geometry": {"type": "LineString", "coordinates": [[2.4610888, 48.8349655], [2.4609987, 48.8350113], [2.460821, 48.8350645], [2.4606206, 48.8351592]]}}, {"type": "Feature", "properties": {"highway": "footway", "footway": null, "name": null, "surface": "compacted", "lit": "no", "length_m": 56.34, "type_element": "Way", "__fid": 123865}, "geometry": {"type": "LineString", "coordinates": [[2.4606454, 48.8339739], [2.4609227, 48.8340611], [2.4610737, 48.8340786], [2.4612125, 48.8340858], [2.4613767, 48.8340629]]}}, {"type": "Feature", "properties": {"highway": "footway", "footway": null, "name": null, "surface": "compacted", "lit": "no", "length_m": 131.07, "type_element": "Way", "__fid": 123866}, "geometry": {"type": "LineString", "coordinates": [[2.4606454, 48.8339739], [2.4608939, 48.8341324], [2.4612252, 48.834411], [2.4612781, 48.83455020000001], [2.4613048, 48.83466029999999], [2.4611325, 48.8349433], [2.4610888, 48.8349655]]}}, {"type": "Feature", "properties": {"highway": "path", "footway": null, "name": null, "surface": null, "lit": null, "length_m": 43.61, "type_element": "Way", "__fid": 123871}, "geometry": {"type": "LineString", "coordinates": [[2.4612264, 48.8336574], [2.4610422, 48.833645299999986], [2.4608033, 48.8335358], [2.460699, 48.8334992]]}}, {"type": "Feature", "properties": {"highway": "path", "footway": null, "name": null, "surface": null, "lit": null, "length_m": 9.6, "type_element": "Way", "__fid": 123886}, "geometry": {"type": "LineString", "coordinates": [[2.4610888, 48.8349655], [2.4611686, 48.8350339]]}}, {"type": "Feature", "properties": {"highway": "path", "footway": null, "name": "Route des Bosquets", "surface": "asphalt", "lit": null, "length_m": 48.5, "type_element": "Way", "__fid": 123887}, "geometry": {"type": "LineString", "coordinates": [[2.461109, 48.8351429], [2.461132, 48.8352272], [2.4611709, 48.83531110000001], [2.461258, 48.8354338], [2.4613544, 48.835544]]}}, {"type": "Feature", "properties": {"highway": "track", "footway": null, "name": "Route de la Cascade", "surface": "asphalt", "lit": null, "length_m": 13.02, "type_element": "Way", "__fid": 123888}, "geometry": {"type": "LineString", "coordinates": [[2.461109, 48.8351429], [2.461119, 48.8351007], [2.4611686, 48.8350339]]}}, {"type": "Feature", "properties": {"highway": "path", "footway": null, "name": null, "surface": "dirt", "lit": "no", "length_m": 101.02, "type_element": "Way", "__fid": 123889}, "geometry": {"type": "LineString", "coordinates": [[2.461109, 48.8351429], [2.4614739, 48.8350833], [2.4618749, 48.83499329999999], [2.4622411, 48.8349518], [2.4624458, 48.834941700000016]]}}, {"type": "Feature", "properties": {"highway": "path", "footway": null, "name": null, "surface": null, "lit": null, "length_m": 94.32, "type_element": "Way", "__fid": 123891}, "geometry": {"type": "LineString", "coordinates": [[2.4619427, 48.8311794], [2.4611801, 48.8304967]]}}, {"type": "Feature", "properties": {"highway": "path", "footway": null, "name": null, "surface": null, "lit": null, "length_m": 59.52, "type_element": "Way", "__fid": 123892}, "geometry": {"type": "LineString", "coordinates": [[2.4611801, 48.8304967], [2.4614672, 48.830360800000015], [2.4617223, 48.8301101]]}}, {"type": "Feature", "properties": {"highway": "track", "footway": null, "name": "Route de la Cascade", "surface": "asphalt", "lit": null, "length_m": 105.39, "type_element": "Way", "__fid": 123893}, "geometry": {"type": "LineString", "coordinates": [[2.4611686, 48.8350339], [2.4613992, 48.8347614], [2.461476, 48.83456920000001], [2.461495, 48.8344274], [2.4614904, 48.834132900000014]]}}, {"type": "Feature", "properties": {"highway": "path", "footway": null, "name": null, "surface": "dirt", "lit": null, "length_m": 31.03, "type_element": "Way", "__fid": 123898}, "geometry": {"type": "LineString", "coordinates": [[2.4612264, 48.8336574], [2.4615959, 48.8337929]]}}, {"type": "Feature", "properties": {"highway": "path", "footway": null, "name": null, "surface": null, "lit": null, "length_m": 61.88, "type_element": "Way", "__fid": 123899}, "geometry": {"type": "LineString", "coordinates": [[2.4617679, 48.833237899999986], [2.4616735, 48.8333261], [2.4615661, 48.8334452], [2.4614272, 48.8335505], [2.4612264, 48.8336574]]}}, {"type": "Feature", "properties": {"highway": "track", "footway": null, "name": "Route du Bosquet Mortemart", "surface": "ground", "lit": null, "length_m": 32.09, "type_element": "Way", "__fid": 123905}, "geometry": {"type": "LineString", "coordinates": [[2.4617223, 48.8301101], [2.4613551, 48.8299535]]}}, {"type": "Feature", "properties": {"highway": "path", "footway": null, "name": null, "surface": null, "lit": null, "length_m": 102.76, "type_element": "Way", "__fid": 123906}, "geometry": {"type": "LineString", "coordinates": [[2.4625684, 48.8295978], [2.462486, 48.8296106], [2.4618851, 48.8296389], [2.4613551, 48.8299535]]}}, {"type": "Feature", "properties": {"highway": "track", "footway": null, "name": "Route Circulaire", "surface": "asphalt", "lit": "no", "length_m": 11.41, "type_element": "Way", "__fid": 123912}, "geometry": {"type": "LineString", "coordinates": [[2.4614904, 48.834132900000014], [2.4613767, 48.8340629]]}}]}