{"type": "FeatureCollection", "features": [{"type": "Feature", "properties": {"highway": "path", "footway": null, "name": "Avenue de Nogent", "surface": "dirt", "lit": null, "length_m": 292.19, "type_element": "Way", "__fid": 123038}, "geometry": {"type": "LineString", "coordinates": [[2.4528691, 48.8407858], [2.4522699, 48.84094049999998], [2.4505775, 48.8414273], [2.4501101, 48.8415742], [2.4497648, 48.8416709], [2.4495904, 48.8417305], [2.449292, 48.8418545], [2.4492442, 48.8418635]]}}, {"type": "Feature", "properties": {"highway": "track", "footway": null, "name": "Route du Donjon", "surface": "asphalt", "lit": null, "length_m": 181.68, "type_element": "Way", "__fid": 123169}, "geometry": {"type": "LineString", "coordinates": [[2.4535896, 48.8439913], [2.4511213, 48.8441158]]}}, {"type": "Feature", "properties": {"highway": "footway", "footway": null, "name": null, "surface": "dirt", "lit": "no", "length_m": 118.02, "type_element": "Way", "__fid": 123178}, "geometry": {"type": "LineString", "coordinates": [[2.4513002, 48.8433411], [2.4517586, 48.84314], [2.45234, 48.8429661], [2.4527467, 48.842898500000025]]}}, {"type": "Feature", "properties": {"highway": "footway", "footway": null, "name": null, "surface": "dirt", "lit": "no", "length_m": 120.04, "type_element": "Way", "__fid": 123191}, "geometry": {"type": "LineString", "coordinates": [[2.4527467, 48.842898500000025], [2.4521485, 48.8432198], [2.4516818, 48.843491600000014], [2.4515778, 48.8436358]]}}, {"type": "Feature", "properties": {"highway": "footway", "footway": null, "name": null, "surface": "dirt", "lit": "no", "length_m": 290.01, "type_element": "Way", "__fid": 123192}, "geometry": {"type": "LineString", "coordinates": [[2.4515778, 48.8436358], [2.4530231, 48.8435655], [2.4533544, 48.8435399], [2.4537735, 48.8434936], [2.4543005, 48.8435073], [2.4549838, 48.8434711], [2.4552561, 48.8434384], [2.4553352, 48.8434371], [2.4555085, 48.8434529]]}}, {"type": "Feature", "properties": {"highway": "path", "footway": null, "name": "Route des Dames", "surface": "sand", "lit": null, "length_m": 160.34, "type_element": "Way", "__fid": 123228}, "geometry": {"type": "LineString", "coordinates": [[2.4520926, 48.8421288], [2.4521021, 48.8420756], [2.4527888, 48.840979], [2.452795, 48.840922], [2.4528691, 48.8407858]]}}, {"type": "Feature", "properties": {"highway": "track", "footway": null, "name": "Route du Grand Maréchal", "surface": "asphalt", "lit": null, "length_m": 309.19, "type_element": "Way", "__fid": 123229}, "geometry": {"type": "LineString", "coordinates": [[2.4520926, 48.8421288], [2.4523504, 48.8420421], [2.452606, 48.8419819], [2.4528081, 48.8419517], [2.453369, 48.8418956], [2.4535978, 48.8418463], [2.4540073, 48.8417351], [2.4544648, 48.8416292], [2.4546504, 48.841595400000024], [2.455388, 48.8414979], [2.4560063, 48.8413717], [2.4561122, 48.8413385]]}}, {"type": "Feature", "properties": {"highway": "footway", "footway": null, "name": null, "surface": "compacted", "lit": "no", "length_m": 105.04, "type_element": "Way", "__fid": 123258}, "geometry": {"type": "LineString", "coordinates": [[2.4541333, 48.8427054], [2.4539832, 48.8427026], [2.4534258, 48.8427521], [2.4530632, 48.8428032], [2.4527467, 48.842898500000025]]}}, {"type": "Feature", "properties": {"highway": "track", "footway": null, "name": "Route du Donjon", "surface": "asphalt", "lit": null, "length_m": 13.93, "type_element": "Way", "__fid": 123321}, "geometry": {"type": "LineString", "coordinates": [[2.4537111, 48.8440876], [2.4535896, 48.8439913]]}}, {"type": "Feature", "properties": {"highway": "path", "footway": null, "name": null, "surface": "dirt", "lit": null, "length_m": 201.89, "type_element": "Way", "__fid": 123322}, "geometry": {"type": "LineString", "coordinates": [[2.4562894, 48.8436719], [2.4551918, 48.843814], [2.4548829, 48.8438389], [2.4545586, 48.843884], [2.4538905, 48.8439266], [2.4536713, 48.8439846], [2.4535896, 48.8439913]]}}, {"type": "Feature", "properties": {"highway": "footway", "footway": null, "name": null, "surface": "compacted", "lit": "no", "length_m": 172.46, "type_element": "Way", "__fid": 123367}, "geometry": {"type": "LineString", "coordinates": [[2.4564297, 48.8425136], [2.4559599, 48.8426072], [2.4550941, 48.8427319], [2.454669, 48.84276590000001], [2.4544388, 48.8427519], [2.4541333, 48.8427054]]}}, {"type": "Feature", "properties": {"highway": "path", "footway": null, "name": null, "surface": "dirt", "lit": null, "length_m": 139.44, "type_element": "Way", "__fid": 123368}, "geometry": {"type": "LineString", "coordinates": [[2.4555656, 48.8419076], [2.4552572, 48.8419976], [2.4550318, 48.8421335], [2.4548387, 48.8422924], [2.4544042, 48.8425907], [2.4541333, 48.8427054]]}}, {"type": "Feature", "properties": {"highway": "footway", "footway": null, "name": null, "surface": "dirt", "lit": "no", "length_m": 62.8, "type_element": "Way", "__fid": 123484}, "geometry": {"type": "LineString", "coordinates": [[2.4555085, 48.8434529], [2.4556993, 48.84347370000001], [2.4561465, 48.8436181], [2.4562894, 48.8436719]]}}, {"type": "Feature", "properties": {"highway": "path", "footway": null, "name": null, "surface": null, "lit": null, "length_m": 92.73, "type_element": "Way", "__fid": 123485}, "geometry": {"type": "LineString", "coordinates": [[2.4565505, 48.8430005], [2.4562034, 48.8431692], [2.4557474, 48.8434084], [2.455616, 48.8434428], [2.4555085, 48.8434529]]}}, {"type": "Feature", "properties": {"highway": "path", "footway": null, "name": null, "surface": "dirt", "lit": null, "length_m": 77.08, "type_element": "Way", "__fid": 123486}, "geometry": {"type": "LineString", "coordinates": [[2.4555656, 48.8419076], [2.4556696, 48.8418359], [2.4557327, 48.841750300000015], [2.4557649, 48.8416841], [2.4558869, 48.8416294], [2.4560411, 48.8414943], [2.4561122, 48.8413385]]}}, {"type": "Feature", "properties": {"highway": "path", "footway": null, "name": null, "surface": "dirt", "lit": null, "length_m": 56.42, "type_element": "Way", "__fid": 123487}, "geometry": {"type": "LineString", "coordinates": [[2.4563157, 48.8418015], [2.455911, 48.8418756], [2.4555656, 48.8419076]]}}, {"type": "Feature", "properties": {"highway": "track", "footway": null, "name": "Route de la Porte Jaune", "surface": "compacted", "lit": null, "length_m": 58.43, "type_element": "Way", "__fid": 123530}, "geometry": {"type": "LineString", "coordinates": [[2.4563092, 48.84127680000001], [2.4562925, 48.8415869], [2.4563157, 48.8418015]]}}, {"type": "Feature", "properties": {"highway": "path", "footway": null, "name": null, "surface": "dirt", "lit": null, "length_m": 34.48, "type_element": "Way", "__fid": 123533}, "geometry": {"type": "LineString", "coordinates": [[2.45675, 48.8436107], [2.4562894, 48.8436719]]}}, {"type": "Feature", "properties": {"highway": "track", "footway": null, "name": "Route de la Porte Jaune", "surface": "compacted", "lit": null, "length_m": 79.62, "type_element": "Way", "__fid": 123534}, "geometry": {"type": "LineString", "coordinates": [[2.4563157, 48.8418015], [2.4564297, 48.8425136]]}}, {"type": "Feature", "properties": {"highway": "path", "footway": null, "name": null, "surface": "dirt", "lit": null, "length_m": 76.91, "type_element": "Way", "__fid": 123535}, "geometry": {"type": "LineString", "coordinates": [[2.4572548, 48.84150850000001], [2.4567881, 48.8417044], [2.4563157, 48.8418015]]}}, {"type": "Feature", "properties": {"highway": "track", "footway": null, "name": "Route de la Porte Jaune", "surface": "compacted", "lit": null, "length_m": 54.86, "type_element": "Way", "__fid": 123544}, "geometry": {"type": "LineString", "coordinates": [[2.4564297, 48.8425136], [2.4565505, 48.8430005]]}}, {"type": "Feature", "properties": {"highway": "footway", "footway": null, "name": null, "surface": "compacted", "lit": "no", "length_m": 141.35, "type_element": "Way", "__fid": 123545}, "geometry": {"type": "LineString", "coordinates": [[2.4582583, 48.8421146], [2.4564297, 48.8425136]]}}, {"type": "Feature", "properties": {"highway": "track", "footway": null, "name": "Route de la Porte Jaune", "surface": "compacted", "lit": null, "length_m": 69.45, "type_element": "Way", "__fid": 123550}, "geometry": {"type": "LineString", "coordinates": [[2.4565505, 48.8430005], [2.4566872, 48.843463], [2.45675, 48.8436107]]}}, {"type": "Feature", "properties": {"highway": "path", "footway": null, "name": null, "surface": null, "lit": null, "length_m": 113.76, "type_element": "Way", "__fid": 123551}, "geometry": {"type": "LineString", "coordinates": [[2.4565505, 48.8430005], [2.4568546, 48.8429159], [2.4571413, 48.8428623], [2.4573827, 48.8428294], [2.4576231, 48.8427811], [2.4580437, 48.8427442]]}}, {"type": "Feature", "properties": {"highway": "track", "footway": null, "name": "Route de la Porte Jaune", "surface": "compacted", "lit": null, "length_m": 12.98, "type_element": "Way", "__fid": 123558}, "geometry": {"type": "LineString", "coordinates": [[2.45675, 48.8436107], [2.4567948, 48.8437236]]}}, {"type": "Feature", "properties": {"highway": "path", "footway": null, "name": null, "surface": "dirt", "lit": null, "length_m": 26.13, "type_element": "Way", "__fid": 123559}, "geometry": {"type": "LineString", "coordinates": [[2.4570952, 48.8435531], [2.45675, 48.8436107]]}}, {"type": "Feature", "properties": {"highway": "path", "footway": null, "name": null, "surface": null, "lit": null, "length_m": 115.63, "type_element": "Way", "__fid": 123576}, "geometry": {"type": "LineString", "coordinates": [[2.4570952, 48.8435531], [2.4572224, 48.8434288], [2.457326, 48.8432877], [2.4575384, 48.8430625], [2.4577094, 48.8429196], [2.4579559, 48.8428182], [2.4580437, 48.8427442]]}}, {"type": "Feature", "properties": {"highway": "path", "footway": null, "name": null, "surface": "dirt", "lit": null, "length_m": 111.79, "type_element": "Way", "__fid": 123577}, "geometry": {"type": "LineString", "coordinates": [[2.4585823, 48.8433416], [2.4579455, 48.8434534], [2.4576597, 48.8434949], [2.4573508, 48.8435324], [2.4570952, 48.8435531]]}}, {"type": "Feature", "properties": {"highway": "path", "footway": null, "name": null, "surface": null, "lit": null, "length_m": 34.05, "type_element": "Way", "__fid": 123629}, "geometry": {"type": "LineString", "coordinates": [[2.4580437, 48.8427442], [2.4583033, 48.8424904]]}}, {"type": "Feature", "properties": {"highway": "path", "footway": null, "name": null, "surface": "dirt", "lit": null, "length_m": 217.31, "type_element": "Way", "__fid": 123638}, "geometry": {"type": "LineString", "coordinates": [[2.4582583, 48.8421146], [2.4591085, 48.8418283], [2.4596946, 48.84158640000001], [2.4603538, 48.8413578], [2.4608341, 48.841154600000024]]}}, {"type": "Feature", "properties": {"highway": "footway", "footway": null, "name": null, "surface": "compacted", "lit": "no", "length_m": 17.38, "type_element": "Way", "__fid": 123639}, "geometry": {"type": "LineString", "coordinates": [[2.4584951, 48.84211280000003], [2.4582583, 48.8421146]]}}, {"type": "Feature", "properties": {"highway": "path", "footway": null, "name": null, "surface": "dirt", "lit": null, "length_m": 75.27, "type_element": "Way", "__fid": 123646}, "geometry": {"type": "LineString", "coordinates": [[2.4586607, 48.8431192], [2.4585463, 48.8428693], [2.4583568, 48.8425246], [2.4583033, 48.8424904]]}}, {"type": "Feature", "properties": {"highway": "path", "footway": null, "name": null, "surface": null, "lit": null, "length_m": 44.28, "type_element": "Way", "__fid": 123647}, "geometry": {"type": "LineString", "coordinates": [[2.4583033, 48.8424904], [2.4584951, 48.84211280000003]]}}, {"type": "Feature", "properties": {"highway": "footway", "footway": null, "name": null, "surface": "compacted", "lit": "no", "length_m": 48.52, "type_element": "Way", "__fid": 123657}, "geometry": {"type": "LineString", "coordinates": [[2.4591552, 48.84212969999998], [2.4587176, 48.84211110000001], [2.4584951, 48.84211280000003]]}}, {"type": "Feature", "properties": {"highway": "path", "footway": null, "name": null, "surface": "dirt", "lit": null, "length_m": 26.48, "type_element": "Way", "__fid": 123662}, "geometry": {"type": "LineString", "coordinates": [[2.4585823, 48.8433416], [2.4586738, 48.843230699999985], [2.4586607, 48.8431192]]}}, {"type": "Feature", "properties": {"highway": "path", "footway": null, "name": null, "surface": "dirt", "lit": null, "length_m": 22.06, "type_element": "Way", "__fid": 123663}, "geometry": {"type": "LineString", "coordinates": [[2.4588726, 48.8432902], [2.4585823, 48.8433416]]}}, {"type": "Feature", "properties": {"highway": "path", "footway": null, "name": null, "surface": "dirt", "lit": null, "length_m": 24.56, "type_element": "Way", "__fid": 123669}, "geometry": {"type": "LineString", "coordinates": [[2.4586607, 48.8431192], [2.4588726, 48.8432902]]}}, {"type": "Feature", "properties": {"highway": "path", "footway": null, "name": null, "surface": "dirt", "lit": null, "length_m": 117.54, "type_element": "Way", "__fid": 123679}, "geometry": {"type": "LineString", "coordinates": [[2.4603994, 48.8429716], [2.4592172, 48.8432263], [2.4588726, 48.8432902]]}}, {"type": "Feature", "properties": {"highway": "footway", "footway": null, "name": null, "surface": null, "lit": null, "length_m": 92.43, "type_element": "Way", "__fid": 123699}, "geometry": {"type": "LineString", "coordinates": [[2.4591552, 48.84212969999998], [2.4603177, 48.84244930000002]]}}, {"type": "Feature", "properties": {"highway": "footway", "footway": null, "name": null, "surface": null, "lit": null, "length_m": 256.72, "type_element": "Way", "__fid": 123700}, "geometry": {"type": "LineString", "coordinates": [[2.4626223, 48.8423715], [2.4615632, 48.8422233], [2.4607955, 48.8421999], [2.459652, 48.8421213], [2.4591552, 48.84212969999998]]}}, {"type": "Feature", "properties": {"highway": "footway", "footway": null, "name": null, "surface": null, "lit": null, "length_m": 170.34, "type_element": "Way", "__fid": 123831}, "geometry": {"type": "LineString", "coordinates": [[2.4603177, 48.84244930000002], [2.4605846, 48.842473199999986], [2.4618072, 48.8424057], [2.4621537, 48.8423538], [2.4626223, 48.8423715]]}}, {"type": "Feature", "properties": {"highway": "footway", "footway": null, "name": null, "surface": "grass", "lit": "no", "length_m": 58.39, "type_element": "Way", "__fid": 123832}, "geometry": {"type": "LineString", "coordinates": [[2.4603177, 48.84244930000002], [2.4603994, 48.8429716]]}}, {"type": "Feature", "properties": {"highway": "footway", "footway": null, "name": null, "surface": "grass", "lit": "no", "length_m": 10.89, "type_element": "Way", "__fid": 123843}, "geometry": {"type": "LineString", "coordinates": [[2.4603994, 48.8429716], [2.4604146, 48.843069]]}}, {"type": "Feature", "properties": {"highway": "path", "footway": null, "name": null, "surface": "dirt", "lit": null, "length_m": 176.53, "type_element": "Way", "__fid": 123844}, "geometry": {"type": "LineString", "coordinates": [[2.4626223, 48.8423715], [2.4621163, 48.842536500000016], [2.4616341, 48.8426588], [2.4613306, 48.8427526], [2.4606642, 48.84292], [2.4603994, 48.8429716]]}}, {"type": "Feature", "properties": {"highway": "path", "footway": null, "name": null, "surface": "dirt", "lit": null, "length_m": 91.41, "type_element": "Way", "__fid": 123913}, "geometry": {"type": "LineString", "coordinates": [[2.4613044, 48.8413489], [2.4618491, 48.841627], [2.4621713, 48.841766599999985], [2.4623239, 48.8418182]]}}]}