{"type": "FeatureCollection", "features": [{"type": "Feature", "properties": {"@id": "node/6051411093", "access": "yes", "amenity": "drinking_water", "bottle": "yes", "man_made": "water_tap", "type_element": "Fontaines à boire", "__fid": 598}, "geometry": {"type": "Point", "coordinates": [2.4696866, 48.8362975]}, "id": "node/6051411093"}, {"type": "Feature", "properties": {"highway": "path", "footway": null, "name": null, "surface": "compacted", "lit": null, "length_m": 133.75, "type_element": "Way", "__fid": 123856}, "geometry": {"type": "LineString", "coordinates": [[2.4614894, 48.8400874], [2.4613036, 48.8398332], [2.4609751, 48.83946380000001], [2.4605144, 48.8390767]]}}, {"type": "Feature", "properties": {"highway": "path", "footway": null, "name": null, "surface": "compacted", "lit": null, "length_m": 153.61, "type_element": "Way", "__fid": 123857}, "geometry": {"type": "LineString", "coordinates": [[2.4605183, 48.8388676], [2.4605979, 48.8389733], [2.4612185, 48.8396253], [2.4615162, 48.8399806], [2.4616375, 48.8400157]]}}, {"type": "Feature", "properties": {"highway": "path", "footway": null, "name": "Avenue de Nogent", "surface": "asphalt", "lit": "yes", "length_m": 189.41, "type_element": "Way", "__fid": 123858}, "geometry": {"type": "LineString", "coordinates": [[2.4629052, 48.83822030000002], [2.4605183, 48.8388676]]}}, {"type": "Feature", "properties": {"highway": "path", "footway": null, "name": null, "surface": "compacted", "lit": null, "length_m": 263.77, "type_element": "Way", "__fid": 123860}, "geometry": {"type": "LineString", "coordinates": [[2.4605333, 48.8381039], [2.4606659, 48.8380677], [2.4611431, 48.8378819], [2.4612444, 48.8378585], [2.4614017, 48.8378466], [2.4615618, 48.8377867], [2.4617314, 48.8377496], [2.4618865, 48.8376782], [2.4619146, 48.83763], [2.4618907, 48.83744580000001], [2.4619079, 48.8373254], [2.4619663, 48.8372095], [2.4619768, 48.8371661], [2.4619637, 48.837031400000015], [2.4620321, 48.8367961], [2.4621025, 48.8367125], [2.4621244, 48.8366665], [2.4621477, 48.8365372], [2.4622595, 48.8364406], [2.4623081, 48.8363691]]}}, {"type": "Feature", "properties": {"highway": "path", "footway": null, "name": null, "surface": "dirt", "lit": null, "length_m": 185.28, "type_element": "Way", "__fid": 123864}, "geometry": {"type": "LineString", "coordinates": [[2.4605905, 48.8386175], [2.4608691, 48.83860360000001], [2.4629516, 48.838050200000026]]}}, {"type": "Feature", "properties": {"highway": "track", "footway": null, "name": "Route Ronde des Minimes", "surface": "asphalt", "lit": "no", "length_m": 255.21, "type_element": "Way", "__fid": 123872}, "geometry": {"type": "LineString", "coordinates": [[2.46065, 48.8385861], [2.4612967, 48.83825489999999], [2.4617322, 48.8379817], [2.46224, 48.837572], [2.4624167, 48.8373731], [2.4625576, 48.8371314], [2.462703, 48.8368059]]}}, {"type": "Feature", "properties": {"highway": "path", "footway": null, "name": null, "surface": null, "lit": null, "length_m": 30.67, "type_element": "Way", "__fid": 123895}, "geometry": {"type": "LineString", "coordinates": [[2.4615013, 48.8404749], [2.4613876, 48.84052430000001], [2.4611213, 48.840585099999984]]}}, {"type": "Feature", "properties": {"highway": "path", "footway": null, "name": "Avenue des Tilleuls", "surface": "compacted", "lit": null, "length_m": 44.94, "type_element": "Way", "__fid": 123897}, "geometry": {"type": "LineString", "coordinates": [[2.4618074, 48.8359364], [2.4611951, 48.8359377]]}}, {"type": "Feature", "properties": {"highway": "path", "footway": null, "name": null, "surface": "dirt", "lit": null, "length_m": 40.01, "type_element": "Way", "__fid": 123904}, "geometry": {"type": "LineString", "coordinates": [[2.4612239, 48.8409577], [2.4614578, 48.8408134], [2.4616095, 48.8407037]]}}, {"type": "Feature", "properties": {"highway": "path", "footway": null, "name": "Avenue de Fontenay", "surface": "dirt", "lit": null, "length_m": 37.82, "type_element": "Way", "__fid": 123909}, "geometry": {"type": "LineString", "coordinates": [[2.4615013, 48.8404749], [2.4614223, 48.8403275], [2.4613026, 48.84016159999999]]}}, {"type": "Feature", "properties": {"highway": "track", "footway": null, "name": "Route du Grand Maréchal", "surface": "asphalt", "lit": null, "length_m": 16.0, "type_element": "Way", "__fid": 123910}, "geometry": {"type": "LineString", "coordinates": [[2.4613026, 48.84016159999999], [2.4614894, 48.8400874]]}}, {"type": "Feature", "properties": {"highway": "path", "footway": null, "name": "Route des Chênes", "surface": "compacted", "lit": null, "length_m": 54.86, "type_element": "Way", "__fid": 123911}, "geometry": {"type": "LineString", "coordinates": [[2.4618074, 48.8359364], [2.4613544, 48.835544]]}}, {"type": "Feature", "properties": {"highway": "path", "footway": null, "name": null, "surface": "dirt", "lit": null, "length_m": 91.41, "type_element": "Way", "__fid": 123913}, "geometry": {"type": "LineString", "coordinates": [[2.4613044, 48.8413489], [2.4618491, 48.841627], [2.4621713, 48.841766599999985], [2.4623239, 48.8418182]]}}, {"type": "Feature", "properties": {"highway": "path", "footway": null, "name": null, "surface": "compacted", "lit": null, "length_m": 262.4, "type_element": "Way", "__fid": 123918}, "geometry": {"type": "LineString", "coordinates": [[2.4631493, 48.8421108], [2.4630858, 48.842094500000016], [2.4629921, 48.842054800000014], [2.4627976, 48.8419489], [2.4625629, 48.84178470000001], [2.4623725, 48.8415932], [2.4621086, 48.8412906], [2.4619648, 48.8410213], [2.4616912, 48.84044930000001], [2.4614894, 48.8400874]]}}, {"type": "Feature", "properties": {"highway": "track", "footway": null, "name": "Route du Grand Maréchal", "surface": "gravel", "lit": null, "length_m": 6.52, "type_element": "Way", "__fid": 123919}, "geometry": {"type": "LineString", "coordinates": [[2.4614894, 48.8400874], [2.4615618, 48.8400535]]}}, {"type": "Feature", "properties": {"highway": "path", "footway": null, "name": "Avenue de Fontenay", "surface": "dirt", "lit": null, "length_m": 26.65, "type_element": "Way", "__fid": 123920}, "geometry": {"type": "LineString", "coordinates": [[2.4616095, 48.8407037], [2.4615013, 48.8404749]]}}, {"type": "Feature", "properties": {"highway": "path", "footway": null, "name": null, "surface": "compacted", "lit": null, "length_m": 110.63, "type_element": "Way", "__fid": 123923}, "geometry": {"type": "LineString", "coordinates": [[2.4622282, 48.84094549999999], [2.461688, 48.840246599999986], [2.4615618, 48.8400535]]}}, {"type": "Feature", "properties": {"highway": "track", "footway": null, "name": "Route du Grand Maréchal", "surface": "gravel", "lit": null, "length_m": 6.97, "type_element": "Way", "__fid": 123924}, "geometry": {"type": "LineString", "coordinates": [[2.4615618, 48.8400535], [2.4616375, 48.8400157]]}}, {"type": "Feature", "properties": {"highway": "path", "footway": null, "name": "Avenue de Fontenay", "surface": "dirt", "lit": null, "length_m": 135.38, "type_element": "Way", "__fid": 123925}, "geometry": {"type": "LineString", "coordinates": [[2.4623239, 48.8418182], [2.4623108, 48.8417896], [2.4621626, 48.8416431], [2.4619762, 48.8414083], [2.4618085, 48.8411532], [2.4616095, 48.8407037]]}}, {"type": "Feature", "properties": {"highway": "path", "footway": null, "name": null, "surface": "compacted", "lit": null, "length_m": 60.13, "type_element": "Way", "__fid": 123928}, "geometry": {"type": "LineString", "coordinates": [[2.4616375, 48.8400157], [2.4617119, 48.8400368], [2.4619359, 48.8401365], [2.4620677, 48.8401553], [2.4624002, 48.8401699]]}}, {"type": "Feature", "properties": {"highway": "track", "footway": null, "name": "Route du Grand Maréchal", "surface": "gravel", "lit": null, "length_m": 93.87, "type_element": "Way", "__fid": 123929}, "geometry": {"type": "LineString", "coordinates": [[2.4616375, 48.8400157], [2.4618437, 48.8398842], [2.462372, 48.83962190000001], [2.4626516, 48.8395048]]}}, {"type": "Feature", "properties": {"highway": "path", "footway": null, "name": "Route des Chênes", "surface": "compacted", "lit": null, "length_m": 60.66, "type_element": "Way", "__fid": 123933}, "geometry": {"type": "LineString", "coordinates": [[2.4623081, 48.8363691], [2.4622404, 48.836294], [2.4619857, 48.83607], [2.4618074, 48.8359364]]}}, {"type": "Feature", "properties": {"highway": "path", "footway": null, "name": "Avenue des Tilleuls", "surface": "compacted", "lit": null, "length_m": 33.97, "type_element": "Way", "__fid": 123934}, "geometry": {"type": "LineString", "coordinates": [[2.46227, 48.835927], [2.4618074, 48.8359364]]}}, {"type": "Feature", "properties": {"highway": "path", "footway": null, "name": null, "surface": "compacted", "lit": null, "length_m": 49.42, "type_element": "Way", "__fid": 123955}, "geometry": {"type": "LineString", "coordinates": [[2.4623081, 48.8363691], [2.4623229, 48.8363025], [2.46227, 48.835927]]}}, {"type": "Feature", "properties": {"highway": "path", "footway": null, "name": null, "surface": "compacted", "lit": null, "length_m": 61.8, "type_element": "Way", "__fid": 123956}, "geometry": {"type": "LineString", "coordinates": [[2.46227, 48.835927], [2.4622739, 48.8358306], [2.4624434, 48.8356512], [2.4627137, 48.8354791]]}}, {"type": "Feature", "properties": {"highway": "path", "footway": null, "name": null, "surface": "compacted", "lit": null, "length_m": 146.46, "type_element": "Way", "__fid": 123960}, "geometry": {"type": "LineString", "coordinates": [[2.4631493, 48.8421108], [2.4631432, 48.8420774], [2.4628263, 48.8417063], [2.4623999, 48.8411379], [2.4622282, 48.84094549999999]]}}, {"type": "Feature", "properties": {"highway": "path", "footway": null, "name": "Route des Pelouses", "surface": "dirt", "lit": null, "length_m": 87.25, "type_element": "Way", "__fid": 123961}, "geometry": {"type": "LineString", "coordinates": [[2.4624002, 48.8401699], [2.4623172, 48.8404296], [2.4622282, 48.84094549999999]]}}, {"type": "Feature", "properties": {"highway": "path", "footway": null, "name": "Route des Chênes", "surface": "compacted", "lit": null, "length_m": 56.56, "type_element": "Way", "__fid": 123962}, "geometry": {"type": "LineString", "coordinates": [[2.462703, 48.8368059], [2.4623081, 48.8363691]]}}, {"type": "Feature", "properties": {"highway": "path", "footway": null, "name": "Route des Pelouses", "surface": "dirt", "lit": null, "length_m": 76.22, "type_element": "Way", "__fid": 123974}, "geometry": {"type": "LineString", "coordinates": [[2.4626516, 48.8395048], [2.4624002, 48.8401699]]}}, {"type": "Feature", "properties": {"highway": "path", "footway": null, "name": null, "surface": "compacted", "lit": null, "length_m": 245.65, "type_element": "Way", "__fid": 123975}, "geometry": {"type": "LineString", "coordinates": [[2.4624002, 48.8401699], [2.4626233, 48.8401651], [2.4628003, 48.8401324], [2.4631114, 48.8400989], [2.4635057, 48.8400035], [2.4637257, 48.8399806], [2.4639536, 48.839946199999986], [2.4641414, 48.8398614], [2.4643292, 48.8397334], [2.464824, 48.83942540000001], [2.4651352, 48.8393177], [2.4653112, 48.83923150000002]]}}, {"type": "Feature", "properties": {"highway": "path", "footway": null, "name": "Route des Pelouses", "surface": "dirt", "lit": null, "length_m": 128.03, "type_element": "Way", "__fid": 123982}, "geometry": {"type": "LineString", "coordinates": [[2.4629714, 48.8383729], [2.4626516, 48.8395048]]}}, {"type": "Feature", "properties": {"highway": "track", "footway": null, "name": "Route du Grand Maréchal", "surface": "gravel", "lit": null, "length_m": 156.47, "type_element": "Way", "__fid": 123983}, "geometry": {"type": "LineString", "coordinates": [[2.4626516, 48.8395048], [2.4641496, 48.8390067], [2.4645381, 48.838851]]}}, {"type": "Feature", "properties": {"highway": "track", "footway": null, "name": "Route Ronde des Minimes", "surface": "asphalt", "lit": "no", "length_m": 148.86, "type_element": "Way", "__fid": 123985}, "geometry": {"type": "LineString", "coordinates": [[2.462703, 48.8368059], [2.4627626, 48.8366444], [2.4628316, 48.83606980000001], [2.4627874, 48.8357764], [2.4627137, 48.8354791]]}}, {"type": "Feature", "properties": {"highway": "path", "footway": null, "name": "Route des Chênes", "surface": "dirt", "lit": null, "length_m": 45.06, "type_element": "Way", "__fid": 123986}, "geometry": {"type": "LineString", "coordinates": [[2.4629464, 48.83717760000001], [2.4628756, 48.8370498], [2.462703, 48.8368059]]}}, {"type": "Feature", "properties": {"highway": "service", "footway": null, "name": "Route de la Ménagerie", "surface": "asphalt", "lit": null, "length_m": 174.53, "type_element": "Way", "__fid": 123987}, "geometry": {"type": "LineString", "coordinates": [[2.4627674, 48.8352861], [2.4629948, 48.835387899999986], [2.4631731, 48.8354567], [2.4634105, 48.8355397], [2.4636197, 48.835598], [2.464069, 48.8356827], [2.4642956, 48.8357127], [2.4648347, 48.8357445], [2.4649957, 48.835741]]}}, {"type": "Feature", "properties": {"highway": "path", "footway": null, "name": "Route des Chênes", "surface": "dirt", "lit": null, "length_m": 17.65, "type_element": "Way", "__fid": 123991}, "geometry": {"type": "LineString", "coordinates": [[2.4629714, 48.8383729], [2.4629052, 48.83822030000002]]}}, {"type": "Feature", "properties": {"highway": "path", "footway": null, "name": "Route des Chênes", "surface": "dirt", "lit": null, "length_m": 19.22, "type_element": "Way", "__fid": 123992}, "geometry": {"type": "LineString", "coordinates": [[2.4629052, 48.83822030000002], [2.4629516, 48.838050200000026]]}}, {"type": "Feature", "properties": {"highway": "path", "footway": null, "name": "Avenue de Nogent", "surface": "asphalt", "lit": "yes", "length_m": 198.04, "type_element": "Way", "__fid": 123993}, "geometry": {"type": "LineString", "coordinates": [[2.4654009, 48.83754350000001], [2.4629052, 48.83822030000002]]}}, {"type": "Feature", "properties": {"highway": "path", "footway": null, "name": "Route des Chênes", "surface": "dirt", "lit": null, "length_m": 97.11, "type_element": "Way", "__fid": 123994}, "geometry": {"type": "LineString", "coordinates": [[2.4629516, 48.838050200000026], [2.4629727, 48.8374255], [2.4629464, 48.83717760000001]]}}, {"type": "Feature", "properties": {"highway": "path", "footway": null, "name": null, "surface": "dirt", "lit": null, "length_m": 177.29, "type_element": "Way", "__fid": 123995}, "geometry": {"type": "LineString", "coordinates": [[2.4629464, 48.83717760000001], [2.463259, 48.8371683], [2.4635406, 48.837197500000016], [2.4636559, 48.8372036], [2.4637444, 48.837197500000016], [2.4638061, 48.8371789], [2.4639255, 48.8370933], [2.4639885, 48.8370695], [2.4641857, 48.83703509999999], [2.4645585, 48.836985599999984], [2.4650064, 48.8368762], [2.4652371, 48.8368497]]}}, {"type": "Feature", "properties": {"highway": "path", "footway": null, "name": null, "surface": "dirt", "lit": null, "length_m": 201.83, "type_element": "Way", "__fid": 123996}, "geometry": {"type": "LineString", "coordinates": [[2.4629516, 48.838050200000026], [2.4645605, 48.8376107], [2.4654985, 48.8373662]]}}, {"type": "Feature", "properties": {"highway": "path", "footway": null, "name": "Route Odette", "surface": "dirt", "lit": null, "length_m": 134.8, "type_element": "Way", "__fid": 123997}, "geometry": {"type": "LineString", "coordinates": [[2.4629714, 48.8383729], [2.4629958, 48.83841], [2.4631858, 48.838578], [2.4634577, 48.8387152], [2.463813, 48.83881789999999], [2.4642184, 48.83884710000001], [2.4645381, 48.838851]]}}, {"type": "Feature", "properties": {"highway": "path", "footway": null, "name": null, "surface": "dirt", "lit": null, "length_m": 242.23, "type_element": "Way", "__fid": 124011}, "geometry": {"type": "LineString", "coordinates": [[2.4633229, 48.8421074], [2.4633598, 48.8420893], [2.4638808, 48.8415974], [2.4646738, 48.84052850000001], [2.4648562, 48.8401916]]}}, {"type": "Feature", "properties": {"highway": "track", "footway": null, "name": "Route du Grand Maréchal", "surface": "gravel", "lit": null, "length_m": 39.22, "type_element": "Way", "__fid": 124054}, "geometry": {"type": "LineString", "coordinates": [[2.4645381, 48.838851], [2.4649974, 48.8386707]]}}, {"type": "Feature", "properties": {"highway": "path", "footway": null, "name": null, "surface": "dirt", "lit": null, "length_m": 79.36, "type_element": "Way", "__fid": 124059}, "geometry": {"type": "LineString", "coordinates": [[2.4649957, 48.835741], [2.4649796, 48.83544970000001], [2.4649501, 48.83536849999999], [2.4648401, 48.83516369999998], [2.464813200000093, 48.835043566666684]]}}, {"type": "Feature", "properties": {"highway": "path", "footway": null, "name": null, "surface": "dirt", "lit": null, "length_m": 111.91, "type_element": "Way", "__fid": 124061}, "geometry": {"type": "LineString", "coordinates": [[2.4648562, 48.8401916], [2.4649971, 48.8399376], [2.4653112, 48.83923150000002]]}}, {"type": "Feature", "properties": {"highway": "track", "footway": null, "name": null, "surface": null, "lit": null, "length_m": 198.84, "type_element": "Way", "__fid": 124062}, "geometry": {"type": "LineString", "coordinates": [[2.4665167, 48.8388454], [2.4661356, 48.83912], [2.4660283, 48.8392542], [2.465803, 48.8394024], [2.4656421, 48.839586], [2.4653739, 48.839985], [2.4650949, 48.8401368], [2.4648562, 48.8401916]]}}, {"type": "Feature", "properties": {"highway": "path", "footway": null, "name": null, "surface": "dirt", "lit": null, "length_m": 124.92, "type_element": "Way", "__fid": 124064}, "geometry": {"type": "LineString", "coordinates": [[2.4649957, 48.835741], [2.4651244, 48.836177], [2.4651512, 48.836426], [2.4651593, 48.8366149], [2.4651834, 48.8367155], [2.4652371, 48.8368497]]}}, {"type": "Feature", "properties": {"highway": "service", "footway": null, "name": "Route de la Ménagerie", "surface": "asphalt", "lit": null, "length_m": 80.11, "type_element": "Way", "__fid": 124065}, "geometry": {"type": "LineString", "coordinates": [[2.4649957, 48.835741], [2.4660835, 48.835683]]}}, {"type": "Feature", "properties": {"highway": "track", "footway": null, "name": "Route du Grand Maréchal", "surface": "gravel", "lit": null, "length_m": 49.33, "type_element": "Way", "__fid": 124067}, "geometry": {"type": "LineString", "coordinates": [[2.4649974, 48.8386707], [2.4654937, 48.838371500000015]]}}, {"type": "Feature", "properties": {"highway": "track", "footway": null, "name": "Route Odette", "surface": "compacted", "lit": null, "length_m": 32.4, "type_element": "Way", "__fid": 124068}, "geometry": {"type": "LineString", "coordinates": [[2.4649974, 48.8386707], [2.4652892, 48.8386576], [2.4654379, 48.8386633]]}}, {"type": "Feature", "properties": {"highway": "path", "footway": null, "name": null, "surface": "dirt", "lit": null, "length_m": 60.61, "type_element": "Way", "__fid": 124069}, "geometry": {"type": "LineString", "coordinates": [[2.4652371, 48.8368497], [2.4653732, 48.837096799999976], [2.4654838, 48.8373166], [2.4654985, 48.8373662]]}}, {"type": "Feature", "properties": {"highway": "path", "footway": null, "name": null, "surface": "dirt", "lit": null, "length_m": 63.87, "type_element": "Way", "__fid": 124070}, "geometry": {"type": "LineString", "coordinates": [[2.4653112, 48.83923150000002], [2.4653705, 48.8389974], [2.4654379, 48.8386633]]}}, {"type": "Feature", "properties": {"highway": "path", "footway": null, "name": null, "surface": "dirt", "lit": null, "length_m": 82.06, "type_element": "Way", "__fid": 124071}, "geometry": {"type": "LineString", "coordinates": [[2.4653112, 48.83923150000002], [2.465878, 48.8389049], [2.466182, 48.8387708]]}}, {"type": "Feature", "properties": {"highway": "path", "footway": null, "name": null, "surface": "dirt", "lit": null, "length_m": 93.35, "type_element": "Way", "__fid": 124073}, "geometry": {"type": "LineString", "coordinates": [[2.4654937, 48.838371500000015], [2.4654977, 48.837738], [2.4654769, 48.8376608], [2.4654009, 48.83754350000001]]}}, {"type": "Feature", "properties": {"highway": "path", "footway": null, "name": "Parcours sportif des Minimes", "surface": "dirt", "lit": null, "length_m": 22.4, "type_element": "Way", "__fid": 124074}, "geometry": {"type": "LineString", "coordinates": [[2.4654985, 48.8373662], [2.4654617, 48.8375183], [2.4654009, 48.83754350000001]]}}, {"type": "Feature", "properties": {"highway": "path", "footway": null, "name": "Avenue de Nogent", "surface": "asphalt", "lit": "yes", "length_m": 174.36, "type_element": "Way", "__fid": 124075}, "geometry": {"type": "LineString", "coordinates": [[2.4675982, 48.8369476], [2.4654009, 48.83754350000001]]}}, {"type": "Feature", "properties": {"highway": "track", "footway": null, "name": "Route Odette", "surface": "compacted", "lit": null, "length_m": 56.28, "type_element": "Way", "__fid": 124079}, "geometry": {"type": "LineString", "coordinates": [[2.4654379, 48.8386633], [2.4657683, 48.8386817], [2.466182, 48.8387708]]}}, {"type": "Feature", "properties": {"highway": "path", "footway": null, "name": null, "surface": "dirt", "lit": null, "length_m": 32.7, "type_element": "Way", "__fid": 124080}, "geometry": {"type": "LineString", "coordinates": [[2.4654937, 48.838371500000015], [2.4654379, 48.8386633]]}}, {"type": "Feature", "properties": {"highway": "path", "footway": null, "name": null, "surface": "dirt", "lit": null, "length_m": 12.95, "type_element": "Way", "__fid": 124084}, "geometry": {"type": "LineString", "coordinates": [[2.4654985, 48.8373662], [2.4656595, 48.837318500000016]]}}, {"type": "Feature", "properties": {"highway": "track", "footway": null, "name": "Route du Grand Maréchal", "surface": "gravel", "lit": null, "length_m": 233.81, "type_element": "Way", "__fid": 124085}, "geometry": {"type": "LineString", "coordinates": [[2.4654937, 48.838371500000015], [2.4662308, 48.83792359999998], [2.4669899, 48.8375172], [2.467521, 48.837197500000016], [2.4677025, 48.8371001], [2.4675982, 48.8369476]]}}, {"type": "Feature", "properties": {"highway": "path", "footway": null, "name": null, "surface": "dirt", "lit": null, "length_m": 204.25, "type_element": "Way", "__fid": 124089}, "geometry": {"type": "LineString", "coordinates": [[2.4656595, 48.837318500000016], [2.4674934, 48.835937]]}}, {"type": "Feature", "properties": {"highway": "path", "footway": null, "name": null, "surface": "dirt", "lit": null, "length_m": 146.78, "type_element": "Way", "__fid": 124090}, "geometry": {"type": "LineString", "coordinates": [[2.4656595, 48.837318500000016], [2.4675133, 48.8368235]]}}, {"type": "Feature", "properties": {"highway": "path", "footway": null, "name": null, "surface": "dirt", "lit": null, "length_m": 191.9, "type_element": "Way", "__fid": 124097}, "geometry": {"type": "LineString", "coordinates": [[2.4659935, 48.8354753], [2.4661759, 48.8354841], [2.4664159, 48.8355229], [2.4664722, 48.8355203], [2.4666251, 48.8354726], [2.4669497, 48.8354576], [2.4669671, 48.8354514], [2.4670663, 48.8352802], [2.4671669, 48.8352051], [2.4672608, 48.835176], [2.4674365, 48.8351407], [2.4674968, 48.8351407], [2.4675344, 48.8351531], [2.4679045, 48.83538170000001], [2.4680105, 48.835455], [2.4680816, 48.83553]]}}, {"type": "Feature", "properties": {"highway": "path", "footway": null, "name": null, "surface": "dirt", "lit": null, "length_m": 24.49, "type_element": "Way", "__fid": 124098}, "geometry": {"type": "LineString", "coordinates": [[2.4659935, 48.8354753], [2.4660386, 48.8355146], [2.4660835, 48.835683]]}}, {"type": "Feature", "properties": {"highway": "service", "footway": null, "name": "Route de la Ménagerie", "surface": "asphalt", "lit": null, "length_m": 128.18, "type_element": "Way", "__fid": 124101}, "geometry": {"type": "LineString", "coordinates": [[2.4660835, 48.835683], [2.4665286, 48.8356598], [2.4668062, 48.83565709999998], [2.4670744, 48.8356651], [2.4678214, 48.8357313]]}}, {"type": "Feature", "properties": {"highway": "track", "footway": null, "name": "Route Odette", "surface": "compacted", "lit": null, "length_m": 25.93, "type_element": "Way", "__fid": 124103}, "geometry": {"type": "LineString", "coordinates": [[2.466182, 48.8387708], [2.4665167, 48.8388454]]}}, {"type": "Feature", "properties": {"highway": "path", "footway": null, "name": null, "surface": "dirt", "lit": null, "length_m": 61.18, "type_element": "Way", "__fid": 124104}, "geometry": {"type": "LineString", "coordinates": [[2.466182, 48.8387708], [2.4667301, 48.8383563]]}}, {"type": "Feature", "properties": {"highway": "track", "footway": null, "name": "Route Odette", "surface": "compacted", "lit": null, "length_m": 55.27, "type_element": "Way", "__fid": 124116}, "geometry": {"type": "LineString", "coordinates": [[2.4665167, 48.8388454], [2.4669148, 48.838943600000015], [2.467194, 48.8390573]]}}, {"type": "Feature", "properties": {"highway": "track", "footway": null, "name": null, "surface": null, "lit": null, "length_m": 56.9, "type_element": "Way", "__fid": 124117}, "geometry": {"type": "LineString", "coordinates": [[2.4667301, 48.8383563], [2.4666291, 48.8386786], [2.4665167, 48.8388454]]}}, {"type": "Feature", "properties": {"highway": "path", "footway": null, "name": null, "surface": "dirt", "lit": null, "length_m": 293.01, "type_element": "Way", "__fid": 124120}, "geometry": {"type": "LineString", "coordinates": [[2.4667301, 48.8383563], [2.4672888, 48.83793389999999], [2.4684368, 48.8371642], [2.469108, 48.836885299999985], [2.4696377, 48.8365702]]}}, {"type": "Feature", "properties": {"highway": "track", "footway": null, "name": "Route Odette", "surface": "compacted", "lit": null, "length_m": 10.83, "type_element": "Way", "__fid": 124129}, "geometry": {"type": "LineString", "coordinates": [[2.467194, 48.8390573], [2.4673199, 48.83910810000002]]}}, {"type": "Feature", "properties": {"highway": "footway", "footway": null, "name": null, "surface": null, "lit": null, "length_m": 23.54, "type_element": "Way", "__fid": 124130}, "geometry": {"type": "LineString", "coordinates": [[2.4673819, 48.8391362], [2.467417, 48.839092], [2.467297, 48.8390441], [2.467194, 48.8390573]]}}, {"type": "Feature", "properties": {"highway": "path", "footway": null, "name": null, "surface": "compacted", "lit": null, "length_m": 90.9, "type_element": "Way", "__fid": 124134}, "geometry": {"type": "LineString", "coordinates": [[2.4674934, 48.835937], [2.467622, 48.8359736], [2.4678784, 48.8360102], [2.4684282, 48.83597970000001], [2.4686846, 48.8358986]]}}, {"type": "Feature", "properties": {"highway": "path", "footway": null, "name": null, "surface": "dirt", "lit": null, "length_m": 33.21, "type_element": "Way", "__fid": 124135}, "geometry": {"type": "LineString", "coordinates": [[2.4674934, 48.835937], [2.4678214, 48.8357313]]}}, {"type": "Feature", "properties": {"highway": "path", "footway": null, "name": null, "surface": "dirt", "lit": null, "length_m": 15.14, "type_element": "Way", "__fid": 124136}, "geometry": {"type": "LineString", "coordinates": [[2.4675982, 48.8369476], [2.4675133, 48.8368235]]}}, {"type": "Feature", "properties": {"highway": "path", "footway": null, "name": null, "surface": "dirt", "lit": null, "length_m": 120.43, "type_element": "Way", "__fid": 124137}, "geometry": {"type": "LineString", "coordinates": [[2.4675133, 48.8368235], [2.4680378, 48.83668040000001], [2.4690378, 48.8364233]]}}, {"type": "Feature", "properties": {"highway": "path", "footway": null, "name": "Avenue de Nogent", "surface": "asphalt", "lit": "yes", "length_m": 156.97, "type_element": "Way", "__fid": 124140}, "geometry": {"type": "LineString", "coordinates": [[2.4695504, 48.8363844], [2.4695222, 48.8364117], [2.4689682, 48.836576], [2.4675982, 48.8369476]]}}, {"type": "Feature", "properties": {"highway": "service", "footway": null, "name": "Route de la Ménagerie", "surface": "asphalt", "lit": null, "length_m": 66.04, "type_element": "Way", "__fid": 124144}, "geometry": {"type": "LineString", "coordinates": [[2.4678214, 48.8357313], [2.4686846, 48.8358986]]}}, {"type": "Feature", "properties": {"highway": "track", "footway": null, "name": "Avenue des Châtaigniers", "surface": "wood", "lit": null, "length_m": 29.46, "type_element": "Way", "__fid": 124145}, "geometry": {"type": "LineString", "coordinates": [[2.4680816, 48.83553], [2.467929, 48.8356379], [2.4678214, 48.8357313]]}}, {"type": "Feature", "properties": {"highway": "track", "footway": null, "name": "Avenue des Châtaigniers", "surface": "asphalt", "lit": null, "length_m": 133.77, "type_element": "Way", "__fid": 124148}, "geometry": {"type": "LineString", "coordinates": [[2.4692953, 48.8346328], [2.4690975, 48.834768099999984], [2.4680816, 48.83553]]}}, {"type": "Feature", "properties": {"highway": "service", "footway": null, "name": "Route de la Ménagerie", "surface": "asphalt", "lit": null, "length_m": 6.83, "type_element": "Way", "__fid": 124158}, "geometry": {"type": "LineString", "coordinates": [[2.4686846, 48.8358986], [2.4687736, 48.8359164]]}}, {"type": "Feature", "properties": {"highway": "service", "footway": null, "name": "Route de la Ménagerie", "surface": "asphalt", "lit": null, "length_m": 5.63, "type_element": "Way", "__fid": 124159}, "geometry": {"type": "LineString", "coordinates": [[2.4687736, 48.8359164], [2.4688467, 48.8359316]]}}, {"type": "Feature", "properties": {"highway": "path", "footway": null, "name": null, "surface": "compacted", "lit": null, "length_m": 90.76, "type_element": "Way", "__fid": 124160}, "geometry": {"type": "LineString", "coordinates": [[2.4687736, 48.8359164], [2.4685912, 48.836192], [2.4685684, 48.8362446], [2.4685644, 48.8362861], [2.4685811, 48.8363253], [2.4686328, 48.8363968], [2.4686716, 48.8364273], [2.4687139, 48.8364449], [2.4687843, 48.8364414], [2.4689046, 48.8363763], [2.4690103, 48.83634340000001]]}}, {"type": "Feature", "properties": {"highway": "service", "footway": null, "name": "Route de la Ménagerie", "surface": "asphalt", "lit": null, "length_m": 77.57, "type_element": "Way", "__fid": 124162}, "geometry": {"type": "LineString", "coordinates": [[2.4688467, 48.8359316], [2.4693677, 48.8360574], [2.4698446, 48.836161]]}}, {"type": "Feature", "properties": {"highway": "path", "footway": null, "name": null, "surface": "compacted", "lit": null, "length_m": 56.86, "type_element": "Way", "__fid": 124163}, "geometry": {"type": "LineString", "coordinates": [[2.4688467, 48.8359316], [2.4689486, 48.8360552], [2.4690029, 48.836091], [2.469137, 48.8361453], [2.4693073, 48.836189], [2.469424, 48.8362455]]}}, {"type": "Feature", "properties": {"highway": "path", "footway": null, "name": null, "surface": "grass", "lit": null, "length_m": 9.11, "type_element": "Way", "__fid": 124164}, "geometry": {"type": "LineString", "coordinates": [[2.4690378, 48.8364233], [2.4690103, 48.83634340000001]]}}, {"type": "Feature", "properties": {"highway": "path", "footway": null, "name": null, "surface": "compacted", "lit": null, "length_m": 32.62, "type_element": "Way", "__fid": 124165}, "geometry": {"type": "LineString", "coordinates": [[2.4690103, 48.83634340000001], [2.4692047, 48.8363205], [2.469424, 48.8362455]]}}, {"type": "Feature", "properties": {"highway": "path", "footway": null, "name": null, "surface": "dirt", "lit": null, "length_m": 38.09, "type_element": "Way", "__fid": 124166}, "geometry": {"type": "LineString", "coordinates": [[2.4690378, 48.8364233], [2.4695279, 48.83631059999998]]}}, {"type": "Feature", "properties": {"highway": "path", "footway": null, "name": null, "surface": "compacted", "lit": null, "length_m": 21.39, "type_element": "Way", "__fid": 124167}, "geometry": {"type": "LineString", "coordinates": [[2.469424, 48.8362455], [2.4696574, 48.83624059999999], [2.4697109, 48.8362552]]}}, {"type": "Feature", "properties": {"highway": "footway", "footway": "sidewalk", "name": null, "surface": null, "lit": null, "length_m": 8.37, "type_element": "Way", "__fid": 124168}, "geometry": {"type": "LineString", "coordinates": [[2.4695504, 48.8363844], [2.4695279, 48.83631059999998]]}}, {"type": "Feature", "properties": {"highway": "path", "footway": null, "name": null, "surface": "concrete", "lit": null, "length_m": 15.04, "type_element": "Way", "__fid": 124169}, "geometry": {"type": "LineString", "coordinates": [[2.4697109, 48.8362552], [2.4696849, 48.8362737], [2.4695279, 48.83631059999998]]}}, {"type": "Feature", "properties": {"highway": "footway", "footway": "traffic_island", "name": null, "surface": "asphalt", "lit": null, "length_m": 25.89, "type_element": "Way", "__fid": 124170}, "geometry": {"type": "LineString", "coordinates": [[2.4695504, 48.8363844], [2.4695814, 48.8364109], [2.4696702, 48.8365506], [2.4697427, 48.83654880000001]]}}, {"type": "Feature", "properties": {"highway": "path", "footway": null, "name": null, "surface": "compacted", "lit": null, "length_m": 6.52, "type_element": "Way", "__fid": 124171}, "geometry": {"type": "LineString", "coordinates": [[2.4697109, 48.8362552], [2.4697972, 48.8362413]]}}]}