{"type": "FeatureCollection", "features": [{"type": "Feature", "properties": {"@id": "node/3995352229", "amenity": "drinking_water", "check_date": "2023-06-12", "man_made": "water_tap", "type_element": "Fontaines à boire", "__fid": 467}, "geometry": {"type": "Point", "coordinates": [2.4640813, 48.8273749]}, "id": "node/3995352229"}, {"type": "Feature", "properties": {"highway": "path", "footway": null, "name": null, "surface": "dirt", "lit": null, "length_m": 370.45, "type_element": "Way", "__fid": 123625}, "geometry": {"type": "LineString", "coordinates": [[2.4581241, 48.824503], [2.458384, 48.8247081], [2.4586268, 48.8248044], [2.4596501, 48.825282], [2.459699, 48.8254415], [2.4603857, 48.8258565], [2.4619194, 48.8266269]]}}, {"type": "Feature", "properties": {"highway": "footway", "footway": null, "name": null, "surface": "dirt", "lit": null, "length_m": 225.64, "type_element": "Way", "__fid": 123757}, "geometry": {"type": "LineString", "coordinates": [[2.4599818, 48.8248759], [2.4608007, 48.8251977], [2.4610803, 48.8253165], [2.4616295, 48.82556550000001], [2.4625172, 48.8260183]]}}, {"type": "Feature", "properties": {"highway": "track", "footway": null, "name": "Avenue de l'École de Joinville", "surface": "asphalt", "lit": null, "length_m": 603.7, "type_element": "Way", "__fid": 123835}, "geometry": {"type": "LineString", "coordinates": [[2.4605543, 48.82095789999999], [2.4608927, 48.8211799], [2.4615535, 48.821657], [2.4617048, 48.8218145], [2.4618697, 48.8220593], [2.4619289, 48.8226737], [2.4621807, 48.823693], [2.4623033, 48.8243133], [2.4622732, 48.824528], [2.4622717, 48.8247311], [2.4623457, 48.8250613], [2.4623926, 48.825177], [2.4625789, 48.8258298], [2.4625679, 48.8259859], [2.4625172, 48.8260183]]}}, {"type": "Feature", "properties": {"highway": "footway", "footway": null, "name": null, "surface": null, "lit": null, "length_m": 115.62, "type_element": "Way", "__fid": 123882}, "geometry": {"type": "LineString", "coordinates": [[2.46114, 48.823784699999976], [2.4614646, 48.8248022]]}}, {"type": "Feature", "properties": {"highway": "footway", "footway": null, "name": null, "surface": null, "lit": null, "length_m": 80.25, "type_element": "Way", "__fid": 123883}, "geometry": {"type": "LineString", "coordinates": [[2.46114, 48.823784699999976], [2.4616984, 48.8236986], [2.4615904, 48.823363]]}}, {"type": "Feature", "properties": {"highway": "path", "footway": null, "name": null, "surface": null, "lit": null, "length_m": 102.76, "type_element": "Way", "__fid": 123906}, "geometry": {"type": "LineString", "coordinates": [[2.4625684, 48.8295978], [2.462486, 48.8296106], [2.4618851, 48.8296389], [2.4613551, 48.8299535]]}}, {"type": "Feature", "properties": {"highway": "path", "footway": null, "name": null, "surface": null, "lit": null, "length_m": 96.07, "type_element": "Way", "__fid": 123927}, "geometry": {"type": "LineString", "coordinates": [[2.4617223, 48.8301101], [2.4619363, 48.8299392], [2.4621779, 48.8299612], [2.4623054, 48.8298757], [2.4625307, 48.8297539], [2.4625844, 48.8297044], [2.4625897, 48.8296744], [2.4625684, 48.8295978]]}}, {"type": "Feature", "properties": {"highway": "path", "footway": null, "name": null, "surface": "dirt", "lit": null, "length_m": 168.83, "type_element": "Way", "__fid": 123935}, "geometry": {"type": "LineString", "coordinates": [[2.4619194, 48.8266269], [2.4628477, 48.8270932], [2.4630539, 48.827127], [2.4634105, 48.8271058], [2.4634371, 48.82711350000002], [2.4635898, 48.827222100000014], [2.4638514, 48.827331]]}}, {"type": "Feature", "properties": {"highway": "path", "footway": null, "name": null, "surface": "dirt", "lit": null, "length_m": 67.3, "type_element": "Way", "__fid": 123936}, "geometry": {"type": "LineString", "coordinates": [[2.4619194, 48.8266269], [2.462208, 48.8263476], [2.4621726, 48.8262342], [2.4622945, 48.826106]]}}, {"type": "Feature", "properties": {"highway": "footway", "footway": "crossing", "name": "Avenue de l'École de Joinville", "surface": null, "lit": null, "length_m": 17.6, "type_element": "Way", "__fid": 123954}, "geometry": {"type": "LineString", "coordinates": [[2.4625172, 48.8260183], [2.4624757, 48.8260449], [2.4623699, 48.82614260000001]]}}, {"type": "Feature", "properties": {"highway": "footway", "footway": null, "name": null, "surface": null, "lit": null, "length_m": 420.29, "type_element": "Way", "__fid": 123966}, "geometry": {"type": "LineString", "coordinates": [[2.4646282, 48.8239348], [2.4643834, 48.8238043], [2.4641735, 48.8237582], [2.4639957, 48.8236872], [2.4639607, 48.8235836], [2.4641123, 48.82324769999999], [2.4640977, 48.8230136], [2.4638704, 48.8226298], [2.4633573, 48.8219389], [2.462649, 48.8213555], [2.4625703, 48.8212077], [2.462512, 48.8206972]]}}, {"type": "Feature", "properties": {"highway": "path", "footway": null, "name": null, "surface": null, "lit": null, "length_m": 180.77, "type_element": "Way", "__fid": 123978}, "geometry": {"type": "LineString", "coordinates": [[2.4625684, 48.8295978], [2.4627104, 48.82935830000002], [2.4628633, 48.8290635], [2.4630135, 48.82884630000002], [2.4632308, 48.828675], [2.4633515, 48.8286309], [2.4635231, 48.828611400000014], [2.4638423, 48.8286291], [2.4641058, 48.8286629]]}}, {"type": "Feature", "properties": {"highway": "path", "footway": null, "name": null, "surface": null, "lit": null, "length_m": 108.51, "type_element": "Way", "__fid": 123979}, "geometry": {"type": "LineString", "coordinates": [[2.4639451, 48.8295761], [2.4638571, 48.8295102], [2.4637104, 48.8294795], [2.4635258, 48.829504], [2.4634199, 48.8295685], [2.4633711, 48.8295864], [2.4625684, 48.8295978]]}}, {"type": "Feature", "properties": {"highway": "path", "footway": null, "name": null, "surface": "asphalt", "lit": null, "length_m": 67.26, "type_element": "Way", "__fid": 124013}, "geometry": {"type": "LineString", "coordinates": [[2.4635901, 48.8267627], [2.463603, 48.8268814], [2.4636913, 48.8269692], [2.4637916, 48.8271088], [2.4638049, 48.8271909], [2.4638514, 48.827331]]}}, {"type": "Feature", "properties": {"highway": "footway", "footway": "sidewalk", "name": null, "surface": null, "lit": null, "length_m": 59.37, "type_element": "Way", "__fid": 124014}, "geometry": {"type": "LineString", "coordinates": [[2.4640964, 48.8274538], [2.4638924, 48.8276435], [2.4636118, 48.8278811]]}}, {"type": "Feature", "properties": {"highway": "path", "footway": null, "name": null, "surface": "dirt", "lit": null, "length_m": 22.58, "type_element": "Way", "__fid": 124015}, "geometry": {"type": "LineString", "coordinates": [[2.4638514, 48.827331], [2.4640964, 48.8274538]]}}, {"type": "Feature", "properties": {"highway": "path", "footway": null, "name": null, "surface": "dirt", "lit": null, "length_m": 23.88, "type_element": "Way", "__fid": 124019}, "geometry": {"type": "LineString", "coordinates": [[2.4641581, 48.827051], [2.4639697, 48.8269428], [2.4638975, 48.826928]]}}, {"type": "Feature", "properties": {"highway": "path", "footway": null, "name": null, "surface": null, "lit": null, "length_m": 40.31, "type_element": "Way", "__fid": 124020}, "geometry": {"type": "LineString", "coordinates": [[2.4640031, 48.82993530000001], [2.4639954, 48.8297448], [2.4639451, 48.8295761]]}}, {"type": "Feature", "properties": {"highway": "path", "footway": null, "name": null, "surface": "dirt", "lit": null, "length_m": 111.85, "type_element": "Way", "__fid": 124021}, "geometry": {"type": "LineString", "coordinates": [[2.4639451, 48.8295761], [2.4642621, 48.829305800000014], [2.4642802, 48.8292467], [2.4642336, 48.829118], [2.4641521, 48.8289999], [2.4640945, 48.82884270000001], [2.4641058, 48.8286629]]}}, {"type": "Feature", "properties": {"highway": "path", "footway": null, "name": null, "surface": "dirt", "lit": null, "length_m": 8.45, "type_element": "Way", "__fid": 124022}, "geometry": {"type": "LineString", "coordinates": [[2.4640203, 48.82713050000002], [2.4640995, 48.82718569999999]]}}, {"type": "Feature", "properties": {"highway": "path", "footway": null, "name": null, "surface": "dirt", "lit": null, "length_m": 5.53, "type_element": "Way", "__fid": 124028}, "geometry": {"type": "LineString", "coordinates": [[2.4640964, 48.8274538], [2.4641596, 48.82748080000002]]}}, {"type": "Feature", "properties": {"highway": "footway", "footway": "sidewalk", "name": null, "surface": null, "lit": null, "length_m": 15.61, "type_element": "Way", "__fid": 124029}, "geometry": {"type": "LineString", "coordinates": [[2.4641869, 48.8273268], [2.4640964, 48.8274538]]}}, {"type": "Feature", "properties": {"highway": "path", "footway": null, "name": "Carrefour de Beauté", "surface": "gravel", "lit": null, "length_m": 17.08, "type_element": "Way", "__fid": 124030}, "geometry": {"type": "LineString", "coordinates": [[2.4640995, 48.82718569999999], [2.4641354, 48.827268599999975], [2.4641869, 48.8273268]]}}, {"type": "Feature", "properties": {"highway": "path", "footway": null, "name": "Carrefour de Beauté", "surface": "gravel", "lit": null, "length_m": 16.02, "type_element": "Way", "__fid": 124031}, "geometry": {"type": "LineString", "coordinates": [[2.4641581, 48.827051], [2.4641146, 48.8270975], [2.4641012, 48.827128600000016], [2.4640995, 48.82718569999999]]}}, {"type": "Feature", "properties": {"highway": "path", "footway": null, "name": null, "surface": "dirt", "lit": null, "length_m": 128.03, "type_element": "Way", "__fid": 124032}, "geometry": {"type": "LineString", "coordinates": [[2.4641058, 48.8286629], [2.4641119, 48.8285611], [2.4642313, 48.8283492], [2.4642621, 48.8281727], [2.4643104, 48.8280716], [2.4642862, 48.8280067], [2.4643184, 48.8279171], [2.4643325, 48.82783890000001], [2.4642152, 48.8276637], [2.4642527, 48.827556]]}}, {"type": "Feature", "properties": {"highway": "footway", "footway": "sidewalk", "name": null, "surface": null, "lit": null, "length_m": 12.95, "type_element": "Way", "__fid": 124033}, "geometry": {"type": "LineString", "coordinates": [[2.4642527, 48.827556], [2.4642054, 48.8275684], [2.4641331, 48.8276361]]}}, {"type": "Feature", "properties": {"highway": "path", "footway": null, "name": "Carrefour de Beauté", "surface": "gravel", "lit": null, "length_m": 32.22, "type_element": "Way", "__fid": 124034}, "geometry": {"type": "LineString", "coordinates": [[2.4645132, 48.8269143], [2.4644173, 48.826913], [2.4643144, 48.8269366], [2.4642594, 48.82696840000001], [2.4641581, 48.827051]]}}, {"type": "Feature", "properties": {"highway": "path", "footway": "crossing", "name": "Carrefour de Beauté", "surface": null, "lit": null, "length_m": 16.42, "type_element": "Way", "__fid": 124035}, "geometry": {"type": "LineString", "coordinates": [[2.4641869, 48.8273268], [2.4642244, 48.8273471], [2.4643827, 48.8273966]]}}, {"type": "Feature", "properties": {"highway": "path", "footway": null, "name": null, "surface": "dirt", "lit": null, "length_m": 16.49, "type_element": "Way", "__fid": 124038}, "geometry": {"type": "LineString", "coordinates": [[2.4642527, 48.827556], [2.4643623, 48.8274265]]}}, {"type": "Feature", "properties": {"highway": "path", "footway": null, "name": null, "surface": "compacted", "lit": null, "length_m": 270.7, "type_element": "Way", "__fid": 124042}, "geometry": {"type": "LineString", "coordinates": [[2.4647315, 48.8297667], [2.4645826, 48.8295177], [2.4644589, 48.8292183], [2.4643907, 48.8290853], [2.4642836, 48.8289107], [2.4642313, 48.828754500000024], [2.4643024, 48.8286367], [2.4643271, 48.8284971], [2.4643372, 48.8284675], [2.4643674, 48.8284419], [2.4643694, 48.8283713], [2.4644378, 48.8282225], [2.4644659, 48.8281179], [2.464457, 48.827836900000015], [2.4644673, 48.82764909999999], [2.4643771, 48.8275205], [2.4643623, 48.8274265]]}}, {"type": "Feature", "properties": {"highway": "path", "footway": null, "name": null, "surface": "dirt", "lit": null, "length_m": 3.65, "type_element": "Way", "__fid": 124043}, "geometry": {"type": "LineString", "coordinates": [[2.4643623, 48.8274265], [2.4643827, 48.8273966]]}}, {"type": "Feature", "properties": {"highway": "path", "footway": null, "name": "Carrefour de Beauté", "surface": "gravel", "lit": null, "length_m": 12.78, "type_element": "Way", "__fid": 124044}, "geometry": {"type": "LineString", "coordinates": [[2.4643827, 48.8273966], [2.4644566, 48.8274034], [2.4645486, 48.8274284]]}}, {"type": "Feature", "properties": {"highway": "footway", "footway": "crossing", "name": "Carrefour de Beauté", "surface": null, "lit": null, "length_m": 24.89, "type_element": "Way", "__fid": 124047}, "geometry": {"type": "LineString", "coordinates": [[2.4648017, 48.82703140000001], [2.4647069, 48.82698749999999], [2.4645132, 48.8269143]]}}, {"type": "Feature", "properties": {"highway": "footway", "footway": null, "name": null, "surface": null, "lit": null, "length_m": 182.89, "type_element": "Way", "__fid": 124048}, "geometry": {"type": "LineString", "coordinates": [[2.4645132, 48.8269143], [2.4644942, 48.8269008], [2.4646113, 48.8263836], [2.4646209, 48.8262929], [2.4648195, 48.8252889]]}}, {"type": "Feature", "properties": {"highway": "footway", "footway": null, "name": null, "surface": null, "lit": null, "length_m": 25.79, "type_element": "Way", "__fid": 124050}, "geometry": {"type": "LineString", "coordinates": [[2.4645486, 48.8274284], [2.4646269, 48.827552], [2.4647538, 48.8276027]]}}, {"type": "Feature", "properties": {"highway": "path", "footway": "crossing", "name": "Carrefour de Beauté", "surface": null, "lit": null, "length_m": 24.67, "type_element": "Way", "__fid": 124051}, "geometry": {"type": "LineString", "coordinates": [[2.4645486, 48.8274284], [2.4647556, 48.82732530000001], [2.4648096, 48.82728929999998]]}}, {"type": "Feature", "properties": {"highway": "path", "footway": null, "name": "Carrefour de Beauté", "surface": "gravel", "lit": null, "length_m": 29.17, "type_element": "Way", "__fid": 124055}, "geometry": {"type": "LineString", "coordinates": [[2.4648096, 48.82728929999998], [2.464825, 48.8272507], [2.46482, 48.8270532], [2.4648017, 48.82703140000001]]}}, {"type": "Feature", "properties": {"highway": "footway", "footway": null, "name": null, "surface": null, "lit": null, "length_m": 177.26, "type_element": "Way", "__fid": 124056}, "geometry": {"type": "LineString", "coordinates": [[2.4648017, 48.82703140000001], [2.4651066, 48.82545]]}}, {"type": "Feature", "properties": {"highway": "footway", "footway": "sidewalk", "name": null, "surface": null, "lit": null, "length_m": 26.41, "type_element": "Way", "__fid": 124057}, "geometry": {"type": "LineString", "coordinates": [[2.4648096, 48.82728929999998], [2.4650204, 48.8274818]]}}, {"type": "Feature", "properties": {"highway": "footway", "footway": "crossing", "name": null, "surface": null, "lit": null, "length_m": 20.23, "type_element": "Way", "__fid": 124058}, "geometry": {"type": "LineString", "coordinates": [[2.4648077, 48.8275974], [2.4650204, 48.8274818]]}}, {"type": "Feature", "properties": {"highway": "footway", "footway": "sidewalk", "name": null, "surface": null, "lit": null, "length_m": 254.42, "type_element": "Way", "__fid": 124063}, "geometry": {"type": "LineString", "coordinates": [[2.4650204, 48.8274818], [2.4670943, 48.829315]]}}]}