{"type": "FeatureCollection", "features": [{"type": "Feature", "properties": {"@id": "node/8650679966", "access": "yes", "amenity": "drinking_water", "bottle": "yes", "fee": "no", "man_made": "water_tap", "panoramax": "af7af6d2-132f-4834-8d68-765495e35b9d", "type_element": "Fontaines à boire", "__fid": 759}, "geometry": {"type": "Point", "coordinates": [2.4688916, 48.834367]}, "id": "node/8650679966"}, {"type": "Feature", "geometry": {"type": "Point", "coordinates": [2.468102, 48.833499]}, "properties": {"id": 1813, "name": "Jardin d’Agronomie Tropicale René-Dumont", "categorie": "Parcs, jardins et bois", "photo_url": "https://cdn.paris.fr/eqpts-prod/2022/05/10/fae5477d9f1f87097293fc3eb24f3e67.jpg", "photo_credit": "Sonia Yassa/ Ville de Paris", "photo_alt": null, "address_street": "45 bis, avenue de la Belle-Gabrielle", "address_postcode": "75012", "address_city": "Paris", "phone": null, "accessibility": "{\"handicaps\": [{\"name\": \"Personnes à mobilité réduite\", \"status\": \"accessible\"}, {\"name\": \"Personnes déficientes visuelles\", \"status\": \"undefined\"}, {\"name\": \"Personnes déficientes auditives\", \"status\": \"undefined\"}, {\"name\": \"Personnes déficientes mentales\", \"status\": \"undefined\"}, {\"name\": \"Accueil en langue des signes\", \"status\": \"undefined\"}]}", "latitude": 48.833499, "longitude": 2.468102, "url": "https://www.paris.fr/lieux/jardin-d-agronomie-tropicale-rene-dumont-1813", "type_element": "Parcs, Jardins et Bois", "__fid": 1143}}, {"type": "Feature", "properties": {"highway": "path", "footway": null, "name": null, "surface": null, "lit": null, "length_m": 199.16, "type_element": "Way", "__fid": 123768}, "geometry": {"type": "LineString", "coordinates": [[2.4617679, 48.833237899999986], [2.4613321, 48.8329209], [2.4612631, 48.8328848], [2.4611481, 48.83289760000001], [2.4611056, 48.83291280000002], [2.4609729, 48.8328988], [2.4608083, 48.8328487], [2.4607535, 48.8328126], [2.4606119, 48.8327928], [2.4604615, 48.8327217], [2.4603872, 48.832639], [2.4603306, 48.8326017], [2.4602492, 48.8324911], [2.4601483, 48.83243169999999], [2.4600616, 48.832349], [2.4600917, 48.83226040000001], [2.460028, 48.8322045], [2.4600026, 48.8321096]]}}, {"type": "Feature", "properties": {"highway": "track", "footway": null, "name": "Route des Merisiers", "surface": "asphalt", "lit": "no", "length_m": 108.92, "type_element": "Way", "__fid": 123769}, "geometry": {"type": "LineString", "coordinates": [[2.4614652, 48.8319459], [2.4604336, 48.8320699], [2.4600026, 48.8321096]]}}, {"type": "Feature", "properties": {"highway": "path", "footway": null, "name": null, "surface": null, "lit": null, "length_m": 89.39, "type_element": "Way", "__fid": 123799}, "geometry": {"type": "LineString", "coordinates": [[2.4602246, 48.831707600000016], [2.4603659, 48.8317068], [2.4606332, 48.8317464], [2.4608095, 48.8318094], [2.4610985, 48.8317687], [2.4612094, 48.8317283], [2.4613874, 48.83171140000002]]}}, {"type": "Feature", "properties": {"highway": "path", "footway": null, "name": null, "surface": "dirt", "lit": "no", "length_m": 101.02, "type_element": "Way", "__fid": 123889}, "geometry": {"type": "LineString", "coordinates": [[2.461109, 48.8351429], [2.4614739, 48.8350833], [2.4618749, 48.83499329999999], [2.4622411, 48.8349518], [2.4624458, 48.834941700000016]]}}, {"type": "Feature", "properties": {"highway": "path", "footway": null, "name": null, "surface": null, "lit": null, "length_m": 94.32, "type_element": "Way", "__fid": 123891}, "geometry": {"type": "LineString", "coordinates": [[2.4619427, 48.8311794], [2.4611801, 48.8304967]]}}, {"type": "Feature", "properties": {"highway": "path", "footway": null, "name": null, "surface": null, "lit": null, "length_m": 59.52, "type_element": "Way", "__fid": 123892}, "geometry": {"type": "LineString", "coordinates": [[2.4611801, 48.8304967], [2.4614672, 48.830360800000015], [2.4617223, 48.8301101]]}}, {"type": "Feature", "properties": {"highway": "track", "footway": null, "name": "Route de la Cascade", "surface": "asphalt", "lit": null, "length_m": 105.39, "type_element": "Way", "__fid": 123893}, "geometry": {"type": "LineString", "coordinates": [[2.4611686, 48.8350339], [2.4613992, 48.8347614], [2.461476, 48.83456920000001], [2.461495, 48.8344274], [2.4614904, 48.834132900000014]]}}, {"type": "Feature", "properties": {"highway": "path", "footway": null, "name": null, "surface": "dirt", "lit": null, "length_m": 31.03, "type_element": "Way", "__fid": 123898}, "geometry": {"type": "LineString", "coordinates": [[2.4612264, 48.8336574], [2.4615959, 48.8337929]]}}, {"type": "Feature", "properties": {"highway": "path", "footway": null, "name": null, "surface": null, "lit": null, "length_m": 61.88, "type_element": "Way", "__fid": 123899}, "geometry": {"type": "LineString", "coordinates": [[2.4617679, 48.833237899999986], [2.4616735, 48.8333261], [2.4615661, 48.8334452], [2.4614272, 48.8335505], [2.4612264, 48.8336574]]}}, {"type": "Feature", "properties": {"highway": "track", "footway": null, "name": "Route du Bosquet Mortemart", "surface": "ground", "lit": null, "length_m": 32.09, "type_element": "Way", "__fid": 123905}, "geometry": {"type": "LineString", "coordinates": [[2.4617223, 48.8301101], [2.4613551, 48.8299535]]}}, {"type": "Feature", "properties": {"highway": "path", "footway": null, "name": null, "surface": null, "lit": null, "length_m": 102.76, "type_element": "Way", "__fid": 123906}, "geometry": {"type": "LineString", "coordinates": [[2.4625684, 48.8295978], [2.462486, 48.8296106], [2.4618851, 48.8296389], [2.4613551, 48.8299535]]}}, {"type": "Feature", "properties": {"highway": "path", "footway": null, "name": null, "surface": null, "lit": null, "length_m": 26.69, "type_element": "Way", "__fid": 123907}, "geometry": {"type": "LineString", "coordinates": [[2.4614652, 48.8319459], [2.4613874, 48.83171140000002]]}}, {"type": "Feature", "properties": {"highway": "path", "footway": null, "name": null, "surface": null, "lit": null, "length_m": 71.85, "type_element": "Way", "__fid": 123908}, "geometry": {"type": "LineString", "coordinates": [[2.4613874, 48.83171140000002], [2.4616087, 48.8314905], [2.4619427, 48.8311794]]}}, {"type": "Feature", "properties": {"highway": "track", "footway": null, "name": "Route Circulaire", "surface": "asphalt", "lit": "no", "length_m": 11.41, "type_element": "Way", "__fid": 123912}, "geometry": {"type": "LineString", "coordinates": [[2.4614904, 48.834132900000014], [2.4613767, 48.8340629]]}}, {"type": "Feature", "properties": {"highway": "path", "footway": null, "name": null, "surface": null, "lit": null, "length_m": 116.57, "type_element": "Way", "__fid": 123914}, "geometry": {"type": "LineString", "coordinates": [[2.4621934, 48.8328415], [2.4620161, 48.8327387], [2.4619584, 48.8326875], [2.4619268, 48.8326307], [2.461671, 48.8324152], [2.4616348, 48.8323534], [2.4616233, 48.8322971], [2.461584, 48.832254], [2.461557, 48.83219420000001], [2.4615139, 48.83213580000001], [2.4614715, 48.83203190000001], [2.4614652, 48.8319459]]}}, {"type": "Feature", "properties": {"highway": "track", "footway": null, "name": "Route des Merisiers", "surface": "asphalt", "lit": "no", "length_m": 139.55, "type_element": "Way", "__fid": 123915}, "geometry": {"type": "LineString", "coordinates": [[2.4633355, 48.8317212], [2.4614652, 48.8319459]]}}, {"type": "Feature", "properties": {"highway": "track", "footway": null, "name": "Route Ronde des Minimes", "surface": "asphalt", "lit": "no", "length_m": 114.65, "type_element": "Way", "__fid": 123916}, "geometry": {"type": "LineString", "coordinates": [[2.4614904, 48.834132900000014], [2.4620011, 48.8344879], [2.4623346, 48.83480029999998], [2.4624458, 48.834941700000016]]}}, {"type": "Feature", "properties": {"highway": "service", "footway": null, "name": "Route de la Cascade", "surface": null, "lit": null, "length_m": 38.94, "type_element": "Way", "__fid": 123917}, "geometry": {"type": "LineString", "coordinates": [[2.4615959, 48.8337929], [2.4615048, 48.833971], [2.4614904, 48.834132900000014]]}}, {"type": "Feature", "properties": {"highway": "path", "footway": null, "name": null, "surface": "dirt", "lit": null, "length_m": 22.65, "type_element": "Way", "__fid": 123921}, "geometry": {"type": "LineString", "coordinates": [[2.4619044, 48.833798], [2.4615959, 48.8337929]]}}, {"type": "Feature", "properties": {"highway": "service", "footway": null, "name": "Route de la Cascade", "surface": null, "lit": null, "length_m": 84.53, "type_element": "Way", "__fid": 123922}, "geometry": {"type": "LineString", "coordinates": [[2.4621927, 48.8331431], [2.4618564, 48.83348750000001], [2.4615959, 48.8337929]]}}, {"type": "Feature", "properties": {"highway": "track", "footway": null, "name": "Route du Bosquet Mortemart", "surface": "ground", "lit": null, "length_m": 222.57, "type_element": "Way", "__fid": 123926}, "geometry": {"type": "LineString", "coordinates": [[2.4642584, 48.831207], [2.4617223, 48.8301101]]}}, {"type": "Feature", "properties": {"highway": "path", "footway": null, "name": null, "surface": null, "lit": null, "length_m": 96.07, "type_element": "Way", "__fid": 123927}, "geometry": {"type": "LineString", "coordinates": [[2.4617223, 48.8301101], [2.4619363, 48.8299392], [2.4621779, 48.8299612], [2.4623054, 48.8298757], [2.4625307, 48.8297539], [2.4625844, 48.8297044], [2.4625897, 48.8296744], [2.4625684, 48.8295978]]}}, {"type": "Feature", "properties": {"highway": "path", "footway": null, "name": null, "surface": null, "lit": null, "length_m": 54.61, "type_element": "Way", "__fid": 123932}, "geometry": {"type": "LineString", "coordinates": [[2.4621934, 48.8328415], [2.4621277, 48.8328981], [2.4620518, 48.833014100000014], [2.4619245, 48.8331302], [2.4618125, 48.8331962], [2.4617679, 48.833237899999986]]}}, {"type": "Feature", "properties": {"highway": "path", "footway": null, "name": null, "surface": null, "lit": null, "length_m": 151.01, "type_element": "Way", "__fid": 123938}, "geometry": {"type": "LineString", "coordinates": [[2.4631967, 48.8347426], [2.463102, 48.8347302], [2.4629585, 48.8346861], [2.4625348, 48.8344795], [2.4623805, 48.83442920000002], [2.4623363, 48.83440179999999], [2.4622759, 48.8343189], [2.4620721, 48.83418640000002], [2.4620385, 48.8341485], [2.4620157, 48.83409549999999], [2.4619862, 48.8339596], [2.4619138, 48.8338422], [2.4619044, 48.833798]]}}, {"type": "Feature", "properties": {"highway": "path", "footway": null, "name": null, "surface": null, "lit": null, "length_m": 55.25, "type_element": "Way", "__fid": 123939}, "geometry": {"type": "LineString", "coordinates": [[2.4619044, 48.833798], [2.4619353, 48.8337], [2.4619795, 48.8336418], [2.4620546, 48.8335694], [2.4621861, 48.8334943], [2.4622692, 48.8334325], [2.4623014, 48.833391100000014]]}}, {"type": "Feature", "properties": {"highway": "path", "footway": null, "name": null, "surface": "dirt", "lit": null, "length_m": 121.77, "type_element": "Way", "__fid": 123940}, "geometry": {"type": "LineString", "coordinates": [[2.4634132, 48.8338235], [2.4632522, 48.833903100000015], [2.463153, 48.8339401], [2.4630591, 48.8339499], [2.4629733, 48.8339375], [2.4628848, 48.8339128], [2.4627829, 48.83390570000001], [2.4625911, 48.8339304], [2.4625052, 48.8339295], [2.4624154, 48.83390130000002], [2.4622652, 48.8338051], [2.4622142, 48.8337839], [2.4621351, 48.8337786], [2.4619044, 48.833798]]}}, {"type": "Feature", "properties": {"highway": "path", "footway": null, "name": null, "surface": null, "lit": null, "length_m": 129.79, "type_element": "Way", "__fid": 123941}, "geometry": {"type": "LineString", "coordinates": [[2.4619427, 48.8311794], [2.4621076, 48.8311601], [2.4622031, 48.8311236], [2.4623078, 48.8311398], [2.4627947, 48.8313771], [2.4629595, 48.8315505], [2.4631074, 48.831658], [2.4633355, 48.8317212]]}}, {"type": "Feature", "properties": {"highway": "path", "footway": null, "name": null, "surface": null, "lit": null, "length_m": 173.99, "type_element": "Way", "__fid": 123950}, "geometry": {"type": "LineString", "coordinates": [[2.4638378, 48.8317788], [2.4637213, 48.83178140000001], [2.4634248, 48.83191279999998], [2.4633536, 48.831929], [2.4631983, 48.8320473], [2.4628796, 48.8322479], [2.4627698, 48.8324062], [2.4625375, 48.8326099], [2.4624009, 48.8326798], [2.4621934, 48.8328415]]}}, {"type": "Feature", "properties": {"highway": "path", "footway": null, "name": null, "surface": null, "lit": null, "length_m": 16.56, "type_element": "Way", "__fid": 123951}, "geometry": {"type": "LineString", "coordinates": [[2.4621927, 48.8331431], [2.4623792, 48.833226899999985]]}}, {"type": "Feature", "properties": {"highway": "service", "footway": null, "name": "Route de la Cascade", "surface": null, "lit": null, "length_m": 194.4, "type_element": "Way", "__fid": 123952}, "geometry": {"type": "LineString", "coordinates": [[2.4638378, 48.8317788], [2.4635874, 48.8319591], [2.463367, 48.83209760000001], [2.462955, 48.8324649], [2.4624743, 48.8328547], [2.4621927, 48.8331431]]}}, {"type": "Feature", "properties": {"highway": "path", "footway": null, "name": null, "surface": "compacted", "lit": null, "length_m": 61.8, "type_element": "Way", "__fid": 123956}, "geometry": {"type": "LineString", "coordinates": [[2.46227, 48.835927], [2.4622739, 48.8358306], [2.4624434, 48.8356512], [2.4627137, 48.8354791]]}}, {"type": "Feature", "properties": {"highway": "path", "footway": null, "name": null, "surface": null, "lit": null, "length_m": 97.87, "type_element": "Way", "__fid": 123957}, "geometry": {"type": "LineString", "coordinates": [[2.4634132, 48.8338235], [2.463271, 48.83373], [2.4630578, 48.8336347], [2.4629545, 48.8336065], [2.4626876, 48.83358], [2.4625736, 48.8335597], [2.4623537, 48.8334387], [2.4623014, 48.833391100000014]]}}, {"type": "Feature", "properties": {"highway": "path", "footway": null, "name": null, "surface": null, "lit": null, "length_m": 19.43, "type_element": "Way", "__fid": 123958}, "geometry": {"type": "LineString", "coordinates": [[2.4623014, 48.833391100000014], [2.4623349, 48.8332728], [2.4623792, 48.833226899999985]]}}, {"type": "Feature", "properties": {"highway": "path", "footway": null, "name": null, "surface": null, "lit": null, "length_m": 54.47, "type_element": "Way", "__fid": 123965}, "geometry": {"type": "LineString", "coordinates": [[2.4623792, 48.833226899999985], [2.4628311, 48.8328384]]}}, {"type": "Feature", "properties": {"highway": "track", "footway": null, "name": "Route Ronde des Minimes", "surface": "asphalt", "lit": "no", "length_m": 34.67, "type_element": "Way", "__fid": 123971}, "geometry": {"type": "LineString", "coordinates": [[2.4624458, 48.834941700000016], [2.4626257, 48.83523]]}}, {"type": "Feature", "properties": {"highway": "path", "footway": null, "name": null, "surface": "woodchips", "lit": null, "length_m": 60.34, "type_element": "Way", "__fid": 123972}, "geometry": {"type": "LineString", "coordinates": [[2.4624458, 48.834941700000016], [2.4625106, 48.8349063], [2.4626658, 48.8348973], [2.4630075, 48.8348137], [2.4631967, 48.8347426]]}}, {"type": "Feature", "properties": {"highway": "service", "footway": null, "name": "Route de la Ménagerie", "surface": "asphalt", "lit": null, "length_m": 12.13, "type_element": "Way", "__fid": 123980}, "geometry": {"type": "LineString", "coordinates": [[2.4626257, 48.83523], [2.4627674, 48.8352861]]}}, {"type": "Feature", "properties": {"highway": "track", "footway": null, "name": "Route Ronde des Minimes", "surface": "asphalt", "lit": "no", "length_m": 28.44, "type_element": "Way", "__fid": 123981}, "geometry": {"type": "LineString", "coordinates": [[2.4627137, 48.8354791], [2.4626257, 48.83523]]}}, {"type": "Feature", "properties": {"highway": "track", "footway": null, "name": "Route Ronde des Minimes", "surface": "asphalt", "lit": "no", "length_m": 148.86, "type_element": "Way", "__fid": 123985}, "geometry": {"type": "LineString", "coordinates": [[2.462703, 48.8368059], [2.4627626, 48.8366444], [2.4628316, 48.83606980000001], [2.4627874, 48.8357764], [2.4627137, 48.8354791]]}}, {"type": "Feature", "properties": {"highway": "service", "footway": null, "name": "Route de la Ménagerie", "surface": "asphalt", "lit": null, "length_m": 174.53, "type_element": "Way", "__fid": 123987}, "geometry": {"type": "LineString", "coordinates": [[2.4627674, 48.8352861], [2.4629948, 48.835387899999986], [2.4631731, 48.8354567], [2.4634105, 48.8355397], [2.4636197, 48.835598], [2.464069, 48.8356827], [2.4642956, 48.8357127], [2.4648347, 48.8357445], [2.4649957, 48.835741]]}}, {"type": "Feature", "properties": {"highway": "path", "footway": null, "name": null, "surface": "gravel", "lit": null, "length_m": 44.97, "type_element": "Way", "__fid": 123988}, "geometry": {"type": "LineString", "coordinates": [[2.4632722, 48.8350982], [2.4631081, 48.8351535], [2.4627949, 48.83522459999998], [2.4627674, 48.8352861]]}}, {"type": "Feature", "properties": {"highway": "path", "footway": null, "name": null, "surface": "dirt", "lit": null, "length_m": 134.71, "type_element": "Way", "__fid": 123989}, "geometry": {"type": "LineString", "coordinates": [[2.4628311, 48.8328384], [2.4630644, 48.8329223], [2.4630584, 48.8330604], [2.4639545, 48.8331274], [2.4644038, 48.8330675]]}}, {"type": "Feature", "properties": {"highway": "path", "footway": null, "name": null, "surface": null, "lit": null, "length_m": 45.15, "type_element": "Way", "__fid": 123990}, "geometry": {"type": "LineString", "coordinates": [[2.4628311, 48.8328384], [2.4631637, 48.8324968]]}}, {"type": "Feature", "properties": {"highway": "path", "footway": null, "name": null, "surface": "dirt", "lit": null, "length_m": 84.94, "type_element": "Way", "__fid": 124003}, "geometry": {"type": "LineString", "coordinates": [[2.4631637, 48.8324968], [2.4635379, 48.8326343], [2.4640504, 48.8326264], [2.4642415, 48.83255969999998]]}}, {"type": "Feature", "properties": {"highway": "path", "footway": null, "name": null, "surface": null, "lit": null, "length_m": 91.84, "type_element": "Way", "__fid": 124004}, "geometry": {"type": "LineString", "coordinates": [[2.4631637, 48.8324968], [2.4640312, 48.8319017]]}}, {"type": "Feature", "properties": {"highway": "path", "footway": null, "name": null, "surface": "woodchips", "lit": null, "length_m": 98.46, "type_element": "Way", "__fid": 124005}, "geometry": {"type": "LineString", "coordinates": [[2.4631967, 48.8347426], [2.4635446, 48.8346252], [2.463672, 48.8345607], [2.4637565, 48.8344265], [2.4640323, 48.83435890000001], [2.4641774, 48.8342041]]}}, {"type": "Feature", "properties": {"highway": "path", "footway": null, "name": null, "surface": "woodchips", "lit": null, "length_m": 114.24, "type_element": "Way", "__fid": 124007}, "geometry": {"type": "LineString", "coordinates": [[2.4632722, 48.8350982], [2.4637136, 48.835116], [2.464065, 48.8351195], [2.4642768, 48.8350789], [2.4645478, 48.8350436], [2.4646819, 48.8350383], [2.464813200000093, 48.835043566666684]]}}, {"type": "Feature", "properties": {"highway": "path", "footway": null, "name": null, "surface": "gravel", "lit": "no", "length_m": 123.33, "type_element": "Way", "__fid": 124008}, "geometry": {"type": "LineString", "coordinates": [[2.4644418, 48.8343603], [2.4644277, 48.83442329999998], [2.4642473, 48.834615], [2.4641958, 48.834647199999985], [2.4639208, 48.834733700000015], [2.4638048, 48.8348167], [2.4636787, 48.8348794], [2.4635103, 48.8349247], [2.4632965, 48.8350723], [2.4632722, 48.8350982]]}}, {"type": "Feature", "properties": {"highway": "track", "footway": null, "name": "Route des Merisiers", "surface": "asphalt", "lit": "no", "length_m": 52.16, "type_element": "Way", "__fid": 124009}, "geometry": {"type": "LineString", "coordinates": [[2.4640345, 48.8316372], [2.4633355, 48.8317212]]}}, {"type": "Feature", "properties": {"highway": "path", "footway": null, "name": null, "surface": "dirt", "lit": null, "length_m": 29.08, "type_element": "Way", "__fid": 124012}, "geometry": {"type": "LineString", "coordinates": [[2.4637854, 48.8339035], [2.4636321, 48.8338913], [2.4634132, 48.8338235]]}}, {"type": "Feature", "properties": {"highway": "path", "footway": null, "name": null, "surface": "dirt", "lit": null, "length_m": 46.38, "type_element": "Way", "__fid": 124016}, "geometry": {"type": "LineString", "coordinates": [[2.4644127, 48.83395320000001], [2.4637854, 48.8339035]]}}, {"type": "Feature", "properties": {"highway": "footway", "footway": null, "name": null, "surface": "dirt", "lit": null, "length_m": 46.43, "type_element": "Way", "__fid": 124017}, "geometry": {"type": "LineString", "coordinates": [[2.4641774, 48.8342041], [2.4639811, 48.8340175], [2.463893, 48.8340145], [2.4638211, 48.8339496], [2.4637854, 48.8339035]]}}, {"type": "Feature", "properties": {"highway": "service", "footway": null, "name": "Route de la Cascade", "surface": null, "lit": null, "length_m": 21.36, "type_element": "Way", "__fid": 124018}, "geometry": {"type": "LineString", "coordinates": [[2.4640345, 48.8316372], [2.4638378, 48.8317788]]}}, {"type": "Feature", "properties": {"highway": "path", "footway": null, "name": null, "surface": null, "lit": null, "length_m": 40.31, "type_element": "Way", "__fid": 124020}, "geometry": {"type": "LineString", "coordinates": [[2.4640031, 48.82993530000001], [2.4639954, 48.8297448], [2.4639451, 48.8295761]]}}, {"type": "Feature", "properties": {"highway": "path", "footway": null, "name": null, "surface": null, "lit": null, "length_m": 130.19, "type_element": "Way", "__fid": 124023}, "geometry": {"type": "LineString", "coordinates": [[2.4642566, 48.83103949999999], [2.4641489, 48.8308607], [2.4640316, 48.8307786], [2.4639671, 48.8306535], [2.4639578, 48.8304409], [2.4640711, 48.8301774], [2.4640046, 48.8299732], [2.4640031, 48.82993530000001]]}}, {"type": "Feature", "properties": {"highway": "path", "footway": null, "name": null, "surface": "woodchips", "lit": null, "length_m": 74.78, "type_element": "Way", "__fid": 124024}, "geometry": {"type": "LineString", "coordinates": [[2.4642415, 48.83255969999998], [2.4640312, 48.8319017]]}}, {"type": "Feature", "properties": {"highway": "path", "footway": null, "name": null, "surface": "woodchips", "lit": null, "length_m": 30.23, "type_element": "Way", "__fid": 124025}, "geometry": {"type": "LineString", "coordinates": [[2.4640312, 48.8319017], [2.4640703, 48.83170050000001], [2.4640623, 48.8316664], [2.4640345, 48.8316372]]}}, {"type": "Feature", "properties": {"highway": "service", "footway": null, "name": "Route de la Cascade", "surface": "concrete", "lit": null, "length_m": 47.48, "type_element": "Way", "__fid": 124026}, "geometry": {"type": "LineString", "coordinates": [[2.4643935, 48.831282], [2.4640345, 48.8316372]]}}, {"type": "Feature", "properties": {"highway": "track", "footway": null, "name": "Route des Merisiers", "surface": "asphalt", "lit": null, "length_m": 112.74, "type_element": "Way", "__fid": 124027}, "geometry": {"type": "LineString", "coordinates": [[2.4655445, 48.8314534], [2.4653741, 48.8314669], [2.4640345, 48.8316372]]}}, {"type": "Feature", "properties": {"highway": "footway", "footway": null, "name": null, "surface": "dirt", "lit": null, "length_m": 27.57, "type_element": "Way", "__fid": 124036}, "geometry": {"type": "LineString", "coordinates": [[2.4644418, 48.8343603], [2.4644209, 48.8343387], [2.4643936, 48.8343273], [2.4642253, 48.8342762], [2.4641774, 48.8342041]]}}, {"type": "Feature", "properties": {"highway": "path", "footway": null, "name": null, "surface": "woodchips", "lit": null, "length_m": 32.81, "type_element": "Way", "__fid": 124037}, "geometry": {"type": "LineString", "coordinates": [[2.4641774, 48.8342041], [2.4644127, 48.83395320000001]]}}, {"type": "Feature", "properties": {"highway": "path", "footway": null, "name": null, "surface": null, "lit": null, "length_m": 19.08, "type_element": "Way", "__fid": 124039}, "geometry": {"type": "LineString", "coordinates": [[2.4642584, 48.831207], [2.4642815, 48.83108080000002], [2.4642566, 48.83103949999999]]}}, {"type": "Feature", "properties": {"highway": "path", "footway": null, "name": null, "surface": "woodchips", "lit": null, "length_m": 57.71, "type_element": "Way", "__fid": 124040}, "geometry": {"type": "LineString", "coordinates": [[2.4644038, 48.8330675], [2.4642415, 48.83255969999998]]}}, {"type": "Feature", "properties": {"highway": "track", "footway": null, "name": "Route du Bosquet Mortemart", "surface": "ground", "lit": null, "length_m": 12.96, "type_element": "Way", "__fid": 124041}, "geometry": {"type": "LineString", "coordinates": [[2.4643935, 48.831282], [2.4642584, 48.831207]]}}, {"type": "Feature", "properties": {"highway": "path", "footway": null, "name": null, "surface": "compacted", "lit": null, "length_m": 270.7, "type_element": "Way", "__fid": 124042}, "geometry": {"type": "LineString", "coordinates": [[2.4647315, 48.8297667], [2.4645826, 48.8295177], [2.4644589, 48.8292183], [2.4643907, 48.8290853], [2.4642836, 48.8289107], [2.4642313, 48.828754500000024], [2.4643024, 48.8286367], [2.4643271, 48.8284971], [2.4643372, 48.8284675], [2.4643674, 48.8284419], [2.4643694, 48.8283713], [2.4644378, 48.8282225], [2.4644659, 48.8281179], [2.464457, 48.827836900000015], [2.4644673, 48.82764909999999], [2.4643771, 48.8275205], [2.4643623, 48.8274265]]}}, {"type": "Feature", "properties": {"highway": "service", "footway": null, "name": "Route de la Cascade", "surface": "asphalt", "lit": null, "length_m": 17.05, "type_element": "Way", "__fid": 124045}, "geometry": {"type": "LineString", "coordinates": [[2.4645146, 48.8311512], [2.4643935, 48.831282]]}}, {"type": "Feature", "properties": {"highway": "path", "footway": null, "name": null, "surface": "woodchips", "lit": null, "length_m": 101.63, "type_element": "Way", "__fid": 124046}, "geometry": {"type": "LineString", "coordinates": [[2.4644127, 48.83395320000001], [2.4645627, 48.8337167], [2.4644038, 48.8330675]]}}, {"type": "Feature", "properties": {"highway": "path", "footway": null, "name": null, "surface": "dirt", "lit": null, "length_m": 127.42, "type_element": "Way", "__fid": 124049}, "geometry": {"type": "LineString", "coordinates": [[2.4650292, 48.8347505], [2.4648809, 48.83404190000001], [2.4644418, 48.8343603]]}}, {"type": "Feature", "properties": {"highway": "path", "footway": null, "name": null, "surface": "dirt", "lit": null, "length_m": 106.4, "type_element": "Way", "__fid": 124052}, "geometry": {"type": "LineString", "coordinates": [[2.4648783, 48.8302571], [2.4648656, 48.83032549999999], [2.464596, 48.83076470000001], [2.4644673, 48.8310357], [2.4644572, 48.83110809999999], [2.4645146, 48.8311512]]}}, {"type": "Feature", "properties": {"highway": "service", "footway": null, "name": "Route de la Cascade", "surface": "asphalt", "lit": null, "length_m": 89.85, "type_element": "Way", "__fid": 124053}, "geometry": {"type": "LineString", "coordinates": [[2.4650624, 48.8304324], [2.4649648, 48.8305324], [2.4647453, 48.8309021], [2.4645146, 48.8311512]]}}, {"type": "Feature", "properties": {"highway": "path", "footway": null, "name": null, "surface": "dirt", "lit": null, "length_m": 79.36, "type_element": "Way", "__fid": 124059}, "geometry": {"type": "LineString", "coordinates": [[2.4649957, 48.835741], [2.4649796, 48.83544970000001], [2.4649501, 48.83536849999999], [2.4648401, 48.83516369999998], [2.464813200000093, 48.835043566666684]]}}, {"type": "Feature", "properties": {"highway": "path", "footway": null, "name": null, "surface": "dirt", "lit": null, "length_m": 36.8, "type_element": "Way", "__fid": 124060}, "geometry": {"type": "LineString", "coordinates": [[2.464813200000093, 48.835043566666684], [2.4648374, 48.8349606], [2.4648911, 48.8348794], [2.4650292, 48.8347505]]}}, {"type": "Feature", "properties": {"highway": "path", "footway": null, "name": null, "surface": "dirt", "lit": null, "length_m": 122.22, "type_element": "Way", "__fid": 124066}, "geometry": {"type": "LineString", "coordinates": [[2.4650292, 48.8347505], [2.4650922, 48.8351372], [2.4651043, 48.83515570000002], [2.4657936, 48.8354788], [2.4659935, 48.8354753]]}}, {"type": "Feature", "properties": {"highway": "service", "footway": null, "name": null, "surface": null, "lit": null, "length_m": 89.81, "type_element": "Way", "__fid": 124072}, "geometry": {"type": "LineString", "coordinates": [[2.4655281, 48.8343224], [2.4653068, 48.8343383], [2.4653712, 48.83499770000001]]}}, {"type": "Feature", "properties": {"highway": "service", "footway": null, "name": null, "surface": null, "lit": null, "length_m": 32.71, "type_element": "Way", "__fid": 124076}, "geometry": {"type": "LineString", "coordinates": [[2.4654978, 48.834135], [2.4654676, 48.8338415]]}}, {"type": "Feature", "properties": {"highway": "service", "footway": null, "name": null, "surface": null, "lit": null, "length_m": 163.56, "type_element": "Way", "__fid": 124077}, "geometry": {"type": "LineString", "coordinates": [[2.46596, 48.8328766], [2.4654852, 48.8329126], [2.4654101, 48.8329285], [2.4653229, 48.83296639999999], [2.4652639, 48.8330079], [2.4652036, 48.8330627], [2.4651714, 48.8331165], [2.4651472, 48.8331827], [2.4651472, 48.8332436], [2.4652738, 48.833827], [2.4653283, 48.8338475], [2.4654676, 48.8338415]]}}, {"type": "Feature", "properties": {"highway": "service", "footway": null, "name": null, "surface": null, "lit": null, "length_m": 73.3, "type_element": "Way", "__fid": 124078}, "geometry": {"type": "LineString", "coordinates": [[2.4654676, 48.8338415], [2.4664641, 48.83379930000002]]}}, {"type": "Feature", "properties": {"highway": "service", "footway": null, "name": null, "surface": null, "lit": null, "length_m": 20.96, "type_element": "Way", "__fid": 124081}, "geometry": {"type": "LineString", "coordinates": [[2.4655281, 48.8343224], [2.4654978, 48.834135]]}}, {"type": "Feature", "properties": {"highway": "track", "footway": null, "name": null, "surface": null, "lit": null, "length_m": 70.18, "type_element": "Way", "__fid": 124082}, "geometry": {"type": "LineString", "coordinates": [[2.4654978, 48.834135], [2.4659613, 48.8340999], [2.4660686, 48.83410519999999], [2.4661403, 48.8341375], [2.4661785, 48.8342001], [2.4661977, 48.8343268]]}}, {"type": "Feature", "properties": {"highway": "service", "footway": null, "name": null, "surface": null, "lit": null, "length_m": 10.66, "type_element": "Way", "__fid": 124083}, "geometry": {"type": "LineString", "coordinates": [[2.4656725, 48.83431190000002], [2.4655281, 48.8343224]]}}, {"type": "Feature", "properties": {"highway": "service", "footway": null, "name": null, "surface": null, "lit": null, "length_m": 11.11, "type_element": "Way", "__fid": 124086}, "geometry": {"type": "LineString", "coordinates": [[2.4656468, 48.8351292], [2.465793, 48.8351032]]}}, {"type": "Feature", "properties": {"highway": "service", "footway": null, "name": null, "surface": null, "lit": null, "length_m": 89.12, "type_element": "Way", "__fid": 124087}, "geometry": {"type": "LineString", "coordinates": [[2.4656725, 48.83431190000002], [2.4657454, 48.834637499999985], [2.4658124, 48.8347867], [2.465793, 48.8351032]]}}, {"type": "Feature", "properties": {"highway": "service", "footway": null, "name": null, "surface": null, "lit": null, "length_m": 39.45, "type_element": "Way", "__fid": 124088}, "geometry": {"type": "LineString", "coordinates": [[2.4661977, 48.8343268], [2.4660954, 48.8342968], [2.4659881, 48.83428879999999], [2.4656725, 48.83431190000002]]}}, {"type": "Feature", "properties": {"highway": "service", "footway": null, "name": null, "surface": null, "lit": null, "length_m": 45.09, "type_element": "Way", "__fid": 124091}, "geometry": {"type": "LineString", "coordinates": [[2.465793, 48.8351032], [2.4658084, 48.8352228], [2.465858, 48.835351], [2.4659935, 48.8354753]]}}, {"type": "Feature", "properties": {"highway": "service", "footway": null, "name": null, "surface": null, "lit": null, "length_m": 110.55, "type_element": "Way", "__fid": 124092}, "geometry": {"type": "LineString", "coordinates": [[2.465793, 48.8351032], [2.4659117, 48.8350639], [2.4661249, 48.8350374], [2.4662161, 48.8350171], [2.4662536, 48.834981800000016], [2.466259, 48.8348256], [2.4661977, 48.8343268]]}}, {"type": "Feature", "properties": {"highway": "service", "footway": null, "name": null, "surface": null, "lit": null, "length_m": 13.93, "type_element": "Way", "__fid": 124093}, "geometry": {"type": "LineString", "coordinates": [[2.46596, 48.8328766], [2.4659894, 48.8329289], [2.4659997, 48.8329981]]}}, {"type": "Feature", "properties": {"highway": "service", "footway": null, "name": null, "surface": "compacted", "lit": null, "length_m": 61.17, "type_element": "Way", "__fid": 124094}, "geometry": {"type": "LineString", "coordinates": [[2.4665688, 48.8325035], [2.4663322, 48.8326546], [2.4661648, 48.8327325], [2.46596, 48.8328766]]}}, {"type": "Feature", "properties": {"highway": "service", "footway": null, "name": null, "surface": null, "lit": null, "length_m": 103.38, "type_element": "Way", "__fid": 124095}, "geometry": {"type": "LineString", "coordinates": [[2.4659997, 48.8329981], [2.4659559, 48.83325330000002], [2.4659685, 48.8333302], [2.4660268, 48.8334685], [2.4660929, 48.8335681], [2.4661757, 48.8336549], [2.4662645, 48.8337164], [2.4664641, 48.83379930000002]]}}, {"type": "Feature", "properties": {"highway": "path", "footway": null, "name": null, "surface": null, "lit": null, "length_m": 7.66, "type_element": "Way", "__fid": 124096}, "geometry": {"type": "LineString", "coordinates": [[2.4659997, 48.8329981], [2.466104, 48.832996]]}}, {"type": "Feature", "properties": {"highway": "path", "footway": null, "name": null, "surface": "dirt", "lit": null, "length_m": 191.9, "type_element": "Way", "__fid": 124097}, "geometry": {"type": "LineString", "coordinates": [[2.4659935, 48.8354753], [2.4661759, 48.8354841], [2.4664159, 48.8355229], [2.4664722, 48.8355203], [2.4666251, 48.8354726], [2.4669497, 48.8354576], [2.4669671, 48.8354514], [2.4670663, 48.8352802], [2.4671669, 48.8352051], [2.4672608, 48.835176], [2.4674365, 48.8351407], [2.4674968, 48.8351407], [2.4675344, 48.8351531], [2.4679045, 48.83538170000001], [2.4680105, 48.835455], [2.4680816, 48.83553]]}}, {"type": "Feature", "properties": {"highway": "path", "footway": null, "name": null, "surface": "dirt", "lit": null, "length_m": 24.49, "type_element": "Way", "__fid": 124098}, "geometry": {"type": "LineString", "coordinates": [[2.4659935, 48.8354753], [2.4660386, 48.8355146], [2.4660835, 48.835683]]}}, {"type": "Feature", "properties": {"highway": "path", "footway": null, "name": null, "surface": null, "lit": null, "length_m": 60.27, "type_element": "Way", "__fid": 124099}, "geometry": {"type": "LineString", "coordinates": [[2.466104, 48.832996], [2.4667377, 48.8333407]]}}, {"type": "Feature", "properties": {"highway": "path", "footway": null, "name": null, "surface": null, "lit": null, "length_m": 61.38, "type_element": "Way", "__fid": 124100}, "geometry": {"type": "LineString", "coordinates": [[2.466104, 48.832996], [2.4664575, 48.83296379999999], [2.4665165, 48.8329673], [2.4665876, 48.8329859], [2.4667834, 48.833098], [2.4668062, 48.8331209], [2.4668169, 48.8331483]]}}, {"type": "Feature", "properties": {"highway": "track", "footway": null, "name": null, "surface": null, "lit": null, "length_m": 22.87, "type_element": "Way", "__fid": 124102}, "geometry": {"type": "LineString", "coordinates": [[2.4661977, 48.8343268], [2.4665085, 48.8343122]]}}, {"type": "Feature", "properties": {"highway": "service", "footway": null, "name": null, "surface": null, "lit": null, "length_m": 5.77, "type_element": "Way", "__fid": 124105}, "geometry": {"type": "LineString", "coordinates": [[2.4664641, 48.83379930000002], [2.4665101, 48.833841399999976]]}}, {"type": "Feature", "properties": {"highway": "track", "footway": null, "name": null, "surface": "gravel", "lit": null, "length_m": 14.2, "type_element": "Way", "__fid": 124106}, "geometry": {"type": "LineString", "coordinates": [[2.4664641, 48.83379930000002], [2.466535, 48.8336805]]}}, {"type": "Feature", "properties": {"highway": "track", "footway": null, "name": null, "surface": "compacted", "lit": null, "length_m": 50.74, "type_element": "Way", "__fid": 124107}, "geometry": {"type": "LineString", "coordinates": [[2.4665101, 48.833841399999976], [2.4667438, 48.8339763], [2.466957, 48.8340764], [2.4670615, 48.8341142]]}}, {"type": "Feature", "properties": {"highway": "service", "footway": null, "name": null, "surface": null, "lit": null, "length_m": 41.06, "type_element": "Way", "__fid": 124108}, "geometry": {"type": "LineString", "coordinates": [[2.4665101, 48.833841399999976], [2.4665131, 48.83421070000002]]}}, {"type": "Feature", "properties": {"highway": "service", "footway": null, "name": null, "surface": null, "lit": null, "length_m": 37.3, "type_element": "Way", "__fid": 124109}, "geometry": {"type": "LineString", "coordinates": [[2.4665085, 48.8343122], [2.4665461, 48.8346467]]}}, {"type": "Feature", "properties": {"highway": "service", "footway": null, "name": null, "surface": null, "lit": null, "length_m": 11.29, "type_element": "Way", "__fid": 124110}, "geometry": {"type": "LineString", "coordinates": [[2.4665131, 48.83421070000002], [2.4665085, 48.8343122]]}}, {"type": "Feature", "properties": {"highway": "path", "footway": null, "name": null, "surface": null, "lit": null, "length_m": 41.74, "type_element": "Way", "__fid": 124111}, "geometry": {"type": "LineString", "coordinates": [[2.4665131, 48.83421070000002], [2.466888, 48.8341335], [2.4670615, 48.8341142]]}}, {"type": "Feature", "properties": {"highway": "path", "footway": null, "name": null, "surface": null, "lit": null, "length_m": 70.58, "type_element": "Way", "__fid": 124112}, "geometry": {"type": "LineString", "coordinates": [[2.466535, 48.8336805], [2.466664, 48.8337036], [2.4667475, 48.8336999], [2.4668425, 48.8336492], [2.4671368, 48.8336833], [2.4672823, 48.8337247], [2.4673976, 48.8338024]]}}, {"type": "Feature", "properties": {"highway": "track", "footway": null, "name": null, "surface": "gravel", "lit": null, "length_m": 40.61, "type_element": "Way", "__fid": 124113}, "geometry": {"type": "LineString", "coordinates": [[2.466535, 48.8336805], [2.4667377, 48.8333407]]}}, {"type": "Feature", "properties": {"highway": "path", "footway": null, "name": null, "surface": null, "lit": null, "length_m": 34.38, "type_element": "Way", "__fid": 124114}, "geometry": {"type": "LineString", "coordinates": [[2.466998, 48.8346887], [2.4669557, 48.8347029], [2.4668679, 48.834702], [2.4666338, 48.8346556], [2.4665461, 48.8346467]]}}, {"type": "Feature", "properties": {"highway": "service", "footway": null, "name": null, "surface": null, "lit": null, "length_m": 34.42, "type_element": "Way", "__fid": 124115}, "geometry": {"type": "LineString", "coordinates": [[2.4665461, 48.8346467], [2.4665808, 48.83495540000003]]}}, {"type": "Feature", "properties": {"highway": "path", "footway": null, "name": null, "surface": null, "lit": null, "length_m": 32.14, "type_element": "Way", "__fid": 124118}, "geometry": {"type": "LineString", "coordinates": [[2.4667377, 48.8333407], [2.4671211, 48.8334802]]}}, {"type": "Feature", "properties": {"highway": "path", "footway": null, "name": null, "surface": null, "lit": null, "length_m": 22.17, "type_element": "Way", "__fid": 124119}, "geometry": {"type": "LineString", "coordinates": [[2.4667377, 48.8333407], [2.4668169, 48.8331483]]}}, {"type": "Feature", "properties": {"highway": "path", "footway": null, "name": null, "surface": null, "lit": null, "length_m": 43.81, "type_element": "Way", "__fid": 124121}, "geometry": {"type": "LineString", "coordinates": [[2.4668169, 48.8331483], [2.4668773, 48.8332216], [2.4670194, 48.8333275], [2.4670811, 48.8333902], [2.4671079, 48.8334334], [2.4671211, 48.8334802]]}}, {"type": "Feature", "properties": {"highway": "path", "footway": null, "name": null, "surface": null, "lit": null, "length_m": 7.86, "type_element": "Way", "__fid": 124122}, "geometry": {"type": "LineString", "coordinates": [[2.466998, 48.8346887], [2.466901, 48.8346588]]}}, {"type": "Feature", "properties": {"highway": "track", "footway": null, "name": null, "surface": "compacted", "lit": null, "length_m": 44.54, "type_element": "Way", "__fid": 124123}, "geometry": {"type": "LineString", "coordinates": [[2.4675399, 48.834869], [2.466998, 48.8346887]]}}, {"type": "Feature", "properties": {"highway": "track", "footway": null, "name": null, "surface": "gravel", "lit": null, "length_m": 64.13, "type_element": "Way", "__fid": 124124}, "geometry": {"type": "LineString", "coordinates": [[2.466998, 48.8346887], [2.4669816, 48.83439530000001], [2.4670047, 48.8343047], [2.4670744, 48.83420060000002], [2.4670972, 48.8341246]]}}, {"type": "Feature", "properties": {"highway": "track", "footway": null, "name": null, "surface": "compacted", "lit": null, "length_m": 2.86, "type_element": "Way", "__fid": 124125}, "geometry": {"type": "LineString", "coordinates": [[2.4670615, 48.8341142], [2.4670972, 48.8341246]]}}, {"type": "Feature", "properties": {"highway": "track", "footway": null, "name": null, "surface": "compacted", "lit": null, "length_m": 42.7, "type_element": "Way", "__fid": 124126}, "geometry": {"type": "LineString", "coordinates": [[2.4673976, 48.8338024], [2.4672917, 48.8339269], [2.4670615, 48.8341142]]}}, {"type": "Feature", "properties": {"highway": "track", "footway": null, "name": null, "surface": "compacted", "lit": null, "length_m": 95.24, "type_element": "Way", "__fid": 124127}, "geometry": {"type": "LineString", "coordinates": [[2.4670972, 48.8341246], [2.4675176, 48.83423410000001], [2.467926, 48.83430950000001], [2.468337, 48.8343709]]}}, {"type": "Feature", "properties": {"highway": "path", "footway": null, "name": null, "surface": null, "lit": null, "length_m": 31.54, "type_element": "Way", "__fid": 124128}, "geometry": {"type": "LineString", "coordinates": [[2.4671211, 48.8334802], [2.4674982, 48.833616200000016]]}}, {"type": "Feature", "properties": {"highway": "track", "footway": null, "name": null, "surface": "compacted", "lit": null, "length_m": 21.98, "type_element": "Way", "__fid": 124131}, "geometry": {"type": "LineString", "coordinates": [[2.4674982, 48.833616200000016], [2.4673976, 48.8338024]]}}, {"type": "Feature", "properties": {"highway": "path", "footway": null, "name": null, "surface": "dirt", "lit": "no", "length_m": 86.23, "type_element": "Way", "__fid": 124132}, "geometry": {"type": "LineString", "coordinates": [[2.4674982, 48.833616200000016], [2.4682291, 48.83379890000001], [2.4684195, 48.833881], [2.4685389, 48.8339569]]}}, {"type": "Feature", "properties": {"highway": "track", "footway": null, "name": null, "surface": "compacted", "lit": null, "length_m": 54.17, "type_element": "Way", "__fid": 124133}, "geometry": {"type": "LineString", "coordinates": [[2.4679261, 48.8332239], [2.4678684, 48.8332979], [2.4676061, 48.8334908], [2.4675451, 48.83355], [2.4674982, 48.833616200000016]]}}, {"type": "Feature", "properties": {"highway": "track", "footway": null, "name": null, "surface": "compacted", "lit": null, "length_m": 9.24, "type_element": "Way", "__fid": 124138}, "geometry": {"type": "LineString", "coordinates": [[2.4676525, 48.8349062], [2.4675399, 48.834869]]}}, {"type": "Feature", "properties": {"highway": "path", "footway": null, "name": null, "surface": "dirt", "lit": null, "length_m": 80.76, "type_element": "Way", "__fid": 124139}, "geometry": {"type": "LineString", "coordinates": [[2.468337, 48.8343709], [2.4682009, 48.83448219999999], [2.4677674, 48.83472780000001], [2.4675399, 48.834869]]}}, {"type": "Feature", "properties": {"highway": "track", "footway": null, "name": null, "surface": "compacted", "lit": null, "length_m": 31.24, "type_element": "Way", "__fid": 124141}, "geometry": {"type": "LineString", "coordinates": [[2.4676525, 48.8349062], [2.4680332, 48.83503180000001]]}}, {"type": "Feature", "properties": {"highway": "path", "footway": null, "name": null, "surface": "woodchips", "lit": null, "length_m": 77.31, "type_element": "Way", "__fid": 124142}, "geometry": {"type": "LineString", "coordinates": [[2.4676525, 48.8349062], [2.4676256, 48.8349664], [2.4676196, 48.8350171], [2.4676263, 48.835066099999985], [2.4676484, 48.8351045], [2.4676792, 48.83514250000001], [2.4677429, 48.835186200000024], [2.4678509, 48.83524220000002], [2.4679763, 48.8352731], [2.4680226, 48.8352762], [2.4680567, 48.8352608], [2.4682027, 48.835145]]}}, {"type": "Feature", "properties": {"highway": "path", "footway": null, "name": null, "surface": "woodchips", "lit": "no", "length_m": 26.69, "type_element": "Way", "__fid": 124143}, "geometry": {"type": "LineString", "coordinates": [[2.467798133333357, 48.835214433333334], [2.4679193, 48.835131], [2.4680332, 48.83503180000001]]}}, {"type": "Feature", "properties": {"highway": "track", "footway": null, "name": null, "surface": "compacted", "lit": null, "length_m": 12.56, "type_element": "Way", "__fid": 124146}, "geometry": {"type": "LineString", "coordinates": [[2.4680332, 48.83503180000001], [2.4681862, 48.8350823]]}}, {"type": "Feature", "properties": {"highway": "track", "footway": null, "name": null, "surface": "compacted", "lit": null, "length_m": 29.36, "type_element": "Way", "__fid": 124147}, "geometry": {"type": "LineString", "coordinates": [[2.4680332, 48.83503180000001], [2.4680977, 48.8349677], [2.4681553, 48.83493150000001], [2.4682787, 48.83489710000001], [2.468335, 48.8348697]]}}, {"type": "Feature", "properties": {"highway": "track", "footway": null, "name": "Avenue des Châtaigniers", "surface": "asphalt", "lit": null, "length_m": 133.77, "type_element": "Way", "__fid": 124148}, "geometry": {"type": "LineString", "coordinates": [[2.4692953, 48.8346328], [2.4690975, 48.834768099999984], [2.4680816, 48.83553]]}}, {"type": "Feature", "properties": {"highway": "track", "footway": null, "name": null, "surface": "compacted", "lit": null, "length_m": 7.5, "type_element": "Way", "__fid": 124149}, "geometry": {"type": "LineString", "coordinates": [[2.4681862, 48.8350823], [2.4681784, 48.835117699999984], [2.4682027, 48.835145]]}}, {"type": "Feature", "properties": {"highway": "track", "footway": null, "name": null, "surface": "compacted", "lit": null, "length_m": 10.72, "type_element": "Way", "__fid": 124150}, "geometry": {"type": "LineString", "coordinates": [[2.468312, 48.835074], [2.4682923, 48.8350632], [2.4682426, 48.835057], [2.4682182, 48.8350621], [2.4681862, 48.8350823]]}}, {"type": "Feature", "properties": {"highway": "track", "footway": null, "name": null, "surface": "compacted", "lit": null, "length_m": 16.69, "type_element": "Way", "__fid": 124151}, "geometry": {"type": "LineString", "coordinates": [[2.4682027, 48.835145], [2.4682493, 48.8351577], [2.468298, 48.8351486], [2.4683275, 48.8351216], [2.4683307, 48.8351049], [2.468312, 48.835074]]}}, {"type": "Feature", "properties": {"highway": "path", "footway": null, "name": null, "surface": "woodchips", "lit": null, "length_m": 23.77, "type_element": "Way", "__fid": 124152}, "geometry": {"type": "LineString", "coordinates": [[2.468312, 48.835074], [2.4683665, 48.8349769], [2.4683625, 48.834924], [2.468335, 48.8348697]]}}, {"type": "Feature", "properties": {"highway": "track", "footway": null, "name": null, "surface": "compacted", "lit": null, "length_m": 35.91, "type_element": "Way", "__fid": 124153}, "geometry": {"type": "LineString", "coordinates": [[2.468337, 48.8343709], [2.4688187, 48.83442730000002]]}}, {"type": "Feature", "properties": {"highway": "path", "footway": null, "name": null, "surface": null, "lit": null, "length_m": 48.81, "type_element": "Way", "__fid": 124154}, "geometry": {"type": "LineString", "coordinates": [[2.4685389, 48.8339569], [2.4684425, 48.8342455], [2.468337, 48.8343709]]}}, {"type": "Feature", "properties": {"highway": "track", "footway": null, "name": null, "surface": "compacted", "lit": null, "length_m": 64.86, "type_element": "Way", "__fid": 124155}, "geometry": {"type": "LineString", "coordinates": [[2.468335, 48.8348697], [2.4684839, 48.834764599999986], [2.4685644, 48.8347205], [2.4686877, 48.834694], [2.468736, 48.8346543], [2.4687655, 48.834596], [2.4688187, 48.83442730000002]]}}, {"type": "Feature", "properties": {"highway": "path", "footway": null, "name": null, "surface": "dirt", "lit": "no", "length_m": 58.51, "type_element": "Way", "__fid": 124156}, "geometry": {"type": "LineString", "coordinates": [[2.4685389, 48.8339569], [2.4686703, 48.8340531], [2.4687468, 48.8341335], [2.4687937, 48.834205], [2.4688165, 48.8342782], [2.4688187, 48.83442730000002]]}}, {"type": "Feature", "properties": {"highway": "path", "footway": null, "name": null, "surface": null, "lit": null, "length_m": 4.07, "type_element": "Way", "__fid": 124157}, "geometry": {"type": "LineString", "coordinates": [[2.46855, 48.833921], [2.4685389, 48.8339569]]}}, {"type": "Feature", "properties": {"highway": "track", "footway": null, "name": null, "surface": "compacted", "lit": null, "length_m": 33.56, "type_element": "Way", "__fid": 124161}, "geometry": {"type": "LineString", "coordinates": [[2.4688187, 48.83442730000002], [2.4691304, 48.8344692], [2.4692692, 48.834474499999985]]}}]}