{"type": "FeatureCollection", "features": [{"type": "Feature", "properties": {"highway": "path", "footway": null, "name": "Route de la Pyramide", "surface": "asphalt", "lit": null, "length_m": 179.54, "type_element": "Way", "__fid": 123794}, "geometry": {"type": "LineString", "coordinates": [[2.4619078, 48.8195091], [2.4616758, 48.8197886], [2.4615906, 48.81987250000001], [2.4615034, 48.8199413], [2.4612587, 48.8201034], [2.4609952, 48.8202354], [2.4603058, 48.8207104]]}}, {"type": "Feature", "properties": {"highway": "footway", "footway": null, "name": null, "surface": "compacted", "lit": null, "length_m": 70.93, "type_element": "Way", "__fid": 123827}, "geometry": {"type": "LineString", "coordinates": [[2.4614594, 48.821789], [2.4605146, 48.82192220000001]]}}, {"type": "Feature", "properties": {"highway": "footway", "footway": "sidewalk", "name": null, "surface": null, "lit": null, "length_m": 88.69, "type_element": "Way", "__fid": 123834}, "geometry": {"type": "LineString", "coordinates": [[2.4605516, 48.820728400000014], [2.461397, 48.8201587]]}}, {"type": "Feature", "properties": {"highway": "track", "footway": null, "name": "Avenue de l'École de Joinville", "surface": "asphalt", "lit": null, "length_m": 603.7, "type_element": "Way", "__fid": 123835}, "geometry": {"type": "LineString", "coordinates": [[2.4605543, 48.82095789999999], [2.4608927, 48.8211799], [2.4615535, 48.821657], [2.4617048, 48.8218145], [2.4618697, 48.8220593], [2.4619289, 48.8226737], [2.4621807, 48.823693], [2.4623033, 48.8243133], [2.4622732, 48.824528], [2.4622717, 48.8247311], [2.4623457, 48.8250613], [2.4623926, 48.825177], [2.4625789, 48.8258298], [2.4625679, 48.8259859], [2.4625172, 48.8260183]]}}, {"type": "Feature", "properties": {"highway": "footway", "footway": null, "name": null, "surface": null, "lit": null, "length_m": 43.05, "type_element": "Way", "__fid": 123874}, "geometry": {"type": "LineString", "coordinates": [[2.4614065, 48.8227913], [2.4608339, 48.8228747]]}}, {"type": "Feature", "properties": {"highway": "footway", "footway": null, "name": null, "surface": null, "lit": null, "length_m": 42.44, "type_element": "Way", "__fid": 123879}, "geometry": {"type": "LineString", "coordinates": [[2.4615904, 48.823363], [2.4610252, 48.823443]]}}, {"type": "Feature", "properties": {"highway": "path", "footway": null, "name": null, "surface": null, "lit": null, "length_m": 63.43, "type_element": "Way", "__fid": 123880}, "geometry": {"type": "LineString", "coordinates": [[2.4611125, 48.820671800000014], [2.4611293, 48.82055819999999], [2.4611615, 48.8204416], [2.4612205, 48.8203842], [2.461305, 48.820326799999975], [2.4613935, 48.8202526], [2.461397, 48.8201587]]}}, {"type": "Feature", "properties": {"highway": "footway", "footway": null, "name": null, "surface": null, "lit": null, "length_m": 116.51, "type_element": "Way", "__fid": 123881}, "geometry": {"type": "LineString", "coordinates": [[2.462512, 48.8206972], [2.4622468, 48.8206761], [2.4617275, 48.8205045], [2.4616266, 48.8205311], [2.4614175, 48.8204981], [2.4613433, 48.8205161], [2.4611896, 48.8205894], [2.4611125, 48.820671800000014]]}}, {"type": "Feature", "properties": {"highway": "footway", "footway": null, "name": null, "surface": null, "lit": null, "length_m": 80.25, "type_element": "Way", "__fid": 123883}, "geometry": {"type": "LineString", "coordinates": [[2.46114, 48.823784699999976], [2.4616984, 48.8236986], [2.4615904, 48.823363]]}}, {"type": "Feature", "properties": {"highway": "footway", "footway": null, "name": null, "surface": null, "lit": null, "length_m": 51.96, "type_element": "Way", "__fid": 123890}, "geometry": {"type": "LineString", "coordinates": [[2.4614065, 48.8227913], [2.4612594, 48.8223342]]}}, {"type": "Feature", "properties": {"highway": "footway", "footway": "sidewalk", "name": null, "surface": null, "lit": null, "length_m": 83.16, "type_element": "Way", "__fid": 123900}, "geometry": {"type": "LineString", "coordinates": [[2.461397, 48.8201587], [2.4616825, 48.8199648], [2.4618039, 48.8198407], [2.4620412, 48.819550600000014]]}}, {"type": "Feature", "properties": {"highway": "footway", "footway": null, "name": null, "surface": null, "lit": null, "length_m": 64.99, "type_element": "Way", "__fid": 123901}, "geometry": {"type": "LineString", "coordinates": [[2.4615904, 48.823363], [2.4614065, 48.8227913]]}}, {"type": "Feature", "properties": {"highway": "footway", "footway": null, "name": null, "surface": null, "lit": null, "length_m": 30.26, "type_element": "Way", "__fid": 123902}, "geometry": {"type": "LineString", "coordinates": [[2.461809, 48.8227329], [2.4614065, 48.8227913]]}}, {"type": "Feature", "properties": {"highway": "footway", "footway": "crossing", "name": null, "surface": null, "lit": "yes", "length_m": 10.83, "type_element": "Way", "__fid": 123930}, "geometry": {"type": "LineString", "coordinates": [[2.4620412, 48.819550600000014], [2.4619078, 48.8195091]]}}, {"type": "Feature", "properties": {"highway": "path", "footway": null, "name": "Route de la Pyramide", "surface": "asphalt", "lit": null, "length_m": 49.5, "type_element": "Way", "__fid": 123931}, "geometry": {"type": "LineString", "coordinates": [[2.4621961, 48.819108], [2.46218, 48.8191519], [2.4619862, 48.8194177], [2.4619078, 48.8195091]]}}, {"type": "Feature", "properties": {"highway": "footway", "footway": "sidewalk", "name": null, "surface": null, "lit": null, "length_m": 7.37, "type_element": "Way", "__fid": 123937}, "geometry": {"type": "LineString", "coordinates": [[2.4620412, 48.819550600000014], [2.4621043, 48.819499]]}}, {"type": "Feature", "properties": {"highway": "service", "footway": null, "name": null, "surface": null, "lit": null, "length_m": 6.04, "type_element": "Way", "__fid": 123942}, "geometry": {"type": "LineString", "coordinates": [[2.4620686, 48.81943170000001], [2.4621368, 48.819462]]}}, {"type": "Feature", "properties": {"highway": "footway", "footway": null, "name": null, "surface": null, "lit": null, "length_m": 44.58, "type_element": "Way", "__fid": 123943}, "geometry": {"type": "LineString", "coordinates": [[2.4621043, 48.819499], [2.4625736, 48.81968659999998], [2.4626075, 48.8196551]]}}, {"type": "Feature", "properties": {"highway": "footway", "footway": "crossing", "name": null, "surface": null, "lit": null, "length_m": 4.76, "type_element": "Way", "__fid": 123944}, "geometry": {"type": "LineString", "coordinates": [[2.4621043, 48.819499], [2.4621368, 48.819462]]}}, {"type": "Feature", "properties": {"highway": "service", "footway": null, "name": null, "surface": null, "lit": null, "length_m": 40.69, "type_element": "Way", "__fid": 123945}, "geometry": {"type": "LineString", "coordinates": [[2.4621368, 48.819462], [2.4626075, 48.8196551]]}}, {"type": "Feature", "properties": {"highway": "footway", "footway": "crossing", "name": null, "surface": null, "lit": null, "length_m": 6.71, "type_element": "Way", "__fid": 123946}, "geometry": {"type": "LineString", "coordinates": [[2.4621368, 48.819462], [2.4621827, 48.8194098]]}}, {"type": "Feature", "properties": {"highway": "footway", "footway": null, "name": null, "surface": null, "lit": null, "length_m": 47.74, "type_element": "Way", "__fid": 123947}, "geometry": {"type": "LineString", "coordinates": [[2.4626075, 48.8196551], [2.4626472, 48.8196181], [2.4625441, 48.819595], [2.4622139, 48.8194606], [2.4621841, 48.8194252], [2.4621827, 48.8194098]]}}, {"type": "Feature", "properties": {"highway": "footway", "footway": "sidewalk", "name": null, "surface": null, "lit": null, "length_m": 33.6, "type_element": "Way", "__fid": 123948}, "geometry": {"type": "LineString", "coordinates": [[2.4621827, 48.8194098], [2.4621834, 48.81938369999999], [2.4622364, 48.8193074], [2.462377819999762, 48.819139540000144]]}}, {"type": "Feature", "properties": {"highway": "footway", "footway": "crossing", "name": null, "surface": null, "lit": "yes", "length_m": 14.12, "type_element": "Way", "__fid": 123949}, "geometry": {"type": "LineString", "coordinates": [[2.462377819999762, 48.819139540000144], [2.4622055, 48.819083100000014]]}}, {"type": "Feature", "properties": {"highway": "footway", "footway": "sidewalk", "name": null, "surface": null, "lit": null, "length_m": 11.34, "type_element": "Way", "__fid": 123953}, "geometry": {"type": "LineString", "coordinates": [[2.462377819999762, 48.819139540000144], [2.4625085, 48.8191939]]}}, {"type": "Feature", "properties": {"highway": "service", "footway": null, "name": null, "surface": null, "lit": null, "length_m": 16.71, "type_element": "Way", "__fid": 123959}, "geometry": {"type": "LineString", "coordinates": [[2.4625888, 48.8191232], [2.4624943, 48.81907920000001], [2.4624517, 48.8190108]]}}, {"type": "Feature", "properties": {"highway": "footway", "footway": "sidewalk", "name": null, "surface": null, "lit": null, "length_m": 13.05, "type_element": "Way", "__fid": 123963}, "geometry": {"type": "LineString", "coordinates": [[2.4625085, 48.8191939], [2.4626588, 48.8192565]]}}, {"type": "Feature", "properties": {"highway": "footway", "footway": "crossing", "name": null, "surface": null, "lit": null, "length_m": 9.83, "type_element": "Way", "__fid": 123964}, "geometry": {"type": "LineString", "coordinates": [[2.4625085, 48.8191939], [2.4625888, 48.8191232]]}}, {"type": "Feature", "properties": {"highway": "footway", "footway": null, "name": null, "surface": null, "lit": null, "length_m": 420.29, "type_element": "Way", "__fid": 123966}, "geometry": {"type": "LineString", "coordinates": [[2.4646282, 48.8239348], [2.4643834, 48.8238043], [2.4641735, 48.8237582], [2.4639957, 48.8236872], [2.4639607, 48.8235836], [2.4641123, 48.82324769999999], [2.4640977, 48.8230136], [2.4638704, 48.8226298], [2.4633573, 48.8219389], [2.462649, 48.8213555], [2.4625703, 48.8212077], [2.462512, 48.8206972]]}}, {"type": "Feature", "properties": {"highway": "footway", "footway": null, "name": null, "surface": null, "lit": null, "length_m": 54.11, "type_element": "Way", "__fid": 123967}, "geometry": {"type": "LineString", "coordinates": [[2.4632003, 48.8207857], [2.4631336, 48.8207984], [2.463029, 48.8207896], [2.462797, 48.8206942], [2.4626766, 48.8206803], [2.462512, 48.8206972]]}}, {"type": "Feature", "properties": {"highway": "service", "footway": null, "name": null, "surface": null, "lit": null, "length_m": 153.1, "type_element": "Way", "__fid": 123969}, "geometry": {"type": "LineString", "coordinates": [[2.4642837, 48.8199124], [2.464135, 48.8198403], [2.4634076, 48.8195333], [2.463278, 48.8194212], [2.4625888, 48.8191232]]}}, {"type": "Feature", "properties": {"highway": "footway", "footway": "crossing", "name": null, "surface": null, "lit": null, "length_m": 21.07, "type_element": "Way", "__fid": 123970}, "geometry": {"type": "LineString", "coordinates": [[2.4625888, 48.8191232], [2.4627607, 48.8189715]]}}, {"type": "Feature", "properties": {"highway": "service", "footway": null, "name": null, "surface": null, "lit": null, "length_m": 135.21, "type_element": "Way", "__fid": 123973}, "geometry": {"type": "LineString", "coordinates": [[2.4626075, 48.8196551], [2.4626841, 48.8196928], [2.4628519, 48.820236], [2.4630786, 48.8206448], [2.4631484, 48.8207075], [2.4632003, 48.8207857]]}}, {"type": "Feature", "properties": {"highway": "footway", "footway": "sidewalk", "name": null, "surface": null, "lit": null, "length_m": 3.92, "type_element": "Way", "__fid": 123976}, "geometry": {"type": "LineString", "coordinates": [[2.4626588, 48.8192565], [2.462704, 48.8192753]]}}, {"type": "Feature", "properties": {"highway": "footway", "footway": "sidewalk", "name": null, "surface": null, "lit": null, "length_m": 115.29, "type_element": "Way", "__fid": 123977}, "geometry": {"type": "LineString", "coordinates": [[2.4626588, 48.8192565], [2.4625958, 48.8193511], [2.4626011, 48.8193919], [2.462636, 48.8194372], [2.4627014, 48.8194683], [2.4627688, 48.81948], [2.4629046, 48.819465], [2.462982, 48.8194776], [2.4630454, 48.8195038], [2.4630816, 48.8195304], [2.4630995, 48.8195663], [2.4631116, 48.819848], [2.4632345, 48.8199377], [2.4632563, 48.8200095]]}}, {"type": "Feature", "properties": {"highway": "service", "footway": null, "name": null, "surface": null, "lit": null, "length_m": 217.53, "type_element": "Way", "__fid": 124000}, "geometry": {"type": "LineString", "coordinates": [[2.4632003, 48.8207857], [2.4633993, 48.8211652], [2.463522, 48.8213523], [2.4639117, 48.8221618], [2.4639591, 48.8223914], [2.4641034, 48.822643700000015]]}}, {"type": "Feature", "properties": {"highway": "footway", "footway": null, "name": null, "surface": null, "lit": null, "length_m": 12.85, "type_element": "Way", "__fid": 124001}, "geometry": {"type": "LineString", "coordinates": [[2.4633737, 48.8207702], [2.4632003, 48.8207857]]}}]}