{"type": "FeatureCollection", "features": [{"type": "Feature", "properties": {"@id": "node/8345768559", "amenity": "drinking_water", "man_made": "water_tap", "type_element": "Fontaines à boire", "__fid": 746}, "geometry": {"type": "Point", "coordinates": [2.4633946, 48.8420941]}, "id": "node/8345768559"}, {"type": "Feature", "properties": {"highway": "footway", "footway": null, "name": null, "surface": null, "lit": null, "length_m": 256.72, "type_element": "Way", "__fid": 123700}, "geometry": {"type": "LineString", "coordinates": [[2.4626223, 48.8423715], [2.4615632, 48.8422233], [2.4607955, 48.8421999], [2.459652, 48.8421213], [2.4591552, 48.84212969999998]]}}, {"type": "Feature", "properties": {"highway": "footway", "footway": null, "name": null, "surface": null, "lit": null, "length_m": 170.34, "type_element": "Way", "__fid": 123831}, "geometry": {"type": "LineString", "coordinates": [[2.4603177, 48.84244930000002], [2.4605846, 48.842473199999986], [2.4618072, 48.8424057], [2.4621537, 48.8423538], [2.4626223, 48.8423715]]}}, {"type": "Feature", "properties": {"highway": "path", "footway": null, "name": null, "surface": "dirt", "lit": null, "length_m": 176.53, "type_element": "Way", "__fid": 123844}, "geometry": {"type": "LineString", "coordinates": [[2.4626223, 48.8423715], [2.4621163, 48.842536500000016], [2.4616341, 48.8426588], [2.4613306, 48.8427526], [2.4606642, 48.84292], [2.4603994, 48.8429716]]}}, {"type": "Feature", "properties": {"highway": "path", "footway": null, "name": null, "surface": "dirt", "lit": null, "length_m": 91.41, "type_element": "Way", "__fid": 123913}, "geometry": {"type": "LineString", "coordinates": [[2.4613044, 48.8413489], [2.4618491, 48.841627], [2.4621713, 48.841766599999985], [2.4623239, 48.8418182]]}}, {"type": "Feature", "properties": {"highway": "path", "footway": null, "name": null, "surface": "compacted", "lit": null, "length_m": 262.4, "type_element": "Way", "__fid": 123918}, "geometry": {"type": "LineString", "coordinates": [[2.4631493, 48.8421108], [2.4630858, 48.842094500000016], [2.4629921, 48.842054800000014], [2.4627976, 48.8419489], [2.4625629, 48.84178470000001], [2.4623725, 48.8415932], [2.4621086, 48.8412906], [2.4619648, 48.8410213], [2.4616912, 48.84044930000001], [2.4614894, 48.8400874]]}}, {"type": "Feature", "properties": {"highway": "path", "footway": null, "name": "Avenue de Fontenay", "surface": "dirt", "lit": null, "length_m": 135.38, "type_element": "Way", "__fid": 123925}, "geometry": {"type": "LineString", "coordinates": [[2.4623239, 48.8418182], [2.4623108, 48.8417896], [2.4621626, 48.8416431], [2.4619762, 48.8414083], [2.4618085, 48.8411532], [2.4616095, 48.8407037]]}}, {"type": "Feature", "properties": {"highway": "path", "footway": null, "name": null, "surface": "compacted", "lit": null, "length_m": 146.46, "type_element": "Way", "__fid": 123960}, "geometry": {"type": "LineString", "coordinates": [[2.4631493, 48.8421108], [2.4631432, 48.8420774], [2.4628263, 48.8417063], [2.4623999, 48.8411379], [2.4622282, 48.84094549999999]]}}, {"type": "Feature", "properties": {"highway": "path", "footway": null, "name": null, "surface": "dirt", "lit": null, "length_m": 65.11, "type_element": "Way", "__fid": 123968}, "geometry": {"type": "LineString", "coordinates": [[2.4623239, 48.8418182], [2.4625767, 48.8419971], [2.4629532, 48.8422305]]}}, {"type": "Feature", "properties": {"highway": "footway", "footway": null, "name": null, "surface": "dirt", "lit": "no", "length_m": 28.93, "type_element": "Way", "__fid": 123984}, "geometry": {"type": "LineString", "coordinates": [[2.4629827, 48.8422662], [2.4626223, 48.8423715]]}}, {"type": "Feature", "properties": {"highway": "path", "footway": null, "name": null, "surface": "compacted", "lit": null, "length_m": 4.52, "type_element": "Way", "__fid": 123998}, "geometry": {"type": "LineString", "coordinates": [[2.4629532, 48.8422305], [2.4629827, 48.8422662]]}}, {"type": "Feature", "properties": {"highway": "path", "footway": null, "name": null, "surface": "compacted", "lit": null, "length_m": 19.6, "type_element": "Way", "__fid": 123999}, "geometry": {"type": "LineString", "coordinates": [[2.4629532, 48.8422305], [2.4631493, 48.8421108]]}}, {"type": "Feature", "properties": {"highway": "footway", "footway": null, "name": null, "surface": "dirt", "lit": "no", "length_m": 6.69, "type_element": "Way", "__fid": 124002}, "geometry": {"type": "LineString", "coordinates": [[2.4630403, 48.8423128], [2.4629827, 48.8422662]]}}, {"type": "Feature", "properties": {"highway": "path", "footway": null, "name": null, "surface": "compacted", "lit": null, "length_m": 13.62, "type_element": "Way", "__fid": 124006}, "geometry": {"type": "LineString", "coordinates": [[2.4633229, 48.8421074], [2.4632268, 48.8421307], [2.4631493, 48.8421108]]}}, {"type": "Feature", "properties": {"highway": "path", "footway": null, "name": null, "surface": "compacted", "lit": null, "length_m": 5.97, "type_element": "Way", "__fid": 124010}, "geometry": {"type": "LineString", "coordinates": [[2.4633863, 48.842141], [2.4633229, 48.8421074]]}}, {"type": "Feature", "properties": {"highway": "path", "footway": null, "name": null, "surface": "dirt", "lit": null, "length_m": 242.23, "type_element": "Way", "__fid": 124011}, "geometry": {"type": "LineString", "coordinates": [[2.4633229, 48.8421074], [2.4633598, 48.8420893], [2.4638808, 48.8415974], [2.4646738, 48.84052850000001], [2.4648562, 48.8401916]]}}]}